{"type":"Topology","arcs":[[[6868,7612],[14,-80],[49,-139],[54,-224],[12,-108],[10,-63],[68,-191],[60,-112],[88,-95],[51,-9],[106,-74],[61,-67],[91,-72],[134,18],[50,31],[179,-29],[74,20],[109,57],[93,89],[68,66],[16,70],[108,59],[0,58],[85,7],[41,54],[3,55],[90,61],[-13,155]],[[8569,7149],[75,-10],[41,-23],[77,16],[14,-55],[53,-9],[-8,-71],[74,-106],[115,-81],[23,-69],[52,-17],[43,-49],[62,-24],[18,-57],[-28,-55],[70,-31],[32,-39],[70,-18],[52,-69],[-14,-98],[49,-60],[69,-7],[77,-76],[29,-11]],[[9614,6130],[-34,-56],[-9,-96],[-47,-52],[-104,-69],[26,-76],[-66,-74],[-73,-23],[-46,-41],[-166,23],[-32,-51],[-51,3],[-41,-63],[4,-46],[-37,-33],[-6,-53],[74,-96],[50,6],[37,-36],[55,4],[24,-52],[86,-1],[120,-30],[90,-94],[55,-40],[45,-68],[32,-17]],[[9600,4999],[-68,-45],[-30,-118],[5,-82],[-73,-93],[12,-61],[-42,-35],[-10,-94],[-138,-43],[-73,23],[-81,4],[-82,76],[-57,16],[-154,-12],[-58,41],[-33,-110],[64,-61],[0,-53],[-65,-122],[4,-104],[-118,-44]],[[8603,4082],[-87,-3],[-73,-36]],[[8443,4043],[0,48],[-52,33],[-104,110],[-125,175],[-49,44],[-71,29],[-35,-6],[-78,32],[-36,48],[-40,8],[-78,104],[-47,-52],[-79,22],[-97,-20],[-61,13],[-32,41],[-55,-5],[-60,-38],[-92,-4],[-35,-51],[-51,38],[-42,-24],[-54,11],[-138,-27],[-83,57],[-55,83],[-97,72],[-41,69],[-15,65],[-98,-25],[-65,-1],[-145,49],[-174,-50]],[[6159,4891],[-54,22],[-35,-16],[-74,2],[-30,-33],[4,-65],[-63,-48],[-39,32],[-31,110],[69,81],[-14,50],[-87,60],[-102,145],[-34,21]],[[5669,5252],[-8,81]],[[5661,5333],[61,13],[-29,62],[51,-3],[76,27],[42,71],[104,25],[21,95],[47,32],[84,-1],[39,68],[-50,135],[38,75],[-32,67],[36,57],[-22,24],[-8,88],[34,54],[-3,145],[41,41],[-17,84],[44,27],[43,101],[17,160],[-11,76],[-26,43],[18,34],[-33,31],[-18,85],[-74,28],[-3,75],[39,29],[-7,49],[42,23],[-9,44],[30,46],[-28,35],[43,86],[-67,64],[-33,-9],[-81,53],[-1,37],[-37,53],[-56,23],[-25,62],[7,82]],[[5948,7829],[81,10],[55,-18],[103,-60],[52,29],[113,-32],[39,-27],[31,-98],[62,14],[308,-16],[76,-19]],[[4111,5640],[60,-7],[76,-36],[12,-66],[213,-9],[63,-54],[89,42],[22,-23],[-2,-62],[161,-20],[-6,-130],[58,-22]],[[4857,5253],[12,-52],[67,-94],[51,-26],[34,-75],[69,-38],[21,-74],[44,-23],[36,-155]],[[5191,4716],[-32,-31],[-8,-64],[42,-7],[13,-56],[40,-47],[74,-53],[21,60],[91,-8],[30,-85]],[[5462,4425],[12,-74],[28,-54],[39,-11],[-15,-49],[60,-37],[20,-60]],[[5606,4140],[84,-14],[24,-56],[-5,-109],[21,-104],[-17,-106],[26,-51],[57,40],[24,-26],[-72,-32],[41,-84],[44,-57],[68,-29],[39,60],[42,-9],[18,43],[85,-13],[85,8],[35,-51],[73,-35],[9,-47],[48,-27],[-5,-55]],[[6330,3386],[-90,-22],[-40,-26],[-60,-6],[-58,68],[-44,-13],[-41,60],[-50,5],[8,-104],[-29,-32],[-43,76],[-40,20],[-52,-160],[-36,-32],[-95,-42],[-83,14],[-142,-24],[-82,-36],[-21,-40],[18,-66],[-59,-42],[-122,-11],[-2,-51],[-34,-57],[51,-62],[-46,-70],[-42,11],[-50,-35],[-36,25],[-61,-21]],[[4949,2713],[-87,45],[-83,-28],[-97,-55],[-81,37],[-9,40],[-75,53],[-27,-21],[-50,-89],[-46,-4],[-97,23],[-116,-113]],[[4181,2601],[-21,44],[-67,30],[-9,50],[-70,36],[-11,52],[28,32],[-88,92],[1,69],[27,32],[-30,59],[-48,4],[-26,51],[-45,10],[-34,65],[-4,106],[9,94],[65,59],[1,158],[-55,63],[42,54],[-84,59],[64,8],[35,32],[-23,58],[-55,3],[-45,65],[12,57],[-84,13],[-16,39],[-146,53],[-83,-22],[-91,-67],[-9,-48],[-89,15],[-17,-79],[-38,-65],[-76,-12],[-18,-37],[-77,-42],[2,-102],[-32,-50],[-42,-8],[-33,-50],[-6,-52],[-67,-9],[-58,44],[-46,71],[-102,-64],[-26,-38]],[[2596,3533],[-21,15],[12,71],[-61,65],[18,167],[67,-1],[91,66],[69,22],[62,-24],[19,81],[-31,45],[133,37],[30,109],[91,51],[-20,70],[30,100],[110,44],[61,0],[54,40],[84,0],[109,46],[92,13],[-12,81],[105,48],[-14,24],[124,88],[99,31],[64,71],[86,56],[42,69],[-80,16],[-109,6],[-53,24],[-121,-102],[-29,49],[-27,102],[-13,123],[12,68],[68,59],[46,7],[48,95],[74,45],[58,72],[61,36]],[[4024,5618],[29,45],[58,-23]],[[15330,2676],[-25,-13],[-97,12],[-76,-75],[-153,-45],[-42,8],[-63,42],[12,98],[-85,-13],[-124,36],[-116,-55],[14,-87],[-48,-15],[-10,-84],[-116,-40],[-41,77],[-64,-2],[-62,-30],[23,-218],[6,-108],[-26,-95],[8,-125],[30,-77],[48,-38],[111,-155],[27,-71],[72,-136]],[[14533,1467],[-73,-80],[-52,-32],[-64,36],[-45,-15],[-96,37],[-69,98],[-67,-10],[-25,57],[-137,91],[-124,13],[-101,-46],[-109,32],[-64,-39],[-58,-76],[-70,-16],[-105,-66],[-50,99],[-32,7],[-37,-69]],[[13155,1488],[-85,89],[11,115],[22,74],[-27,34],[6,92],[47,31],[-24,34],[57,28],[63,68],[-46,88],[48,-7],[57,27],[68,0],[71,21],[135,22],[35,56],[-2,42],[71,67],[11,32],[-104,46],[-52,49],[-63,16],[-22,38],[-24,103],[-44,34],[-21,-47],[-118,21],[-70,72],[-13,78],[-57,18],[-32,42],[-2,99],[-149,-85]],[[12902,2885],[24,20],[-83,96],[14,52],[-31,64],[121,35],[70,39],[65,-3],[70,90],[85,49],[77,3],[59,20],[-69,76],[80,77],[32,86],[-28,111],[-108,16],[-9,38],[40,30]],[[13311,3784],[4,27],[67,14],[139,101],[98,21],[38,33],[84,4],[14,34]],[[13755,4018],[36,-65],[25,-82],[49,-41],[11,-72],[45,-101],[57,24],[26,-67],[-59,-40],[20,-43],[51,15],[58,-15],[14,-106],[49,26],[21,-34],[-61,-30],[21,-30],[78,31],[6,-43],[72,-71],[7,-26],[88,-25],[78,4],[84,32],[83,105],[26,23],[81,0],[47,-58],[-1,-1],[-4,-2],[4,-33],[11,-15],[0,-2],[-1,-1],[0,-1],[3,-7],[46,-97],[59,-21],[18,-2],[8,5],[31,-33],[76,-47],[9,-67],[71,-18],[20,-62],[28,-16],[56,-35],[17,-99],[69,-50],[42,-49]],[[14338,3399],[-35,-103],[-29,26],[64,77]],[[8443,4043],[-14,-26],[-106,-50],[-42,-6],[-38,-100],[-81,-166],[-76,-39],[-117,-26],[-26,13],[-88,-10],[-70,37],[-68,-44],[-61,-65],[33,-59],[-21,-75],[-37,-10],[-27,-89],[-117,-27],[-197,29],[-76,70],[-50,10],[-20,35],[-3,84],[-59,37],[2,68],[-37,39],[-73,-44],[-31,-58],[-61,-3],[-54,-24],[-42,80],[46,59],[25,74],[-32,86],[-48,73],[-104,84],[-100,15],[-31,58],[-38,24],[-99,13],[-72,102],[-57,4],[-23,76],[-61,12]],[[6192,4304],[-3,42],[-70,27],[15,60],[-5,63],[-68,51],[-15,64],[70,-21],[10,48],[-53,60],[27,40]],[[6100,4738],[45,76],[14,77]],[[5661,5333],[-67,76],[26,38],[-29,40],[14,131],[-108,31],[-18,-32]],[[5479,5617],[-41,-10],[-72,93],[-64,-18],[-25,-68],[-51,10],[-16,38],[-46,0],[-29,86],[-34,25],[-89,-5],[-4,92],[-44,11],[-13,86]],[[4951,5957],[-13,85],[16,59],[-5,64],[-123,-32],[-36,91],[44,11],[10,49],[-122,156],[-29,109],[-60,33],[-6,174],[59,54],[-19,104],[80,14],[65,47],[-17,52],[52,14],[-22,60],[47,78],[-6,39],[-66,-3],[-28,26],[20,94]],[[4792,7335],[24,-26],[78,7],[36,27],[-26,76],[130,65],[77,-18],[62,7],[135,86],[72,-10],[24,42],[102,20],[39,43],[60,127],[12,62],[-25,53],[48,79],[-6,88],[40,42]],[[5674,8105],[144,-121],[63,-11],[45,-55],[-28,-75],[50,-14]],[[4554,9473],[69,-51],[65,-12]],[[4688,9410],[106,-16],[65,20],[57,-13],[85,-44],[92,19],[64,-4],[26,-58]],[[5183,9314],[-48,-37],[-19,-42]],[[5116,9235],[-50,-1],[-20,-73],[6,-79],[34,-66],[-7,-45],[-62,-15],[-65,-51],[-41,-75],[-49,-54],[-52,-29],[-41,-84],[-8,-47],[-75,-16],[-67,19],[-86,-11],[-22,-42],[144,-8],[39,-73],[68,-56],[-18,-68],[-44,-27],[-30,53],[-44,6],[-18,-53],[-47,9],[-1,39],[-124,-37],[-56,-31],[-34,-45]],[[4346,8275],[-37,-15],[-25,-57],[45,-31],[9,-35],[-57,-52],[-103,58],[-79,91],[-73,3],[-65,-82],[-28,-8]],[[3933,8147],[31,332],[14,251],[-8,249],[-32,137],[-68,48],[-49,97]],[[3821,9261],[66,-5],[95,33],[43,-33],[56,6],[60,38],[72,-7],[24,65],[42,55],[127,66],[148,-6]],[[9600,4999],[99,-43],[10,-47],[62,-81],[6,-47],[35,-63],[68,-29],[136,-37],[74,16],[85,-13],[42,-36],[38,-112],[62,-76],[91,-28],[31,-43],[74,-17],[197,9],[50,14],[106,61],[153,-37],[37,67],[1,56],[-28,60],[99,67],[37,97],[84,-1],[-12,71],[27,41]],[[11264,4848],[138,28],[52,36],[73,-10],[65,22],[36,-12],[68,23],[66,2],[5,32],[73,39],[37,-20],[62,53],[42,-26],[34,20],[44,-35],[7,-64],[-23,-67],[29,-65],[1,-80],[39,-24],[-15,-47]],[[12097,4653],[-38,-57],[-20,-80],[52,-53],[82,12],[38,-23],[-46,-50],[-61,-30],[-80,-3],[22,-41],[-41,-30],[-18,-117],[11,-29],[137,-8],[7,-91],[31,-64],[75,-18],[-17,-112],[30,-22],[61,-88],[50,-24],[15,-76]],[[12387,3649],[-43,-101],[-64,-4],[-86,-148],[-50,-65],[-104,26],[-161,-38],[-31,-23],[-131,-32],[-51,-37],[-5,-92],[-54,-33],[-42,-49],[-53,-23],[-60,-92],[-84,-42]],[[11368,2896],[-104,-29],[-74,5],[-61,20],[-98,4],[-62,-12],[-91,18],[-75,-7],[-62,30],[-67,-63],[-140,10],[-14,-29],[-156,-80],[2,-32],[-85,-5],[-26,-25],[-208,-27],[-218,-168],[-39,-39],[-2,-102],[-57,-118],[-78,-67]],[[9653,2180],[-112,39],[-88,-41],[-91,-7],[-80,41],[-77,-93],[-54,-2],[-64,65],[-71,-42],[-37,21],[-85,-1],[-38,-19],[-266,180],[144,602],[16,123]],[[8750,3046],[-73,126],[-28,79],[-46,48],[-18,54],[-80,55],[91,96],[40,207],[-4,116],[-63,33],[35,96],[-40,65],[39,61]],[[13547,4716],[-84,-26],[-92,13],[-261,-41],[-169,17],[-36,56],[-24,-83],[-46,-6]],[[12835,4646],[-35,13],[-61,-42],[-89,91],[-15,54],[29,103],[41,37],[-78,43],[-52,1],[-26,38],[19,46]],[[12568,5030],[30,61],[51,16],[70,76],[6,51],[-60,6],[-47,-79],[-105,-1],[-63,-29],[-8,65],[101,83],[136,-3],[74,-38],[44,30],[60,132],[11,100],[-15,236],[-22,64],[-56,35],[-10,273],[18,63],[79,62],[61,119],[14,116]],[[12937,6468],[32,3],[63,63],[-5,73],[-35,121],[24,128],[24,72],[49,29],[64,11]],[[13153,6968],[40,-404],[15,-34],[28,-333],[16,-74],[24,-189],[33,-143],[15,-129],[35,-206],[96,-482],[69,-177],[29,-34],[-6,-47]],[[11897,11913],[29,-94],[-39,-85],[-73,-107],[69,-24],[-94,-58],[-45,-66],[-23,-74],[20,-31],[56,-7],[91,19],[64,-93],[10,-100],[-25,-24],[-32,-82],[31,-155],[-31,-88],[-9,-98],[74,-45],[94,-15],[143,67],[62,-27],[86,4],[30,17],[61,-63],[41,43],[98,-32],[-12,-51],[58,-138],[59,-114],[-24,-20],[-12,-81],[20,-57],[-60,-96],[1,-91],[-94,-152],[-7,-53],[28,-28],[11,-59]],[[12553,9755],[-107,-25],[-214,54],[-80,-64]],[[12152,9720],[24,79],[-45,173],[-122,321],[-103,192],[-118,180],[-124,145],[-182,174],[-89,52],[-59,-6],[-85,33],[-95,-15],[-38,-92],[-96,-143],[-28,-22],[-23,-68],[-45,-32],[11,-41],[86,12],[17,39],[78,66],[-4,-65],[-95,-112],[-66,-39],[-106,-109],[-92,-69],[-102,1],[-65,-29],[-68,-55],[-49,-18],[-70,-52],[-77,-85],[-43,-74],[-83,-2],[-56,22],[-62,-4],[-169,111],[-47,20],[-109,-25],[-123,40],[-117,-50],[-43,-33],[-66,-90],[-94,-89],[-65,20],[-68,-25],[-57,23],[-94,-5],[-54,-36],[-19,-37],[-120,-48],[-109,36],[-95,-25],[-55,-33],[-94,-29],[-23,-38],[-113,-54],[-63,-46],[-31,-69],[-88,-115],[-51,22],[-59,-9],[-40,38],[-93,-14],[-84,99],[-33,-1],[-46,75],[35,112],[4,65],[-15,197],[-24,120],[40,63],[86,65],[-5,27]],[[7877,10339],[88,36],[34,35],[1,62],[48,0],[104,83],[66,20],[41,70],[7,84],[-66,90],[84,132],[51,24],[131,-53],[47,-47],[95,-13],[-30,71],[-57,39],[-29,121],[17,49],[-148,119],[2,39],[48,46],[45,1],[32,80],[84,7],[16,65],[65,-4],[12,45],[50,80],[-16,25],[86,126],[4,35],[50,25],[104,117],[103,11],[34,40],[-59,53],[29,63],[83,12],[40,82],[34,36],[-38,76],[72,77],[27,139]],[[9268,12537],[37,15],[4,46],[99,-31],[77,79],[17,38]],[[9502,12684],[68,40],[95,-21],[74,30],[66,-52],[40,-117],[42,-22],[132,-8],[27,44],[69,14],[100,81],[5,48],[-30,65],[29,15],[79,-24],[25,29],[75,0],[95,46],[188,1],[92,45]],[[10773,12898],[101,-142],[78,-82],[40,2],[45,-39],[41,-82],[75,-77],[41,-12],[103,-109],[26,-60],[116,-118],[145,-108],[156,-78],[10,-14],[147,-66]],[[4024,5618],[-161,134],[-110,11],[-53,19],[-63,133],[-95,90],[16,38],[-42,25],[-175,2]],[[3341,6070],[68,108],[96,196],[135,357],[63,216],[86,339],[55,268],[40,231],[49,362]],[[4346,8275],[51,-16],[77,-91],[9,-68],[64,-79],[17,-73],[-15,-48],[-90,-129],[-30,-67],[-9,-62],[37,-32],[3,-69],[47,-33],[74,36],[49,-5],[48,-46],[49,-8],[51,-80],[14,-70]],[[4951,5957],[-17,-17],[-99,-5],[-80,-115],[48,-46],[9,-65],[-61,-33],[-59,102],[-113,61],[-61,72],[-24,-17],[-54,65],[-60,-45],[36,-87],[-40,-61],[-81,-20],[-65,-45],[-95,-33],[-24,-28]],[[8750,3046],[-238,-52],[-62,22],[-73,-34],[-87,-85],[-55,-6],[-46,-72],[-35,-14],[8,-89],[-25,-91],[-8,-125],[-37,-96],[-84,8],[-22,53],[-36,29],[-124,-63],[-26,28],[-57,-28],[-50,-59],[-36,-67],[-98,-12],[-62,18],[3,-54],[-24,-42],[36,-27],[-19,-126],[-91,8],[-47,47],[-12,68],[-116,-5],[-29,24],[-101,-25],[-2,-90],[-74,-30],[-24,-27],[-80,-14],[-19,-49],[-91,-34],[-73,-5],[-36,21],[-73,-13],[33,58],[-29,86],[-80,71],[-100,-9],[-52,24],[-20,41],[-78,54],[-41,11]],[[6258,2274],[81,68],[18,106],[-33,173],[10,64],[-130,100],[47,26],[48,65],[43,-9],[56,-43],[10,-96],[59,10],[28,111],[33,69],[79,-38],[47,7],[108,-12],[152,91],[110,88],[-21,63],[7,39],[-120,101],[-128,12],[-73,56],[-59,-20],[-48,57],[-102,-53],[-114,37],[-36,40]],[[5606,4140],[39,90],[155,63],[66,-55],[111,-12],[79,23],[38,46],[98,9]],[[8569,7149],[53,-1],[41,119],[-41,53],[32,54],[-22,66],[8,101],[-47,60],[-42,-35],[-149,87],[64,23],[103,15],[42,39],[-37,27],[4,97],[80,60],[30,42],[-27,25],[55,89],[40,125],[-5,39],[82,28],[116,-30],[103,-105],[22,-37],[50,-15],[88,2],[46,22],[82,-29],[13,-69],[94,-128],[81,-55],[50,-50],[48,-21],[2,-64],[-34,-57],[13,-59],[-63,-37],[-15,-47],[67,-30],[109,14],[54,26],[79,-51],[119,-24],[23,-54],[97,-74],[75,-28],[98,23],[82,-39],[53,-101],[72,-75],[45,-106]],[[10502,6964],[-63,-3],[-255,-92],[-29,-30],[-18,-97],[40,-135],[-58,-54],[-1,-67]],[[10118,6486],[-145,-37],[-38,4],[18,-117],[-29,-64],[-86,-33]],[[9838,6239],[-91,-17],[-70,-44],[-16,-39],[-47,-9]],[[4688,9410],[27,54],[56,20],[26,34],[77,0],[58,56],[-14,55],[71,100],[-30,186],[93,135],[-4,66]],[[5048,10116],[90,-10],[24,-51],[51,-11],[122,15],[75,30],[143,100],[102,100],[10,76],[54,89],[65,4],[35,-38],[96,101],[45,-34],[60,2],[146,-22],[76,-53],[53,-10]],[[6295,10404],[-2,-90],[49,-86],[33,-87],[-41,-18],[-7,-78],[-53,15],[-82,-82],[-28,-61],[14,-48],[-11,-89],[13,-42],[-62,-12],[-37,-128],[-33,-11],[5,-55],[-84,-111],[-47,-34],[30,-76],[-86,-76],[-64,-8],[-38,48],[-58,8],[-106,-41],[-131,-17],[-55,52],[-60,12],[-41,-35],[-57,14],[-73,46]],[[5674,8105],[-10,44],[13,75],[-51,21],[-3,58],[27,85]],[[5650,8388],[118,13],[111,-20],[30,42],[183,49],[63,-28],[71,23],[76,4],[30,22],[53,-20],[62,5],[52,53],[26,-25],[61,26],[55,-55],[106,-22]],[[6747,8455],[45,-308],[32,-133],[27,-318],[17,-84]],[[6295,10404],[72,-15],[36,-28],[51,-101],[45,-58],[124,-56],[82,-131],[17,-69],[-46,-203],[9,-51],[-48,-154],[3,-87],[-18,-84],[8,-59],[-12,-102],[21,-140],[4,-99],[24,-59],[12,-113],[58,-136],[-3,-81],[13,-123]],[[5650,8388],[3,63],[-42,10],[3,76],[-35,2],[-77,61],[-63,103],[29,93],[-20,68],[-48,26],[-39,59],[-75,41],[-26,31],[-93,45],[-39,92],[-25,27],[13,50]],[[4554,9473],[-47,82],[-63,48],[-50,61],[-20,49],[-61,29],[42,97],[22,117],[-18,66],[25,141],[35,29],[-36,73],[10,74],[-91,101],[12,105],[-11,53],[-67,65],[11,27],[-55,53],[-59,1]],[[4133,10744],[-24,61],[8,46],[41,38],[35,-45],[26,-35],[63,-21],[19,-33],[114,-27],[75,-69],[111,-66],[33,-54],[14,-66],[38,-42],[57,-25],[113,-93],[52,-122],[140,-75]],[[2596,3533],[4,-70],[-30,-64],[-120,0],[-73,-47],[-22,-107],[-3,-77],[15,-32],[-63,-54],[-82,-16],[11,-87],[41,-23],[70,-166],[84,-103],[51,-16],[30,-124],[-26,-111],[13,-100],[-37,-41]],[[2459,2295],[-90,15],[-30,-17],[-106,-16],[-114,-6],[-22,51],[-50,34],[-16,54],[18,39],[-50,62],[-130,83],[-37,-23],[-50,44]],[[1782,2615],[25,70],[45,67],[-29,107],[19,53],[76,90],[23,102],[-6,66],[45,56],[29,85],[-23,53],[87,103],[14,82],[-46,127],[25,57],[-12,155],[16,32],[-19,107],[-41,48],[24,52],[-12,83],[11,59],[-32,27],[19,59],[57,31],[-14,95],[34,129],[11,82],[27,6],[71,70],[73,46],[3,69],[25,79],[63,90],[111,39],[5,61],[83,92],[54,77],[-11,63],[-47,41],[-9,43],[19,56],[-92,17],[-48,24]],[[2435,5565],[92,79],[24,6],[93,98],[121,55],[75,82],[102,29],[36,-46],[53,-21],[118,26],[101,81],[34,58],[57,58]],[[1782,2615],[-78,-17],[-102,-68],[-77,1],[-61,-32],[-55,-48],[-40,-69],[44,-72],[-32,-106],[-89,-36],[-42,14],[-46,58],[-63,-4],[-73,-48],[-100,-13],[-81,38],[-37,47],[-77,-40],[-125,-29],[33,73],[-10,113],[27,32],[-1,91],[26,68],[17,208],[-6,39],[31,59],[-11,163],[-13,23],[4,130],[-22,144],[-41,154],[-20,32],[-67,35],[29,65],[-54,119],[-75,94],[-96,6],[-69,-41],[-129,20],[-65,-28],[-69,29],[-56,110],[17,32],[-28,98],[20,17],[-19,72],[70,39],[140,99],[57,54],[84,115],[24,11],[60,-44],[95,22],[59,87],[57,19],[25,142],[101,23],[132,171],[26,97],[-12,29],[97,40],[73,137],[-10,29],[66,143],[55,76],[1,55],[54,-4],[121,61],[40,-3],[71,107],[45,36],[95,23],[22,33],[107,-25],[93,-76],[111,-34],[12,-43],[46,-53],[136,-55],[95,8],[125,56],[61,42]],[[4181,2601],[-38,-61],[3,-99],[-39,-115],[-34,-18],[-122,-8],[-98,-22],[-17,56],[-49,10],[-26,35],[-92,-14],[-76,12],[-107,-55],[-132,12],[-77,-48],[-192,-64],[-73,50],[-13,26],[-113,-40],[-81,52],[-61,16],[-154,-19],[-95,-45],[-36,33]],[[6100,4738],[-33,19],[-82,-119],[-70,-6],[-18,-34],[-147,1],[-70,23],[5,-46],[-27,-66],[-90,-80],[-62,-19],[-44,14]],[[5191,4716],[58,-45],[60,51],[-18,95],[20,30],[51,0],[63,26],[-11,107],[14,38],[113,56],[122,-109],[59,36],[8,42],[-26,96],[-35,70],[0,43]],[[6258,2274],[-9,-62],[-112,-13],[-13,-29],[-142,-5],[-38,-59],[53,-91],[57,-50],[9,-82],[-68,-16],[-101,71],[-56,-13],[-42,72],[-32,18],[-72,-11],[5,91],[47,13],[8,68],[-25,48],[-78,-6],[-89,-23],[-50,30],[-39,52],[-111,46],[-7,56],[-57,71],[-101,10],[-56,26],[-134,-61],[-54,48],[-4,107],[-31,23],[4,52],[29,58]],[[4857,5253],[63,19],[30,58],[81,-13],[23,22],[89,8],[59,-36],[14,42],[-8,76],[40,57],[4,81],[140,-34],[86,-50],[20,47],[-19,87]],[[3821,9261],[-81,84],[-37,4],[-32,45],[-70,19],[-111,-7],[-90,6],[-58,27],[3,76],[30,70],[27,30],[65,-53],[71,19],[40,19],[44,-29],[53,0],[59,-55],[65,2],[79,70],[-3,80],[48,-8],[33,30],[55,127],[7,81],[42,127],[-11,41],[26,40],[1,56],[-35,42],[-2,48],[28,33],[-21,107],[-27,41],[27,176],[69,31],[18,104]],[[10502,6964],[60,-63],[105,-81],[112,-14],[80,23],[55,-7],[49,34],[95,35],[104,93],[136,156],[109,154],[114,201],[73,151],[83,206]],[[11677,7852],[162,6],[133,-28]],[[11972,7830],[25,-28],[-101,-67],[-12,-79],[-106,-126],[16,-19],[-18,-74]],[[11776,7437],[16,-70],[-30,-72],[-33,-34],[-21,-67],[3,-55],[-64,-69],[-121,-103],[-69,-176],[-33,14],[-42,-33],[-110,-39],[-181,-151],[-52,-26],[-74,35],[-49,-15],[26,-101],[-13,-45],[-58,30],[5,31],[-107,-2],[-270,-102],[-60,-6],[-149,52],[-107,-15],[-31,7],[-34,61]],[[9838,6239],[81,-147],[95,-15],[27,-20],[89,48],[37,-42],[71,-11],[17,22],[67,-6],[59,24],[80,4],[77,-24],[98,51],[167,-35],[139,19],[106,-75],[120,-26],[8,-78],[54,-16],[97,8],[64,-28],[12,-51],[-31,-106],[57,-37],[145,-15],[84,-69],[90,16],[-22,32],[37,63],[62,22],[-14,53],[99,15],[62,-33],[-14,-187],[153,-14],[-6,-39],[-109,9],[-54,32],[-49,-32],[22,-51],[-40,-86],[-48,-59],[-76,-23],[-48,-36],[-82,-4],[-80,-77],[-76,-41],[-92,-34],[-55,-46],[8,-33],[-64,-59],[29,-87],[-27,-67]],[[12097,4653],[73,72],[78,51],[23,50],[90,18],[60,60],[68,21],[20,89],[59,16]],[[12835,4646],[30,-60],[9,-110],[23,-52],[-75,-43],[-74,-136],[-9,-80],[18,-47],[-25,-22],[29,-102],[50,12],[68,-15],[-5,48],[39,14],[11,-59],[-27,-15],[-73,-108],[99,-2],[122,-38]],[[13045,3831],[2,-61],[-35,-79],[-58,-51],[-38,-11],[-56,125],[-54,80],[-56,-48],[-47,8],[-58,-32],[28,-114],[-124,-55],[-162,56]],[[12553,9755],[21,-64],[17,-129],[28,-27],[28,-99],[-49,-11],[-26,-59],[27,-46],[57,-38],[108,-23]],[[12764,9259],[38,-48],[-11,-83],[-41,-10],[-22,-103],[21,-84],[-60,-32],[46,-72],[-9,-55],[-44,-27],[-79,19],[-25,-51],[-14,-96],[-55,-31],[28,-139],[-55,-39],[-21,-42],[-93,-47],[-31,-119],[-82,-12],[-39,-94],[-91,-4],[-26,-63],[-56,-66],[9,-83],[-80,-48]],[[11677,7852],[69,209],[44,175],[28,142],[30,206],[16,208],[-6,225],[45,63],[-7,160],[17,58],[51,56],[4,53],[45,58],[28,-3],[76,92],[38,133],[-3,33]],[[11776,7437],[148,-80],[96,23],[7,-63],[-43,-78],[-5,-44],[39,-91],[17,-86],[57,-67],[-24,-157],[15,-64],[-1,-91],[14,-97],[103,-62],[127,-39],[98,-47],[64,165],[76,30],[20,-35],[96,-44],[112,1],[74,18],[51,-19],[20,-42]],[[12764,9259],[57,26],[63,-10],[59,42],[78,133],[70,50],[54,0],[33,29]],[[13178,9529],[4,-63],[-22,-124],[9,-141],[31,-5],[-14,-97],[-34,-104],[-11,-80],[-41,-428],[-16,-239],[2,-328],[20,-86],[-13,-183],[24,-132],[-44,-44],[29,-115],[50,-18],[-14,-126],[15,-248]],[[13311,3784],[-42,39],[-87,-3],[-56,30],[-81,-19]],[[13547,4716],[5,-41],[73,-289],[57,-162],[68,-162],[5,-44]],[[9268,12537],[-103,66],[-48,-39],[-36,20],[-16,67],[-74,15],[-54,70],[-24,94],[-22,28],[14,57],[-86,118],[-51,-5]],[[8768,13028],[66,31],[74,57],[54,158],[36,29],[-15,49],[21,45],[-30,107],[-63,105],[80,63],[-1,79],[24,77],[53,0],[62,-108],[111,-59]],[[9240,13661],[-27,-79],[116,-153],[85,-54],[15,-67],[-33,-12],[-25,-62],[48,-79],[25,-80],[-28,-62],[8,-49],[-28,-52],[11,-47],[-49,-38],[10,-37],[91,-101],[43,-5]],[[11897,11913],[146,-53],[95,-25],[191,-34],[118,9],[101,32],[102,20],[199,79],[167,85],[107,46],[126,80],[96,103],[66,44],[22,37],[75,53],[40,64],[151,125],[42,65],[21,-78],[40,-47],[-60,-32],[-12,-46],[28,-88],[-70,-20],[-17,-73],[64,-52],[-13,-106],[-78,-62],[-46,-110],[-20,-56],[-73,-276],[-97,-404],[-65,-221],[-20,-104],[-39,-113],[-28,-120],[-12,-165],[-56,-242],[-17,-46],[-35,-173],[-21,-256],[28,-214],[35,-10]],[[9240,13661],[76,-61],[57,-11],[41,-65],[54,-29],[8,-49],[35,-27],[30,-60],[75,-50],[114,-44],[74,-56],[67,0],[154,-26],[256,1],[73,-9],[30,-36],[203,-114],[160,-51],[-9,-35],[35,-41]],[[7877,10339],[11,10],[-3,52],[49,146],[-2,98],[-25,30],[-16,115],[47,31],[3,54],[49,104],[-17,30],[54,46],[19,80],[7,155],[64,133],[-64,69],[72,66],[-10,60],[47,15],[42,42],[34,81],[65,336],[-7,85],[55,197],[45,78],[-31,29],[118,65],[35,88],[101,43],[16,21],[-4,103],[41,47],[68,25],[-12,34],[64,110],[-24,11]],[[11592,2044],[116,-148],[100,12],[101,29],[92,-28],[47,8],[49,-91],[75,5],[70,33],[97,-100],[36,-17],[73,19],[33,-51],[-11,-54],[32,-49]],[[12502,1612],[-57,-60],[-99,-11],[-60,-83],[4,-64],[-30,-26],[-118,-47],[-66,46],[-43,4],[-20,-79],[-101,-9],[-27,-37],[-62,-36],[-53,-62],[-47,-1],[-66,-104],[0,-28],[-81,-14],[-99,-65],[-104,-1],[-117,22],[-29,-32],[-80,-20]],[[11147,905],[-3,54],[36,53],[81,45],[-23,50],[24,45],[84,47],[-46,134],[54,60],[-37,44],[-124,49],[9,63],[-98,6],[-97,-25],[-34,43],[-183,31],[-64,48],[-77,5],[-80,-34],[-64,-5],[-34,25],[-105,-4],[-68,16],[-67,-9],[-84,54],[-7,39],[-69,23],[-36,-20],[-70,1],[-83,-19],[-22,38],[-57,1],[-46,96],[-86,-13]],[[9671,1846],[-13,85],[-38,25],[10,67]],[[9630,2023],[10,-38],[61,-62],[45,45],[89,33],[76,-36],[71,19],[86,-23],[41,-47],[66,14],[35,47],[96,14],[107,33],[93,5],[77,-69],[68,14],[97,77],[71,23],[91,-20],[101,56],[100,15],[156,-17],[24,-42],[116,14],[185,-34]],[[12902,2885],[-70,-36],[-107,-74],[-108,-43],[-39,-33],[-52,-10],[41,-93],[-47,11],[-68,-78],[-73,-23],[-67,-113],[-79,-46],[69,-86],[19,-56],[-22,-38],[-84,9],[-13,31],[-82,65],[-72,-82],[-31,10],[-75,-19],[-81,-71],[-71,-13]],[[11790,2097],[-68,50],[-34,68],[64,38],[75,103],[-44,6],[-19,98],[-79,57],[-48,9],[-171,-51],[-17,155],[-39,66],[-49,16],[-2,49],[-73,62],[69,45],[13,28]],[[11147,905],[-43,-35],[-77,-18],[-59,9],[-34,-61],[-124,-49],[-38,-38],[-103,-61],[-32,-3],[88,-200],[-52,-55],[-82,-9],[-37,-28],[-118,5],[-62,-40],[-79,-110],[-115,-12],[-170,-110],[-7,-51],[-31,-15],[-140,-24],[-37,28],[-45,-15],[-44,37],[-97,-32],[-35,64],[-56,26],[-35,119],[-53,19],[-36,64],[-80,108],[13,67],[48,71],[13,88],[28,24],[-45,56],[-67,8],[-5,84],[20,30],[61,20],[36,57],[-3,89],[14,69],[32,16],[0,52],[51,97],[-48,96],[21,37],[73,-64],[63,-8],[102,93],[18,31],[-35,126],[33,29],[-12,71],[-27,13],[-52,107],[25,69]],[[13155,1488],[-34,-16],[5,-64],[-65,-82],[-3,-28],[-75,6],[-28,-49],[-162,-76],[-22,80],[-88,39],[-36,32],[28,98],[-8,55],[-50,15],[-53,53],[1,32],[-63,29]],[[11592,2044],[165,35],[33,18]],[[15330,2676],[23,-47],[105,-49],[40,-71],[142,-88],[-56,-18],[-53,-118],[-76,-37],[-9,-26],[-66,-37],[-45,7],[-66,-56],[-69,-28],[-103,6],[-58,-56],[-150,-34],[-86,-115],[-33,-28],[-1,-67],[30,-26],[-16,-46],[34,-46],[-46,-71],[-74,-44],[-7,-39],[-69,-45],[-68,-4],[-20,-26]],[[9630,2023],[-24,59],[50,42],[-3,56]]],"transform":{"scale":[0.00011648401534526849,0.00009596687879664453],"translate":[139.86078,40.21792]},"objects":{"japan":{"type":"GeometryCollection","geometries":[{"arcs":[[0,1,2,3,4,5,6,7,8,9]],"type":"Polygon","properties":{"pref":"青森県","city":"青森市","code5":"02201","code6":"022012"}},{"arcs":[[10,11,12,13,14,15,16,17,18,19]],"type":"Polygon","properties":{"pref":"青森県","city":"弘前市","code5":"02202","code6":"022021"}},{"arcs":[[[20,21,22,23,24,25]],[[26]]],"type":"MultiPolygon","properties":{"pref":"青森県","city":"八戸市","code5":"02203","code6":"022039"}},{"arcs":[[-6,27,28,29]],"type":"Polygon","properties":{"pref":"青森県","city":"黒石市","code5":"02204","code6":"022047"}},{"arcs":[[[-9,30,31,32,33,34]],[[35,36,37,38,39,40,41]]],"type":"MultiPolygon","properties":{"pref":"青森県","city":"五所川原市","code5":"02205","code6":"022055"}},{"arcs":[[-4,42,43,44,45,46,47,48]],"type":"Polygon","properties":{"pref":"青森県","city":"十和田市","code5":"02206","code6":"022063"}},{"arcs":[[49,50,51,52,53]],"type":"Polygon","properties":{"pref":"青森県","city":"三沢市","code5":"02207","code6":"022071"}},{"arcs":[[54,55,56,57,58,59,60]],"type":"Polygon","properties":{"pref":"青森県","city":"むつ市","code5":"02208","code6":"022080"}},{"arcs":[[-20,61,62,-40,63,-33,64]],"type":"Polygon","properties":{"pref":"青森県","city":"つがる市","code5":"02209","code6":"022098"}},{"arcs":[[-5,-49,65,66,-15,67,-28]],"type":"Polygon","properties":{"pref":"青森県","city":"平川市","code5":"02210","code6":"022101"}},{"arcs":[[-2,68,69,70,71]],"type":"Polygon","properties":{"pref":"青森県","county":"東津軽郡","city":"平内町","code5":"02301","code6":"023019"}},{"arcs":[[-37,72,73,74]],"type":"Polygon","properties":{"pref":"青森県","county":"東津軽郡","city":"今別町","code5":"02303","code6":"023035"}},{"arcs":[[-10,-35,75,76,77]],"type":"Polygon","properties":{"pref":"青森県","county":"東津軽郡","city":"蓬田村","code5":"02304","code6":"023043"}},{"arcs":[[[-38,-75,78,-77,79]],[[-36,80,81,-73]]],"type":"MultiPolygon","properties":{"pref":"青森県","county":"東津軽郡","city":"外ヶ浜町","code5":"02307","code6":"023078"}},{"arcs":[[-19,82,83,84,85,-62]],"type":"Polygon","properties":{"pref":"青森県","county":"西津軽郡","city":"鰺ヶ沢町","code5":"02321","code6":"023213"}},{"arcs":[[-85,86]],"type":"Polygon","properties":{"pref":"青森県","county":"西津軽郡","city":"深浦町","code5":"02323","code6":"023230"}},{"arcs":[[-18,87,-83]],"type":"Polygon","properties":{"pref":"青森県","county":"中津軽郡","city":"西目屋村","code5":"02343","code6":"023434"}},{"arcs":[[-7,-30,88,-13,89]],"type":"Polygon","properties":{"pref":"青森県","county":"南津軽郡","city":"藤崎町","code5":"02361","code6":"023612"}},{"arcs":[[-16,-67,90]],"type":"Polygon","properties":{"pref":"青森県","county":"南津軽郡","city":"大鰐町","code5":"02362","code6":"023621"}},{"arcs":[[-14,-89,-29,-68]],"type":"Polygon","properties":{"pref":"青森県","county":"南津軽郡","city":"田舎館村","code5":"02367","code6":"023671"}},{"arcs":[[-8,-90,-12,91,-31]],"type":"Polygon","properties":{"pref":"青森県","county":"北津軽郡","city":"板柳町","code5":"02381","code6":"023817"}},{"arcs":[[-11,-65,-32,-92]],"type":"Polygon","properties":{"pref":"青森県","county":"北津軽郡","city":"鶴田町","code5":"02384","code6":"023841"}},{"arcs":[[[-34,-64,-39,-80,-76]],[[-42,92,-81]]],"type":"MultiPolygon","properties":{"pref":"青森県","county":"北津軽郡","city":"中泊町","code5":"02387","code6":"023876"}},{"arcs":[[-70,93,94,95,96]],"type":"Polygon","properties":{"pref":"青森県","county":"上北郡","city":"野辺地町","code5":"02401","code6":"024015"}},{"arcs":[[-3,-72,97,-43]],"type":"Polygon","properties":{"pref":"青森県","county":"上北郡","city":"七戸町","code5":"02402","code6":"024023"}},{"arcs":[[-45,98,-51,99,100]],"type":"Polygon","properties":{"pref":"青森県","county":"上北郡","city":"六戸町","code5":"02405","code6":"024058"}},{"arcs":[[-56,101,102,-95,103]],"type":"Polygon","properties":{"pref":"青森県","county":"上北郡","city":"横浜町","code5":"02406","code6":"024066"}},{"arcs":[[-44,-98,-71,-97,104,-52,-99]],"type":"Polygon","properties":{"pref":"青森県","county":"上北郡","city":"東北町","code5":"02408","code6":"024082"}},{"arcs":[[-53,-105,-96,-103,105,106]],"type":"Polygon","properties":{"pref":"青森県","county":"上北郡","city":"六ヶ所村","code5":"02411","code6":"024112"}},{"arcs":[[-25,107,-100,-50,108]],"type":"Polygon","properties":{"pref":"青森県","county":"上北郡","city":"おいらせ町","code5":"02412","code6":"024121"}},{"arcs":[[-59,109,110,111]],"type":"Polygon","properties":{"pref":"青森県","county":"下北郡","city":"大間町","code5":"02423","code6":"024236"}},{"arcs":[[-55,112,-106,-102]],"type":"Polygon","properties":{"pref":"青森県","county":"下北郡","city":"東通村","code5":"02424","code6":"024244"}},{"arcs":[[-60,-112,113]],"type":"Polygon","properties":{"pref":"青森県","county":"下北郡","city":"風間浦村","code5":"02425","code6":"024252"}},{"arcs":[[-58,114,-110]],"type":"Polygon","properties":{"pref":"青森県","county":"下北郡","city":"佐井村","code5":"02426","code6":"024261"}},{"arcs":[[115,116,117,118,119]],"type":"Polygon","properties":{"pref":"青森県","county":"三戸郡","city":"三戸町","code5":"02441","code6":"024414"}},{"arcs":[[-24,120,121,-46,-101,-108]],"type":"Polygon","properties":{"pref":"青森県","county":"三戸郡","city":"五戸町","code5":"02442","code6":"024422"}},{"arcs":[[-118,122]],"type":"Polygon","properties":{"pref":"青森県","county":"三戸郡","city":"田子町","code5":"02443","code6":"024431"}},{"arcs":[[-23,123,-116,124,-121]],"type":"Polygon","properties":{"pref":"青森県","county":"三戸郡","city":"南部町","code5":"02445","code6":"024457"}},{"arcs":[[-21,125]],"type":"Polygon","properties":{"pref":"青森県","county":"三戸郡","city":"階上町","code5":"02446","code6":"024465"}},{"arcs":[[-47,-122,-125,-120,126]],"type":"Polygon","properties":{"pref":"青森県","county":"三戸郡","city":"新郷村","code5":"02450","code6":"024503"}}]}}}