{"type":"Topology","arcs":[[[4076,7203],[43,16],[86,-23],[58,-39],[49,6],[26,48]],[[4338,7211],[76,-31],[39,8],[3,-96],[-15,-53],[41,-59],[26,-68],[19,-105],[37,-41],[-57,-24],[-95,-7],[17,-43],[-12,-44],[-50,-20],[-25,-89],[-34,-8],[-21,-69],[-78,13],[-72,-14],[-36,-32],[-88,-22],[-61,23],[-69,-79],[19,-69],[-32,-46],[25,-61],[-17,-78],[65,-40],[-1,-60]],[[3942,5997],[-57,-44],[-70,-82],[-100,-24],[-68,-55],[-34,-73],[-47,-36],[34,-77],[73,-53],[190,-76],[66,-46],[54,-73],[79,-51],[21,-84],[-82,-39]],[[4001,5184],[-32,56],[-54,28],[-108,-20],[-61,13],[-49,-14],[-49,-39],[-82,-5],[-95,53],[-71,-18]],[[3400,5238],[22,47],[-21,42],[-37,16],[-48,102],[-57,-7],[9,-76],[-52,-65],[-96,62],[-62,74],[-78,21],[-112,-32],[-34,-25]],[[2834,5397],[-24,79],[-61,65],[-20,75],[-134,15],[-27,44],[-53,16],[-19,45],[-46,-7],[-81,-55],[-37,-43],[-122,16],[-71,-6],[-50,41]],[[2089,5682],[-42,28],[16,48],[-49,14],[-48,-34],[-66,-14],[-27,18],[-26,67],[-68,27],[49,30],[39,80],[6,55],[85,60]],[[1958,6061],[95,-75],[160,87],[11,115],[45,20],[50,-11],[5,50],[33,29],[26,62],[93,143],[94,24],[20,-36],[69,8],[23,78],[-40,151],[-33,53],[2,68],[-64,11],[-45,38],[-34,81],[-82,-1],[-11,113],[-57,120]],[[2318,7189],[49,-1],[42,27],[92,-6],[79,96],[107,68],[-53,61],[-16,57]],[[2618,7491],[46,21],[124,-29],[15,-53],[40,-60],[137,-9],[44,-32],[65,15],[28,-14],[56,19],[39,-14],[-4,-42],[36,-17],[13,-161],[91,-55],[-43,-39],[6,-74],[80,32],[31,-59],[81,-12],[56,89],[118,-6],[20,27],[52,-2],[90,-31],[76,15],[48,26],[78,-22],[27,41],[-9,45],[17,113]],[[3942,5997],[67,-44],[26,-51],[170,29],[50,-3],[7,36],[92,105],[50,23],[161,-24],[117,7],[70,88],[30,6],[62,-57],[108,-6],[33,74],[-6,56],[90,56],[16,108],[153,1],[72,-31],[62,-52],[85,64],[47,6],[72,-50],[88,33],[21,-61],[82,-59],[76,28],[77,-52],[87,-29],[78,52],[44,-7],[61,57],[61,-12],[2,59],[156,22],[41,23],[92,116],[7,66],[-80,79],[90,22],[38,58],[101,12],[26,66],[88,20],[30,-13],[63,25],[23,37]],[[6928,6880],[40,-3],[23,-65],[-36,-37],[-2,-69],[28,-35],[1,-68],[45,-89],[-40,-38],[-5,-66],[56,-47],[-55,-20],[-16,-53],[-46,-74],[38,-11],[9,-70],[-75,-80],[18,-90],[52,2],[-29,-96],[-43,-65],[42,-52],[7,-54],[-88,-38],[39,-83],[-42,-16],[1,-78],[-96,-79],[14,-70],[52,-12],[107,161],[48,43],[31,59],[120,171],[60,-44],[-24,-75],[1,-138],[33,-122],[0,-72],[21,-58],[125,3],[-7,-54],[59,-20],[23,-111],[-45,-74],[-87,-22],[-47,9],[-45,-60],[1,-64],[-31,-59],[-67,-18]],[[7096,4779],[-99,95],[-54,35],[-34,116],[-22,37],[-78,1],[-22,31],[-72,16],[-88,-7],[-22,-19],[-88,-1],[-70,44],[-44,54],[-124,-30],[-104,-56],[-93,30],[-113,-38],[-48,-1],[-85,-40],[-87,-11],[-27,-69]],[[5722,4966],[-52,-42],[-10,-76],[-88,-18],[-69,-58],[-23,-128],[67,-103],[31,-103]],[[5578,4438],[-155,-19],[-31,-27],[-86,46],[-72,65],[-21,-32],[-77,23],[-40,75],[-60,40],[-43,48],[7,50],[-48,-5],[-42,66],[-70,50],[-24,41],[-51,14],[-33,38],[-56,25],[-105,-7],[-147,80],[-22,33],[-18,101],[-21,7]],[[4363,5150],[-82,6],[-233,-30],[-47,58]],[[6626,2761],[-31,-64],[-89,-50],[-56,-54],[-125,-12],[-42,23],[-73,-32],[-24,-51],[61,-21],[20,-34],[92,-27],[18,-24],[5,-80],[120,21],[110,-83],[-136,-58],[-48,-40],[-81,47],[-40,42],[-137,1],[-69,61],[-38,4],[-20,-78],[16,-100],[42,-20],[3,-37],[90,-24],[30,17],[115,-37],[50,-38],[-130,-38],[-63,15],[-80,-19],[-43,8],[13,-63],[164,-76],[13,-49],[-78,-31],[-60,16],[-41,-28],[-64,27],[-44,-10],[-35,52],[-55,-35],[-51,43],[-57,-102],[-157,38],[49,87],[-25,44],[37,35],[-12,75],[-46,52],[-39,-122],[14,-70],[-78,-110],[66,-27],[46,-48],[53,-78],[12,-47],[-44,-26],[-57,10],[-16,42],[-47,9],[7,-69]],[[5541,1518],[-60,86],[-42,95],[-27,25],[-7,81],[-36,66],[-5,114],[13,45],[-49,8],[-48,-25],[-34,-54],[-56,33],[-24,66],[-70,78],[11,61],[-43,44],[15,76]],[[5079,2317],[-43,15],[10,89],[62,68],[5,80],[66,66],[-26,55],[97,39],[28,-20],[77,15],[59,53],[31,-9],[75,44],[43,61],[54,21]],[[5617,2894],[12,-96],[45,-35],[28,-49],[212,42],[182,-36],[51,27],[25,-17],[102,-18],[64,-28],[97,-16],[49,11],[62,46],[80,36]],[[4363,5150],[36,-178],[-48,16],[-72,-8],[-105,-61],[-40,-59],[-4,-65],[-39,-31],[2,-156],[14,-31],[-80,-26],[-53,-69],[-65,-38],[-73,-23],[-17,-72],[-93,-11],[-109,-78],[-81,7],[-46,-24],[-37,-75],[-6,-58],[-64,-71],[-12,-137],[43,-47],[104,9],[-20,-122],[44,-59],[98,-98],[-23,-90],[30,-41],[65,-31],[33,-54],[-20,-58],[-52,-54]],[[3673,3257],[-85,25],[-39,49],[2,31],[-74,36],[-82,-38],[-5,50],[31,30],[-54,144],[-28,41],[-78,-8],[-85,-25],[-69,11],[-62,-53]],[[3045,3550],[-67,37],[-48,-34],[-53,56],[-124,47],[39,19],[-19,49],[30,63],[-78,124],[-38,-7],[-7,68],[-33,-10],[31,-101],[-120,-14],[-14,-21],[-137,8],[-22,25],[-120,44],[-39,-52],[-58,-45],[-64,-26],[-7,-96],[-77,64],[-68,1],[-178,54],[-132,60],[-108,38],[-103,-11],[-88,64],[-32,119],[18,36],[-39,71],[3,54],[41,37],[-4,75],[-33,47],[-31,86],[31,101],[-86,38],[-15,35]],[[1196,4653],[-7,100],[-23,33],[53,56],[-30,50]],[[1189,4892],[49,99],[145,64],[37,-30],[149,-44],[87,93]],[[1656,5074],[34,-26],[48,7],[95,-39],[28,-50],[79,-31],[151,22],[68,-35],[29,31],[42,-23],[7,-62],[60,6],[82,-55],[135,31],[56,-2],[110,-31],[64,-8],[86,-36],[84,-56],[99,-29],[91,7],[59,24],[25,-45],[68,0],[50,65],[2,63],[43,36],[-57,62],[-2,36],[30,51],[-24,98],[48,122],[54,31]],[[3045,3550],[16,-49],[-15,-33],[66,-77],[20,-61],[-159,-64],[-60,16],[-97,72],[-127,-55],[-17,-77],[-80,6],[-48,-35],[9,-54],[-168,-39],[-41,-37]],[[2344,3063],[-56,-7],[-99,85],[-16,47],[-99,7],[-9,48],[-97,-20],[-179,-109],[-279,-37],[-21,-43],[-65,-71],[-47,-120],[-89,-13],[-59,-73]],[[1229,2757],[-90,-46],[-84,19]],[[1055,2730],[-12,85],[-3,124],[51,30],[93,97],[27,11],[14,61],[-68,70],[-1,53],[107,162],[-45,99],[37,13],[-6,72],[-61,108],[-44,31],[-11,127],[-75,56],[5,61],[-71,38],[-12,39],[23,42],[-56,52],[-58,6],[-46,93],[36,11],[71,112],[34,11],[30,-45],[102,123],[5,55],[36,106],[39,20]],[[5963,9835],[114,-153],[14,-77],[70,-164],[-7,-82],[-59,3],[-63,-38],[-46,-87],[24,-50],[-9,-61],[82,-26],[74,-7],[50,-41],[61,-25],[51,-50],[71,-110],[-21,-50],[-47,-23],[-74,18],[-32,-26]],[[6216,8786],[-100,35],[-32,-37],[-8,-74],[-32,-14],[-105,14],[-31,-47],[-67,16],[-66,-73],[-71,-43],[-59,-97],[26,-110],[48,-69],[62,-43],[-13,-86]],[[5768,8158],[-54,-19],[-96,-82],[-29,-38],[-58,30],[-35,-37],[-72,59],[-80,-21],[-80,-40],[-62,16],[-26,56],[-50,-7],[-61,56],[-57,8],[-73,-27],[-45,37],[-33,57],[-69,34],[-45,-5],[-62,21],[-90,-5]],[[4591,8251],[-38,62],[0,114],[-51,45],[-70,-23],[-82,61],[-14,97],[-97,39],[-16,52]],[[4223,8698],[-30,111],[101,102],[17,113],[45,69],[-28,65],[68,47],[-19,61],[55,30],[26,65]],[[4458,9361],[49,-2],[24,81],[66,-39],[71,34],[50,3],[98,-30],[46,28]],[[4862,9436],[50,-33],[124,-36],[-1,-22],[179,-30],[43,15],[119,17],[0,63],[-29,69],[201,14],[66,16],[-5,79],[29,85],[52,31],[99,-14],[98,61],[3,47],[73,37]],[[5578,4438],[15,-78],[-20,-31],[115,-40],[24,-36],[-25,-38]],[[5687,4215],[-114,-31],[-146,39],[-35,-35],[-67,-17],[-6,-37],[-52,-47],[5,-86],[-35,-24],[-7,-121],[33,-20],[-4,-75],[28,-46],[6,-93],[151,-20],[-62,-103],[42,-98],[29,-36],[2,-68]],[[5455,3297],[-33,-2],[-97,-87],[-54,-9],[-19,-51],[-123,57],[-39,-32],[-113,32],[-62,-55],[-89,92],[-79,12],[-29,-45],[-51,-16],[-31,-44],[-129,14],[-32,-54],[-40,-19],[-32,36],[-98,-35],[22,-41],[-7,-45],[-41,-65],[-87,-66],[-64,6],[-16,-56],[-85,18],[-93,42],[-28,-3]],[[3906,2881],[19,21],[-104,188],[-22,15],[7,65],[-133,87]],[[4226,2248],[0,-40],[94,-89],[-14,-108],[9,-51],[-55,-25],[-46,-58],[5,-79],[65,-121],[-50,-124],[11,-30],[90,-59]],[[4335,1464],[28,-62],[8,-160],[-26,-69],[35,-68],[-16,-93],[-120,-84],[-1,-53],[-80,-65],[26,-94],[43,-47],[-49,-36],[-25,-63],[25,-101],[-1,-67],[-89,12],[-4,-72],[-27,-116],[-53,-23],[9,-49],[-68,-26],[29,75],[-4,42],[-88,21],[-22,66],[-83,-18],[-35,66],[-96,31],[-96,-35],[-12,28],[-82,76],[-53,-27],[3,-65],[-22,-24],[8,-73],[-102,26],[-28,-31],[-56,5],[-30,-84],[-39,-61],[8,-52],[-116,-40],[-14,-54],[-88,5],[-45,53],[-6,81],[-132,95],[-70,-38],[-54,26],[-89,38],[-2,163],[-52,-9],[-142,113],[11,43],[81,-15],[51,32],[87,103],[-6,59],[-32,76],[-82,19],[-83,-18],[-30,43],[-55,19],[-89,-51],[-70,28],[-72,-17],[-22,-29],[-57,9],[-16,35],[-69,6],[-61,-37],[-51,9],[-56,-24],[-51,70],[-68,117],[-75,28],[-118,69],[-23,-30],[-52,71],[-90,0],[-92,23],[-59,66],[-47,11],[-77,47],[-19,46],[-68,40],[-67,3],[-58,-17],[-33,13],[-62,-36],[-45,-1],[6,69],[-57,130],[21,33],[-18,36],[76,51],[32,72]],[[675,1728],[39,-29],[108,1],[95,52],[59,-15],[44,93],[102,49],[67,4],[51,33],[42,-21],[26,-50],[14,-89],[49,-58],[-10,-47],[24,-77],[60,-29],[163,40],[75,-16],[33,14],[47,-47],[72,-26]],[[1835,1510],[50,-78],[70,-34],[86,0],[115,-20],[26,-25],[66,14],[53,35],[31,-21],[57,16],[0,-57],[97,5],[-17,54],[45,21],[18,41],[48,15],[31,-26],[42,51],[110,16],[11,55],[34,32],[-77,116]],[[2731,1720],[35,55],[72,17],[36,25],[-33,35],[49,82],[109,65],[59,8],[49,44],[24,76],[33,-11],[49,65],[93,-6],[49,-38],[92,-5],[-58,120],[16,78],[-19,112],[128,0],[71,43],[53,-50],[32,24],[-19,38],[18,43],[43,24],[36,-17],[70,86]],[[3818,2633],[38,-24],[-10,-65],[15,-47],[71,-32],[17,-44],[-22,-59],[44,-77],[132,20],[123,-57]],[[5541,1518],[-30,-46],[-51,-21],[-11,-34],[140,-46],[13,-70],[-37,0],[-65,-65],[-45,-4],[-29,30],[-17,118],[-108,76],[-10,31],[62,119],[-41,30],[-156,11],[-69,-29],[-26,-54],[50,-147],[-65,22],[-94,77],[-91,15],[-50,-9],[-39,56],[-35,-14],[-64,16],[-131,-32],[-34,44],[-127,4],[-27,-34],[-19,-98]],[[4226,2248],[26,39],[-6,111],[35,7],[56,-73],[66,-32],[64,27],[33,-17],[21,-76],[30,-24],[34,61],[67,-50],[49,11],[29,82],[102,-3],[60,-66],[38,0],[94,55],[55,17]],[[5617,2894],[-72,96],[-70,8],[53,88],[-30,66],[5,131],[-48,14]],[[5687,4215],[18,-111],[104,-41],[55,15],[19,-32],[60,-32],[-2,-57],[128,15],[76,-41],[64,5],[55,-65],[38,2],[98,-75],[31,-11],[82,36],[84,-24]],[[6597,3799],[-92,-47],[-9,-39],[47,-39],[59,-11],[37,54],[84,-25],[86,73],[35,-20],[105,12],[-40,-75],[9,-53],[-33,-38],[-60,24],[-71,-5],[-26,-43],[-95,6],[-28,-41],[-45,32],[-112,-42],[100,-30],[-5,-41],[109,-35],[10,-117],[-74,3],[-39,26],[-45,-33],[7,-52],[75,-110],[58,-13],[48,20],[25,40],[114,18],[-7,-41],[-72,-14],[24,-42],[-1,-52],[27,-33],[-62,-26],[-30,34],[-51,-13],[-34,-39],[-143,-100],[-119,46],[-29,-20],[21,-46],[45,-29],[23,-44],[59,-23],[114,32],[30,-27]],[[2635,9892],[67,32],[135,-14],[110,66],[40,63],[29,1],[87,82],[61,5],[12,49],[67,-31],[90,45],[-2,39],[36,51],[60,6],[36,37],[38,-18],[67,-95],[-17,-59],[75,-44],[14,-48]],[[3640,10059],[28,-90],[-15,-65],[48,-38],[58,-190]],[[3759,9676],[16,-58],[30,-29],[17,-142]],[[3822,9447],[-64,-13],[-88,-53],[-65,34],[-55,2],[-49,53],[-112,22],[-39,61],[-94,-50],[-35,35],[-48,-75],[11,-30],[-21,-65],[-85,-33],[-36,-64],[-57,-19],[-45,12],[-37,-45],[-98,-52],[10,-75],[-46,-64],[-9,-41],[13,-118],[26,-91],[-45,-87],[-105,-93],[12,-61],[-33,-17]],[[2628,8520],[-77,46],[-55,-9],[-38,58],[-35,89],[-52,33],[-13,87],[-153,6],[-79,17],[-47,61],[-80,31],[-62,129],[18,31],[-8,100],[20,74],[-30,91]],[[1937,9364],[5,31],[103,67],[70,8],[49,66],[38,25],[72,-3],[73,22],[31,34],[-54,122],[106,62],[75,30],[21,37],[83,6],[26,21]],[[1566,9529],[54,-50],[21,-73],[56,-55],[59,20],[77,-31],[104,24]],[[2628,8520],[6,-52]],[[2634,8468],[-58,-117],[8,-67],[-120,-82],[-20,-88],[27,-58],[14,-94],[-9,-37],[104,-181],[-85,-53],[-21,-53],[67,-41],[77,-106]],[[2318,7189],[-65,-26],[-15,-66],[-34,-19],[-103,39],[-126,-34],[-167,-64],[-5,-58]],[[1803,6961],[-85,-7],[-56,20],[-34,40],[-60,-11],[-83,-64],[-80,13],[-34,31],[-97,-2],[-112,176]],[[1162,7157],[9,57],[-25,69],[-38,35],[2,77],[-70,73],[13,50],[-26,34],[25,49],[1,56],[-48,40],[-6,107],[21,112],[-10,91],[34,37],[1,53],[-27,60],[22,29],[4,66],[-23,94],[-34,84],[35,20],[33,53],[30,-8],[74,84],[7,107],[-60,100],[83,145],[-4,35],[-69,3],[-52,77],[69,42],[104,89],[-14,53],[46,53],[-14,30],[51,54],[193,41],[-12,74],[35,42],[44,5]],[[3906,2881],[-52,-43],[-78,-18],[48,-42],[-8,-52],[20,-28],[-18,-65]],[[2731,1720],[-47,-5],[-40,-32],[-119,55],[-54,-51],[-92,35],[3,-81],[-59,3],[-219,-44],[-67,12],[-90,-37],[-11,-25],[-101,-40]],[[675,1728],[30,28],[28,76],[-13,36],[61,66],[-30,68],[26,49],[-24,38],[-110,35],[-36,-21],[-100,47],[16,68],[38,77],[-38,21],[-1,37],[74,39],[-106,103],[83,76],[44,97],[64,-5],[11,36],[103,37]],[[795,2736],[101,-24],[32,-61],[58,26],[69,53]],[[1229,2757],[53,-65],[40,7],[70,-31],[214,-113],[58,-46],[113,-55],[59,2],[69,-28],[58,15],[64,92],[87,26],[148,80],[62,53],[43,68],[164,51],[-72,56],[25,118],[-40,46],[-84,11],[-16,19]],[[1958,6061],[-47,43],[-26,61],[6,73],[-17,45],[36,79],[4,101],[-69,66],[-26,2],[-4,82],[9,151],[27,88],[-42,65],[-6,44]],[[2089,5682],[-56,-36],[65,-92],[-47,-41],[76,-108]],[[2127,5405],[-12,-71],[-96,26],[-37,-94],[-109,-32],[-70,32],[-155,20],[-32,-73],[-6,-104],[46,-35]],[[1189,4892],[-63,95],[30,22],[-57,139],[-59,84],[26,32],[-117,114],[-103,-29],[-57,7],[-60,78]],[[729,5434],[51,62],[-13,38],[30,35],[-7,45],[69,136],[15,80],[-24,93],[22,50],[-67,67],[0,61],[-80,10],[-58,101],[-14,79],[88,20],[44,41],[-4,58],[55,37],[20,59],[79,58],[28,48],[43,30],[-34,74],[-90,33],[-60,50],[-51,-17],[-87,52],[-3,75],[13,109],[-25,26],[-9,72],[91,88],[76,-16],[76,36],[76,-85],[52,-36],[23,24],[108,30]],[[4076,7203],[-44,5],[-80,45],[-42,3],[-14,47],[18,111],[-77,69],[-82,133],[40,97],[-21,56],[-204,16],[-6,25],[-157,76],[-18,65],[13,72],[-52,48],[0,54],[-44,29]],[[3306,8154],[61,61],[-51,56],[3,64],[37,1],[83,-49],[89,43],[57,-21],[126,78],[-63,59],[-36,85],[-24,9],[-4,79],[-22,45],[51,112],[-55,-10],[-34,47],[87,70],[53,-16],[54,54],[40,-10],[62,20],[63,-15]],[[3883,8916],[-46,-49],[-19,-48],[82,-45],[36,-39],[19,-80],[21,-22],[132,-22],[115,87]],[[4591,8251],[-24,-38],[24,-57],[70,-38],[17,-71],[43,-62],[54,-49],[22,-64],[36,-38],[25,-59],[6,-112],[-18,-85],[-114,-76],[24,-81],[-73,-82],[-109,34],[-80,11],[-57,-43],[-68,5],[-43,-76],[12,-59]],[[2634,8468],[64,-33],[95,-95],[180,-16],[104,-25],[44,-77],[53,13],[80,-14],[52,-67]],[[2127,5405],[54,28],[44,-46],[59,-34],[44,-68],[60,1],[28,51],[40,-8],[14,-55],[68,-32],[24,67],[50,6],[100,-36],[115,76],[7,42]],[[795,2736],[-55,74],[-47,-9],[-51,39],[-41,-8],[-32,27],[10,69],[-19,30],[39,65],[90,21],[5,74],[-60,20],[-43,69],[-63,16],[-58,41],[-147,71],[-3,152],[-78,23],[-46,-4],[19,68],[-23,20],[30,95],[56,10],[-31,87],[-78,25],[0,75],[-67,57],[17,94],[-70,7],[-49,31],[14,73],[25,20],[-28,66],[120,27],[21,40],[2,80],[-45,71],[66,104],[45,19],[96,68],[13,41],[-28,90],[48,31],[10,92],[62,19],[25,93],[-9,68],[-55,39],[7,82],[52,-4],[73,35],[52,108],[58,20],[38,84],[67,-7]],[[5722,4966],[54,-23],[35,-51],[87,-22],[22,-62],[64,-35],[84,-131],[-4,-37],[35,-57],[55,2],[50,-28],[15,-54],[34,-22],[60,-78],[3,-65],[21,-31],[68,-26],[28,-62],[69,-44],[44,17],[89,-5],[110,10],[49,-22]],[[6794,4140],[-78,-92],[38,-84],[38,1],[63,43],[2,-64],[-43,-40],[3,-39],[-61,-36],[-45,-1],[-93,33],[-21,-62]],[[7096,4779],[-7,-69],[13,-61],[-50,-4],[-57,31],[-52,-20],[-52,5],[-81,-40],[-9,-53],[47,-122],[44,3],[5,-44],[36,-13],[58,70],[62,32],[34,62],[91,53],[51,58],[66,-1],[54,-88],[-57,-76],[-1,-40],[-49,-21],[29,-123],[-67,-71],[-29,-1],[-40,53],[-53,3],[-15,-89],[-119,-14],[15,58],[-22,58],[-35,-29],[-112,-146]],[[5768,8158],[17,-43],[263,-69],[10,-9]],[[6058,8037],[-88,-64],[-9,-57],[39,-39],[-12,-67]],[[5988,7810],[-31,-118],[-57,-99],[22,-26],[-45,-135],[-9,-96],[-28,-30],[48,-32],[235,60],[28,-25],[7,-84],[56,-78],[134,-38],[14,-21],[122,-8],[13,-33],[106,26],[146,134],[80,34]],[[6829,7241],[59,-16],[41,-132],[-21,-34],[-1,-80],[25,-38],[3,-59],[-2,-1],[-5,-1]],[[5988,7810],[104,-11],[51,-21],[69,22],[152,12],[30,-100],[53,43],[93,49],[91,-15],[51,35],[29,48],[60,16]],[[6771,7888],[38,-37],[-9,-77],[9,-83],[18,-35],[-22,-46],[-63,-12],[-2,-120],[-15,-33],[53,-71],[28,-110],[23,-23]],[[6058,8037],[37,30],[83,21],[29,70],[-6,57],[79,94]],[[6280,8309],[124,-54],[44,-100],[50,-38],[16,-65],[86,-46],[102,11],[21,-65],[48,-64]],[[3861,10247],[42,38],[31,-60],[107,49],[74,71],[67,-20],[61,28],[76,-8],[140,-84],[41,-60],[125,-35],[77,68],[96,46],[49,51]],[[4847,10331],[13,-35],[113,-75],[-30,-78],[-57,-3],[-37,-49],[4,-74],[-39,-2],[-18,-51],[29,-23],[3,-79],[55,-29],[-14,-113],[75,-44],[61,-9],[-3,-157],[-26,-17],[-71,11],[-48,-21],[5,-47]],[[4458,9361],[-50,24],[-72,59],[-123,48],[-11,81],[-40,62],[-34,-10],[-36,86],[-90,-5],[-2,31],[-83,1],[-60,-33],[-98,-29]],[[3640,10059],[99,46],[65,44],[57,98]],[[6216,8786],[-72,-110],[-17,-77],[29,-62],[-9,-52],[19,-54],[114,-122]],[[3883,8916],[20,73],[-58,77],[-36,140],[39,75],[6,69],[-30,36],[-2,61]],[[4847,10331],[28,43],[-21,28],[-7,85],[72,87],[92,21],[35,34],[63,-4],[83,51],[27,-4],[92,61],[32,72],[35,11],[59,-97],[39,-21],[17,-56],[46,-19],[38,-73],[3,-64],[47,-68],[35,-19],[95,-106],[-3,-79],[89,-64],[-6,-56],[25,-103],[52,-55],[49,-101]]],"transform":{"scale":[0.0001908729376302422,0.00015741533066857997],"translate":[140.6561709730122,38.74765138720193]},"objects":{"japan":{"type":"GeometryCollection","geometries":[{"arcs":[[0,1,2,3,4,5,6,7,8,9]],"type":"Polygon","properties":{"pref":"岩手県","city":"盛岡市","code5":"03201","code6":"032018"}},{"arcs":[[-3,10,11,12,13,14,15]],"type":"Polygon","properties":{"pref":"岩手県","city":"宮古市","code5":"03202","code6":"032026"}},{"arcs":[[16,17,18,19]],"type":"Polygon","properties":{"pref":"岩手県","city":"大船渡市","code5":"03203","code6":"032034"}},{"arcs":[[-4,-16,20,21,22,23,24,25]],"type":"Polygon","properties":{"pref":"岩手県","city":"花巻市","code5":"03205","code6":"032051"}},{"arcs":[[-23,26,27,28,29]],"type":"Polygon","properties":{"pref":"岩手県","city":"北上市","code5":"03206","code6":"032069"}},{"arcs":[[30,31,32,33,34,35,36]],"type":"Polygon","properties":{"pref":"岩手県","city":"久慈市","code5":"03207","code6":"032077"}},{"arcs":[[-15,37,38,39,40,-21]],"type":"Polygon","properties":{"pref":"岩手県","city":"遠野市","code5":"03208","code6":"032085"}},{"arcs":[[41,42,43,44,45,46]],"type":"Polygon","properties":{"pref":"岩手県","city":"一関市","code5":"03209","code6":"032093"}},{"arcs":[[-18,47,-42,48]],"type":"Polygon","properties":{"pref":"岩手県","city":"陸前高田市","code5":"03210","code6":"032107"}},{"arcs":[[-20,49,-39,50,51]],"type":"Polygon","properties":{"pref":"岩手県","city":"釜石市","code5":"03211","code6":"032115"}},{"arcs":[[52,53,54,55,56,57]],"type":"Polygon","properties":{"pref":"岩手県","city":"二戸市","code5":"03213","code6":"032131"}},{"arcs":[[58,-57,59,60,-9,61,62,63]],"type":"Polygon","properties":{"pref":"岩手県","city":"八幡平市","code5":"03214","code6":"032140"}},{"arcs":[[-22,-41,64,-46,65,-44,66,67,-29,68,-27]],"type":"Polygon","properties":{"pref":"岩手県","city":"奥州市","code5":"03215","code6":"032158"}},{"arcs":[[-8,69,-62]],"type":"Polygon","properties":{"pref":"岩手県","city":"滝沢市","code5":"03216","code6":"032166"}},{"arcs":[[-7,70,71,-25,72,73,-63,-70]],"type":"Polygon","properties":{"pref":"岩手県","county":"岩手郡","city":"雫石町","code5":"03301","code6":"033014"}},{"arcs":[[-1,74,75,76,-34,77]],"type":"Polygon","properties":{"pref":"岩手県","county":"岩手郡","city":"葛巻町","code5":"03302","code6":"033022"}},{"arcs":[[-10,-61,78,-75]],"type":"Polygon","properties":{"pref":"岩手県","county":"岩手郡","city":"岩手町","code5":"03303","code6":"033031"}},{"arcs":[[-5,-26,-72,79]],"type":"Polygon","properties":{"pref":"岩手県","county":"紫波郡","city":"紫波町","code5":"03321","code6":"033219"}},{"arcs":[[-6,-80,-71]],"type":"Polygon","properties":{"pref":"岩手県","county":"紫波郡","city":"矢巾町","code5":"03322","code6":"033227"}},{"arcs":[[-24,-30,-68,80,-73]],"type":"Polygon","properties":{"pref":"岩手県","county":"和賀郡","city":"西和賀町","code5":"03366","code6":"033669"}},{"arcs":[[-28,-69]],"type":"Polygon","properties":{"pref":"岩手県","county":"胆沢郡","city":"金ケ崎町","code5":"03381","code6":"033812"}},{"arcs":[[-45,-66]],"type":"Polygon","properties":{"pref":"岩手県","county":"西磐井郡","city":"平泉町","code5":"03402","code6":"034029"}},{"arcs":[[-19,-49,-47,-65,-40,-50]],"type":"Polygon","properties":{"pref":"岩手県","county":"気仙郡","city":"住田町","code5":"03441","code6":"034410"}},{"arcs":[[-14,81,82,-51,-38]],"type":"Polygon","properties":{"pref":"岩手県","county":"上閉伊郡","city":"大槌町","code5":"03461","code6":"034614"}},{"arcs":[[-13,83,-82]],"type":"Polygon","properties":{"pref":"岩手県","county":"下閉伊郡","city":"山田町","code5":"03482","code6":"034827"}},{"arcs":[[-2,-78,-33,84,85,86,87,-11]],"type":"Polygon","properties":{"pref":"岩手県","county":"下閉伊郡","city":"岩泉町","code5":"03483","code6":"034835"}},{"arcs":[[-87,88,89]],"type":"Polygon","properties":{"pref":"岩手県","county":"下閉伊郡","city":"田野畑村","code5":"03484","code6":"034843"}},{"arcs":[[-86,90,91,-89]],"type":"Polygon","properties":{"pref":"岩手県","county":"下閉伊郡","city":"普代村","code5":"03485","code6":"034851"}},{"arcs":[[92,93,-36,94,-54,95]],"type":"Polygon","properties":{"pref":"岩手県","county":"九戸郡","city":"軽米町","code5":"03501","code6":"035017"}},{"arcs":[[-32,96,-91,-85]],"type":"Polygon","properties":{"pref":"岩手県","county":"九戸郡","city":"野田村","code5":"03503","code6":"035033"}},{"arcs":[[-35,-77,97,-55,-95]],"type":"Polygon","properties":{"pref":"岩手県","county":"九戸郡","city":"九戸村","code5":"03506","code6":"035068"}},{"arcs":[[98,-37,-94]],"type":"Polygon","properties":{"pref":"岩手県","county":"九戸郡","city":"洋野町","code5":"03507","code6":"035076"}},{"arcs":[[-56,-98,-76,-79,-60]],"type":"Polygon","properties":{"pref":"岩手県","county":"二戸郡","city":"一戸町","code5":"03524","code6":"035246"}}]}}}