{"type":"Topology","arcs":[[[6567,5435],[-18,-123],[-38,-39],[-48,-17],[-21,-44],[-51,-21],[-38,-53],[-70,7],[-82,-39],[23,-109],[94,-16],[30,-49],[-4,-66],[38,-48],[70,0],[32,51],[46,-11],[19,42],[46,-36],[18,-56],[48,-50],[-61,-99],[29,-36],[-51,-87],[-72,24],[-5,90],[-21,41],[-93,-11],[-54,51],[-45,-11],[69,-69],[-8,-32],[47,-57],[-26,-28],[27,-54]],[[6397,4480],[-122,14],[-14,47],[-57,19],[-99,-86],[-91,44],[-31,-4],[-9,-79],[-41,-90],[-7,-85],[-30,-56],[-3,-109],[50,-17],[15,-35],[81,23],[110,-29],[17,-93],[36,-53],[86,-16],[37,44],[54,6],[28,-23],[43,54]],[[6450,3956],[41,-29],[130,50],[-13,-86],[-128,27],[-49,-60],[-94,-13],[-17,-29],[24,-41],[85,14],[67,-16],[41,-72],[9,-63],[52,-51],[-17,-63],[-34,-24],[43,-44],[41,-14],[2,-54],[-21,-46],[-47,-15],[-22,-126],[-24,-45],[-47,42],[-7,118],[-88,-9],[26,58],[-40,28],[-118,-19],[-83,74],[74,35],[46,40],[-47,75],[-15,64],[-53,-65],[-20,61],[-125,-26],[-33,25],[62,91],[56,2],[-17,108],[-35,-10],[-42,26],[54,77],[-112,-8],[-48,24],[-64,-82],[-89,-20],[-35,18],[19,91],[-6,45],[-65,43],[-218,-18],[-46,22],[-70,-7],[10,-86],[-42,-4],[-4,60],[-63,1],[-134,-22]],[[5100,4008],[-8,88],[11,48],[47,2],[-13,112],[-72,6],[-30,72],[4,68],[-55,28],[-12,-81],[-45,6],[-102,-72],[-46,69],[-112,4]],[[4667,4358],[1,61],[-25,36],[52,59],[-38,103],[67,117]],[[4724,4734],[6,70],[98,66],[105,-45],[52,-1],[24,83]],[[5009,4907],[17,127],[22,38],[121,55],[27,34],[-8,83],[59,33],[72,-21],[-19,-160],[4,-38],[50,5],[104,-19],[40,49],[66,3],[136,90],[74,-9],[36,41],[70,49],[22,35]],[[5902,5302],[81,-98],[48,-5],[166,107],[17,31],[69,38],[60,-14],[41,27],[26,-36],[52,-16],[77,112],[28,-13]],[[6864,3187],[-56,-44],[-86,80],[-53,129],[22,25],[83,19],[96,-45],[14,-23],[-51,-75],[31,-66]],[[6262,3233],[49,-28],[40,-56],[35,-89],[-20,-45],[-75,20],[-17,69],[-68,70],[56,59]],[[5979,3414],[42,-112],[-79,-56],[-14,29],[33,57],[-17,36],[35,46]],[[3990,3588],[82,-49],[-46,-53],[11,-31],[-50,-74]],[[3987,3381],[0,-27]],[[3987,3354],[-45,42],[-89,-36],[-52,11],[-35,56]],[[3766,3427],[37,34],[48,125],[47,57],[36,-8],[3,-53],[53,6]],[[4480,3639],[8,-41],[-17,-84],[-28,-6],[-39,51],[43,29],[33,51]],[[5947,6309],[68,25],[-9,49],[53,24],[27,115],[4,73],[89,-13],[1,67],[-25,102],[25,62],[49,37],[-43,46],[-26,94],[80,66],[1,52],[120,85],[16,93],[-35,67],[26,70],[-8,159],[-28,63],[19,98],[27,34],[127,-5],[34,-43],[131,31],[64,-16],[35,14],[40,-55],[49,9],[91,-16],[94,-77],[65,-22],[51,-76],[-53,-28],[47,-78],[25,-102],[29,-56],[2,-89],[64,-66],[-2,-66],[42,-53],[20,-100],[-129,76],[-13,62],[-45,27],[-9,60],[-118,-36],[-53,-51],[-57,62],[-11,-66],[-30,-77],[-13,-119],[49,-97],[-5,-51],[-45,-1],[-44,-35],[15,-38],[-98,-6],[-14,-53],[-131,-60],[-57,-40],[-10,-78],[-30,-48],[34,-51],[52,-13],[5,-64]],[[6576,6186],[-67,-1],[-84,-37],[-77,20],[-58,49],[-62,-53],[-50,-19],[-65,42],[-35,-39],[-110,-19]],[[5968,6129],[-37,24],[-43,85],[59,71]],[[7069,7056],[37,-50],[9,-77],[-43,-10],[-10,-85],[49,-11],[-31,-87],[-46,39],[-67,122],[12,41],[-26,45],[86,30],[30,43]],[[2203,1662],[31,6],[24,-95]],[[2258,1573],[-7,-58],[-30,-56],[-46,-16],[22,-44],[-31,-81],[21,-63],[-31,-32]],[[2156,1223],[-12,-52],[-42,-65],[-155,-25],[-75,-23],[-40,-43],[26,-81],[-58,-59]],[[1800,875],[-96,-15],[-10,-16],[-34,-9],[-87,52],[-46,53],[-18,-72],[-137,-24],[-29,-15],[-50,22],[-31,-33],[-72,6],[-20,-26],[-55,-4],[-19,11],[-39,34],[-38,70],[-11,127],[39,57]],[[1047,1093],[16,47],[58,6],[98,-28],[88,96],[45,15],[-17,65],[-56,76],[-30,114],[-9,106],[-111,105],[3,85],[-13,67],[-40,63],[-38,18],[-10,43],[29,36]],[[1060,2007],[54,-15],[40,30],[125,19],[106,4],[78,-119],[90,51],[118,3],[60,-14],[38,-122],[35,-6],[60,-62],[44,-8],[52,-120],[45,54],[76,-35],[28,12],[94,-17]],[[3598,2537],[-11,-49],[-43,-85],[-52,-135]],[[3492,2268],[-58,13],[-133,66],[-76,-160],[-76,-22],[-15,47],[-51,60],[-137,10],[-32,24],[-100,12],[-81,53]],[[2733,2371],[-24,168]],[[2709,2539],[25,37],[86,45],[-80,46],[-21,50],[-31,-1],[-22,77],[73,24],[45,-48],[56,51],[50,-11],[96,-61],[96,-34],[-19,-45],[39,-46],[172,12],[-7,-31],[87,4],[96,-18],[-29,67],[28,29],[43,-78],[106,-71]],[[2258,1573],[93,58],[116,12],[35,41]],[[2502,1684],[82,-8],[74,20],[31,26],[52,0],[14,31],[52,11],[4,50],[61,107]],[[2872,1921],[36,-108],[-10,-114],[19,-108],[39,-44],[5,-137],[15,-32]],[[2976,1378],[36,-83],[19,-112],[1,-78],[-16,-69],[32,-63],[-31,-100]],[[3017,873],[-23,6],[-30,71],[-52,43],[-77,22],[-50,-8],[-29,-28],[-71,18],[-4,60],[-29,45],[-75,3],[-87,-39],[-87,21],[-6,-24],[-106,3],[-51,43],[45,62],[-40,36],[-33,-9],[-56,25]],[[3948,3224],[-82,-37],[-90,41],[-104,4],[-65,15],[-37,66],[33,85]],[[3603,3398],[75,-6],[88,35]],[[3987,3354],[35,-61],[-55,-81]],[[3967,3212],[-5,2]],[[3962,3214],[0,1],[-1,7],[-13,2]],[[3492,2268],[-58,-205],[-28,-163],[-16,-171]],[[3390,1729],[-66,34],[-16,50],[18,58],[-7,45],[-73,86],[-40,31],[-93,-6],[-25,-54],[-35,-24],[-66,-9],[-54,22]],[[2933,1962],[-49,86],[8,91],[-14,68],[-28,29],[-69,1],[-21,-29],[-128,38],[47,54]],[[2679,2300],[23,56],[31,15]],[[4623,6403],[53,-27],[71,39],[131,-96],[6,-80],[45,-53],[88,-6],[14,54],[116,40],[-8,52],[39,62],[30,83],[56,-4],[29,31],[101,-27],[-8,73],[22,24],[-3,65],[53,28],[83,-77],[11,-27],[96,35],[96,-32],[35,-65],[83,17],[22,-66],[88,-21],[4,-41],[-29,-75]],[[5968,6129],[-115,-54],[6,-33],[-100,-45],[-22,-74],[5,-92],[20,-44],[-12,-57],[59,-6],[-43,-117],[26,-60],[30,-13],[18,-61],[40,-68],[22,-103]],[[5009,4907],[-10,62],[-30,57],[-104,39],[-42,60],[28,79],[-113,61],[-25,-46],[-67,13]],[[4646,5232],[-62,64],[-61,12],[-73,80],[-83,41],[12,92],[-84,-19]],[[4295,5502],[-63,29],[0,74],[-32,42],[-14,71],[-40,-3],[-41,52],[29,47],[45,28],[51,109],[165,76],[59,42],[41,2],[68,-34],[73,50],[20,60],[-44,23],[-14,88],[25,145]],[[2612,7517],[45,1],[62,37],[33,-13],[58,17],[67,-3],[68,-40],[19,-46],[77,-47],[47,-12],[59,-66],[92,-22],[90,0],[52,-72],[23,30],[118,-69],[75,-27],[68,-118],[51,-70],[57,25],[50,-9],[61,36],[70,-6],[15,-35],[57,-9],[22,30],[73,17],[69,-28],[89,50],[55,-18],[30,-44],[83,18],[82,-19],[32,-75],[6,-60],[-87,-103],[-51,-31],[-81,14],[-11,-42],[142,-114],[53,10],[1,-163],[90,-38]],[[4295,5502],[-22,-4],[-39,-69],[-52,15],[-65,-26],[-221,21],[-59,-11],[-81,76],[15,82],[-75,41],[-69,56],[19,95],[-32,126],[-87,30],[-41,54],[-55,25],[-57,-17],[-47,33],[-98,14],[-41,-20],[-123,75],[-26,-17],[-110,-5],[-100,91],[-63,34],[-18,39],[-100,67],[-68,10],[-21,-35],[-89,37],[-44,67],[61,107],[2,109],[42,128],[-49,22],[-4,182],[9,70],[-46,81],[-18,62],[-71,38],[-87,93]],[[2265,7278],[84,89],[46,94],[69,45],[54,12],[94,-1]],[[5100,4008],[-95,-30],[-151,-74],[-144,-87],[-58,-52],[-22,-49],[-51,-8],[-88,11],[29,73],[-59,52]],[[4461,3844],[-11,58],[-41,62],[-84,27],[-8,34],[148,86],[-63,95],[6,41]],[[4408,4247],[61,42],[39,-50],[65,54],[146,28],[-52,37]],[[4586,3697],[42,-22],[-3,-51],[52,-18],[-6,-96],[-55,-33],[-79,17],[-50,88],[94,22],[-41,56],[46,37]],[[4646,5232],[-104,27],[-53,-55],[-32,-74],[-57,44],[-58,0],[-66,-30],[-43,-48],[8,-64],[77,-33],[-32,-36]],[[4286,4963],[-83,50],[-89,-18],[-51,43],[4,139],[-79,8],[-36,-13],[-87,25],[11,-44],[-11,-107],[-81,41],[-13,-60],[18,-43],[67,-16],[72,-47],[-24,-62],[25,-11],[5,-63],[110,14],[129,-14],[127,-27],[37,-100],[42,-5],[23,-58],[55,-35],[21,-58],[-18,-103],[-82,-52],[-36,-42],[38,-56]],[[4380,4249],[-61,-9],[-95,47],[-108,-26],[0,-26]],[[4116,4235],[-132,29],[-50,-8],[54,111],[-68,41],[-41,55],[-44,-25],[-31,33],[-17,85],[-104,74],[-110,13],[-42,-47],[1,-53]],[[3532,4543],[-85,-19],[-119,41],[-78,72],[-25,55]],[[3225,4692],[-25,102],[12,24]],[[3212,4818],[44,34],[4,143],[41,48],[-149,72],[-4,80],[15,41],[-43,84],[-38,9],[-26,50],[-62,62],[-81,43],[-81,104],[-46,25],[-46,62],[-68,46],[-93,106],[-18,-40],[-70,3],[-49,63],[-61,24],[-17,46],[-69,5],[-23,-45],[-75,-11],[-82,7],[-41,-72],[-63,7],[-9,53],[-34,10],[-52,-25],[-27,-42],[-61,13]],[[1828,5823],[-40,58],[-49,18],[11,39],[-10,75],[72,65],[11,65],[44,34],[26,96],[53,46],[-50,51],[-50,-23],[-125,62],[-41,118],[-3,55],[23,41],[-5,55],[-29,12],[-12,52],[-112,68],[-53,3],[-32,76],[-62,14],[-13,64],[47,62],[-3,51],[37,-83],[42,-19],[162,88],[73,-3],[13,37],[107,-20],[54,-34],[25,30],[136,54],[10,41],[66,89],[78,40],[36,-22]],[[3453,3596],[-36,-49],[-87,7],[-51,42],[-96,53],[-19,40],[-81,42]],[[3083,3731],[-14,51],[13,57],[32,30],[10,84],[24,36],[-23,35],[3,99],[47,34],[67,16],[53,-16],[-18,-74],[19,-55],[34,-25],[78,5],[54,-13],[-14,-61],[24,-85],[-8,-138],[16,-34]],[[3480,3677],[-27,-81]],[[1060,2007],[-6,28],[-97,71],[-23,85],[-40,65]],[[894,2256],[-16,37],[17,50]],[[895,2343],[83,-12],[20,21],[72,-5],[46,27],[38,-31],[122,18],[42,-61],[30,12],[67,-14],[68,80],[82,5],[72,-33],[13,-44],[64,5],[94,-31],[86,53]],[[1894,2333],[57,-29],[105,41],[56,-37],[33,10],[75,-26],[30,-69],[-6,-80],[-34,-58],[-31,-95],[-23,-13],[12,-72]],[[2168,1905],[-34,-22],[-25,-65],[12,-54],[84,-69],[-2,-33]],[[1047,1093],[-70,36],[-72,-9],[-16,37],[-56,-20],[-130,63],[-9,63],[-47,5],[-67,-60],[0,-71],[-160,26],[-34,-49],[-104,51],[-64,-1],[-75,70],[-56,8],[-61,40],[-26,46],[10,66],[66,82],[-68,136],[-3,47],[31,52],[-25,76],[63,21],[80,-34],[56,28],[155,-32],[58,32],[101,-6],[39,43],[-12,33],[86,-1],[110,70],[16,31],[-17,112],[43,77],[-9,28],[38,48],[76,19]],[[2168,1905],[56,13],[46,-22],[55,12],[28,-34],[79,-13],[19,-33],[57,-26]],[[2508,1802],[-5,-42],[-51,-19],[50,-57]],[[2487,2568],[37,-15],[103,18],[82,-32]],[[2679,2300],[-53,2],[-10,-60],[-68,-43],[-24,-95],[-31,-77],[31,-67],[-21,-78],[5,-80]],[[1894,2333],[95,19],[-31,131],[24,22],[55,-2],[15,-34],[141,-54],[49,30],[22,-38],[65,-22],[61,13],[75,62],[-8,63],[30,45]],[[2933,1962],[-61,-41]],[[1035,3033],[45,19],[107,2],[32,24],[138,2],[38,27],[37,-16],[75,39],[118,-28],[119,13],[72,-42],[45,-2],[104,-60],[3,-53],[85,-5],[85,-87],[101,-38],[104,-22],[71,-37],[32,-69],[9,-108],[32,-24]],[[895,2343],[32,47],[82,38],[11,87],[55,73],[-15,118],[-33,88],[17,63],[-26,24],[-1,93],[18,59]],[[3017,873],[33,-41],[11,-64],[-16,-31]],[[3045,737],[-8,-104],[32,-46],[-11,-69],[-43,-45],[19,-47],[10,-84],[-12,-46],[23,-44],[-23,-47],[22,-27],[-32,-48],[-112,-3],[-36,25],[-67,-20],[-187,68],[-13,-57],[74,-52],[41,-44],[-38,-47],[-63,44],[-95,24],[-100,11],[-58,-37],[-21,71],[-60,51],[-90,17],[-41,103],[-12,72],[-25,38],[39,34],[31,94],[-53,109],[1,34],[42,27],[-12,34],[-113,38],[-37,37],[-80,-35],[-91,23],[-46,86]],[[3390,1729],[3,-83],[-13,-34],[-26,-222]],[[3354,1390],[-132,10],[-55,-39],[-10,76],[-82,-4],[-33,-31],[-66,-24]],[[3354,1390],[1,-195],[43,-319],[39,-105],[-157,9],[-15,34],[-147,-41],[-73,-36]],[[4461,3844],[-61,14],[-40,-45],[-40,0],[-63,42],[-69,-24],[-31,-50],[-34,-4],[3,-87],[-16,-32]],[[4110,3658],[-52,32],[-38,107],[-56,-31],[-76,29]],[[3888,3795],[45,48],[75,170],[38,24],[3,51],[67,147]],[[4380,4249],[28,-2]],[[4026,3189],[-59,23]],[[3987,3381],[43,30],[82,11],[29,52],[58,-13],[26,-88],[35,-18],[-18,-64],[-39,18],[-41,-20],[-31,-61],[-105,-39]],[[3603,3398],[-48,-8],[-90,54],[3,94],[-15,58]],[[3480,3677],[79,45],[35,-41],[80,67],[22,56]],[[3696,3804],[35,7],[30,-52],[53,-8],[74,44]],[[4110,3658],[-23,-25],[-52,7],[-45,-52]],[[1838,4272],[176,112],[67,50],[153,86],[31,-6],[85,64],[217,-5],[33,14],[90,-17]],[[2690,4570],[-11,-61],[44,-62],[116,-4],[111,-52],[28,-46],[142,-44],[41,13],[88,-67],[63,11],[0,66],[38,46],[63,25],[74,-12],[46,24],[58,-21]],[[3591,4386],[8,-57],[33,-67],[70,-32],[-60,-52],[21,-41],[-3,-71],[-49,-104],[13,-70],[70,-54],[2,-34]],[[3083,3731],[-96,-27],[-17,-59],[-41,-10],[-46,178],[-44,39],[-44,70],[-46,11],[-95,52],[-66,17],[-129,69],[-42,54],[-105,62],[-26,-57],[-76,-59],[-5,61],[-70,9],[-63,39],[-59,-4],[-39,36],[-47,-6],[-89,66]],[[3591,4386],[4,38],[-45,28],[-18,91]],[[2690,4570],[73,6],[84,46],[167,37],[75,-35],[48,-7],[56,18],[-3,52],[35,5]],[[1838,4272],[-32,47]],[[1806,4319],[2,3]],[[1808,4322],[4,37],[123,36],[28,48],[67,49],[7,63],[137,94],[34,74],[49,18],[81,4],[86,40],[-5,55],[53,45],[21,52],[94,60],[55,-18],[102,22],[46,34],[60,19],[19,-34],[120,50],[28,-123],[75,-12],[19,-48],[101,-69]],[[1808,4322],[-62,21],[-1,66],[-55,118],[-125,48],[-54,100],[45,95],[-50,7],[-42,53],[-2,36],[56,32],[27,60],[-17,28],[63,54],[-40,77],[-8,89],[-58,21],[20,47],[-53,53],[-76,130],[47,101],[85,-10],[34,-63],[108,-28],[63,43],[21,95],[68,111],[26,117]],[[4724,4734],[-26,-25],[-107,-35],[-73,43],[-27,78],[-48,8],[-35,43],[-81,-9],[-119,34],[-61,45],[52,22],[57,1],[30,24]],[[6397,4480],[6,0],[1,-1],[-44,-69],[-67,-7],[135,-109],[-1,-45],[-62,-17],[-124,0],[-15,-49],[23,-61],[38,-25],[-3,-40],[-41,-104],[31,-20],[76,73],[84,57],[-11,-70],[27,-37]],[[6512,4388],[47,-50],[39,-86],[-28,-39],[-54,31],[-4,144]],[[6576,6186],[51,-8],[-13,-48],[149,-16],[1,-76],[-39,-12],[-4,-112],[-48,38],[-36,-21],[-72,55],[-57,-140],[-4,-36],[-59,10],[-79,-8],[30,-55],[-7,-28],[-66,-8],[-31,29],[-44,-41],[-51,-21],[-71,22],[31,-103],[-47,-69],[9,-18],[96,-9],[81,18],[46,-24],[199,-33],[26,-37]],[[1630,4229],[61,-25],[115,115]],[[3948,3224],[-19,-71],[-112,17],[-26,-24],[124,-36],[-141,-220],[-148,-254],[-28,-99]],[[1035,3033],[2,124],[78,18],[48,54],[-23,62],[0,63],[42,7],[19,65],[84,-29],[54,100],[-29,47],[-18,108],[25,50],[39,29],[61,13],[37,79],[56,4],[23,52],[56,48],[-20,24],[-13,117],[33,33],[18,83],[23,45]],[[4026,3189],[-16,-26],[-57,18],[9,33]]],"transform":{"scale":[0.00019086779840945154,0.00015740600783639832],"translate":[140.2750014401645,37.774813198370566]},"objects":{"japan":{"type":"GeometryCollection","geometries":[{"arcs":[[[0,1,2,3,4,5,6,7]],[[8]],[[9]],[[10]]],"type":"MultiPolygon","properties":{"pref":"宮城県","city":"石巻市","code5":"04202","code6":"042021"}},{"arcs":[[[11,12,13,14]],[[15]]],"type":"MultiPolygon","properties":{"pref":"宮城県","city":"塩竈市","code5":"04203","code6":"042030"}},{"arcs":[[[16,17,18]],[[19]]],"type":"MultiPolygon","properties":{"pref":"宮城県","city":"気仙沼市","code5":"04205","code6":"042056"}},{"arcs":[[20,21,22,23,24,25]],"type":"Polygon","properties":{"pref":"宮城県","city":"白石市","code5":"04206","code6":"042064"}},{"arcs":[[26,27,28,29]],"type":"Polygon","properties":{"pref":"宮城県","city":"名取市","code5":"04207","code6":"042072"}},{"arcs":[[-22,30,31,32,33,34]],"type":"Polygon","properties":{"pref":"宮城県","city":"角田市","code5":"04208","code6":"042081"}},{"arcs":[[35,36,-14,37,38,39]],"type":"Polygon","properties":{"pref":"宮城県","city":"多賀城市","code5":"04209","code6":"042099"}},{"arcs":[[-28,40,41,42,43]],"type":"Polygon","properties":{"pref":"宮城県","city":"岩沼市","code5":"04211","code6":"042111"}},{"arcs":[[44,-19,45,-7,46,47,48]],"type":"Polygon","properties":{"pref":"宮城県","city":"登米市","code5":"04212","code6":"042129"}},{"arcs":[[49,-49,50,51]],"type":"Polygon","properties":{"pref":"宮城県","city":"栗原市","code5":"04213","code6":"042137"}},{"arcs":[[[-4,52,53,54]],[[55]]],"type":"MultiPolygon","properties":{"pref":"宮城県","city":"東松島市","code5":"04214","code6":"042145"}},{"arcs":[[-48,56,57,58,59,60,61,62,63,-51]],"type":"Polygon","properties":{"pref":"宮城県","city":"大崎市","code5":"04215","code6":"042153"}},{"arcs":[[64,65,66]],"type":"Polygon","properties":{"pref":"宮城県","city":"富谷市","code5":"04216","code6":"042161"}},{"arcs":[[-26,67,68,69,70,71]],"type":"Polygon","properties":{"pref":"宮城県","county":"刈田郡","city":"蔵王町","code5":"04301","code6":"043010"}},{"arcs":[[-25,72,-68]],"type":"Polygon","properties":{"pref":"宮城県","county":"刈田郡","city":"七ヶ宿町","code5":"04302","code6":"043028"}},{"arcs":[[-21,-72,73,74,-31]],"type":"Polygon","properties":{"pref":"宮城県","county":"柴田郡","city":"大河原町","code5":"04321","code6":"043214"}},{"arcs":[[75,-29,-44,76,-74,-71,77]],"type":"Polygon","properties":{"pref":"宮城県","county":"柴田郡","city":"村田町","code5":"04322","code6":"043222"}},{"arcs":[[-32,-75,-77,-43,78]],"type":"Polygon","properties":{"pref":"宮城県","county":"柴田郡","city":"柴田町","code5":"04323","code6":"043231"}},{"arcs":[[79,-78,-70,80]],"type":"Polygon","properties":{"pref":"宮城県","county":"柴田郡","city":"川崎町","code5":"04324","code6":"043249"}},{"arcs":[[-23,-35,81,82]],"type":"Polygon","properties":{"pref":"宮城県","county":"伊具郡","city":"丸森町","code5":"04341","code6":"043419"}},{"arcs":[[-33,-79,-42,83,84]],"type":"Polygon","properties":{"pref":"宮城県","county":"亘理郡","city":"亘理町","code5":"04361","code6":"043613"}},{"arcs":[[-34,-85,85,-82]],"type":"Polygon","properties":{"pref":"宮城県","county":"亘理郡","city":"山元町","code5":"04362","code6":"043621"}},{"arcs":[[-54,86,87,88,-59,89]],"type":"Polygon","properties":{"pref":"宮城県","county":"宮城郡","city":"松島町","code5":"04401","code6":"044016"}},{"arcs":[[90,-38,-13,91]],"type":"Polygon","properties":{"pref":"宮城県","county":"宮城郡","city":"七ヶ浜町","code5":"04404","code6":"044041"}},{"arcs":[[92,-67,93,94,-88,95,-15,-37]],"type":"Polygon","properties":{"pref":"宮城県","county":"宮城郡","city":"利府町","code5":"04406","code6":"044067"}},{"arcs":[[96,97,98,-94,-66,99]],"type":"Polygon","properties":{"pref":"宮城県","county":"黒川郡","city":"大和町","code5":"04421","code6":"044211"}},{"arcs":[[-60,-89,-95,-99,100]],"type":"Polygon","properties":{"pref":"宮城県","county":"黒川郡","city":"大郷町","code5":"04422","code6":"044229"}},{"arcs":[[-61,-101,-98,101]],"type":"Polygon","properties":{"pref":"宮城県","county":"黒川郡","city":"大衡村","code5":"04424","code6":"044245"}},{"arcs":[[102,103,104,-62,-102,-97]],"type":"Polygon","properties":{"pref":"宮城県","county":"加美郡","city":"色麻町","code5":"04444","code6":"044440"}},{"arcs":[[-63,-105,105]],"type":"Polygon","properties":{"pref":"宮城県","county":"加美郡","city":"加美町","code5":"04445","code6":"044458"}},{"arcs":[[-6,106,-57,-47]],"type":"Polygon","properties":{"pref":"宮城県","county":"遠田郡","city":"涌谷町","code5":"04501","code6":"045012"}},{"arcs":[[-5,-55,-90,-58,-107]],"type":"Polygon","properties":{"pref":"宮城県","county":"遠田郡","city":"美里町","code5":"04505","code6":"045055"}},{"arcs":[[[-2,107]],[[108]]],"type":"MultiPolygon","properties":{"pref":"宮城県","county":"牡鹿郡","city":"女川町","code5":"04581","code6":"045811"}},{"arcs":[[-8,-46,-18,109]],"type":"Polygon","properties":{"pref":"宮城県","county":"本吉郡","city":"南三陸町","code5":"04606","code6":"046060"}},{"arcs":[[[110,-103,-100,-65,-93,-36,111,-30,-76,-80,112]],[[113,-39,-91]]],"type":"MultiPolygon","properties":{"pref":"宮城県","city":"仙台市","code5":"04100","code6":"041009"}}]}}}