{"type":"Topology","arcs":[[[4476,10315],[58,-22],[-1,-62],[34,-16],[62,-125],[47,-26],[32,-74],[66,-45],[71,25],[61,-23],[66,-4],[69,79],[55,-44],[71,23]],[[5167,10001],[88,-32],[34,-100],[-17,-37],[42,-37],[7,-59],[-30,-108],[83,-7],[41,35],[129,49],[75,72],[-20,46],[76,108],[68,17],[74,83],[55,-20],[104,12],[28,-18],[59,16]],[[6063,10021],[27,-60],[109,-5],[67,-38],[54,-10],[4,-39],[115,19],[66,24],[65,-21],[8,-75],[55,-51],[70,-153],[43,9]],[[6746,9621],[27,-22],[56,-142],[66,-72],[51,-22],[22,-40],[34,-138],[46,-72],[-59,-76],[1,-83],[-48,-65],[-58,-26]],[[6884,8863],[-36,-2],[-77,-63],[-73,-6],[-101,-62],[-18,4],[-119,-65],[-127,24],[-12,32],[-100,47],[-43,-5],[-62,-80],[-100,-26],[-25,-46],[-60,-8],[-22,-30],[-90,-35],[-72,23],[-43,-6],[-54,-40],[-43,6],[-48,-80],[12,-72],[-45,-3],[-109,43],[-28,-44],[-95,-36],[-40,-57],[11,-89],[21,-34],[-11,-84],[-118,13],[-27,69],[-52,-15],[-131,-5],[-31,-95],[37,-48],[110,8],[12,-36],[-13,-124],[-58,-34],[-5,-65],[-80,-61],[5,-86],[-53,-78],[-34,-7],[-31,-67],[15,-94],[-15,-27],[-94,-23],[-20,-27],[-14,-83],[-56,-27],[-2,-95],[-47,-31],[8,-46],[114,4],[45,-57],[2,-93],[16,-105],[29,-64],[94,-13],[19,-49],[44,-38],[-17,-48],[18,-48],[41,-27],[-80,-66],[44,-72],[45,-39],[43,-76],[3,-127],[-25,-46],[-85,-15]],[[4931,6006],[-61,23],[-26,-30],[-77,55],[-80,5],[-53,56],[41,72],[-58,32],[-81,-26],[0,71],[-19,76],[13,59],[57,34],[-78,34],[-35,43],[-37,-23],[-113,18],[-97,60],[-51,5],[-25,91],[25,34],[-13,47],[39,12],[10,74],[29,58],[-23,46],[-126,-38],[-26,-22],[-104,53],[76,50],[21,57],[-55,39],[-13,71],[-94,123],[-90,-19],[-132,18],[-5,60],[-80,13],[-41,49],[9,25],[-84,16],[-108,-62],[-77,84],[-18,70],[-64,37],[-73,-6]],[[3134,7550],[12,135],[14,257],[3,199],[-9,221],[-19,236],[-4,233],[-13,93],[-23,28],[-9,68],[-47,19],[-20,92],[24,26],[-14,54],[29,43],[-22,70],[9,64],[-55,-14],[28,-97],[-68,14],[22,37],[-36,32],[-27,100],[76,19],[-33,60],[-10,80],[-28,85]],[[2914,9704],[186,27],[-6,226],[-54,165],[4,47],[61,26],[27,-45],[58,33],[2,55],[52,19],[45,-38],[-14,-36],[41,-61],[45,9],[64,-106],[45,61],[79,12],[82,88],[60,-17],[72,-44],[66,17],[56,-19],[70,51],[98,-51],[73,1],[95,37],[54,-9],[5,43],[51,42],[-11,43]],[[4320,10280],[23,44],[65,11],[68,-20]],[[3963,15639],[99,-46],[35,-89],[28,9],[67,-62],[91,-60],[37,-82],[-20,-35],[-4,-201],[59,-72],[-2,-114],[24,-48],[78,3],[2,-109],[33,-24],[-12,-93],[-44,-18],[16,-57],[83,-15],[-30,-89],[61,-47],[49,-67],[32,15],[77,-35],[66,-58],[55,26],[112,21],[37,-32]],[[4992,14260],[-22,-60],[80,-119],[-36,-102],[-47,-31],[113,-14],[48,-43],[64,-11],[0,-42],[-39,-33],[-46,1],[-55,-31],[-82,12],[-22,-79],[-44,-55],[-42,13],[-52,-19],[-16,-147],[13,-86],[24,-29],[-7,-59],[-35,-95],[-23,-5],[-15,-81],[20,-33],[-28,-55],[5,-92],[-40,-58],[61,-132],[25,-22],[-45,-44],[-8,-44],[66,-26],[-1,-59],[-28,-82],[27,-13]],[[4805,12485],[-36,-27],[1,-56],[-84,-31],[-9,-53],[26,-38],[-49,-44]],[[4654,12236],[-55,20],[-121,118],[-11,89],[-71,14],[-59,-30],[-83,-1],[26,135],[-75,20],[4,37],[-27,81],[-60,42],[20,79],[1,69],[65,64],[-1,50],[31,61],[-87,33],[-141,-5],[-56,-38],[-82,-2],[-103,45],[-105,-32],[-73,70],[-36,73],[-92,35],[-42,38],[-57,-14],[-154,93],[-176,-80],[-57,41],[-84,-174],[-45,-43],[0,-81],[-63,9],[-106,-37],[-216,16],[-76,14]],[[2387,13045],[71,203],[97,325],[-1,67],[-70,14],[39,173],[56,-10],[24,113],[64,14],[-38,92],[35,44],[25,103],[-8,20],[34,87],[41,207]],[[2756,14497],[121,-15],[32,83],[66,42],[52,-52],[169,-10],[3,-51],[74,-2],[28,-101],[38,5],[-2,51],[78,-25],[1,-51],[53,-7],[38,50],[173,47],[69,7],[28,44],[-5,50],[40,117],[-37,61],[63,63],[-40,75],[-35,34],[26,30],[-11,89],[52,88],[-43,58],[-7,85],[26,51],[64,63],[44,93],[16,106],[-14,66],[47,-2]],[[8255,5376],[80,-50],[85,16],[31,-28],[-8,-105],[-21,-49],[110,-94],[39,-13],[-43,-72],[4,-38],[127,-41],[51,-143],[-91,-15],[-9,-70],[-30,-21],[-10,-65],[38,-33],[-38,-76],[6,-36],[76,6],[52,-33],[76,-5],[4,-249],[45,-4],[86,-60],[110,-52],[47,14],[48,-81],[103,-27],[71,-113],[99,-33],[-19,-40],[10,-81],[-113,-38],[-35,3],[-63,-107],[30,-49]],[[9203,3494],[-50,-27],[-8,-41],[-57,-38],[-142,-26],[-72,38],[-52,-27],[-38,-65],[-73,-30],[-90,-10],[-62,14],[-118,110],[-19,35],[-91,75],[-37,-33],[-117,7],[-73,-22],[11,-34],[-21,-72],[-93,15],[-32,-44],[-12,-64],[128,-125],[61,-181],[-31,-47],[21,-34],[63,-39],[53,27],[76,69],[41,-52],[81,-2],[77,-103],[-19,-69],[-34,-32],[74,-221],[-27,-85],[-43,-76]],[[8478,2285],[-50,10],[-114,51],[-101,10],[-54,77],[-79,7],[-44,-22],[-46,73],[-31,94],[-46,3],[-40,50],[13,69],[33,54],[-40,24],[-19,97],[49,32],[-13,77],[-47,30],[-14,91],[-59,127],[-53,-5],[-50,40],[-117,53],[-57,11],[-70,-41],[-146,-1],[17,-95],[-81,-77],[-84,56],[-37,106],[7,66],[57,27],[-27,47],[-146,90],[-143,-5],[-210,78],[-88,8],[-101,-21]],[[6447,3576],[-29,33],[-3,65],[-100,-6],[-34,53],[-36,1],[-5,96],[33,31],[-114,55],[-17,38],[-71,49],[0,41],[-191,-7],[-47,28],[-104,-18],[-130,-103]],[[5599,3932],[-45,39],[-11,51],[-89,24],[-4,37],[32,91],[56,76],[-2,108],[25,39],[101,5],[-18,104],[-98,71],[12,52],[-13,105],[-57,-26],[-62,76],[30,36],[-17,59],[-62,32],[-43,55],[-45,-23],[-89,11],[-16,63],[-122,2],[-29,29],[-103,-17],[10,54],[-22,95],[-28,35],[51,32],[54,-19],[123,18],[57,24],[86,12],[39,-14],[71,40]],[[5371,5308],[39,-51],[62,-22],[69,23],[29,36],[20,91],[93,59],[62,5],[9,-53],[41,-58],[78,8],[75,-20],[18,21],[-57,86],[16,37],[46,5],[96,-24],[87,13],[22,24],[84,2],[52,65],[87,28],[67,0],[15,-31],[101,33],[-2,-52],[49,-23],[-36,-101],[-8,-68],[7,-89],[-13,-120],[63,-6],[49,87],[61,21],[71,83]],[[6823,5317],[22,-48],[51,-6],[30,-55],[56,-36],[40,-73],[117,-52],[35,-44],[84,-20],[1,33],[-58,20],[-23,67],[77,9],[74,-71],[17,38],[10,114],[31,47],[132,7],[16,37],[197,-22],[38,-25],[100,57],[37,-12],[16,-59],[84,-35],[27,16],[14,63],[97,31],[8,22],[79,22],[23,34]],[[5608,16613],[116,113],[97,-23],[46,4],[49,89],[28,20],[75,-52],[9,-40],[80,-37],[98,55],[82,28],[87,-45],[-28,-58],[-4,-52],[31,-24],[4,-106],[54,-48],[134,60],[56,-25],[101,-10],[57,-71],[7,-56],[110,-46],[39,-52],[51,-30],[89,23],[78,6],[25,-48],[-9,-68],[-46,-13],[-5,-91],[72,11],[32,-19],[42,-71],[56,13],[101,-71],[68,16],[-9,82],[-57,50],[-53,90],[38,60],[142,5],[13,29],[112,13],[9,61],[40,-10],[79,-54],[19,-41],[53,-24],[100,9],[80,-71],[28,-86],[-32,-59],[73,14],[36,-22],[73,6],[91,34],[18,49],[81,13]],[[8424,16043],[-4,-128],[21,-97],[-6,-49],[47,-42],[8,-103],[78,-25],[45,-77],[42,-26],[15,-61],[-24,-42],[63,-10],[21,-89],[56,-48],[24,-51],[-9,-72],[-72,-39],[18,-56],[1,-73],[42,-52],[60,-152]],[[8850,14751],[-25,-12],[-31,-85],[59,-86],[-26,-60],[-6,-63],[41,-43],[-51,-33],[44,-43],[-13,-92],[-3,-141],[-117,-2],[135,-245],[24,-85],[-26,-47],[-80,36],[-134,14],[-18,-161],[36,-82],[8,-102],[52,2],[25,-64],[88,17],[36,-37],[90,6],[53,-25],[-5,-45],[-60,-96],[-5,-52],[-113,-32],[-13,-21],[20,-89],[-62,-78],[-11,-162],[13,-48],[-19,-49],[20,-88],[-45,-41],[-4,-65],[-42,-50],[-4,-39],[-65,-71],[-9,-47]],[[8607,12245],[-65,114],[2,114],[-87,49],[-43,-12],[-72,9],[-39,86],[-105,49],[-85,-27],[-20,65],[-81,-35],[-97,-78],[-89,70],[-53,3],[13,94],[-23,38],[23,119],[-4,110],[-31,9],[-62,70],[-251,55],[-69,0],[-31,74],[-50,10],[-3,78],[15,33],[-55,60],[-29,-11],[-38,-67],[-98,-46],[-21,35],[-79,42],[-98,-10],[46,67],[4,43],[-106,35],[47,65],[-60,46],[-31,95],[-44,42],[7,47],[59,60],[-19,125],[-93,46],[-49,44],[7,66],[26,43],[-6,84],[-106,10],[-94,60],[-13,91],[-25,10],[-201,-33],[-51,34],[-30,101],[45,45],[-63,77],[-36,16],[-25,76],[-69,77],[-4,46],[-86,97],[7,53],[-62,70],[-17,157],[4,85],[-66,48],[-6,32],[-67,3],[-51,31]],[[5654,15439],[3,66],[25,56],[-53,71],[-103,53],[-4,51],[-29,25],[3,76],[-14,106],[29,26],[0,62],[-33,83],[32,47],[-26,33],[20,63],[-4,63]],[[5500,16320],[34,18],[39,115],[-3,99],[38,61]],[[2153,12502],[103,-31],[6,-39],[-42,-49],[76,-42]],[[2296,12341],[-24,-75],[-48,-73],[-25,-74],[-128,-55],[-47,-80],[54,-134],[45,-27],[10,-66],[-58,-66],[-24,-51],[-95,-328],[33,-60],[130,-73],[52,-40],[248,-150]],[[2419,10989],[-114,-70],[-2,-125],[-18,-42],[-61,-75],[123,-138],[-1,-48]],[[2346,10491],[-150,102],[-219,101],[-100,24],[-135,5],[-51,-35],[-72,6],[-147,-20],[-63,-20],[43,-54],[-34,42],[-57,-78],[55,-17],[-106,-82],[38,-72],[61,18],[22,-62],[-100,-31],[-100,-5],[-1,39],[-61,24],[-78,-55],[-4,-52],[-55,-14],[-53,13],[-69,69],[-49,24],[-135,-31],[-40,-44],[-41,39],[-29,-12],[-10,-4],[-37,-22],[-7,-14],[0,0],[-31,-15],[-10,0],[-1,58],[-71,24],[-54,61],[3,57],[-30,31],[-11,146],[-18,29],[7,91],[-56,49],[-26,-25],[-59,21],[2,34],[-69,108],[-7,44],[-21,9],[-10,-1],[6,24],[1,-1],[-6,32],[-12,5],[10,15],[0,34],[1,0],[-7,16],[-2,1],[-27,22],[88,42],[58,-4],[18,85],[-58,64],[-70,-19],[0,5],[-41,32],[-7,80],[5,5],[0,0],[2,18],[-7,8],[0,0],[0,0],[5,11],[-1,2],[0,0],[0,2],[3,21],[-38,18],[-21,13],[1,16],[0,0],[0,0],[1,1],[1,1],[2,8],[-3,5],[4,1],[8,4],[1,8],[0,0],[-4,47],[16,88],[-17,30],[52,78],[28,-28],[0,0],[70,-111],[26,-64],[62,-59],[40,-5],[53,28],[55,-50],[215,-44],[46,-48],[102,-32],[26,-66],[101,-42],[100,11],[189,72],[118,65],[118,87],[118,98],[107,112],[143,170],[189,264],[185,332]],[[32,11910],[24,-33],[-27,4],[-9,10],[-1,0],[13,19]],[[55,11436],[1,0],[-1,-1],[0,1]],[[72,11054],[0,0],[0,-1],[0,1]],[[9109,886],[-89,-19],[-17,-28],[-96,-46],[-76,-122],[1,-33],[-137,-146],[-60,36],[-54,-45],[-73,-20],[-47,-44],[-9,-54],[-52,-48],[-17,-67],[-91,-31],[-133,-58],[-40,-49],[-89,56],[-82,12],[-41,34],[-52,-13],[-21,-61],[-72,-15],[-48,19],[-174,-89],[-26,-38],[-66,-17],[-68,32],[-10,69],[-51,66],[3,20],[-103,100],[-81,-34],[-15,23],[-73,7],[-91,-56],[-46,1],[-47,41],[-18,34],[0,44],[-107,86],[-113,17],[-42,42],[2,52],[-31,89],[-57,37],[-18,85],[34,65],[1,70],[-33,49],[12,88],[-41,14],[-8,77],[-67,17],[-51,102],[-96,5],[-58,-24],[-26,40],[-47,-22],[-97,-5],[-61,32],[-106,14],[-35,90],[-56,54],[-22,155],[-63,-6],[-85,21],[-41,32],[-63,17],[-26,44]],[[5447,1684],[26,57],[91,56],[-12,53],[-53,47],[-12,97],[82,97],[-11,102]],[[5558,2193],[26,-13],[76,26],[33,83],[65,7],[7,52],[104,18],[124,50],[99,167],[27,16],[-6,105],[34,46],[68,-5],[77,100],[31,181],[61,61],[68,-61],[121,124],[-11,46],[-77,112],[-51,149],[-12,65],[25,54]],[[8478,2285],[42,-79],[-30,-204],[56,-21],[30,-63],[104,-75],[17,-170],[-43,-69],[39,-15],[-19,-53],[-37,-28],[19,-56],[54,-6],[82,-67],[-26,-103],[66,-97],[30,-5],[51,-61],[147,-145],[49,-82]],[[10578,16129],[53,2],[78,93],[79,-41],[92,7],[88,41],[112,-40],[3,-56],[-50,-41],[24,-59],[-10,-67],[38,-26],[13,-85],[-25,-68],[52,-107],[27,-13],[12,-71],[-33,-29],[35,-126],[-18,-31],[-102,-93],[-63,8],[-73,64],[-21,-37],[48,-96],[-52,-97],[1,-52],[-32,-16],[-14,-69],[3,-89],[-36,-57],[-61,-20],[-20,-30],[5,-84],[67,-8],[45,-56],[-29,-24],[-13,-88],[-47,-71],[-13,-67],[80,-108],[-71,-8],[-57,-69],[18,-121],[-70,-27],[-85,-2],[-55,-26],[-106,-13],[-10,-42],[-73,-46],[22,-49],[-76,-88],[25,-86],[-171,-146],[-34,-5],[-79,-65],[19,-59],[65,-67],[55,14],[59,-19],[7,-56],[-74,-110],[-63,-130],[59,-85],[-22,-69],[61,-8],[6,-97],[-17,-80],[-45,-72],[-76,-65],[-49,14],[-51,-52],[-3,-35],[-58,-34],[23,-98],[32,-39],[2,-84],[36,-70],[-6,-109],[-36,-47],[11,-63],[33,-36],[-21,-40],[20,-47],[-55,-61],[15,-149],[-23,-62],[-11,-121],[9,-175]],[[9901,11318],[-84,63],[-52,6],[-47,42],[-58,18],[-69,42],[-72,-25],[-17,-39],[-76,11],[-96,-69],[-95,9],[-58,-27],[-59,18],[1,57],[-48,23],[-5,63],[38,37],[-48,70],[-34,1],[-60,94],[-55,27]],[[8907,11739],[4,100],[-72,28],[-27,51],[-48,13],[-18,43],[-56,31],[-3,32],[-54,45],[-26,163]],[[8850,14751],[176,-68],[69,100],[43,-85],[70,5],[13,64],[40,71],[-35,60],[55,100],[-28,63],[20,48],[49,-3],[-13,-69],[72,24],[49,59],[-62,92],[32,39],[-12,46],[39,98],[-49,47],[148,46],[55,64],[-1,46],[34,32],[28,75],[52,49],[-19,33],[-6,90],[-27,45],[78,100],[12,105],[118,49],[38,-38],[20,-78],[29,-49],[101,-37],[216,24],[24,31],[73,37],[30,-18],[146,29],[6,43],[45,9]],[[4931,6006],[24,-121],[-18,-36],[76,-107],[134,-46],[41,10],[65,-43],[-15,-101],[-68,-68],[-74,-7],[7,-60],[76,-4],[154,-33],[38,-82]],[[5599,3932],[-48,-63],[-36,46],[-47,-29],[-51,20],[-111,-13],[-26,13],[-69,-36],[-55,4],[-95,-17],[-19,-32],[-98,-1],[-1,-28],[-84,-28],[-49,-36],[-56,-71],[-57,4],[-34,25],[-42,-19],[-27,38],[-60,-23],[-8,-92],[46,-26],[22,-47],[3,-77],[31,-58],[47,-47],[84,34],[76,-91],[-9,-53],[30,-21],[52,-81],[64,-18],[51,-85],[17,-129],[89,-57],[37,-72],[58,-53],[12,-105],[70,-74],[28,-69],[9,-86],[41,-16],[74,6],[91,-117],[9,-59]],[[5447,1684],[-88,-37],[-1,-65],[-69,-119],[-73,37],[-67,10],[-20,61],[-64,43],[-123,47],[-35,-13],[-35,36],[-42,-17],[-37,-51],[-60,26],[-78,-33],[-80,-5],[-48,41],[-183,49],[36,185],[-31,64],[-106,19],[-8,-30],[-111,-13],[-33,-66],[-74,34],[-43,-54],[-57,1],[-60,127],[-55,43],[-65,-26],[-44,9],[-68,46],[-17,99],[-104,56],[-165,20],[-86,19],[-95,63],[40,71],[-36,75],[-12,67],[8,210]],[[3158,2713],[30,106],[-21,69],[3,117],[-90,70],[-50,21],[-42,44],[26,109],[71,92],[-9,48],[10,141],[37,153],[-52,76],[-88,54],[-27,54],[-52,55],[44,104],[-139,101],[-68,-24],[-105,110],[-51,121],[3,74],[-53,77],[4,34],[-88,65]],[[2451,4584],[49,93],[61,156],[34,54],[70,185],[70,221],[16,110],[29,101],[27,44],[24,101],[79,375],[99,494],[49,351],[-9,100],[35,122],[-2,59],[22,71],[30,329]],[[2914,9704],[-44,115],[-82,157],[-130,195],[-95,114],[-117,118],[-100,88]],[[2419,10989],[302,-78],[38,-5]],[[2759,10906],[151,-148],[311,-12],[151,9],[110,-106],[54,-98],[35,-7],[44,-90],[122,-53],[5,-48],[34,-10],[73,29],[47,-43],[49,28],[80,-97],[53,-28],[141,-8],[101,56]],[[8892,7218],[-26,-72],[16,-62],[89,-64],[15,-111],[-18,-29],[-23,-125],[-37,10],[-65,-41],[-16,-150],[-26,8],[-52,-59],[-4,-53],[49,-95],[47,-46],[-68,-21],[-157,-112]],[[8616,6196],[-70,117],[-101,23],[-74,91],[-22,-11],[-53,58],[-89,-7],[-25,39],[-73,6],[-132,-29],[-68,-37],[-167,-30],[-40,-22],[-20,-53],[-119,-23],[0,33],[-95,16],[-38,-8],[-22,-87],[-40,-47],[20,-27],[-8,-103],[32,-45],[-204,-65],[-16,-33],[-73,-33],[-16,-43],[-77,0],[-20,-55],[61,-108],[-30,-85],[-77,18],[41,-101],[5,-77],[-63,-2],[-45,46],[-38,-43],[-62,42],[-17,-39],[33,-31],[-10,-73],[19,-51]],[[6884,8863],[-17,-61],[26,-66],[-7,-46],[25,-33],[7,-66],[35,-53],[-78,-63],[-34,-222],[-27,-42],[-74,-48],[-54,-93],[-15,-97],[-27,-67],[-7,-137],[-31,-17],[19,-62],[43,-48],[-18,-44],[65,-55],[57,-28],[78,4],[19,-63],[41,-33],[-6,-82],[32,-44],[-24,-46],[63,-105],[94,-30],[77,16],[21,-69],[48,18],[50,55],[-10,59],[99,66],[20,64],[-17,54],[14,34],[57,-4],[142,-97],[58,7],[105,-22],[52,132],[66,-21],[163,-87],[26,-48],[42,-17],[128,110],[35,-11],[81,41],[78,-49],[112,-5],[74,118],[57,-58],[53,-27],[64,18],[38,-44],[65,-32],[25,-99]],[[6063,10021],[0,38],[-81,65],[-18,61],[15,51],[-11,74],[-29,71],[-2,63],[-63,64],[-17,73],[-38,46],[39,154],[-46,137],[-50,68],[-46,9],[-5,56],[18,50],[-34,16],[-20,64],[28,38],[-25,75],[14,52],[-44,91],[50,80],[79,28],[21,47],[51,39],[-24,45],[1,51],[-44,29],[-30,53],[-62,60],[4,58],[-49,38],[78,86],[27,12],[42,84],[80,118],[-40,70],[33,89],[-49,131],[-4,83],[21,42],[-198,-2],[-25,15],[-73,-56],[-115,-44],[-65,99],[-19,-69],[-80,-30],[-50,16],[-106,-135],[-187,-8],[-81,30],[-29,-11]],[[4992,14260],[99,124],[25,-15],[166,31],[10,97],[31,43],[79,64],[-13,30],[44,124],[-40,129],[22,102],[69,47],[-4,68],[28,22],[-6,72],[133,187],[19,54]],[[8907,11739],[-82,-35],[-68,9],[-6,-83],[-121,-51],[-22,-29],[-16,-108],[-33,-41],[-159,-40],[37,-43],[-38,-42],[-71,-31],[-44,-81],[-1,-40],[-107,-79],[-108,-10],[-39,-49],[43,-142],[10,-87],[-26,-70],[-65,-93],[-52,-10],[-51,-49],[-122,20],[-43,-16],[-30,45],[-44,16],[-25,43],[-109,-6],[-76,-53],[-34,-51],[-92,-30],[-74,0],[-17,-100],[9,-109],[-69,-50],[-9,-61],[-36,-28],[-81,-12],[-39,-69],[4,-54],[32,-48],[28,-142],[-38,-67],[-38,-4],[-143,-56],[-27,10],[-69,-92]],[[3158,2713],[-469,-109],[-87,-75],[-28,-108],[-398,122],[-21,-46],[-340,63],[-313,-6],[64,66],[69,93],[-20,62],[26,99],[72,63],[35,81],[58,195],[10,107],[-22,82],[-95,50],[14,88],[75,117],[28,98],[74,157],[-42,109],[79,210],[101,104],[122,2],[125,33],[55,27],[47,58],[74,129]],[[9901,11318],[80,-66],[-2,-92],[-33,-27],[-7,-54],[41,-56],[-21,-81],[86,-68],[29,-53],[-3,-125],[61,-58],[42,-112],[-16,-95],[-66,-34],[-58,4],[-52,-18],[-38,-40],[-84,59],[-125,139],[-125,-59],[-64,3],[-60,23],[-71,-77],[-27,0],[-51,-67],[15,-118],[40,-43],[-21,-179],[-27,-41],[32,-82],[66,-22],[77,-62],[83,26],[81,-32],[18,-49],[146,-53],[48,-70],[9,-52],[-70,-49],[-47,-80],[-78,-68],[-51,-26],[-33,-97],[-89,-61],[6,-94],[-73,-67],[-80,-31],[-64,-3],[-51,-36],[61,-33],[13,-61],[73,-104],[21,-62],[93,13],[40,-29],[0,-100],[50,-78],[59,-32],[-36,-81],[30,-73],[9,-80],[-24,-132],[18,-25],[-59,-44],[-31,-98],[-41,-56],[12,-74],[-50,-56],[21,-63],[-83,-102],[-111,11],[-61,-136],[-95,-33],[-18,-55],[-47,-67],[-20,-57],[-64,-19],[-57,-37],[-85,6]],[[10177,17058],[-17,-123],[-144,-602],[267,-180],[38,19],[85,1],[36,-21],[71,42],[65,-65]],[[8424,16043],[24,28],[74,30],[2,90],[101,25],[29,-24],[115,4],[12,-67],[48,-47],[91,-8],[19,126],[-36,27],[24,42],[-3,54],[62,-18],[98,12],[35,67],[51,59],[57,28],[26,-28],[124,63],[36,-29],[21,-54],[85,-7],[37,96],[7,124],[26,92],[-8,89],[35,14],[46,72],[54,6],[88,85],[72,34],[63,-22],[238,52]],[[5167,10001],[46,51],[40,99],[-16,48],[3,91],[-57,54],[34,126],[-47,107],[9,112],[-43,135],[24,83],[-28,79],[-58,-9],[-25,29],[-63,-15],[-10,42],[-72,60],[10,42],[-49,82],[-84,53],[-34,56],[44,104],[-19,141],[-62,19],[-76,66],[20,93],[-11,72]],[[4643,11821],[28,62],[45,37],[-21,45],[30,82],[-42,24],[15,68],[-44,97]],[[3546,16283],[114,6],[106,16],[30,17],[90,-15],[36,-33],[94,45],[155,19],[60,-16],[82,-52],[113,40],[12,-26],[74,-50],[192,64],[77,48],[132,-12],[107,55],[76,-12],[92,14],[26,-35],[49,-10],[16,-56],[98,21],[123,9]],[[3963,15639],[27,70],[40,41],[-59,33],[-29,52],[20,82],[-43,27],[-99,-27],[-97,50],[-71,-8],[-45,-32],[-57,57],[-5,93],[-62,13],[22,65],[3,106],[38,22]],[[4643,11821],[-39,-33],[-96,16],[-69,58],[-118,14],[-36,-27],[-54,3],[-94,-66],[-49,65],[-108,2],[-49,-65],[-54,-24],[-61,-54],[-62,8],[-36,-45],[-6,-43],[-48,0],[-44,-32],[46,-52],[-5,-30]],[[3661,11516],[-34,10],[-239,-48],[-92,83],[1,34],[-86,9]],[[3211,11604],[16,240],[7,315],[-42,112],[-64,112],[-62,47],[-270,128],[-31,39],[-127,56],[-20,61],[-121,0],[-15,-95],[-23,-61],[-40,-21],[39,-54],[-16,-44],[-102,-49],[-44,-49]],[[2153,12502],[31,59],[139,318],[64,166]],[[3209,16627],[49,-44],[37,23],[130,-83],[51,-62],[-18,-39],[15,-55],[51,-33],[22,-51]],[[2756,14497],[50,325],[23,195],[17,253],[-3,117],[-23,80],[-72,63],[-11,84],[-34,37],[-51,5],[-38,43],[-101,35],[-61,48],[0,83],[-15,26],[-78,19],[-16,39],[-167,99],[-33,97],[-68,58],[125,28],[77,41],[37,-47],[81,-39],[100,14],[73,48],[63,4],[46,-58],[42,-14],[89,36],[32,106],[-45,72],[40,68],[55,49],[61,32],[77,-1],[103,68],[78,17]],[[4476,10315],[8,150],[-51,33],[-42,-4],[-173,27],[-19,57],[-64,59],[-70,-28],[-40,12],[-57,-22],[-64,30],[9,50],[-24,51],[-77,17],[-46,78],[-2,50],[-119,30],[2,47],[-110,38],[-43,-30],[-57,24],[-124,10],[-31,23],[-150,30]],[[3132,11047],[24,33],[55,1],[59,36],[44,-15],[69,38],[131,-3],[25,29],[-118,6],[-9,63],[48,23],[-62,55],[39,92],[127,-83],[47,-3],[-1,49],[35,28],[-4,86],[20,34]],[[3128,11045],[-96,-69],[-273,-70]],[[2759,10906],[194,166],[48,47]],[[3001,11119],[54,-42],[53,-4],[20,-28]],[[3132,11047],[-4,-2]],[[3001,11119],[60,60],[85,175],[62,201],[3,49]],[[8616,6196],[-74,-31],[-108,-171],[6,-33],[68,-83],[-4,-131],[-35,-66],[-88,-7],[-108,-37],[5,-51],[42,-57],[-41,-33],[-49,-102],[25,-18]],[[9361,1527],[-43,-55],[-10,-63],[-124,-84],[30,-58],[-34,-56],[5,-39],[40,-44],[9,-54],[39,-75],[-21,-58],[11,-56],[-89,-11],[-65,12]],[[9203,3494],[8,-42],[-23,-70],[52,-44],[67,13],[18,-29],[66,-35],[76,14],[74,-69],[16,-52],[-77,-33],[-23,14],[-67,-42],[-18,-60],[-66,19],[-40,-10],[-27,-86],[-45,-73],[-81,-90],[-55,-34],[12,-75],[58,-4],[104,-91],[-29,-41],[-92,-22],[1,-61],[62,-35],[-62,-126],[-26,-112],[48,-7],[40,-50],[75,-20],[59,36],[57,-31],[125,-27],[38,-62],[-43,-81],[50,-52],[-1,-60],[-37,-27],[-12,-51],[-51,-30],[22,-59],[-8,-56],[-37,-68],[-50,-46]]],"transform":{"scale":[0.00011648396919219001,0.00009597197795755662],"translate":[139.69458,38.87316]},"objects":{"japan":{"type":"GeometryCollection","geometries":[{"arcs":[[0,1,2,3,4,5,6,7,8]],"type":"Polygon","properties":{"pref":"秋田県","city":"秋田市","code5":"05201","code6":"052019"}},{"arcs":[[9,10,11,12,13,14]],"type":"Polygon","properties":{"pref":"秋田県","city":"能代市","code5":"05202","code6":"052027"}},{"arcs":[[15,16,17,18,19,20,21]],"type":"Polygon","properties":{"pref":"秋田県","city":"横手市","code5":"05203","code6":"052035"}},{"arcs":[[22,23,24,25,26,27]],"type":"Polygon","properties":{"pref":"秋田県","city":"大館市","code5":"05204","code6":"052043"}},{"arcs":[[[28,29,30,31]],[[32]],[[33]]],"type":"MultiPolygon","properties":{"pref":"秋田県","city":"男鹿市","code5":"05206","code6":"052060"}},{"arcs":[[35,36,37,-18,38]],"type":"Polygon","properties":{"pref":"秋田県","city":"湯沢市","code5":"05207","code6":"052078"}},{"arcs":[[39,40,41,-25,42]],"type":"Polygon","properties":{"pref":"秋田県","city":"鹿角市","code5":"05209","code6":"052094"}},{"arcs":[[-6,43,-20,44,-37,45,46,47]],"type":"Polygon","properties":{"pref":"秋田県","city":"由利本荘市","code5":"05210","code6":"052108"}},{"arcs":[[-8,48,-31,49,50]],"type":"Polygon","properties":{"pref":"秋田県","city":"潟上市","code5":"05211","code6":"052116"}},{"arcs":[[51,52,-21,-44,-5,53]],"type":"Polygon","properties":{"pref":"秋田県","city":"大仙市","code5":"05212","code6":"052124"}},{"arcs":[[-3,54,-11,55,-26,-42,56]],"type":"Polygon","properties":{"pref":"秋田県","city":"北秋田市","code5":"05213","code6":"052132"}},{"arcs":[[-47,57]],"type":"Polygon","properties":{"pref":"秋田県","city":"にかほ市","code5":"05214","code6":"052141"}},{"arcs":[[58,-54,-4,-57,-41]],"type":"Polygon","properties":{"pref":"秋田県","city":"仙北市","code5":"05215","code6":"052159"}},{"arcs":[[59,-43,-24,60]],"type":"Polygon","properties":{"pref":"秋田県","county":"鹿角郡","city":"小坂町","code5":"05303","code6":"053031"}},{"arcs":[[-2,61,62,-12,-55]],"type":"Polygon","properties":{"pref":"秋田県","county":"北秋田郡","city":"上小阿仁村","code5":"05327","code6":"053279"}},{"arcs":[[63,-27,-56,-10,64]],"type":"Polygon","properties":{"pref":"秋田県","county":"山本郡","city":"藤里町","code5":"05346","code6":"053465"}},{"arcs":[[-13,-63,65,66,67,-29,68]],"type":"Polygon","properties":{"pref":"秋田県","county":"山本郡","city":"三種町","code5":"05348","code6":"053481"}},{"arcs":[[69,-65,-15,70]],"type":"Polygon","properties":{"pref":"秋田県","county":"山本郡","city":"八峰町","code5":"05349","code6":"053490"}},{"arcs":[[[-1,71,72,-66,-62]],[[73,74,75]]],"type":"MultiPolygon","properties":{"pref":"秋田県","county":"南秋田郡","city":"五城目町","code5":"05361","code6":"053619"}},{"arcs":[[-67,-73,76,-76,77]],"type":"Polygon","properties":{"pref":"秋田県","county":"南秋田郡","city":"八郎潟町","code5":"05363","code6":"053635"}},{"arcs":[[-9,-51,-74,-77,-72]],"type":"Polygon","properties":{"pref":"秋田県","county":"南秋田郡","city":"井川町","code5":"05366","code6":"053660"}},{"arcs":[[-30,-68,-78,-75,-50]],"type":"Polygon","properties":{"pref":"秋田県","county":"南秋田郡","city":"大潟村","code5":"05368","code6":"053686"}},{"arcs":[[78,-22,-53]],"type":"Polygon","properties":{"pref":"秋田県","county":"仙北郡","city":"美郷町","code5":"05434","code6":"054348"}},{"arcs":[[-19,-38,-45]],"type":"Polygon","properties":{"pref":"秋田県","county":"雄勝郡","city":"羽後町","code5":"05463","code6":"054631"}},{"arcs":[[79,-39,-17,80]],"type":"Polygon","properties":{"pref":"秋田県","county":"雄勝郡","city":"東成瀬村","code5":"05464","code6":"054640"}}]}}}