{"type":"Topology","arcs":[[[5135,3912],[18,-108],[29,-48],[-54,-99],[-84,29],[-19,-66],[-42,-7],[0,-63],[23,-61],[-48,-55],[-78,-17],[-2,-124],[-18,-59],[1,-93],[26,-25],[-18,-63],[34,-87],[15,-119],[-55,-73],[-11,-86],[-82,-38],[-32,-47]],[[4738,2603],[-52,42],[-83,-14],[-121,30],[-59,69],[-98,-33],[-107,53],[-126,23],[-55,23],[13,66],[-51,30],[-100,-66],[-21,55],[-40,5],[-15,-48],[-54,-45],[-57,33],[-23,64],[20,36],[-36,42],[-11,60],[-50,10],[-106,-10],[-52,43],[-22,44],[-58,-11]],[[3374,3104],[-28,5]],[[3346,3109],[47,60],[46,28],[56,-22],[32,93],[-40,26],[34,71],[-32,21],[9,46],[60,0],[38,-27],[45,15],[80,-23],[130,56],[-3,71],[48,53],[17,56],[-22,42]],[[3891,3675],[68,25],[41,49],[4,87],[34,24]],[[4038,3860],[65,-25],[37,-79],[93,-11],[60,-26],[171,-42],[58,2],[27,33],[44,-37],[38,42],[78,43],[7,52],[28,30],[123,-12],[63,38],[119,25],[51,33]],[[5100,3926],[35,-14]],[[3802,1167],[-14,-35],[13,-98],[19,-38],[-30,-28],[26,-76],[-22,-75],[9,-94],[-28,-85],[35,-65],[114,-57],[44,-47],[-87,-60],[0,-40],[-31,-65],[-53,-16],[-59,-93],[-56,-39],[-37,-76],[-172,8],[-25,32],[-145,21],[-54,4],[-82,-26],[-31,-84],[-67,-35],[-131,23],[-81,130],[-93,-1],[-23,63],[-85,72],[-57,-71],[-143,-25],[-43,-29],[-50,-5],[-76,48],[4,48],[-60,64],[8,23],[-46,52],[11,65],[-22,57],[-90,44],[-19,41]],[[2073,599],[11,26],[-23,78],[20,140],[57,52]],[[2138,895],[54,45],[75,12],[43,33],[-13,43],[138,12],[32,19],[54,90],[62,34],[-16,71],[13,56],[66,-5],[58,52],[-29,48],[80,85],[129,55],[67,-47],[35,36]],[[2986,1534],[80,3],[7,-64],[52,54],[75,-62],[42,-12],[32,-122],[-10,-28],[119,-38],[1,-76],[42,-83],[-5,-47],[92,-28],[51,30],[8,49],[38,51],[42,16],[42,-13],[81,35],[27,-32]],[[2539,5164],[-121,-35],[-74,-42],[-46,-51],[-81,-53],[-54,-19],[-37,-57],[-67,-12],[1,-64],[38,-29],[-83,-65],[27,-68],[-32,-121],[43,-11],[6,-93],[-39,-84],[-45,-9],[-21,-51],[36,-110],[-42,-43],[-17,-49],[38,-77],[-79,-118],[4,-53],[-41,-57],[-64,-30],[-43,-60]],[[1746,3703],[-50,57],[-92,69],[4,39],[-111,14],[-9,34],[-47,36],[-68,-6],[-73,-40],[-30,27],[-69,-1],[-48,52],[-49,-13],[-101,79],[-10,64],[-47,80],[-51,-46],[-40,43],[6,89],[59,85],[-3,71],[19,118],[-26,55],[-17,78],[21,46],[51,48],[-26,63],[-100,33],[-46,33],[-52,-12],[-110,22],[-47,-9],[-65,25],[-48,69],[-92,29],[-75,-26],[-21,29],[-204,117],[-46,49],[-10,60],[61,83],[34,125],[32,28],[97,184],[32,86],[81,174],[96,110],[35,-13],[78,69],[11,38],[44,18],[10,47],[44,45],[54,-8],[92,86],[-11,19],[58,102],[135,115],[68,44],[80,159]],[[1154,6774],[36,23],[98,-1],[31,65],[158,-18],[1,40]],[[1478,6883],[6,-50],[-30,-104],[-46,7],[3,-57],[171,-17],[10,-48],[44,-73],[-27,-61],[36,-30],[61,1],[13,70],[54,63],[47,100],[-2,33],[-63,24],[-50,119],[-29,20],[43,62]],[[1719,6942],[26,-36],[51,-2],[61,-26],[16,-49],[95,-67],[16,-66],[36,-6],[113,-141],[-19,-68],[76,-26],[79,22],[102,-39],[10,-104],[19,-40],[-53,-65],[-16,-44],[27,-39],[-20,-34],[9,-67],[-11,-91],[-20,-53],[22,-72],[44,-83],[-39,-139],[17,-73],[43,-53],[99,-47],[17,-107],[41,-85],[-21,-78]],[[2729,8633],[58,-38],[153,-24],[64,-34],[10,-60],[68,-34],[40,16],[34,-26],[36,-77]],[[3192,8356],[-83,-41],[-19,-57],[-88,-58],[37,-95],[-23,-96],[-36,-10],[7,-51],[67,-27],[34,16],[68,-44],[17,-42],[-50,-58],[33,-62],[-33,-46],[-57,12],[-28,-26],[4,-106],[88,-86],[-102,-90],[-5,-93],[11,-57]],[[3034,7239],[-34,-28],[-113,-36],[-25,-133],[131,-45],[25,-27],[-2,-65]],[[3016,6905],[-29,-22],[-116,11],[-66,-31],[33,-94],[-51,-11],[-41,-57],[-54,2],[-90,-84],[-31,8]],[[2571,6627],[-24,71],[-46,35],[-120,-3],[-13,84],[-74,62],[-65,-2],[8,81],[-90,34],[-42,45],[25,25],[-74,57],[35,15],[24,54],[-41,53],[-182,72],[15,-53],[-28,-43],[-83,-24],[8,-60],[-13,-49],[-47,12],[-42,50],[-92,34],[-1,-40],[48,-27],[-5,-46],[23,-106],[16,0]],[[1691,6958],[-5,-20],[-85,-10],[-170,89],[3,-108],[44,-26]],[[1154,6774],[82,204],[81,245],[56,200],[35,170],[39,88],[62,95],[-56,16],[38,91],[35,-8],[39,74]],[[1565,7949],[89,-58],[51,26],[5,69],[44,64],[105,-17],[19,-44],[94,-14],[27,-22],[83,11],[45,35],[83,21],[38,38],[32,-8],[54,35],[133,12],[96,230],[41,11],[-6,77],[14,68],[104,86],[13,64]],[[47,9368],[75,-63],[-77,-52],[-45,29],[45,50],[2,36]],[[4981,7422],[11,-21]],[[4992,7401],[-51,-127],[5,-102],[-51,-26],[-85,-85],[-45,-18],[-76,-136],[-37,-10],[-56,-105],[34,-49],[-35,-107],[-28,-8],[-125,-162]],[[4442,6466],[-22,-34],[-81,7],[-51,-31],[-4,-34],[-49,-55],[-119,-38],[-71,-50],[-4,-33],[-55,-54],[-69,22],[-42,-36],[-72,11],[-33,-15]],[[3770,6126],[9,58],[-28,63],[-146,39],[-95,-30],[-35,-40],[-35,18]],[[3440,6234],[-26,45],[47,20],[3,73],[26,33],[-44,94],[46,12],[41,41]],[[3533,6552],[21,18],[110,14],[30,-23],[33,36],[85,28],[17,59],[-56,32],[62,74],[37,13],[65,88],[48,33],[60,5],[-4,59],[-56,34],[-52,10]],[[3933,7032],[10,50]],[[3943,7082],[105,-22],[35,27],[128,-15],[44,-22],[75,14],[42,-17],[59,18],[84,77],[2,38],[84,16],[37,-15],[87,90],[227,154],[29,-3]],[[3492,5077],[66,-73],[85,-32],[14,-87],[36,-64],[9,-104],[33,-27]],[[3735,4690],[47,-47],[-12,-51],[-35,-37],[35,-162],[49,-50],[-12,-46],[78,11],[26,-44],[10,-67],[58,-34],[29,-39],[68,-15],[13,-34]],[[4089,4075],[-23,-65],[-44,-38],[5,-68],[-17,-20]],[[4010,3884],[-3,34],[-68,23],[-7,-58],[-47,-19],[-65,20],[8,65],[-51,-7],[-4,-4],[-62,-26],[-98,-23],[-44,-25]],[[3569,3864],[16,94],[-39,75],[-45,47],[40,33],[6,36],[-56,37],[-90,-11],[-49,55]],[[3352,4230],[95,46],[-33,27],[38,146],[-78,45],[0,66],[-28,61],[12,62],[32,31],[-73,124],[-123,118]],[[3194,4956],[49,79],[98,56],[55,-14],[96,0]],[[4738,2603],[-17,-50],[16,-38],[-77,-19],[-37,-47],[9,-29],[-43,-76],[17,-112],[-16,-31],[-110,-70],[-86,1],[12,-33],[-39,-44],[-102,7],[-58,-33],[-155,32],[-55,-27],[-80,33],[-63,-20]],[[3854,2047],[-42,20],[-40,83],[-71,58],[-75,6]],[[3626,2214],[23,73],[-75,29],[-55,1],[-14,76],[-58,19],[-74,70],[-13,55],[123,25],[19,35],[-40,55],[21,83],[-41,25],[18,91],[-29,19],[-19,64],[1,93],[-39,77]],[[3492,5077],[48,79],[94,34],[31,112]],[[3665,5302],[28,9]],[[3693,5311],[65,16],[47,-27],[57,-7],[71,67],[114,8],[62,-64],[13,-35],[68,-33],[139,-45],[55,-40],[32,111],[101,45]],[[4517,5307],[133,-68],[44,-48],[-6,-102],[-32,-69],[31,-57],[79,-31],[54,-46],[13,-39],[-13,-61]],[[4820,4786],[-52,-1],[-44,-23],[-21,-60],[-36,-25],[-56,3],[-54,-19],[-149,11],[-2,18],[-152,-9],[31,-48],[-71,-50]],[[4214,4583],[-69,16],[-77,-3],[-109,44],[-44,32],[-126,27],[-54,-9]],[[1965,3256],[81,-78],[64,-23],[5,-62],[-23,-76],[103,-32],[-14,-33],[64,-86],[39,-34]],[[2284,2832],[79,1],[115,-31],[137,-101],[61,-26],[-9,-62],[92,-53],[44,-4],[74,-44],[35,57],[66,-59]],[[2978,2510],[-24,-38],[18,-65],[-64,-96],[1,-44],[-43,-74],[-94,-89]],[[2772,2104],[-31,8],[-48,-106],[-65,2],[-71,-48]],[[2557,1960],[-46,71],[17,104],[-52,9],[6,50],[-86,30],[-74,43],[-159,-32],[-128,94],[-121,-5],[-44,48]],[[1870,2372],[-21,91],[-37,60],[0,38],[40,62],[-13,41],[-39,10],[-32,90],[9,113],[-18,82],[74,83],[40,24],[19,56],[-3,61],[50,67],[26,6]],[[4038,3860],[-28,24]],[[4089,4075],[19,48],[45,28],[-27,32],[23,50]],[[4149,4233],[83,-24],[87,33],[40,-30],[152,-11],[15,24],[104,36],[50,-9],[4,-40],[68,-63],[87,-61],[30,-53],[39,-6],[117,-94],[75,-9]],[[5473,4489],[-23,-45],[-18,-83],[-33,-33],[13,-118],[19,-23],[-55,-49],[-23,-51],[-56,-5],[-37,-79],[-62,-12],[-38,-29],[-25,-50]],[[4149,4233],[41,35],[-22,84],[47,72],[-37,30],[-6,85],[42,44]],[[4820,4786],[63,-39],[36,27],[59,6],[126,-20],[74,-165],[51,23],[75,-11],[16,-31],[53,-26],[57,15],[43,-76]],[[5649,4579],[-115,-115],[-61,25]],[[4517,5307],[-12,121],[-89,6],[-28,58],[9,50],[-26,75],[26,38],[-47,28],[-27,69],[-47,-4],[-161,71],[-60,-15]],[[4055,5804],[24,103],[-38,89],[29,29],[36,-23],[97,29],[68,34],[92,-22],[46,57],[94,58],[126,6],[182,109]],[[4811,6273],[7,-52],[56,-62],[-2,-39],[104,-35],[21,37],[51,-3],[34,-42],[72,21],[26,-36],[48,-17],[40,-92],[11,-62],[-27,-29],[13,-44]],[[5265,5818],[-46,-101],[76,-130],[53,-54],[-20,-46],[58,-22],[8,-88],[40,-78],[-63,-54],[17,-28],[-27,-59],[-56,-32],[2,-36],[42,-54],[50,-6],[-45,-96],[54,-100],[125,-47],[55,-118],[1,-67],[62,-20],[-2,-3]],[[3626,2214],[-89,-44],[-44,-46],[-6,-49],[-40,-33],[13,-43],[55,-34],[-94,-36],[-71,23],[-126,-138],[-113,37],[-26,-13],[-7,-2],[-15,0]],[[3063,1836],[-48,26],[-46,-8],[-44,64],[32,27],[-31,34],[-51,15],[-46,-10],[-61,61],[4,59]],[[2978,2510],[39,39],[63,11],[-17,57],[34,41],[9,45],[66,83],[34,115],[42,53],[61,151]],[[3309,3105],[37,4]],[[3309,3105],[-18,108],[-85,19]],[[3206,3232],[2,86],[89,174],[126,55],[-20,66],[15,24],[-25,58],[52,78]],[[3445,3773],[27,7]],[[3472,3780],[42,-63],[37,-17],[33,-57],[59,-2],[155,64],[70,10],[23,-40]],[[3472,3780],[18,33],[58,-30],[21,81]],[[2539,5164],[50,-89]],[[2589,5075],[7,-73],[-11,-99],[80,-59],[128,55],[30,39],[49,6],[36,-22],[97,-96],[39,1],[13,67],[95,33],[42,29]],[[3352,4230],[-95,22],[-67,-9],[-53,37],[-125,-38],[-58,35],[-87,-5],[-96,-71],[-17,-66],[-26,-25],[-72,34],[-49,68],[-101,44],[-33,-26],[-43,-124],[34,-39],[-27,-146],[20,-88],[-24,-27],[-92,-28],[-8,-48],[-169,-86],[-15,-90],[-31,-60],[-4,-67]],[[2114,3427],[-111,-48],[-12,-19]],[[1991,3360],[-53,62],[-60,20]],[[1878,3442],[-6,111],[-54,49],[-48,16],[-24,85]],[[1965,3256],[-1,46],[27,58]],[[2114,3427],[65,-29],[72,23],[47,99],[95,41],[88,127],[38,-19],[36,-79],[58,30],[71,103],[74,20],[65,-50],[39,24],[2,43],[77,92],[13,34],[150,55],[40,-10],[50,51],[107,-18],[136,-58],[-60,-20],[11,-38],[-32,-94],[89,19]],[[3206,3232],[-46,68],[-101,22],[-64,-59],[-38,24],[-58,-35],[-44,27],[-79,107],[-45,-7],[-71,-64],[-35,-71],[-59,20],[-98,-30],[-29,-93],[-35,-22],[-23,-82],[-38,-87],[21,-66],[-80,-52]],[[3693,5311],[100,93],[54,119],[67,19],[73,55],[-15,166],[83,41]],[[4758,7698],[11,-52],[34,-23],[18,-86],[26,-25],[69,-11],[65,-52],[0,-27]],[[3943,7082],[-44,132],[-23,38],[21,48],[52,181],[-39,51],[16,88],[56,44],[37,57],[60,44],[87,10],[38,-11],[70,53],[122,-30],[66,-8],[59,-53],[67,-10],[59,-98],[44,44],[67,36]],[[5269,7339],[3,-51],[-47,-62],[13,-64],[61,-14],[32,-75],[54,-3],[112,-68],[12,-53],[29,-11],[4,-55],[-22,-41],[3,-55],[41,-118],[125,-62],[50,22],[50,-50],[-53,-47],[-26,-95],[-44,-35],[-11,-64],[-73,-65],[11,-75],[-11,-40],[49,-18],[40,-57],[-26,-118],[-68,-110],[-21,-95],[-63,-43],[-108,28],[-35,62],[-85,11]],[[4811,6273],[-68,118],[-134,15],[-86,-6],[-50,26],[-31,40]],[[4992,7401],[57,-25],[56,34],[53,-18],[50,20],[61,-73]],[[3665,5302],[11,65],[-27,39],[5,57],[64,30],[17,74],[-23,64],[-50,17],[-37,65],[126,121],[-49,72],[28,48],[-12,40],[64,57],[-31,32],[19,43]],[[4126,8264],[16,-27],[64,-30],[90,-9],[13,-95],[56,-87],[102,-28],[103,-8],[95,12],[30,-63],[41,-10],[30,-55],[-7,-54],[20,-30],[-21,-82]],[[3933,7032],[-53,-6],[-25,-37],[-75,-1],[-10,52],[-108,-16],[-50,32],[-97,138],[-74,10],[-60,24],[-23,-15],[-113,5],[-15,-13],[-96,40],[-100,-6]],[[3192,8356],[61,32],[46,-21],[20,40],[137,15],[19,-39],[-22,-113],[112,-30],[29,-25],[96,24],[37,-17],[48,42],[118,-42],[51,-64],[86,-29],[42,73],[0,40],[54,22]],[[2589,5075],[40,-33],[126,56],[58,62],[24,62],[71,6],[6,61],[52,40],[25,66],[-22,69],[-9,86],[24,53]],[[2984,5603],[51,9],[78,-21],[25,31],[135,85],[57,-17],[50,78],[8,63],[29,-1],[29,114],[-48,44],[10,161],[42,66],[-10,19]],[[3533,6552],[-58,77],[2,73],[-47,41],[-72,-13],[-51,42],[-22,73],[-90,-23],[-31,-38],[-48,43],[-31,2],[-69,76]],[[2984,5603],[-70,37],[-32,41],[-54,9],[-89,67],[-26,86],[-27,36],[-40,-10],[-17,50],[-59,86],[47,21],[9,89],[-21,21],[57,48],[35,119],[-52,29],[-58,195],[-35,56],[19,44]],[[3854,2047],[25,-76],[-31,-52],[3,-47],[68,-137],[-66,-82],[-10,-65],[26,-46],[-45,-64],[42,-209],[-38,-87],[-26,-15]],[[2986,1534],[-4,21],[61,117],[61,69],[-14,62],[-27,33]],[[2138,895],[-57,67],[-12,114],[52,18],[-20,111],[-70,22],[-29,26],[2,66],[81,38],[67,0],[-2,71],[64,73],[-9,106],[35,77],[37,50],[72,-1],[59,25],[60,-11],[71,51],[12,39],[40,14],[-34,109]],[[1870,2372],[-50,-50],[-13,-81],[41,-58],[30,-4],[55,-69],[-10,-88],[44,-15],[2,-71],[24,-57],[4,-112],[-111,-89],[10,-41],[-26,-55],[-84,-30],[-85,9],[-51,-15],[-28,-76],[36,-67],[-23,-27],[1,-83],[-29,-14],[-12,-56],[-93,-7],[-13,-36],[-72,-49],[-32,-59],[26,-26],[-4,-61],[-63,-11],[-61,-49],[-46,-6],[-9,-62],[-37,-11],[-53,-55],[-38,12],[-38,-97],[-44,-40],[-21,-51]],[[997,615],[-41,39],[-25,32],[-2,20],[-15,13],[3,27],[-5,18],[-49,11],[-54,-47],[-79,-10],[-10,29],[-114,76],[-3,53],[-95,52],[-48,87],[14,34],[-30,64],[-7,59],[36,76],[40,28],[19,77],[-15,35],[26,65],[-34,38],[29,71],[-25,29],[29,48],[49,29],[0,116],[-10,37],[27,107],[90,20],[38,57],[56,48],[-32,57],[26,33],[-27,36],[-74,0],[13,93],[42,105],[49,31],[-20,138],[17,67],[-5,64],[-31,26],[-12,65],[73,108],[11,54],[78,73],[95,-37],[38,8],[43,-36],[59,-21],[29,37],[65,-5],[27,-25],[99,52],[57,58],[43,8],[102,69],[43,6],[70,41],[44,108],[37,26],[5,61],[122,89]],[[2073,599],[-24,8],[-37,-97],[-121,-3],[-23,-23],[-94,0],[-86,93],[-40,7],[-93,-71],[-88,-17],[-43,-51],[-48,15],[-8,49],[-40,23],[-66,91],[-215,-74],[-27,49],[-23,17]],[[1691,6958],[28,-16]],[[2729,8891],[-5,-128],[30,-86],[-25,-44]],[[1565,7949],[141,425],[33,228],[31,56],[-9,54],[-44,51],[2,31],[191,4],[207,-38],[13,27],[243,-74],[17,66],[53,46],[286,66]]],"transform":{"scale":[0.00019086993553550492,0.00015741167264652977],"translate":[139.5415163039345,37.73391791867715]},"objects":{"japan":{"type":"GeometryCollection","geometries":[{"arcs":[[0,1,2,3,4,5,6]],"type":"Polygon","properties":{"pref":"山形県","city":"山形市","code5":"06201","code6":"062014"}},{"arcs":[[7,8,9,10]],"type":"Polygon","properties":{"pref":"山形県","city":"米沢市","code5":"06202","code6":"062022"}},{"arcs":[[11,12,13,14,15]],"type":"Polygon","properties":{"pref":"山形県","city":"鶴岡市","code5":"06203","code6":"062031"}},{"arcs":[[[16,17,18,19,20,21,-14,22,23]],[[24]]],"type":"MultiPolygon","properties":{"pref":"山形県","city":"酒田市","code5":"06204","code6":"062049"}},{"arcs":[[25,26,27,28,29,30,31,32]],"type":"Polygon","properties":{"pref":"山形県","city":"新庄市","code5":"06205","code6":"062057"}},{"arcs":[[33,34,35,36,37,38,39]],"type":"Polygon","properties":{"pref":"山形県","city":"寒河江市","code5":"06206","code6":"062065"}},{"arcs":[[40,41,42,-2]],"type":"Polygon","properties":{"pref":"山形県","city":"上山市","code5":"06207","code6":"062073"}},{"arcs":[[-34,43,44,45,46,47,48]],"type":"Polygon","properties":{"pref":"山形県","city":"村山市","code5":"06208","code6":"062081"}},{"arcs":[[49,50,51,52,53,54]],"type":"Polygon","properties":{"pref":"山形県","city":"長井市","code5":"06209","code6":"062090"}},{"arcs":[[-6,55,-36,56,57]],"type":"Polygon","properties":{"pref":"山形県","city":"天童市","code5":"06210","code6":"062103"}},{"arcs":[[58,-7,-58,59,-48,60]],"type":"Polygon","properties":{"pref":"山形県","city":"東根市","code5":"06211","code6":"062111"}},{"arcs":[[61,-61,-47,62,63,64,65]],"type":"Polygon","properties":{"pref":"山形県","city":"尾花沢市","code5":"06212","code6":"062120"}},{"arcs":[[-3,-43,66,67,-52,68,69]],"type":"Polygon","properties":{"pref":"山形県","city":"南陽市","code5":"06213","code6":"062138"}},{"arcs":[[-4,-70,70,71,72,73]],"type":"Polygon","properties":{"pref":"山形県","county":"東村山郡","city":"山辺町","code5":"06301","code6":"063011"}},{"arcs":[[-5,-74,74,-37,-56]],"type":"Polygon","properties":{"pref":"山形県","county":"東村山郡","city":"中山町","code5":"06302","code6":"063029"}},{"arcs":[[-35,-49,-60,-57]],"type":"Polygon","properties":{"pref":"山形県","county":"西村山郡","city":"河北町","code5":"06321","code6":"063215"}},{"arcs":[[-12,75,76,-39,77,78,79,80]],"type":"Polygon","properties":{"pref":"山形県","county":"西村山郡","city":"西川町","code5":"06322","code6":"063223"}},{"arcs":[[-50,81,-79,82,-72,83]],"type":"Polygon","properties":{"pref":"山形県","county":"西村山郡","city":"朝日町","code5":"06323","code6":"063231"}},{"arcs":[[-38,-75,-73,-83,-78]],"type":"Polygon","properties":{"pref":"山形県","county":"西村山郡","city":"大江町","code5":"06324","code6":"063240"}},{"arcs":[[-46,84,-63]],"type":"Polygon","properties":{"pref":"山形県","county":"北村山郡","city":"大石田町","code5":"06341","code6":"063410"}},{"arcs":[[85,-33,86]],"type":"Polygon","properties":{"pref":"山形県","county":"最上郡","city":"金山町","code5":"06361","code6":"063614"}},{"arcs":[[87,-65,88,-27,89]],"type":"Polygon","properties":{"pref":"山形県","county":"最上郡","city":"最上町","code5":"06362","code6":"063622"}},{"arcs":[[-28,-89,-64,-85,-45,90]],"type":"Polygon","properties":{"pref":"山形県","county":"最上郡","city":"舟形町","code5":"06363","code6":"063631"}},{"arcs":[[91,-87,-32,92,-18,93]],"type":"Polygon","properties":{"pref":"山形県","county":"最上郡","city":"真室川町","code5":"06364","code6":"063649"}},{"arcs":[[-29,-91,-44,-40,-77,94,95]],"type":"Polygon","properties":{"pref":"山形県","county":"最上郡","city":"大蔵村","code5":"06365","code6":"063657"}},{"arcs":[[-19,-93,-31,96]],"type":"Polygon","properties":{"pref":"山形県","county":"最上郡","city":"鮭川村","code5":"06366","code6":"063665"}},{"arcs":[[-20,-97,-30,-96,97]],"type":"Polygon","properties":{"pref":"山形県","county":"最上郡","city":"戸沢村","code5":"06367","code6":"063673"}},{"arcs":[[98,-11,99,-67,-42]],"type":"Polygon","properties":{"pref":"山形県","county":"東置賜郡","city":"高畠町","code5":"06381","code6":"063819"}},{"arcs":[[-10,100,-53,-68,-100]],"type":"Polygon","properties":{"pref":"山形県","county":"東置賜郡","city":"川西町","code5":"06382","code6":"063827"}},{"arcs":[[-55,101,102,-80,-82]],"type":"Polygon","properties":{"pref":"山形県","county":"西置賜郡","city":"小国町","code5":"06401","code6":"064017"}},{"arcs":[[-51,-84,-71,-69]],"type":"Polygon","properties":{"pref":"山形県","county":"西置賜郡","city":"白鷹町","code5":"06402","code6":"064025"}},{"arcs":[[-9,103,-102,-54,-101]],"type":"Polygon","properties":{"pref":"山形県","county":"西置賜郡","city":"飯豊町","code5":"06403","code6":"064033"}},{"arcs":[[-15,-22,104]],"type":"Polygon","properties":{"pref":"山形県","county":"東田川郡","city":"三川町","code5":"06426","code6":"064262"}},{"arcs":[[-16,-105,-21,-98,-95,-76]],"type":"Polygon","properties":{"pref":"山形県","county":"東田川郡","city":"庄内町","code5":"06428","code6":"064289"}},{"arcs":[[105,-24,106]],"type":"Polygon","properties":{"pref":"山形県","county":"飽海郡","city":"遊佐町","code5":"06461","code6":"064611"}}]}}}