{"type":"Topology","arcs":[[[11247,12037],[-63,-94],[16,-86],[1,-121],[62,-114],[64,-57]],[[11327,11565],[-50,-38],[-85,-39],[21,-89],[-104,-125],[26,-27],[-25,-60],[68,-79],[70,-30],[81,-77],[-19,-26],[-67,23],[-25,-64],[34,-76],[55,-66],[88,-1]],[[11395,10791],[-18,-14],[-8,-137],[63,-21],[53,39],[52,-21],[13,-34],[72,-12],[15,-21],[-27,-83],[95,-46],[-40,-34],[-13,-117],[10,-45],[43,-40],[-7,-83],[52,-20],[77,13],[82,71],[15,-35],[91,-21],[49,-29],[-28,-61],[-61,-76],[-18,-49],[-64,-39],[-40,-119],[-1,-88],[-24,-74],[29,-40]],[[11857,9555],[21,-43],[-16,-37],[-46,-3],[-13,-64],[66,-47],[10,-94],[26,-31],[-26,-35],[118,-39],[-30,-38],[20,-33],[56,-20],[11,-44],[-61,-57],[-55,-16]],[[11938,8954],[-56,-2],[7,-79],[-82,4],[-12,-29],[-120,-51],[29,85],[-42,8],[-68,-28],[-39,-56],[24,-28],[-60,-88],[-68,3],[-4,45],[40,30],[-10,55],[-92,7],[-40,-62],[-31,42],[-1,51],[37,52],[-12,40],[-71,3],[-26,-28],[-155,-15],[-115,23],[-46,-39],[-110,-4],[-81,-26],[-78,23],[-30,34],[-92,-13],[-79,12],[-41,34],[-61,-6],[-80,-31],[-125,-7],[-112,35],[-30,-23],[-158,-14],[-46,-23],[-81,7],[-25,-35],[-57,-21],[-59,19]],[[9580,8858],[16,131],[-39,79],[-64,13],[-90,40],[-128,96],[-124,32],[16,61],[-6,52],[41,56],[-1,87],[-44,41],[-18,92],[22,142],[99,40],[-53,130]],[[9207,9950],[61,124],[91,65],[4,37],[44,29],[49,85],[86,27],[20,67],[32,40],[-1,65],[70,32],[73,68],[-71,76],[-34,1],[-71,61],[-82,31],[-57,108],[0,62],[44,76],[-17,75],[3,80],[37,43],[0,80],[-43,54],[0,70],[50,47],[-32,62],[-21,99],[0,61],[22,58],[43,25],[39,69],[23,74],[-7,92],[-28,49],[24,56],[-41,43],[-17,103],[51,93],[23,11],[39,-38],[61,-27],[91,-14],[65,-51],[34,4],[25,-67],[104,1],[30,-57],[30,23],[110,-50],[62,21],[-6,59],[78,9],[21,-18],[141,-40],[22,6],[0,117],[24,44],[87,55],[77,-8],[14,-103],[47,-5],[82,-66],[85,-33],[91,33],[27,-61],[71,-8],[46,23],[39,-36],[76,-24]],[[6548,8204],[8,-4],[13,-3],[50,-30],[30,-45],[105,-18],[30,-35],[21,-85],[63,-5],[141,-41],[40,29],[22,-40],[62,-39],[132,-32],[44,-26],[5,-87]],[[7314,7743],[-20,-43],[44,-82],[45,-29],[-19,-45],[30,-80],[46,-47],[77,-26],[440,-246],[187,-78]],[[8144,7067],[-81,-175],[-215,-208],[-136,-46],[-43,-61],[-4,-49],[-56,-39],[-39,-265],[60,-237],[-24,-110],[-45,-33],[-4,-41],[-65,-67],[-12,-55]],[[7480,5681],[-91,55],[-55,-70],[-56,-129]],[[7278,5537],[-26,42],[-93,40],[-77,-36],[-71,10],[-35,30],[-97,19],[-65,36],[-62,-1],[-29,-86],[-133,-43],[-102,15],[1,47],[-49,8],[-13,83],[-28,17],[10,87],[74,5],[-18,60],[-118,-33],[-157,-92],[-15,115],[-78,75]],[[6097,5935],[8,22],[76,47],[-3,39],[31,42],[57,33],[55,6],[6,30],[93,48],[32,34],[59,19],[25,77],[-45,98],[-76,54],[12,23],[-20,152],[-47,135],[25,69],[-34,111],[-55,-20],[-65,42],[-49,-18],[-68,9],[-36,-95],[-75,57],[-26,58],[8,93],[-33,24],[-50,86],[-8,44],[-100,104],[-4,91],[51,50],[7,79],[35,67],[-36,56]],[[5847,7701],[180,-7],[49,31],[-3,102]],[[6073,7827],[12,42],[191,-4],[59,-9],[28,138],[-88,29],[21,45],[-30,51],[10,68],[70,20],[24,41]],[[6370,8248],[12,-16],[166,-28]],[[8144,7067],[164,-62],[143,-6],[95,-21],[56,-37],[78,3],[56,-70],[139,-24],[28,125],[-20,93],[-56,40],[50,115],[-45,39],[-8,53],[-47,26],[28,69],[-6,80],[-47,27],[-50,1],[-23,57],[-67,39],[-21,52],[50,38],[-2,38],[69,7],[36,58],[66,41],[10,94],[66,22],[29,42],[59,26],[72,-83],[84,6],[36,47],[-7,57],[61,77],[12,132],[-16,50],[89,95],[108,30],[29,24],[25,67],[27,13],[37,70],[84,77]],[[9615,8694],[38,-55]],[[9653,8639],[10,-92],[-46,-67],[19,-63],[-62,-86],[-19,-93],[44,-118],[43,-87],[-18,-74],[51,-78],[43,-19],[21,-66],[-2,-87],[65,-57],[-20,-45],[118,-65],[2,-91]],[[9902,7451],[-26,-22],[44,-50],[-6,-98],[25,-53],[-37,-81],[36,-16],[28,-51],[87,-13],[18,92],[55,8],[32,-70],[32,-20],[43,20],[32,-18],[110,4],[90,78],[64,-16],[45,55],[28,6],[56,69],[56,-80],[76,-14],[22,49],[148,-40],[70,43],[15,-54],[77,-5],[53,25],[27,40],[38,-56],[34,6]],[[11274,7189],[61,-35],[2,-36],[-102,-56],[-51,-164],[56,-99],[-31,-43],[21,-26],[-24,-59],[-58,14],[-49,51],[-49,2],[-48,-38],[26,-54],[-44,-39],[-129,45],[-32,-22],[28,-80],[103,-44],[15,-78],[72,-7],[13,-79],[-40,-21],[-30,-66],[81,-62],[50,39],[70,-36],[29,37],[62,1],[19,-89],[-28,-28],[2,-70],[87,-15],[42,106],[-13,49],[23,30],[90,-11],[115,8],[14,24]],[[11627,6238],[83,-3],[27,-42],[38,-11],[48,-110],[155,-93]],[[11978,5979],[-46,-42],[-17,-45],[-64,-102],[-34,-15],[4,-50],[-31,-81],[46,-62],[58,-15],[50,-75],[46,-44],[-30,-41],[-1,-83],[-25,-27],[39,-43],[-34,-48],[3,-73],[40,-94],[-23,-20]],[[11959,5019],[-103,-8],[-93,-68]],[[11763,4943],[-106,37],[-18,62],[-33,-2],[-18,62],[-56,33],[-97,4],[-39,38],[-149,38],[-33,51],[-60,16],[-25,46],[-56,38],[-28,-20],[-88,8],[-78,42],[-116,24],[-248,104],[-127,79],[12,144],[-194,-39],[-48,43],[-181,-31],[-148,16],[-72,-36],[-217,-45],[-31,22],[-175,-21],[-119,6],[-37,45],[-49,16],[-78,93],[4,69],[-131,38],[-57,-23],[-72,124],[-48,-10],[-23,-88],[-61,-57],[-1,-102],[-49,12],[-10,-81],[-129,-71],[-26,30],[-122,-47],[-36,47],[-78,-65],[-49,7],[-9,-95],[-50,30],[-21,-37]],[[8083,5497],[-29,18],[-82,-24],[-11,25],[-89,-1],[-52,-38],[-53,25],[-13,49],[-53,38],[-42,0],[-138,50],[-41,42]],[[14703,5061],[-47,-69],[4,-66],[-46,-49],[22,-54],[43,-14],[30,-130]],[[14709,4679],[-94,-133],[36,-13],[32,-60],[127,6],[95,-11],[26,-63],[110,-75],[-5,-40],[74,16],[8,-37],[87,-60],[78,-37],[101,-64],[101,34],[103,-36],[171,-21]],[[15759,4085],[-8,-124],[24,-122],[-16,-48],[25,-106],[-37,-72],[-13,-164],[15,-70],[0,-53],[-66,-81],[-76,-143],[-38,-159],[-38,-197],[-9,-196],[-1,-143],[26,-117],[29,-52],[18,-123],[-69,-31],[-44,-78],[-9,-143],[-61,-28],[-43,-55],[-34,-7],[-13,-55],[-102,-39],[-103,-122],[-9,-61],[-80,13],[-2,58],[-62,36],[-134,-84],[-100,-101],[-39,57],[-37,-55],[-110,-75],[-39,-6],[-107,-103],[-87,2],[-43,24],[-86,-45],[-61,-56],[-74,-91],[-53,-95],[-44,-129],[-4,-80],[37,-62],[-65,-28],[5,57],[-79,57],[-89,-61],[-97,83],[-83,18],[-46,45],[-54,-42],[-42,30],[-81,-22],[-50,5],[-74,58],[-28,54],[-159,74],[-31,29],[-57,-3],[-76,34],[-75,9],[-73,39],[-87,-36],[-125,59],[-68,14],[-20,64],[-45,22],[-37,74],[-41,54],[-44,14],[8,82],[-67,114]],[[12202,1601],[-2,61],[-27,24],[-4,127],[-104,100],[-1,51],[-35,59],[55,58],[37,12]],[[12121,2093],[126,100],[69,33],[64,99],[63,-15],[57,72],[8,74],[-10,75],[28,16],[3,119],[82,85],[78,12],[-19,64],[23,89],[93,9],[34,44],[-44,90],[38,48],[60,15],[-21,104],[-45,44],[3,53],[-54,98],[-38,-7],[-43,82],[13,65],[-47,78],[-41,144],[-44,-70],[-32,-12],[-27,49],[-75,27],[7,41]],[[12430,3818],[11,29],[-36,93],[-74,96],[58,96],[-24,66],[17,99],[58,16]],[[12440,4313],[32,-19],[85,84],[42,0],[56,46],[72,16],[21,47],[110,63],[46,-28],[61,31],[67,62],[1,60],[21,45],[-21,91],[30,75],[-7,82],[71,98],[-16,71],[-24,28]],[[13087,5165],[36,17],[12,102],[-39,16],[46,154],[97,-1],[59,43],[81,5]],[[13379,5501],[13,-46],[45,-39],[-12,-32],[52,-36],[5,-30],[69,-51],[48,35],[40,-32],[108,15],[1,-39],[106,14],[12,-86],[59,-3],[54,-31],[-12,-50],[-40,-51],[4,-81],[63,-64],[53,-28],[20,-60],[32,15],[67,-18],[111,37],[36,45],[48,16],[71,-38],[61,9],[37,68],[16,90],[50,23],[69,-12],[38,20]],[[14977,1534],[-81,-24],[11,-64],[-29,-44],[-45,27],[47,74],[52,28],[45,3]],[[9569,4474],[93,-32],[-1,-40],[56,-28],[-10,-86],[54,-44],[-73,-105]],[[9688,4139],[-40,29],[-222,-14],[-88,-11],[-106,-30],[-45,-58],[82,-36],[68,-47],[56,-14],[14,-32],[112,-35],[55,-49],[-14,-36],[-50,10],[-15,-69],[-37,-40],[89,-49],[31,-44],[41,23],[62,-7],[0,-64],[25,-55],[93,-53],[75,-30],[12,32],[68,-3],[50,-23],[70,17]],[[10074,3451],[134,-53],[47,-4],[39,43],[55,8]],[[10349,3445],[145,44],[39,-49],[105,-3],[44,-49]],[[10682,3388],[32,-10],[-7,-84],[-45,-16],[-78,-77],[-65,-93],[-58,3],[-88,-101]],[[10373,3010],[-23,-44],[-136,-32],[11,-82],[-40,-30],[28,-136],[-44,-34],[-23,38],[-55,21],[-120,-28],[-91,-69],[39,-52],[-17,-43],[-40,-20],[17,-117],[-43,-32],[-88,2],[-41,30],[-101,-51],[-66,-10],[-59,-57],[-18,-59],[-81,21],[-53,41]],[[9329,2267],[-21,97],[-1,77],[-55,-21],[-153,0],[-42,-56],[-67,15],[-25,32],[-49,9],[-35,48],[-7,102],[12,98],[-79,94],[33,35],[-12,57],[-71,39],[-103,11],[-72,95],[-52,12],[-42,68],[24,45],[-47,30]],[[8465,3154],[38,26],[41,-27],[68,37],[-40,42],[37,43],[57,-8],[72,37],[-49,63],[71,12],[4,39],[45,38],[-19,32],[-87,40],[72,24],[26,-18],[50,59],[46,8],[-3,42],[63,125],[23,69],[-10,80],[-64,7],[-144,73],[19,89],[-145,89],[-41,68],[-66,27],[-104,110],[-67,-74],[-35,46],[-20,74],[-83,67],[-29,50],[-101,85],[-53,24],[-13,50]],[[8024,4702],[24,4],[-25,88],[37,35],[73,26],[19,43],[91,-16],[61,-49],[64,-12],[27,-63],[44,-38],[94,-25],[56,14],[44,-20],[73,40],[181,-92],[32,7],[61,-93],[74,-11],[38,-31],[54,14],[95,-53],[48,22],[63,-29],[161,2],[56,9]],[[11763,4943],[-103,-21],[-31,-22],[0,-53]],[[11629,4847],[-71,-83],[-82,9],[-90,-32],[-34,-58],[-15,-166],[-65,-10],[-57,24],[-116,-26],[-43,9],[-40,43],[-93,-20],[-97,15],[-26,35],[5,95],[-88,24],[-27,-15],[-98,51],[-62,11],[-24,-24]],[[10506,4729],[-43,-11],[-96,28],[-49,-5],[-27,34],[66,39],[85,109],[-3,30],[-143,53],[-38,37],[-45,8],[-62,42],[-48,1],[-41,-111],[10,-61],[-55,7],[-23,-54],[-2,-81],[-61,8],[13,-46],[-50,-21]],[[9894,4735],[-73,-9],[-30,22],[-61,-11],[-124,88],[-54,-27],[-135,50],[-39,-11],[-102,55],[-64,6],[-55,29],[-56,7],[-77,37],[-52,-13],[-18,61],[-44,5],[-33,-40],[-50,12],[-46,50],[-76,5],[-49,54],[-38,-7],[-119,48],[-84,76],[-61,77],[-118,-4],[-53,47],[-20,78],[-36,-9],[-36,38],[-8,48]],[[6632,10801],[31,-67],[77,-56],[69,-16],[36,-94],[-17,-106],[75,-85],[-14,-38],[53,-84],[46,-21],[-6,-78],[73,-61],[52,-18]],[[7107,10077],[25,-181],[-27,-98],[56,-68],[-67,-73],[-69,-1],[-64,-21],[0,-59],[-50,-59],[-34,-93],[-49,15],[-93,-99],[-18,-64],[-65,1],[-41,-19],[-75,-68],[-6,-52],[-79,-121],[-38,-23],[8,-74],[47,-22],[136,62],[53,-9],[58,24],[91,-16],[74,-91],[155,-78],[39,-34],[99,-24],[-3,-37],[-39,-39],[-1,-74],[27,-103]],[[7157,8479],[-48,-1],[-61,38],[-111,-16],[-28,-90],[-71,-1],[-55,-81],[-90,-53],[-55,-18],[-51,-52],[-39,-1]],[[6370,8248],[-28,23],[6,51],[-143,-3],[-34,33],[-77,-64],[-9,-36],[-109,-13]],[[5976,8239],[8,62],[-112,62],[-30,-23],[-79,25],[28,41],[-75,74],[-34,-28],[-72,67],[-81,33],[-50,-3],[6,-69],[-68,-17],[-21,24],[68,70],[-24,119],[102,0],[0,74],[-28,49],[-37,15],[-135,-37],[-43,-61],[-4,-75],[-35,-66],[27,-62],[16,-119],[46,-41],[-78,-26],[-153,30],[-32,45],[-111,-14],[-66,-43],[-41,10],[-43,-57],[-77,40]],[[4748,8338],[-45,-39],[-33,37],[18,77],[-33,79],[-43,40],[-5,35],[-84,12],[-28,-80],[-46,-14],[-68,36],[-46,-2],[57,114],[-49,18],[32,85],[86,44],[66,-12],[68,19],[-14,57],[41,49],[1,39],[60,44],[17,39],[-4,75],[-51,92],[41,22],[-37,93],[11,62],[-14,39],[47,106],[27,32],[20,98],[0,94],[56,106],[43,42],[-19,46],[63,68],[33,108],[-43,172],[-23,17],[58,102],[74,23],[-16,56],[-53,47],[3,50],[-78,70]],[[4838,10635],[113,57],[-47,106],[-61,35],[-15,38],[-29,20],[-28,29],[-37,71],[-11,36],[0,29],[-36,18],[-111,-70],[-137,-10],[-9,3],[130,16],[88,77],[81,-18],[3,-75],[25,-20],[3,-32],[42,-53],[29,-17],[37,-47],[38,-28],[44,-81],[121,19],[21,26],[131,56],[79,21],[51,-57],[5,-34],[52,-59],[66,-37],[13,-81],[35,-28],[44,4],[71,83],[79,33],[65,-4],[59,53],[46,15],[46,48],[66,-11],[141,-153],[79,10],[75,-9],[39,36],[197,5],[21,78],[40,81],[40,-13]],[[13132,10541],[59,1],[88,-28],[70,-76],[28,-8],[34,-116],[95,60],[66,12],[28,-32],[71,2],[155,-38],[104,-73],[70,-13],[64,67],[-73,23],[-66,73],[-63,18],[-59,67],[21,93],[70,-19],[151,-69],[86,-23],[48,27],[62,5],[58,-41],[88,13],[95,-7],[54,78],[-36,44],[2,49],[35,28],[-38,72],[20,76],[-16,138]],[[14503,10944],[134,-3],[122,23],[213,-30],[104,-51],[48,23],[164,-7],[117,41]],[[15405,10940],[-19,-44],[23,-45],[65,-43],[48,-4],[117,-50],[-5,-155],[19,-322],[25,-105],[76,-68],[49,-117],[20,-1],[37,-179],[-7,-114]],[[15853,9693],[-89,13],[-22,42],[-83,64],[-81,16],[-54,47],[-162,46],[-49,-20],[-128,33],[-79,-84],[-93,78],[-40,-30],[-72,-23],[-100,20],[-61,55],[-88,-9],[-51,-51],[-108,-22],[-42,-48],[-70,0]],[[14381,9820],[-38,28],[-47,92],[-63,18],[-83,49],[-123,45],[-40,-6],[-215,60],[-57,-20],[-58,-78],[-69,14],[-75,-37],[-74,2],[-15,19]],[[13424,10006],[64,55],[-1,115],[-38,-1],[-67,-66],[-84,-18],[-97,-5],[-25,46],[-130,65],[-22,88],[-32,10],[2,80],[99,96],[34,12],[5,58]],[[11938,8954],[82,-68],[31,-56],[-17,-60],[93,-73],[37,-54],[1,-36],[39,-33],[89,-10],[70,-51],[38,22],[97,-5],[85,-41],[42,-101],[-23,-44],[50,-27],[12,-59],[-79,-47],[33,-69],[70,-4],[54,32],[32,45],[66,8],[9,44],[83,34],[40,-8],[65,-51],[15,-34],[-14,-78],[-46,-42],[5,-50],[-35,-33],[58,-39],[42,-92]],[[13062,7874],[-22,-46]],[[13040,7828],[-15,-50]],[[13025,7778],[-107,-45],[-111,42],[-87,-28],[-63,-92],[-95,-14],[-54,-52],[-41,24],[-81,-10],[-38,-38],[-73,-2],[-11,-38],[-56,-5],[-24,-33],[-93,-7],[-57,-68],[-71,-15]],[[11963,7397],[-28,46],[-46,-3],[-43,60],[-79,-36],[-60,-95],[-92,50]],[[11615,7419],[-35,21],[-7,45],[-81,49],[21,90],[-69,11],[-58,28],[-60,-5],[-60,38],[-77,-15],[-33,27],[3,57],[-61,45],[-93,-6],[-42,41],[-9,48],[-58,36],[-135,-150]],[[10761,7779],[-73,43],[-10,58],[-40,26],[-29,93],[-109,40],[-52,-32],[-40,24],[-69,-50],[-87,-15],[-55,55],[16,63],[-58,98],[-72,53],[-41,62],[24,42],[65,-24],[-18,67],[31,80],[-14,62],[-116,43],[-64,4],[-77,-17],[-38,40],[-148,22],[-34,23]],[[9615,8694],[-35,164]],[[11627,6238],[-33,32],[35,103],[-64,59],[-50,88],[109,22],[-22,111],[45,11],[-8,85],[56,50],[-9,50],[-177,70],[37,43],[-12,54],[50,7],[44,-44],[31,42],[13,66],[-6,70],[139,-34],[28,-78],[27,-27],[53,56],[89,149],[14,82],[-53,92]],[[13025,7778],[121,-127],[52,7],[29,-33],[-62,-127],[-53,-81],[90,-14],[97,-56],[83,-30],[66,-38],[78,4],[63,-58],[54,5],[87,-63],[64,-76],[72,37],[70,-23],[33,-49],[65,40],[121,-20],[52,-71],[59,8],[61,38],[18,-68]],[[14345,6983],[84,-66],[-19,-55],[16,-91],[43,-31],[15,-126],[16,-52]],[[14500,6562],[68,-122],[-27,-32],[16,-78],[-20,-44],[15,-81]],[[14552,6205],[-69,-37],[-10,-112],[-45,17],[-90,8],[-78,54],[-89,20],[-32,-20],[-73,21],[-68,-16],[-116,35],[-22,-14],[-78,45],[-51,-38],[-76,97],[-106,8],[-21,77],[-104,37],[-21,-45],[-94,-31],[-21,-43],[28,-41],[-61,-62],[-15,-48],[-61,-43],[-8,-52],[50,-23],[-32,-105],[34,-44],[19,-70],[49,-43],[49,-83],[8,-104],[31,-49]],[[13087,5165],[-187,1],[-41,-96],[-65,-35],[-73,17],[-82,115],[23,53],[3,71],[-33,45],[26,72],[41,37],[40,88],[-62,182],[-47,24],[-49,-5],[-129,31],[-70,44],[-84,-20],[-61,61],[-63,8],[-101,128],[-95,-7]],[[15853,9693],[7,-114],[-13,-79],[5,-155],[22,-28],[-1,-90],[28,-59],[33,-23],[12,-52],[-28,-72],[43,-153],[-13,-165],[3,-121],[37,-126],[-19,-205],[9,-54],[6,-183],[20,-66],[-4,-67],[14,-94],[3,-105],[24,-76],[8,-82]],[[16049,7524],[-199,-35],[-95,-29],[-96,18],[-60,60],[-118,41],[-77,-5],[-166,78],[-65,54],[-118,-33],[-37,-93],[-37,-8],[-29,38],[-87,-3],[-94,45],[-45,-21],[-9,55],[-35,60],[13,27],[-18,86],[-93,61],[-45,0],[-122,72],[-4,115],[-48,81],[44,54],[-28,103],[-51,9],[-47,63],[6,36],[-41,72],[-82,53]],[[14166,8578],[36,36],[46,-34],[75,156],[-46,75],[-23,107],[-37,84],[22,46],[13,107],[-85,22],[-12,32],[53,74],[-18,31],[11,87],[47,49],[-14,28],[-80,7],[-3,55],[58,56],[33,-6],[88,49],[19,37],[58,20],[-26,124]],[[12308,11629],[16,26],[85,10],[12,42],[60,-27],[33,-103],[42,-37],[149,-38],[19,33],[112,24],[60,-61],[46,-22],[139,-40],[21,-57],[-69,-43],[-1,-57],[41,-30],[-15,-34],[41,-56],[19,-57],[-10,-79],[-52,-27],[12,-48],[-64,-57],[41,-62],[19,-118],[-9,-44],[37,-27],[40,-99]],[[13424,10006],[-201,-18],[-36,-55],[-154,-31],[-54,-57],[-1,-87],[-60,-57],[13,-42],[-33,-30],[8,-45],[-55,-27],[1,-70]],[[12852,9487],[-147,105],[-105,-19],[-30,-28],[-57,39],[-97,29],[-150,-145],[29,-23],[-62,-49],[-18,-42],[-71,56],[5,35],[-80,50],[-31,43],[-12,72],[-89,3],[-80,-58]],[[11395,10791],[126,8],[62,29],[31,57],[37,-42],[59,27],[27,-19],[79,21],[41,56],[54,-10],[98,59],[12,32],[-20,95]],[[12001,11104],[117,1],[55,90],[94,-9],[-6,85],[-54,83],[25,59],[50,32],[-23,77],[49,107]],[[9902,7451],[68,16],[73,-1],[50,22],[65,59],[62,-4],[42,-29],[128,45],[36,-2],[53,37],[-15,44],[28,104],[86,-50],[37,21],[108,1],[38,65]],[[11615,7419],[-95,-195],[-49,-23],[-53,16],[-49,-7],[-62,17],[-33,-38]],[[11327,11565],[32,-17]],[[11359,11548],[-5,-69],[102,-73],[23,-34],[130,-41],[29,8],[52,-43],[120,-35],[48,-118],[39,10],[104,-49]],[[11359,11548],[90,5],[33,44],[58,6],[58,-17],[13,41],[39,14],[82,-37],[48,25],[151,19],[73,21],[-4,67],[33,51],[76,-87],[78,-58],[64,-28],[57,15]],[[12852,9487],[-103,-45],[-42,-64],[9,-76],[53,3],[33,31],[36,-79],[59,-40],[-12,-86],[-28,-50],[30,-22],[-10,-54],[34,-31],[-18,-117],[18,-124],[72,-95],[73,-38],[3,-30],[112,-90],[64,10],[102,-52]],[[13337,8438],[68,-83],[-18,-68],[-83,-113],[-9,-30],[-104,23],[-31,-81],[7,-64],[-32,-11],[-73,-137]],[[10506,4729],[27,-132],[31,-31],[10,-58],[-28,-18]],[[10546,4490],[-36,15],[-141,-14],[-52,-20],[-63,28],[-31,36],[-88,-84],[-52,9],[-56,37],[-19,-53],[-86,-9],[-28,35],[-3,73],[-45,30],[-15,43]],[[9831,4616],[27,-5],[13,102],[23,22]],[[9831,4616],[-33,22],[-36,-33],[9,-38],[-24,-62],[-60,25],[-29,-23],[-55,14],[-34,-47]],[[8024,4702],[-83,-31],[-30,-37],[25,-32],[-52,-71],[-51,11],[-45,-37],[14,-68],[-19,-78],[-66,34],[-21,-44],[-77,-8],[-34,-52],[-78,30],[-74,-60],[-34,3],[-76,-38],[-52,15],[-48,-9],[-57,22],[-48,-35],[-101,59]],[[7017,4276],[-78,20],[-62,33],[-67,100],[-60,13],[-27,36],[1,67],[35,86],[41,9],[23,52],[38,9],[21,42],[-15,37],[39,93],[-39,63],[-14,82],[125,0],[-16,102],[58,73],[81,75],[12,109],[49,24],[20,90],[96,46]],[[7017,4276],[-121,-160],[-70,-70],[-7,-48],[37,-58],[-14,-29],[19,-62],[-23,-80]],[[6838,3769],[-57,17],[-94,-25],[-85,12],[-29,-23],[-51,4],[-70,-44],[-84,20],[-35,49],[-67,-11],[-147,-74],[-96,12]],[[6023,3706],[-38,58],[-58,56],[5,75],[-36,33],[-73,-13],[-38,24],[-49,73],[25,57],[56,49],[83,38],[7,100],[-74,80],[-16,60],[-73,131],[-82,-42],[-14,39],[-113,60],[-26,85],[-68,18],[-24,-40],[-79,-4],[-43,-52],[-68,0],[-112,45],[-74,0],[18,126],[-110,8],[-57,18],[-52,-16],[-47,30],[-114,29],[-37,-10]],[[4642,4821],[38,80],[26,112],[44,3],[110,65],[39,86],[59,17],[18,28]],[[4976,5212],[148,-79],[64,12],[80,-41],[117,69],[11,73],[-19,21],[9,66],[101,58],[65,-13],[44,64],[26,-12],[81,86],[3,52],[57,64],[-34,55],[5,70],[60,26],[38,-34],[44,29],[32,98],[137,62],[52,-3]],[[1800,3403],[77,-102],[33,-9],[0,-112],[-11,-75],[-31,-78],[41,-21],[117,-93],[118,-11],[37,-156],[-11,-48],[28,-20],[6,-89],[-41,-19],[103,-83],[37,-10],[44,-49],[-14,-41],[74,-46],[32,-52],[-10,-97],[-30,-34],[20,-71],[-25,-37],[-2,-79],[104,-107],[38,-9]],[[2534,1855],[-28,-164],[-191,-125],[5,-63],[-70,-122],[-57,0],[-69,36],[-37,-11],[-75,-67],[-50,-97],[-86,6],[-16,28],[-71,45],[-72,-1],[-31,-20],[-72,-6],[-69,80],[-20,42],[-70,-29],[-58,-1],[-159,24],[-33,-12],[-88,91],[-74,-3],[-39,-32],[-57,26],[-59,52],[-58,-7],[-58,-59],[-121,-29],[-15,39],[-52,43],[-8,33],[74,7],[25,35],[-13,47],[37,67],[32,4],[11,64],[-27,98],[35,53],[-42,38],[51,37],[5,69],[-23,149],[-66,109],[44,92],[0,72],[40,36],[12,62],[43,32],[-19,131],[-89,155],[15,110],[-53,37],[-34,59],[19,33],[-44,91],[-3,120],[18,58],[50,80],[21,184],[35,70],[1,50],[26,51],[-15,48],[-41,4],[-27,43],[11,112],[-57,70]],[[628,4129],[36,74],[69,30],[27,53],[34,-11],[37,-93],[-14,-73],[10,-41],[50,-64],[38,-8],[30,-72],[48,-49],[45,-18],[115,42],[78,-12],[28,22],[124,25],[75,38],[57,-22],[20,-54],[-19,-75],[-67,-31],[3,-77],[54,-133],[-5,-36],[32,-110],[126,-65],[68,1],[21,29],[52,4]],[[628,4129],[-19,7],[-62,89],[-19,67],[-38,10],[-34,52],[-41,-102],[-67,-57],[-74,-2],[-16,104],[-66,60],[-35,80],[-90,78],[-57,76],[-10,75],[85,177],[147,135],[10,41],[40,22],[67,86],[59,27],[21,61],[4,85],[22,52],[-18,36],[55,66],[18,67],[-26,23],[-28,108],[34,18],[54,78],[47,4],[11,74],[-11,66],[34,115],[4,51],[-26,60],[-30,15],[1,75],[-83,62],[-57,-22],[-65,52],[-1,46],[-49,84],[-40,22],[12,23],[83,42],[-14,74],[7,50],[52,80],[-5,21],[86,104],[124,-36],[118,76],[44,-16],[22,-40],[157,60],[42,-31],[38,25],[177,66],[29,-31],[41,38],[96,33],[9,-26],[66,-22],[91,25],[47,56],[97,46],[51,-48],[95,-24],[51,5],[103,-39]],[[1998,6963],[16,-31],[27,-127],[-84,-87],[-27,-65],[20,-68],[-122,-112],[22,-27],[8,-90],[-54,-163],[-87,-39],[120,-201],[25,-86],[101,48],[49,41],[33,-59],[37,-110],[76,-17],[5,-57],[78,3],[43,-27],[-12,-45],[72,13],[86,-1],[55,70],[69,60],[33,-20],[75,22],[14,37],[50,38],[28,55],[33,-5],[28,67],[44,40],[56,-6],[57,49],[8,46],[38,12]],[[3018,6121],[36,-50],[-5,-49],[58,-49],[146,-19],[71,-62],[-37,-53],[76,-46],[-37,-32],[-33,-87],[139,-85],[35,-53],[43,-14],[-11,-124],[16,-22]],[[3515,5376],[-69,-25],[-44,-58],[-34,-3],[-38,58],[-110,13],[-57,-18],[5,61],[-58,7],[-77,-64],[-6,-47],[-114,-51],[7,-72],[-29,-24],[-78,34],[-75,-17],[-78,40],[-12,-62],[55,-82],[19,-110],[48,-64],[36,-14],[-13,-49],[-57,-64],[-29,-183],[38,-101],[52,-19],[8,-41],[-37,-49],[-50,-17],[-12,-72],[-25,-1],[-30,-72],[-42,-153],[-32,-2],[-57,-49],[6,-126],[-15,-63],[-71,-25],[-122,-95],[-20,-86],[-32,-6],[-66,-59],[-117,28],[-56,-51],[-47,-71],[-167,-29],[-13,-20]],[[6023,3706],[-46,-67],[-79,-38],[-34,24],[-69,-42],[-69,-19],[-33,-77],[-76,-47],[-33,-58],[8,-52],[43,-25],[-25,-126],[13,-91],[20,-29],[-108,-3],[-185,61],[-87,-20],[-25,32],[-36,-87],[-62,-56],[-5,-26],[-68,-14],[-20,-39],[-132,15],[-37,-35],[-76,13],[-112,-16],[-90,-94],[-73,33],[-132,-60],[-35,4],[-12,-93],[-54,-80],[-79,14],[-35,-48],[-75,-18],[-62,-38],[-40,20],[-52,-12],[5,-70],[-58,-65],[4,-32],[-66,-30],[-75,23],[-36,-41],[-91,34],[-53,-4],[-20,-104],[-128,-84],[-68,-1],[-19,-45],[-84,-16],[-81,-108],[-22,12],[-151,-40],[-97,-87],[-82,-17],[-86,79],[-99,-43],[-110,-18]],[[3515,5376],[32,-107],[15,-117],[54,-29],[37,-47],[37,-10],[25,-64],[-42,-54],[15,-91],[-60,-59],[4,-60],[37,-38],[-14,-57],[15,-52],[-17,-97],[16,-45],[48,-48],[29,-60],[48,-17],[46,9],[48,74],[28,14],[-14,56],[27,69],[63,-12],[45,12],[4,44],[82,-31],[84,8],[21,98],[50,18],[58,-4],[20,60],[46,3],[118,33],[40,-27],[82,73]],[[7107,10077],[51,28],[30,-21],[70,48],[78,-21],[22,35],[77,25],[57,3],[62,62],[33,53],[138,-117],[38,-103],[97,-19],[55,20],[81,-116],[3,-33],[50,-64],[41,6],[71,-40],[103,-4],[46,44],[63,13],[51,139],[69,7],[64,34],[90,-7]],[[8647,10049],[-15,-95],[15,-71],[-44,-95],[-50,-41],[3,-76],[-17,-24],[2,-86],[-63,-53],[-50,-68],[-39,-191],[48,-49],[-13,-47],[-37,-36],[-76,-14],[-59,-72],[-152,-56],[-29,-76],[-74,-2],[-85,-110],[-131,-230],[3,-62]],[[7784,8495],[-40,38],[-137,47],[-115,-16],[-121,-38],[-37,-58],[-35,24],[-94,-43],[-48,30]],[[4748,8338],[4,-34],[60,-31],[14,-32],[-12,-76],[-26,-41]],[[4788,8124],[-31,-18],[-82,27],[-50,36],[-69,-137],[30,-64],[-40,-26],[-60,-138],[-24,-82],[4,-84],[19,-33],[-40,-58],[-38,-5],[-25,65],[-40,-22],[-24,-116],[-175,-25],[-86,31],[-31,25],[-43,-18],[-101,-1],[-31,-16],[-71,7],[-56,33],[-30,-17]],[[3694,7488],[-85,28]],[[3609,7516],[47,157],[-104,23],[-17,46],[-54,46],[3,52],[-42,22],[39,46],[-23,127],[37,58],[-13,117],[-53,97],[13,42],[-29,76],[-68,23],[-51,78],[-3,40],[35,53],[-37,31],[-16,74],[15,54],[34,29],[8,59],[-29,69],[118,49],[47,-7],[99,81],[41,15],[33,51],[45,-22],[60,39],[38,62],[35,99],[73,47],[81,-5],[9,38],[-57,82],[24,88],[92,120],[44,33],[22,48],[57,15],[24,93],[42,30],[16,100],[-11,48],[74,20],[19,66],[77,71],[22,51],[140,105],[72,112],[74,33],[70,109],[57,29]],[[7784,8495],[3,-64],[-58,-44],[-117,-23],[-50,-81],[-26,-95],[52,-17],[-20,-73],[16,-58],[-78,-7],[-30,-88],[62,-29],[63,-49],[5,-68],[-107,-3],[-38,-42],[-82,-20],[-65,9]],[[8647,10049],[54,5],[114,-35],[69,-3],[41,-54],[96,6],[27,-21],[159,3]],[[5847,7701],[-129,16],[-95,-13],[-67,-25],[-113,26],[-68,-31],[-157,-146],[-52,23]],[[5166,7551],[-18,62],[22,85],[-19,43],[-80,38],[-70,61],[-7,35],[50,33],[21,84],[-33,55],[-91,16],[-25,49],[-49,-36],[-79,48]],[[5976,8239],[18,-184],[-23,-36],[-1,-83],[48,-66],[55,-43]],[[5166,7551],[-20,-33],[0,-64],[50,-108],[-54,-87],[10,-63],[-54,-97],[-76,-52],[-13,-47],[-74,15],[-1,-71],[38,-37],[4,-70],[-17,-46],[32,-58],[120,-96],[-51,-74],[32,-50],[-5,-56],[35,-75],[-25,-73],[-60,-53],[-26,-43],[-3,-74],[26,-6],[-24,-95],[-64,-39],[-15,-29],[-83,-50],[-64,3],[-57,33]],[[4727,5956],[-149,-93],[-70,-12],[-47,-49],[-48,-8],[-56,23],[-79,-6],[-39,70],[-86,57],[-9,41],[-56,39]],[[4088,6018],[95,45],[32,42],[1,41],[40,60],[58,30],[-24,56],[-81,87],[16,76],[31,51],[-21,146],[14,67],[67,26],[-8,69],[49,13],[71,93],[48,44],[-43,53],[7,46],[-18,50],[72,4],[34,-26],[64,1],[40,20],[66,2],[24,26],[-56,73],[-76,43],[-20,54],[-61,34],[-192,15],[-62,-24],[-12,51],[-91,17],[-33,-35],[-38,21],[-75,-34],[-126,-1],[-113,-18],[-18,-19]],[[3749,7317],[-60,60],[16,52],[-11,59]],[[4088,6018],[-165,-8],[-32,-14],[-51,28],[-70,69],[47,48],[-28,50],[-56,21]],[[3733,6212],[-37,162],[-35,35],[15,35],[-40,148],[63,11],[60,89],[80,42],[26,80],[6,119],[-57,-28],[-53,18],[-6,31],[-73,36],[-35,36],[29,38],[-25,29],[40,43],[7,58],[71,56],[-20,67]],[[1998,6963],[76,66],[-14,19],[9,100],[35,66],[-25,29],[8,60],[53,45],[-29,55],[31,65],[122,62],[90,-11],[100,43],[57,6],[55,-52],[21,-48],[49,-20],[34,-40],[69,46],[19,35],[92,23],[100,-19],[46,-22],[55,55],[195,-19],[106,-62],[6,-19],[95,-20],[156,110]],[[3733,6212],[-164,-6],[-46,9],[-52,-22],[-41,26],[-57,-3],[-32,47],[-75,0],[-42,-18],[-105,-5],[-41,-39],[-5,-36],[-55,-44]],[[4727,5956],[-12,-36],[24,-49],[-24,-33],[28,-61],[58,-40],[3,-43],[95,-92],[5,-108],[52,-103],[13,-50],[7,-129]],[[8465,3154],[-37,52],[-81,75],[-19,-30],[-58,6],[-19,38],[-58,23],[-141,115],[-77,33],[-37,-28],[-201,60],[-73,-13],[-71,56],[-18,42],[-121,49],[-52,-1],[-22,31],[-85,-30],[-163,39],[-43,-12],[-97,43],[-102,9],[-36,8],[-16,50]],[[9688,4139],[57,-37],[14,-42],[175,-83],[13,-97],[-13,-82],[-32,-38],[101,-46],[57,-40]],[[10060,3674],[3,-130],[26,-25],[-15,-68]],[[10060,3674],[19,4],[47,92],[21,69],[36,7],[57,-29],[18,44],[45,13],[64,60],[-3,33],[50,53],[102,-5],[46,-28],[28,-61],[48,-3]],[[10638,3923],[3,-72],[-101,-12],[-68,-56],[-34,-79],[-93,-76],[-14,-38],[-4,-107],[22,-38]],[[10546,4490],[35,-8],[30,-95],[-6,-45],[-46,-55],[52,-63],[-16,-54],[72,-96]],[[10667,4074],[17,-119],[-46,-32]],[[10373,3010],[85,-78],[80,34],[26,80],[52,32],[39,-22],[-31,-119],[18,-151],[34,-68],[53,16],[35,-29],[18,-70],[36,24],[61,-38],[-5,-36],[-52,-20],[-13,-67],[5,-81],[24,-9],[45,93],[143,42]],[[11026,2543],[48,-34],[10,-70],[46,-91]],[[11130,2348],[-22,-31],[-46,12],[-52,-50],[-26,13],[-119,-49],[-70,-39],[-30,117],[-29,24],[-59,-77],[44,-64],[8,-48],[-83,-39],[10,-130],[59,-92],[-53,-22],[-16,-79],[-35,-12],[-53,75],[-26,-13],[-91,54],[-55,47],[-54,-99],[-1,-76],[-29,-4],[-91,-79],[-54,-3],[-62,-65],[-86,-30],[-82,3],[-43,73],[-48,15],[-72,-36],[-90,3],[-17,-94]],[[9657,1553],[-52,-56]],[[9605,1497],[-91,-53],[-75,33],[-22,44],[-54,8],[-16,30],[-90,24],[-21,66],[33,74],[74,63],[-6,38],[-73,68],[3,61],[58,45],[-14,53],[-46,30],[-32,93],[96,93]],[[9657,1553],[27,-19],[100,-25],[94,-65],[46,-16],[94,-69],[52,-89],[20,-98],[108,-73],[106,39],[52,-6],[39,-85],[126,-51],[43,-31],[45,52],[121,57],[-33,34],[13,164],[14,76],[-17,112],[72,-5],[95,-45],[73,-91],[45,-104],[10,-51],[33,-22],[41,-128],[67,7],[43,-34],[-4,-61],[46,9],[70,-23],[10,-95],[54,-32],[45,-2],[52,29],[46,-58],[-18,-82],[64,-16],[35,-38],[7,-46],[68,-47],[44,17]],[[11705,542],[2,-38],[-81,-40],[-20,-100],[-45,-46],[-57,12],[-16,-44],[-120,-4],[2,-97],[-74,-59],[-4,-40],[-117,-83],[-24,-3],[-15,55],[-74,64],[-24,57],[-29,14],[-66,111],[-28,9],[-45,-42],[-130,117],[-20,37],[-90,-8],[-136,30],[-85,39],[4,52],[-24,82],[-37,46],[-19,63],[2,61],[28,32],[-57,147],[-160,7],[-114,41],[-80,46],[-18,151],[-37,53],[-85,65],[-43,82],[-46,20],[-40,44],[-78,22]],[[11130,2348],[38,-24],[-20,-42],[86,-26],[18,-107],[-136,-131],[-34,-2],[-2,-54],[-40,-50],[96,-40],[84,-81],[58,-25],[80,-4],[99,-32],[83,-55],[112,-41],[86,0],[62,-26],[48,32],[144,-47],[56,-74]],[[12048,1519],[20,-65],[-41,-153],[72,-60],[57,-66],[-12,-86],[120,-170],[-12,-72],[-51,3],[-47,-65],[-43,23],[-25,-51],[-44,-11],[-61,2],[-128,-55],[-64,7],[-7,-42],[-37,-48],[-41,-16],[1,-52]],[[12202,1601],[-25,-22],[-73,-11],[-56,-49]],[[11026,2543],[-52,76],[8,50],[-49,36],[-7,85],[30,47],[-57,27],[36,80],[29,25],[43,-13],[33,34],[49,-9],[97,8]],[[11186,2989],[196,6],[18,61],[44,7]],[[11444,3063],[82,-52],[102,-142],[51,-11],[35,-53],[101,25],[84,-86],[50,-8],[17,-67],[2,-81],[-35,-57],[25,-50],[2,-58],[34,-34],[1,-91],[-12,-103],[138,-102]],[[10667,4074],[68,-30],[31,93],[97,24],[20,28],[150,7],[79,-14],[-1,65],[148,43],[118,-85],[53,-18]],[[11430,4187],[7,-33],[63,-36],[21,-54],[61,-67],[91,6],[42,-54],[-11,-50],[33,-53],[60,-15]],[[11797,3831],[-13,-38],[15,-70],[-108,-74],[-2,-71],[44,-45],[-67,-105],[-49,-15],[-102,-80],[-108,-11],[59,-75],[44,-104],[-48,-38],[-18,-42]],[[11186,2989],[-25,68],[12,71],[-37,92],[7,84],[-65,-12],[-78,4],[-128,61],[-34,50],[-84,24],[-71,-17],[-1,-26]],[[11629,4847],[-4,-56],[-62,-133],[2,-52],[-28,-45],[47,-77],[-33,-43],[2,-43],[-98,-143],[13,-43],[-38,-25]],[[11959,5019],[-4,-48],[136,-55],[39,-117],[67,-8],[55,45],[68,-26],[28,-64],[-12,-93],[-39,-96],[40,-109],[29,-34],[43,-1],[31,-100]],[[12430,3818],[-32,7],[-179,-27],[-35,20],[-24,59],[-85,37],[-55,10],[-18,-61],[-50,-40],[-71,10],[-49,-19],[-35,17]],[[14709,4679],[83,-16],[69,55],[89,45],[31,-27],[101,-36],[50,29],[62,-36],[43,44],[102,-36],[34,5],[62,-30],[24,23],[78,-8],[26,18],[93,-3],[69,-20],[44,26],[25,-23],[74,-5]],[[15868,4684],[63,-10],[-12,-57],[-57,-66],[-1,-55],[-44,-78],[-40,-158],[-18,-175]],[[14703,5061],[45,-5],[23,75],[28,24],[-11,68],[27,24],[131,55],[-34,107],[-6,119],[36,90],[67,28],[33,44]],[[15042,5690],[53,-27],[132,-2],[22,-92],[44,-38],[76,-19],[89,-7],[32,-30],[61,-6],[96,-42],[62,-62],[92,-19],[13,24],[-27,74],[109,33],[101,-9]],[[15997,5468],[-34,-95],[2,-105],[-55,-203],[-33,-168],[-11,-112],[2,-101]],[[15042,5690],[-54,63],[-15,97],[-59,33],[-10,41],[53,34],[24,107]],[[14981,6065],[111,17],[32,37],[84,3],[113,48],[13,-35],[229,5],[92,-28],[18,-32],[94,-12],[141,30],[153,-39]],[[16061,6059],[11,-99],[-22,-38],[-23,-124],[-29,-75],[-26,-167],[25,-88]],[[14552,6205],[8,-28],[69,-8],[31,-25],[42,27],[93,-71],[152,-8],[34,-27]],[[14500,6562],[94,4],[51,-13],[28,49],[57,52],[48,-8],[71,39]],[[14849,6685],[23,-71],[45,2],[40,-29],[129,6],[87,-6],[24,-19],[63,4],[41,-36],[139,-24],[25,13],[234,18],[3,45],[60,29],[43,74],[118,-73],[132,2]],[[16055,6620],[-13,-220],[16,-104],[-12,-108],[17,-45],[-2,-84]],[[14849,6685],[-8,115],[81,50],[98,2],[22,-32],[76,-31],[101,8],[31,31],[68,4],[58,68],[18,83],[66,34],[24,37],[80,-1],[136,87],[66,1],[107,-18],[43,-52],[67,-21],[18,-41],[68,22]],[[16069,7031],[-6,-85],[18,-46],[-33,-239],[7,-41]],[[13337,8438],[102,-4],[38,24],[162,-14],[33,-38],[67,3],[43,-20],[101,29],[96,-64],[62,33],[67,64],[49,17],[9,110]],[[16049,7524],[43,-182],[-2,-91],[26,-44],[-44,-130],[-3,-46]],[[14345,6983],[42,78],[-10,106],[-29,56],[9,32],[-24,111],[29,24],[55,-30],[48,13],[22,90],[-11,80],[-49,115],[-2,155],[-105,-47],[-45,38],[-72,-49],[-64,-11],[-46,20],[-44,-39],[-52,26],[-45,-33],[-67,63],[-43,12],[-112,-10],[-67,54],[-61,-23],[20,-78],[-87,-8],[-46,34],[-49,3],[-68,38],[-91,0],[-91,31],[-150,-6]],[[14503,10944],[-31,76],[70,74],[25,68],[-7,45],[-53,77],[52,48],[-36,40],[-2,83],[68,21],[52,36],[93,15],[81,46],[66,8],[25,-56],[95,-11],[26,13],[76,-31],[61,14],[18,-163],[49,-123],[18,-69],[38,-56],[89,27],[-17,-78],[15,-52],[-14,-65],[45,9]]],"transform":{"scale":[0.0001164836187639615,0.00009597019760285073],"translate":[139.16476,36.7916]},"objects":{"japan":{"type":"GeometryCollection","geometries":[{"arcs":[[0,1,2,3,4,5,6]],"type":"Polygon","properties":{"pref":"福島県","city":"福島市","code5":"07201","code6":"072010"}},{"arcs":[[7,8,9,10,11,12,13,14,15]],"type":"Polygon","properties":{"pref":"福島県","city":"会津若松市","code5":"07202","code6":"072028"}},{"arcs":[[-10,16,17,18,19,20,21,22,23,24,25]],"type":"Polygon","properties":{"pref":"福島県","city":"郡山市","code5":"07203","code6":"072036"}},{"arcs":[[[26,27,28,29,30,31,32,33,34]],[[35]]],"type":"MultiPolygon","properties":{"pref":"福島県","city":"いわき市","code5":"07204","code6":"072044"}},{"arcs":[[36,37,38,39,40,41,42,43,44]],"type":"Polygon","properties":{"pref":"福島県","city":"白河市","code5":"07205","code6":"072052"}},{"arcs":[[-25,45,46,47,48]],"type":"Polygon","properties":{"pref":"福島県","city":"須賀川市","code5":"07207","code6":"072079"}},{"arcs":[[49,50,51,-16,52,53,54,55]],"type":"Polygon","properties":{"pref":"福島県","city":"喜多方市","code5":"07208","code6":"072087"}},{"arcs":[[56,57,58,59,60,61]],"type":"Polygon","properties":{"pref":"福島県","city":"相馬市","code5":"07209","code6":"072095"}},{"arcs":[[-5,62,63,64,65,66,67,68,-18,69]],"type":"Polygon","properties":{"pref":"福島県","city":"二本松市","code5":"07210","code6":"072109"}},{"arcs":[[-22,70,-66,71,72,73,74,-34,75]],"type":"Polygon","properties":{"pref":"福島県","city":"田村市","code5":"07211","code6":"072117"}},{"arcs":[[-60,76,77,78]],"type":"Polygon","properties":{"pref":"福島県","city":"南相馬市","code5":"07212","code6":"072125"}},{"arcs":[[79,-62,80,81,-3,82,83]],"type":"Polygon","properties":{"pref":"福島県","city":"伊達市","code5":"07213","code6":"072133"}},{"arcs":[[-20,84,-68,85]],"type":"Polygon","properties":{"pref":"福島県","city":"本宮市","code5":"07214","code6":"072141"}},{"arcs":[[86,87,-83,-2]],"type":"Polygon","properties":{"pref":"福島県","county":"伊達郡","city":"桑折町","code5":"07301","code6":"073016"}},{"arcs":[[88,-84,-88]],"type":"Polygon","properties":{"pref":"福島県","county":"伊達郡","city":"国見町","code5":"07303","code6":"073032"}},{"arcs":[[-4,-82,89,90,-63]],"type":"Polygon","properties":{"pref":"福島県","county":"伊達郡","city":"川俣町","code5":"07308","code6":"073083"}},{"arcs":[[-19,-69,-85]],"type":"Polygon","properties":{"pref":"福島県","county":"安達郡","city":"大玉村","code5":"07322","code6":"073229"}},{"arcs":[[-48,91,92,93]],"type":"Polygon","properties":{"pref":"福島県","county":"岩瀬郡","city":"鏡石町","code5":"07342","code6":"073423"}},{"arcs":[[-11,-26,-49,-94,94,-45,95,96]],"type":"Polygon","properties":{"pref":"福島県","county":"岩瀬郡","city":"天栄村","code5":"07344","code6":"073440"}},{"arcs":[[-12,-97,97,98,99,100,101]],"type":"Polygon","properties":{"pref":"福島県","county":"南会津郡","city":"下郷町","code5":"07362","code6":"073628"}},{"arcs":[[102,103,104]],"type":"Polygon","properties":{"pref":"福島県","county":"南会津郡","city":"檜枝岐村","code5":"07364","code6":"073644"}},{"arcs":[[-105,105,106,107,108]],"type":"Polygon","properties":{"pref":"福島県","county":"南会津郡","city":"只見町","code5":"07367","code6":"073679"}},{"arcs":[[-100,109,-103,-109,110]],"type":"Polygon","properties":{"pref":"福島県","county":"南会津郡","city":"南会津町","code5":"07368","code6":"073687"}},{"arcs":[[111,112,113,-51]],"type":"Polygon","properties":{"pref":"福島県","county":"耶麻郡","city":"北塩原村","code5":"07402","code6":"074021"}},{"arcs":[[-55,114,115,116,117]],"type":"Polygon","properties":{"pref":"福島県","county":"耶麻郡","city":"西会津町","code5":"07405","code6":"074055"}},{"arcs":[[-8,-52,-114,118]],"type":"Polygon","properties":{"pref":"福島県","county":"耶麻郡","city":"磐梯町","code5":"07407","code6":"074071"}},{"arcs":[[119,-6,-70,-17,-9,-119,-113]],"type":"Polygon","properties":{"pref":"福島県","county":"耶麻郡","city":"猪苗代町","code5":"07408","code6":"074080"}},{"arcs":[[-14,120,121,-115,-54,122]],"type":"Polygon","properties":{"pref":"福島県","county":"河沼郡","city":"会津坂下町","code5":"07421","code6":"074217"}},{"arcs":[[-15,-123,-53]],"type":"Polygon","properties":{"pref":"福島県","county":"河沼郡","city":"湯川村","code5":"07422","code6":"074225"}},{"arcs":[[-116,-122,123,124,125,126]],"type":"Polygon","properties":{"pref":"福島県","county":"河沼郡","city":"柳津町","code5":"07423","code6":"074233"}},{"arcs":[[-126,127,128]],"type":"Polygon","properties":{"pref":"福島県","county":"大沼郡","city":"三島町","code5":"07444","code6":"074446"}},{"arcs":[[-107,129,-117,-127,-129,130]],"type":"Polygon","properties":{"pref":"福島県","county":"大沼郡","city":"金山町","code5":"07445","code6":"074454"}},{"arcs":[[-101,-111,-108,-131,-128,-125,131]],"type":"Polygon","properties":{"pref":"福島県","county":"大沼郡","city":"昭和村","code5":"07446","code6":"074462"}},{"arcs":[[-13,-102,-132,-124,-121]],"type":"Polygon","properties":{"pref":"福島県","county":"大沼郡","city":"会津美里町","code5":"07447","code6":"074471"}},{"arcs":[[-44,132,-98,-96]],"type":"Polygon","properties":{"pref":"福島県","county":"西白河郡","city":"西郷村","code5":"07461","code6":"074616"}},{"arcs":[[-38,133,134]],"type":"Polygon","properties":{"pref":"福島県","county":"西白河郡","city":"泉崎村","code5":"07464","code6":"074641"}},{"arcs":[[-39,-135,135,136]],"type":"Polygon","properties":{"pref":"福島県","county":"西白河郡","city":"中島村","code5":"07465","code6":"074659"}},{"arcs":[[-37,-95,-93,137,138,-136,-134]],"type":"Polygon","properties":{"pref":"福島県","county":"西白河郡","city":"矢吹町","code5":"07466","code6":"074667"}},{"arcs":[[-42,139,140,141,142,143]],"type":"Polygon","properties":{"pref":"福島県","county":"東白川郡","city":"棚倉町","code5":"07481","code6":"074811"}},{"arcs":[[-143,144,145]],"type":"Polygon","properties":{"pref":"福島県","county":"東白川郡","city":"矢祭町","code5":"07482","code6":"074829"}},{"arcs":[[-142,146,147,-145]],"type":"Polygon","properties":{"pref":"福島県","county":"東白川郡","city":"塙町","code5":"07483","code6":"074837"}},{"arcs":[[-30,148,-147,-141,149,150,151]],"type":"Polygon","properties":{"pref":"福島県","county":"東白川郡","city":"鮫川村","code5":"07484","code6":"074845"}},{"arcs":[[-40,-137,-139,152,153,154,-151,155]],"type":"Polygon","properties":{"pref":"福島県","county":"石川郡","city":"石川町","code5":"07501","code6":"075019"}},{"arcs":[[-47,156,-153,-138,-92]],"type":"Polygon","properties":{"pref":"福島県","county":"石川郡","city":"玉川村","code5":"07502","code6":"075027"}},{"arcs":[[-24,157,-32,158,-154,-157,-46]],"type":"Polygon","properties":{"pref":"福島県","county":"石川郡","city":"平田村","code5":"07503","code6":"075035"}},{"arcs":[[-41,-156,-150,-140]],"type":"Polygon","properties":{"pref":"福島県","county":"石川郡","city":"浅川町","code5":"07504","code6":"075043"}},{"arcs":[[-31,-152,-155,-159]],"type":"Polygon","properties":{"pref":"福島県","county":"石川郡","city":"古殿町","code5":"07505","code6":"075051"}},{"arcs":[[-21,-86,-67,-71]],"type":"Polygon","properties":{"pref":"福島県","county":"田村郡","city":"三春町","code5":"07521","code6":"075213"}},{"arcs":[[-23,-76,-33,-158]],"type":"Polygon","properties":{"pref":"福島県","county":"田村郡","city":"小野町","code5":"07522","code6":"075221"}},{"arcs":[[-28,159,160]],"type":"Polygon","properties":{"pref":"福島県","county":"双葉郡","city":"広野町","code5":"07541","code6":"075418"}},{"arcs":[[-27,161,162,163,-160]],"type":"Polygon","properties":{"pref":"福島県","county":"双葉郡","city":"楢葉町","code5":"07542","code6":"075426"}},{"arcs":[[-163,164,165,166]],"type":"Polygon","properties":{"pref":"福島県","county":"双葉郡","city":"富岡町","code5":"07543","code6":"075434"}},{"arcs":[[-35,-75,167,-165,-162]],"type":"Polygon","properties":{"pref":"福島県","county":"双葉郡","city":"川内村","code5":"07544","code6":"075442"}},{"arcs":[[-74,168,169,170,-166,-168]],"type":"Polygon","properties":{"pref":"福島県","county":"双葉郡","city":"大熊町","code5":"07545","code6":"075451"}},{"arcs":[[-170,171,172]],"type":"Polygon","properties":{"pref":"福島県","county":"双葉郡","city":"双葉町","code5":"07546","code6":"075469"}},{"arcs":[[-64,-91,173,-78,174,-172,-169,-73,175]],"type":"Polygon","properties":{"pref":"福島県","county":"双葉郡","city":"浪江町","code5":"07547","code6":"075477"}},{"arcs":[[-65,-176,-72]],"type":"Polygon","properties":{"pref":"福島県","county":"双葉郡","city":"葛尾村","code5":"07548","code6":"075485"}},{"arcs":[[176,-58]],"type":"Polygon","properties":{"pref":"福島県","county":"相馬郡","city":"新地町","code5":"07561","code6":"075612"}},{"arcs":[[-61,-79,-174,-90,-81]],"type":"Polygon","properties":{"pref":"福島県","county":"相馬郡","city":"飯舘村","code5":"07564","code6":"075647"}}]}}}