{"type":"Topology","arcs":[[[6238,7520],[16,-60],[82,-71],[55,18],[141,8],[51,-96],[-4,-50],[42,-18],[-18,-55],[30,-38],[-52,-32],[62,-130],[67,-60],[44,-60],[80,89]],[[6834,6965],[-3,-78],[43,-25],[-34,-79],[23,-35],[47,-126],[72,82],[116,-112],[97,-56],[156,-33],[97,-54],[70,-82],[114,-60],[86,-81]],[[7718,6226],[-45,-14],[-56,-83],[-35,1],[-34,-51],[-51,-25],[-17,-71],[-57,10],[-26,52],[-43,-2],[-117,-145]],[[7237,5898],[-88,13],[-53,-47],[-64,-12],[-81,51],[-38,87],[2,62],[-80,26],[-42,-18],[-66,-58],[-50,10],[-38,60],[-31,-46],[-54,2],[-76,31],[3,-49],[-68,12],[-84,-17],[-11,67],[-42,94],[-79,83],[15,62],[-38,8],[-31,-109],[-30,-59],[-46,34],[-27,-41],[-49,-30],[29,-71],[52,-26],[-37,-43],[-55,10],[-72,-13],[-57,10]],[[5851,5981],[-110,44],[-105,70],[-22,61],[-69,105],[-6,45],[36,122],[40,37],[-2,47],[-48,111],[-98,61],[-23,33],[20,106],[120,24],[60,-20],[80,60],[8,42],[-48,65],[-20,107],[-58,18],[-32,71]],[[5574,7190],[61,29],[123,1],[15,-34],[83,36],[35,-59],[78,107],[95,16],[35,50],[-26,44],[-79,38],[-6,49],[-34,89],[54,1],[59,-25],[21,-48],[60,-23],[37,-42],[29,11],[-23,61],[47,29]],[[8830,9936],[-22,-204],[17,-111],[-64,-79],[-36,10],[-64,-72],[-40,-86],[-20,-126],[-2,-80],[-80,-62],[-63,-153],[-72,-94],[-16,-103],[-84,-88],[-72,-222],[15,-77],[-64,-60],[-14,-83],[-31,-97],[-2,-124],[-61,-97],[3,-32],[-49,-109],[23,-47],[-36,-18],[-46,15]],[[7950,7737],[-84,3],[-75,64],[-36,14],[-5,48],[-73,-4],[-43,23],[-93,-16]],[[7541,7869],[-55,3]],[[7486,7872],[19,36],[-4,66],[26,36],[86,-9],[-9,73],[40,40],[43,-53],[84,31],[-22,25],[82,34],[13,41],[-41,116],[-58,73],[20,105],[-55,61],[-31,62],[8,90],[-42,-4],[16,72],[-19,57],[33,58],[56,161],[-47,45],[23,36],[-20,64],[-61,36],[-88,-29],[-60,7],[-34,-19],[-60,4],[-24,-61],[-61,48],[-4,71],[-38,23],[-80,128],[-39,6],[-22,85],[23,16],[99,-1],[28,52],[59,-16],[-1,119],[76,17],[1,116],[-54,28],[6,39],[-42,45],[-17,82],[46,41],[-16,82],[119,46]],[[7443,10153],[135,-52],[56,-44],[80,5],[19,-18],[89,3],[72,-35],[29,68],[85,37],[63,-59],[40,5],[24,-45],[81,21],[60,34],[28,-23],[71,21],[60,-65],[67,6],[101,-36],[70,26],[132,-42],[25,-24]],[[4195,4508],[-4,-40],[40,-32],[124,-26],[45,-38],[21,-51],[25,-131],[-34,-25],[-70,-99],[230,-39],[27,-25],[49,6],[155,-22],[73,-21],[-9,-29],[154,-46],[66,-35],[34,-42],[-35,-26],[-25,-84],[-61,36],[-91,-48],[13,-55],[45,-21],[-6,-163],[-29,-190]],[[4932,3262],[-174,33],[-241,1],[-44,-33],[4,-51],[-63,-33],[-21,-38],[-72,7],[-21,-108],[-135,99],[-19,-96],[18,-42],[-43,-16],[-9,-57],[-36,9],[-35,-65]],[[4041,2872],[-19,3],[-89,136],[-14,-1]],[[3919,3010],[-53,183],[46,-4],[28,63],[47,19],[47,64],[46,37],[51,-21],[22,71],[-45,18],[-46,47],[-42,5],[2,152],[-47,29],[1,55],[48,10],[20,111],[-74,51],[-99,3],[-100,98],[4,145],[85,-63],[60,25],[-49,35],[-32,56],[37,20],[27,49],[-8,78],[-27,50],[-62,32],[-10,36],[63,82]],[[3859,4546],[50,-37],[92,10],[26,26],[98,-49],[70,12]],[[1426,4942],[-2,-75],[80,-81],[25,-68],[-44,-86],[-38,-44],[-50,32],[32,-143],[-30,-72],[50,-107],[-3,-46]],[[1446,4252],[-62,-17],[-32,43],[-84,6],[-42,19],[-18,-55],[7,-58]],[[1215,4190],[-41,-3],[-92,-44],[-65,21],[1,130],[-36,48],[-49,-14],[-173,-10],[4,-47],[34,-41],[11,-72],[-16,-45],[-119,16],[-36,32],[-27,-129]],[[611,4032],[-108,61],[-118,8],[-104,-4],[-90,38]],[[191,4135],[-61,95],[-59,118],[-45,196],[24,171],[-50,49],[1,35],[7,25],[41,46],[111,-48],[9,93],[73,-10],[99,-42],[12,-37],[166,92],[101,85],[220,89],[308,124]],[[1148,5216],[8,-42],[-27,-85],[-25,-26],[-4,-89],[56,-119],[71,-44],[4,38],[-24,135],[103,25],[36,-13],[40,-52],[40,-2]],[[3859,4546],[-22,71],[-58,75],[22,34],[-28,63],[10,46],[-58,89],[8,57],[-59,59],[20,38],[-67,51]],[[3627,5129],[141,127],[48,-6],[-25,81],[50,95],[-8,75],[56,31],[99,182],[-22,66],[-52,49],[16,85],[77,98],[66,16],[76,40],[81,-4]],[[4230,6064],[105,-36],[79,46],[26,-32],[63,-19],[28,-68],[59,-64],[13,-89],[95,-94],[15,-28],[91,0],[53,-49],[45,-78],[52,-8],[27,-35],[50,27],[172,-18],[87,44]],[[5290,5563],[39,-20],[61,-66],[-95,4],[-64,-24],[-35,-76],[-107,-7],[-75,-246],[26,-81],[86,-32],[47,-53],[52,-17],[33,-35],[98,-8],[21,-89],[46,-22],[69,-77],[75,20],[67,-48],[-26,-42],[-59,33],[-61,-23],[-50,5],[-47,-26],[-62,20],[-8,-54],[16,-65],[-21,-94],[23,-97],[94,-61],[82,-30],[48,-53],[86,-119]],[[5649,4080],[-123,-34],[-59,-1],[-109,25],[-90,40],[-69,-11],[-245,20],[-145,-17],[90,135],[74,53],[50,115],[50,38],[-23,63],[-68,74],[-74,31],[-21,37],[-94,51],[-17,45],[-40,26],[6,56],[-31,33],[-142,13],[-23,28],[-62,-4],[11,-73],[110,-76],[-10,-23],[-119,-6],[-17,-65],[-120,-40],[-85,-83],[-59,-22]],[[1148,5216],[45,82],[43,182],[85,128],[-56,151],[37,88],[90,120],[59,-14],[49,27],[85,21],[19,84],[58,-5],[8,-30],[-33,-60],[28,-44],[46,18],[39,-25],[42,7],[21,-36],[-41,-46],[75,-34]],[[1847,5830],[-21,-21],[10,-95],[41,-23],[16,-58],[-47,-63],[5,-41],[-33,-65],[-44,-24],[-53,-86],[26,-39],[62,-43],[54,-67],[7,-42]],[[1870,5163],[-67,-12],[20,-52],[-35,-52],[-36,36],[-38,-37],[27,-89],[-48,-27],[-140,77],[-34,-48],[-75,51],[-18,-68]],[[3665,2508],[11,-159],[33,-57],[66,3],[14,-67],[155,-82],[48,-7],[42,76],[96,-53],[39,-53],[12,-61],[75,107],[29,111],[57,-19],[13,89],[177,-84],[94,-73],[123,6],[121,-87],[7,-28]],[[4877,2070],[44,-75],[-66,-25],[-38,-125],[-4,-98]],[[4813,1747],[-107,-47],[-112,-104],[-63,-28],[-1,-54],[-144,-69],[25,-33]],[[4411,1412],[-47,-24],[-91,132],[-76,19],[-108,1],[-25,-81],[-147,13],[-85,-7],[-59,25]],[[3773,1490],[148,114],[40,44],[23,59],[-52,78],[-33,1],[-121,97],[3,70],[40,49],[-4,50],[-155,123]],[[3662,2175],[-154,96],[-64,116],[-13,123],[11,32]],[[3442,2542],[30,-102],[-13,-55],[43,-39],[53,-92],[39,-26],[85,-10],[-11,72],[-46,59],[12,28],[2,112],[-50,106],[66,-34],[13,-53]],[[2992,4798],[-38,-42],[-72,-15],[-35,-73],[44,-82],[-21,-38],[-42,9],[-85,-52],[-4,-105],[-38,-51],[24,-40],[-15,-105],[-47,-72]],[[2663,4132],[-68,1],[-169,63],[-84,11],[-25,28],[-49,-13],[1,-63],[-29,-14],[-77,6],[-22,-32],[-132,-7],[2,71],[-31,54]],[[1980,4237],[11,123],[-48,34],[26,47],[54,46],[82,-70],[-43,-31],[-25,-62],[13,-27],[120,22],[5,74],[25,3],[0,73],[-84,74],[24,158],[-19,53],[-41,13],[-63,-12],[-65,134],[13,106],[-97,124]],[[1868,5119],[83,12],[30,51],[78,72],[100,9],[29,-137],[69,-32],[62,23],[17,-34],[66,-51],[19,77],[78,15],[19,27],[102,-46],[46,10],[13,-78],[31,-21],[-7,-132],[27,-30],[55,17],[23,-31],[56,37],[30,-35],[7,-52],[91,8]],[[2663,4132],[14,-42],[-33,-35],[18,-45],[36,-9],[0,-98],[-28,-64],[33,-57],[50,-14],[-11,-60],[-76,-49],[11,-48],[39,-47],[39,-106],[-26,-86],[87,-37],[60,-67],[34,-76]],[[2910,3192],[-10,-33],[31,-90],[-80,-68],[-67,-2],[-14,-41],[-142,-87],[-22,-28],[90,-115],[-77,5],[-37,-44],[-48,6],[-21,85],[-62,-68],[27,-50],[-31,-34],[16,-110],[-29,-34]],[[2434,2484],[-65,-29],[-59,29],[-132,12],[-53,-38],[-12,-69]],[[2113,2389],[-89,21]],[[2024,2410],[-11,211],[-26,49],[10,47],[-35,107],[6,53],[34,28],[-12,40],[196,66],[60,-13],[-18,85],[47,4],[47,122],[-2,64],[-39,39],[-52,-2],[-103,129],[26,63],[2,137],[-64,16],[-113,125],[-48,24],[-52,73],[-94,71],[0,32]],[[1783,3980],[31,50],[-43,61],[66,55],[126,-43],[-6,63],[23,71]],[[6661,10967],[24,2],[117,83],[4,41],[73,59],[-2,97],[120,3],[16,45],[57,-12],[46,46],[20,100],[81,40],[-3,38],[0,51],[40,17],[37,48],[7,42],[65,-7],[128,54],[61,-1]],[[7552,11713],[20,-36],[-24,-49],[-51,-53],[-44,-78],[33,-17],[4,-112],[-47,-36],[-88,-146],[19,-44],[-52,-31],[-9,-86],[18,-22],[0,-77],[18,-29],[-54,-58],[-12,-72],[45,-12],[39,-86],[53,17],[47,-30],[-24,-112],[3,-60],[51,-74],[8,-39],[-49,-48],[25,-42],[-38,-128]],[[7486,7872],[-27,12],[-31,77],[-91,10],[-60,-43],[-50,33],[-118,2],[-49,-22],[-50,-75],[-42,35],[-87,-39],[-62,54],[-109,49],[-83,67]],[[6627,8032],[-16,109],[-77,43],[-2,36],[-40,66],[0,95],[24,18],[-51,51],[10,29],[-23,71],[-40,-1],[-24,81],[63,-3],[9,40],[-48,49],[3,38],[-28,63],[-28,10],[-11,64],[27,124],[38,23],[0,83],[-86,75],[-8,52],[-80,54],[20,77],[68,84],[42,-1],[41,75],[27,-42],[72,42],[14,53],[40,14],[5,65],[-56,35],[-28,54],[58,51],[26,66],[-5,59],[-62,18],[-18,99]],[[6483,10051],[-49,82],[-60,8],[-53,119],[-45,8],[-31,80],[102,29],[74,-14],[49,-49],[72,33],[9,79],[-29,73],[33,35],[81,29],[76,68],[-14,101],[-20,36],[-22,142],[5,57]],[[7552,11713],[44,11],[24,50],[43,-23],[48,65],[50,-2]],[[7761,11814],[56,-24],[55,-157],[-7,-30],[78,-57],[93,-20],[61,-58],[36,-60],[41,13],[16,-49],[97,-115],[37,-85],[145,-37],[48,-68],[-16,-28],[-65,-17],[-63,-75],[0,-46],[-76,-11],[-49,-25],[4,-69],[20,-30],[79,-7],[94,-75],[35,-72],[60,-12],[49,-63],[31,-6],[97,36],[63,-30],[118,17],[76,-35]],[[8974,10519],[-29,-101],[-12,-85],[6,-146],[-29,-21],[-62,-157],[-18,-73]],[[7712,12568],[66,-115],[-8,-81],[44,-15],[42,-53],[37,-75],[45,-22],[19,-64],[69,-13],[125,-59],[87,36],[72,-39],[75,-9],[76,-34],[57,2],[32,-28],[158,-75],[28,-53],[75,-58],[49,-5],[81,22],[42,-30],[54,42],[46,-45],[83,-18],[97,-83],[89,60],[79,-56],[-5,-58],[65,29],[41,-59],[-9,-112],[40,-43],[4,-61],[-45,-65],[-49,33],[-77,-45],[-78,-25],[-41,-49],[-83,-188],[-11,-58],[-27,-13],[-67,-136],[-73,-225],[-42,-106]],[[7761,11814],[12,72],[-119,170],[12,86],[-58,65],[-72,60],[42,154],[-21,65],[57,49],[73,10],[25,23]],[[5851,5981],[-47,-2],[-61,-61],[21,-68],[-35,-32],[4,-57],[-54,-146],[-59,-86],[4,-41]],[[5624,5488],[-63,51],[-21,-15],[-147,71],[-31,50],[-38,-66],[-34,-16]],[[4230,6064],[20,44],[-83,125],[-77,-4],[-9,90],[43,82],[7,78],[85,7],[12,68],[-22,30],[18,53],[83,99],[-38,98],[0,35]],[[4269,6869],[8,29],[55,36],[50,115],[43,53],[-11,126]],[[4414,7228],[68,2],[15,25],[68,-2],[29,-51],[83,92],[44,-81],[137,-5],[35,39],[93,1],[105,26],[50,-1],[42,49],[-2,45],[48,26],[12,-41],[79,-1],[49,-59],[47,17],[70,-43],[11,-32],[77,-44]],[[3773,1490],[-14,-22],[12,-95]],[[3771,1373],[-46,29],[-86,25],[-77,48],[-85,33],[-41,2],[-118,-77],[-66,44],[-48,75],[-47,27],[-69,13],[-141,91],[-105,98],[-49,11],[-124,-20],[-30,4]],[[2639,1776],[70,177],[38,41],[47,-10],[24,27],[29,112],[-22,70],[27,48]],[[2852,2241],[53,-57],[23,-69],[77,-52],[58,-58],[101,64],[80,-5],[68,62],[76,16],[100,-29],[71,42],[71,-31],[32,51]],[[4041,2872],[147,-138],[35,-87],[-4,-71],[85,-81],[113,-56],[23,-49],[31,2],[76,154],[58,-24],[33,-53],[60,50],[130,58],[30,-7],[33,-69]],[[4891,2501],[36,-17],[48,-166],[48,-189],[-116,-30],[-30,-29]],[[3665,2508],[43,17],[63,-44],[41,87],[58,3],[21,23],[-70,133],[36,51],[70,3],[-22,158],[14,71]],[[3442,2542],[-58,156],[-88,85],[-30,14],[-27,57],[-124,-47],[-47,39],[-1,81],[42,86],[-2,35],[-62,99],[-41,-21],[-94,66]],[[2992,4798],[73,9],[42,36],[-7,80],[90,13],[-56,160],[17,86],[47,-19]],[[3198,5163],[-1,-93],[192,25],[81,-15],[60,44],[97,5]],[[6834,6965],[61,75],[32,-17],[58,82],[79,-11],[-12,70],[81,13],[-13,87],[-19,19],[-3,79],[26,47],[101,33],[4,103],[56,-42],[52,0]],[[7337,7503],[21,-122],[58,1],[23,-91],[152,-46],[66,6],[57,-16],[37,-39],[43,-4],[106,-51],[18,29]],[[7918,7170],[97,-2],[39,-24],[-3,-74],[-112,1],[-2,-238],[53,-110],[45,6],[30,-81],[-37,-104],[-16,-78],[-84,-52],[-39,-91],[-50,-66],[-37,22],[-20,-56]],[[7782,6223],[-64,3]],[[8638,2024],[-14,-7],[-280,-40],[-34,4]],[[8310,1981],[-20,-10]],[[8290,1971],[-65,-4],[-142,26],[-77,56]],[[8006,2049],[30,49],[-85,78],[-41,103],[-81,73],[-63,3],[-29,90],[45,42],[16,52],[-66,83],[-51,82],[-87,64],[-50,76]],[[7544,2844],[9,84],[-19,166],[-25,38],[3,105],[-77,54],[0,70]],[[7435,3361],[69,1],[52,28],[9,32],[61,2],[26,39],[73,-8],[16,66],[59,32],[59,-2],[68,23]],[[7927,3574],[75,-168],[99,-247],[64,-134],[165,-385],[107,-205],[66,-56],[31,15],[100,2],[21,-28],[-95,-20],[138,-278],[-27,-29],[-2,-1],[-31,-16]],[[8006,2049],[-25,-38],[-7,-77],[-41,-12],[-93,-61],[10,-92],[-29,-60]],[[7821,1709],[-89,30],[-62,109],[-91,79],[-115,70],[-171,83],[-42,32],[-48,63],[-134,113]],[[7069,2288],[-111,-8],[-112,125]],[[6846,2405],[183,68],[53,37],[7,57],[-22,182],[149,-3],[10,-53],[74,-82],[6,96],[15,39],[64,64],[159,34]],[[2434,2484],[62,-89],[160,-56],[51,-50],[24,20],[46,-39],[75,-29]],[[2639,1776],[-81,54],[-72,83],[-103,42],[-116,95],[-114,49],[-60,106],[55,117],[-35,67]],[[6627,8032],[-200,61],[-99,-30],[-54,25],[-72,-48],[31,-38],[-9,-71],[-40,-30],[-54,-1],[-63,-69]],[[6067,7831],[-25,57],[-63,58],[-96,207],[-60,47],[16,21],[-215,163],[-93,30],[-61,32],[-54,-34],[-33,-105],[-68,-14],[-63,16],[-27,-120],[-57,4],[-91,-46],[-106,91],[-26,-55],[-80,-21]],[[4865,8162],[-10,49],[-48,77],[3,107],[-10,34],[39,68],[-66,86],[27,49],[-20,89],[8,66],[-19,22],[23,103],[27,52],[-7,120],[-27,69],[-49,78],[-41,-12],[-4,112],[72,20],[-30,94],[15,56],[-45,65],[-55,53],[30,33],[-11,49],[-85,43],[30,37],[-40,97],[55,55],[26,67],[30,15],[93,-26],[22,47],[100,-7],[81,7],[28,46],[96,15],[32,45],[53,2]],[[5188,10144],[97,-31],[85,37],[28,100],[88,-13],[57,-96],[-1,-44],[104,-25],[60,-68],[58,11],[67,-69],[31,0],[34,-47],[109,-42],[44,-5],[59,29],[44,-34],[99,9],[11,50],[91,-39],[27,69],[-20,30],[50,40],[7,32],[66,13]],[[6238,7520],[-56,48],[15,148],[-34,55],[-46,22],[-51,-44],[1,82]],[[7541,7869],[-87,-75],[-53,-19],[-17,-88],[-54,-17],[21,-49],[-40,-52],[26,-66]],[[1847,5830],[67,27],[34,69],[-38,20],[19,159],[4,104],[83,68],[107,20],[95,60],[157,18],[11,97],[-4,75],[79,74],[41,-50],[91,-26],[12,23],[88,-15],[20,27],[-30,63],[74,-16],[32,13],[115,-10],[81,24],[51,-26]],[[3036,6628],[-8,-128],[83,-32],[-21,-58],[-44,23],[-36,-14],[17,-54],[88,-138],[-3,-84],[31,-130],[-26,-159],[-29,-46],[27,-27],[-11,-111],[40,-92],[56,49],[59,-35],[-35,-51],[22,-48],[-24,-74],[-18,-143],[-6,-113]],[[1868,5119],[2,44]],[[1446,4252],[119,-16],[92,-78],[23,-60],[103,-118]],[[2024,2410],[-59,-1],[-149,75],[-131,118],[-15,27],[-36,168],[-181,228],[-84,46],[-87,75],[-146,168]],[[1136,3314],[91,49],[36,-13],[72,27],[52,112],[-78,35],[-18,125],[42,87],[-13,53],[1,116],[20,136],[27,41],[-82,4],[-30,49],[-6,62],[-35,-7]],[[4891,2501],[52,30],[60,-26],[37,23],[111,9]],[[5151,2537],[83,-42],[43,-39],[35,9],[37,66],[60,66],[31,11],[38,72],[-15,21],[52,71],[245,-71],[-10,-74],[57,-13],[136,32],[67,32],[185,283]],[[6195,2961],[187,-159],[190,-168],[109,-174],[86,-36],[79,-19]],[[7069,2288],[-63,-80],[-36,-69],[-21,-110],[-57,-20],[-30,-35],[30,-137],[64,-65],[-4,-31],[-112,36],[-89,67],[-27,38],[-108,71],[-86,-120],[-117,-34],[-75,-43],[-70,-13],[-89,29],[-95,-2],[-151,-61]],[[5933,1709],[-25,76],[-34,55],[-67,-47],[-278,-153],[-52,87],[-33,-168],[-140,-41],[-85,-4],[17,74],[-136,7],[9,56],[-105,-22],[-24,48],[-82,-16],[-71,91],[-14,-5]],[[5649,4080],[178,-2]],[[5827,4078],[166,-171],[44,-164],[58,-68],[59,-96],[-55,-202],[-16,-87],[-4,-181]],[[6079,3109],[-320,75],[-172,3],[-136,15],[-105,26],[-105,-47],[-244,70]],[[4997,3251],[-65,11]],[[3036,6628],[57,4],[133,67],[47,73],[-33,82],[11,72],[85,4],[57,-14],[42,-48],[37,35],[81,-48],[82,11],[-14,96],[38,37],[153,43],[82,-30],[24,20],[37,-76],[66,-89],[80,20],[168,-18]],[[8290,1971],[-10,-17],[142,-78],[40,-70],[10,-161],[22,-3],[69,-114],[49,-28],[-106,188],[-10,116],[194,140],[39,-15],[48,27],[9,143],[2,1],[-9,-145],[-22,-56],[105,-183],[185,-310],[2,-73],[325,-530],[132,-209],[25,-25],[108,-174],[126,-173],[97,-83],[53,-62],[42,2],[15,39],[-28,35],[28,-34],[-15,-40],[37,-21],[-51,-50],[-72,-8],[-135,3],[-56,22],[-124,85],[-109,91],[-315,215],[-85,63],[-109,120],[-27,43],[-44,133],[-30,96],[-36,70],[-55,71],[-81,64],[-89,56],[-175,57],[-160,26],[-147,35],[-16,58],[-106,174],[-27,78],[-46,73],[-78,76]],[[8638,2024],[-1,-48],[-146,-101],[-135,68],[-46,38]],[[6195,2961],[-116,148]],[[5827,4078],[-29,111],[0,167],[85,-30],[48,27],[55,-22],[83,12],[64,-95],[39,-96],[63,48],[53,6],[121,127],[19,115]],[[6428,4448],[61,-57],[54,-25],[50,4],[-1,-73],[-21,-67],[-46,-87],[19,-59],[120,-82],[141,33],[82,-32],[13,37],[137,58],[45,-81],[61,-35],[35,26],[58,-83],[-26,-85],[44,-39],[4,-41],[-38,-36],[72,-60],[28,-48],[-5,-83],[33,-57],[0,-40],[57,-29],[30,-46]],[[6428,4448],[32,126],[30,67],[49,24],[-14,80],[-49,87],[-79,56],[-119,44],[-39,77]],[[6239,5009],[52,125],[101,-39],[75,112],[53,-105],[75,68],[179,34],[88,67],[79,10],[-23,43],[4,121],[20,36],[-2,113],[225,23]],[[7165,5617],[35,-118],[73,-23],[26,-27],[162,-18],[23,-48]],[[7484,5383],[32,-358],[52,-283],[38,-176],[84,-324],[94,-296],[79,-216],[64,-156]],[[5624,5488],[57,41],[61,-18],[238,-121],[17,-63],[-23,-70],[6,-39],[90,-32],[65,-85],[104,-92]],[[7237,5898],[18,-34],[-14,-68],[-76,-179]],[[7782,6223],[-4,-154],[-45,-86],[-29,-28],[-67,1],[-39,-84],[-63,-52],[-43,-62],[-18,-67],[-2,-127],[12,-181]],[[4414,7228],[-6,56],[42,86],[-29,83],[39,27],[8,78],[40,27],[-8,38],[39,86],[59,28],[53,96],[9,126],[93,2],[8,46],[56,1],[-11,77],[107,27],[-48,50]],[[7950,7737],[-25,-70],[-22,-239],[17,-89],[40,-18],[105,-3],[-1,-107],[-147,1],[1,-42]],[[4948,12443],[75,-33],[91,53],[79,-21],[39,-44],[47,-20],[43,-82],[85,-65],[36,-54],[19,-150],[79,-47],[114,-40],[160,-7],[58,-148],[-29,-32],[-1,-61],[18,-62],[37,-47],[24,-81],[-4,-53],[85,-39],[136,-29],[91,8],[20,-37],[129,-118],[46,43],[28,-9],[65,-112],[30,-14],[24,-57],[74,-63],[15,-55]],[[5188,10144],[-42,56],[3,77],[-37,91],[-50,48],[-72,35],[-59,64],[-22,68],[-41,57],[17,61],[36,15],[-63,73],[32,28],[-31,67],[67,30],[41,47],[-16,36],[21,52],[-21,48],[-7,75],[25,19],[-8,165],[-30,41],[-6,52],[-56,42],[14,64],[-44,46],[24,79],[-1,96],[22,40],[-21,41],[-12,90],[12,57],[-48,185],[12,87],[-15,42],[44,88],[37,31],[55,6]],[[5151,2537],[-59,52],[-37,88],[36,53],[-48,162],[14,36],[-43,24],[-19,109],[2,190]],[[5933,1709],[-26,-8],[-105,-31],[-91,-78],[-40,-91],[-115,-113],[-103,-65],[-51,-19],[-76,2],[-71,23],[-91,49],[-71,28],[-42,-5],[-90,-45],[-190,-145],[-94,-13],[-42,13],[-121,69]],[[4514,1280],[28,67],[4,61],[-71,-16],[-18,45],[-46,-25]],[[611,4032],[49,-46],[83,-108],[106,-75]],[[849,3803],[-75,-58],[-15,-81],[-27,-19],[-11,-70],[-52,-19],[-80,22],[-83,48],[-129,-6],[-30,37],[-10,182],[-6,52],[-110,143],[-30,101]],[[1136,3314],[-56,55],[-46,83],[-39,171],[-54,99],[-92,81]],[[4514,1280],[-71,-7],[-54,-23],[-107,-76],[-162,-66],[-95,-29],[-88,32],[-105,137],[-61,125]]],"transform":{"scale":[0.00011648088853311924,0.00009596912794398454],"translate":[139.68786,35.73914]},"objects":{"japan":{"type":"GeometryCollection","geometries":[{"arcs":[[0,1,2,3,4,5]],"type":"Polygon","properties":{"pref":"茨城県","city":"水戸市","code5":"08201","code6":"082015"}},{"arcs":[[6,7,8,9,10]],"type":"Polygon","properties":{"pref":"茨城県","city":"日立市","code5":"08202","code6":"082023"}},{"arcs":[[11,12,13,14,15]],"type":"Polygon","properties":{"pref":"茨城県","city":"土浦市","code5":"08203","code6":"082031"}},{"arcs":[[16,17,18,19,20,21]],"type":"Polygon","properties":{"pref":"茨城県","city":"古河市","code5":"08204","code6":"082040"}},{"arcs":[[-16,22,23,24,25,26]],"type":"Polygon","properties":{"pref":"茨城県","city":"石岡市","code5":"08205","code6":"082058"}},{"arcs":[[-22,27,28,29]],"type":"Polygon","properties":{"pref":"茨城県","city":"結城市","code5":"08207","code6":"082074"}},{"arcs":[[30,31,32,33,34,35,36]],"type":"Polygon","properties":{"pref":"茨城県","city":"龍ケ崎市","code5":"08208","code6":"082082"}},{"arcs":[[37,38,39,40]],"type":"Polygon","properties":{"pref":"茨城県","city":"下妻市","code5":"08210","code6":"082104"}},{"arcs":[[-39,41,42,43,44,45,46]],"type":"Polygon","properties":{"pref":"茨城県","city":"常総市","code5":"08211","code6":"082112"}},{"arcs":[[47,48,-10,49,50,51]],"type":"Polygon","properties":{"pref":"茨城県","city":"常陸太田市","code5":"08212","code6":"082121"}},{"arcs":[[52,53,54,-11,-49]],"type":"Polygon","properties":{"pref":"茨城県","city":"高萩市","code5":"08214","code6":"082147"}},{"arcs":[[55,-54,56]],"type":"Polygon","properties":{"pref":"茨城県","city":"北茨城市","code5":"08215","code6":"082155"}},{"arcs":[[-5,57,58,-25,59,60,61]],"type":"Polygon","properties":{"pref":"茨城県","city":"笠間市","code5":"08216","code6":"082163"}},{"arcs":[[-35,62,63,64,65]],"type":"Polygon","properties":{"pref":"茨城県","city":"取手市","code5":"08217","code6":"082171"}},{"arcs":[[-14,66,67,-31,68]],"type":"Polygon","properties":{"pref":"茨城県","city":"牛久市","code5":"08219","code6":"082198"}},{"arcs":[[-15,-69,-37,69,-42,-38,70,71,-23]],"type":"Polygon","properties":{"pref":"茨城県","city":"つくば市","code5":"08220","code6":"082201"}},{"arcs":[[-2,72,73,74,75]],"type":"Polygon","properties":{"pref":"茨城県","city":"ひたちなか市","code5":"08221","code6":"082210"}},{"arcs":[[76,77,78,79,80,81,82]],"type":"Polygon","properties":{"pref":"茨城県","city":"鹿嶋市","code5":"08222","code6":"082228"}},{"arcs":[[-80,83,84,85,86]],"type":"Polygon","properties":{"pref":"茨城県","city":"潮来市","code5":"08223","code6":"082236"}},{"arcs":[[-44,87,-65,88]],"type":"Polygon","properties":{"pref":"茨城県","city":"守谷市","code5":"08224","code6":"082244"}},{"arcs":[[-51,89,90,91,92]],"type":"Polygon","properties":{"pref":"茨城県","city":"常陸大宮市","code5":"08225","code6":"082252"}},{"arcs":[[-1,93,-90,-50,-9,94,-73]],"type":"Polygon","properties":{"pref":"茨城県","city":"那珂市","code5":"08226","code6":"082261"}},{"arcs":[[-29,95,96,-71,-41,97]],"type":"Polygon","properties":{"pref":"茨城県","city":"筑西市","code5":"08227","code6":"082279"}},{"arcs":[[-18,98,-46,99,100]],"type":"Polygon","properties":{"pref":"茨城県","city":"坂東市","code5":"08228","code6":"082287"}},{"arcs":[[-32,-68,101,102,103,-86,104,105]],"type":"Polygon","properties":{"pref":"茨城県","city":"稲敷市","code5":"08229","code6":"082295"}},{"arcs":[[-12,-27,106,107,108,109]],"type":"Polygon","properties":{"pref":"茨城県","city":"かすみがうら市","code5":"08230","code6":"082309"}},{"arcs":[[-24,-72,-97,110,-60]],"type":"Polygon","properties":{"pref":"茨城県","city":"桜川市","code5":"08231","code6":"082317"}},{"arcs":[[[-79,111,-84]],[[-77,112]]],"type":"MultiPolygon","properties":{"pref":"茨城県","city":"神栖市","code5":"08232","code6":"082325"}},{"arcs":[[-81,-87,-104,113,-108,114,115]],"type":"Polygon","properties":{"pref":"茨城県","city":"行方市","code5":"08233","code6":"082333"}},{"arcs":[[-82,-116,116,117,118,119]],"type":"Polygon","properties":{"pref":"茨城県","city":"鉾田市","code5":"08234","code6":"082341"}},{"arcs":[[-36,-66,-88,-43,-70]],"type":"Polygon","properties":{"pref":"茨城県","city":"つくばみらい市","code5":"08235","code6":"082350"}},{"arcs":[[-26,-59,120,-117,-115,-107]],"type":"Polygon","properties":{"pref":"茨城県","city":"小美玉市","code5":"08236","code6":"082368"}},{"arcs":[[-4,121,-118,-121,-58]],"type":"Polygon","properties":{"pref":"茨城県","county":"東茨城郡","city":"茨城町","code5":"08302","code6":"083020"}},{"arcs":[[-3,-76,122,-119,-122]],"type":"Polygon","properties":{"pref":"茨城県","county":"東茨城郡","city":"大洗町","code5":"08309","code6":"083097"}},{"arcs":[[-6,-62,123,-91,-94]],"type":"Polygon","properties":{"pref":"茨城県","county":"東茨城郡","city":"城里町","code5":"08310","code6":"083101"}},{"arcs":[[-8,124,-74,-95]],"type":"Polygon","properties":{"pref":"茨城県","county":"那珂郡","city":"東海村","code5":"08341","code6":"083411"}},{"arcs":[[125,-52,-93,126]],"type":"Polygon","properties":{"pref":"茨城県","county":"久慈郡","city":"大子町","code5":"08364","code6":"083640"}},{"arcs":[[-103,127,-109,-114]],"type":"Polygon","properties":{"pref":"茨城県","county":"稲敷郡","city":"美浦村","code5":"08442","code6":"084425"}},{"arcs":[[-13,-110,-128,-102,-67]],"type":"Polygon","properties":{"pref":"茨城県","county":"稲敷郡","city":"阿見町","code5":"08443","code6":"084433"}},{"arcs":[[-33,-106,128,129]],"type":"Polygon","properties":{"pref":"茨城県","county":"稲敷郡","city":"河内町","code5":"08447","code6":"084476"}},{"arcs":[[-17,-30,-98,-40,-47,-99]],"type":"Polygon","properties":{"pref":"茨城県","county":"結城郡","city":"八千代町","code5":"08521","code6":"085219"}},{"arcs":[[-20,130,131]],"type":"Polygon","properties":{"pref":"茨城県","county":"猿島郡","city":"五霞町","code5":"08542","code6":"085421"}},{"arcs":[[-19,-101,132,-131]],"type":"Polygon","properties":{"pref":"茨城県","county":"猿島郡","city":"境町","code5":"08546","code6":"085464"}},{"arcs":[[-34,-130,133,-63]],"type":"Polygon","properties":{"pref":"茨城県","county":"北相馬郡","city":"利根町","code5":"08564","code6":"085642"}}]}}}