{"type":"Topology","arcs":[[[3040,3315],[60,-53],[112,-133],[78,-145],[-14,-60],[18,-126]],[[3294,2798],[16,-62],[64,-145],[105,7],[14,-44]],[[3493,2554],[49,-233],[-28,-50],[5,-40],[59,-108],[5,-59],[-23,-72],[6,-58],[-36,-47]],[[3530,1887],[-18,38],[-51,11],[-78,-9],[-24,-33],[-24,-108],[-1,-57]],[[3334,1729],[-77,37],[-6,38],[-92,-3],[-95,49],[-72,-95],[-69,-72],[-55,3]],[[2868,1686],[-35,62],[-82,27],[-52,53]],[[2699,1828],[-39,56],[-20,87],[-49,8]],[[2591,1979],[55,92],[-13,61],[-46,34],[-3,38],[34,54],[-7,28],[-69,-23],[-77,92],[-16,71],[70,31],[-49,35],[-30,-8],[-99,59],[-56,-31],[-32,52],[-48,22],[-24,62]],[[2181,2648],[70,68],[75,3],[-12,43],[126,43],[9,76],[-12,96],[-44,70],[13,148],[56,8],[60,59],[50,17],[31,-62],[92,-2],[6,88],[55,31]],[[2756,3334],[40,36],[112,-48],[32,13],[100,-20]],[[1099,521],[-57,19],[-26,-24],[-107,-31],[-93,-25],[-97,-4],[-27,36],[45,21],[-54,56],[-70,-6],[-1,34],[-88,65],[-58,76],[-4,54],[61,0],[-20,50],[-135,86],[-45,56],[-94,73],[-21,85],[-28,27],[47,89],[28,17],[8,68],[47,66],[31,18],[14,63],[42,16],[21,57]],[[418,1563],[82,-4],[43,-54],[110,52],[141,-142],[6,-62],[38,-76],[84,-64],[50,-168],[-30,-51],[-4,-88],[43,-48],[77,-1],[101,17],[-26,-141],[5,-60],[-63,21],[-41,-29],[-31,-68],[51,-29],[45,-47]],[[1897,15],[-4,-15],[-56,11],[-13,44],[-55,-8],[27,51],[-55,104],[-44,49],[-43,14],[-61,85],[30,45],[-14,53],[-88,24]],[[1521,472],[-18,87],[64,97],[6,66],[34,40],[4,50],[-72,-21],[-18,19],[5,104],[-25,12],[0,91],[-16,70],[36,43],[71,22],[-1,52],[83,162],[-46,39],[-7,93],[-25,53],[-32,-4],[-64,45],[-75,97],[-24,-10],[-62,47],[-97,158]],[[1242,1884],[54,3],[67,-25],[47,-48],[51,-87]],[[1461,1727],[-28,-44],[40,-52],[37,67]],[[1510,1698],[51,-6],[-3,77],[34,69],[63,-17],[63,17],[67,41],[94,-29],[49,-39],[23,12],[81,-28],[63,35],[106,-43],[52,-87]],[[2253,1700],[7,-47],[49,-73],[-2,-41],[88,-130],[33,-14],[21,-84],[96,-26]],[[2545,1285],[-48,-26],[-32,-58]],[[2465,1201],[-5,-76],[-89,-5],[-61,-56],[-11,-89],[-56,4],[-7,-45],[-46,2],[-9,-73],[19,-58],[-85,-19],[15,-74],[-46,-16],[5,-81],[38,-23],[-58,-119],[25,-37],[-19,-38],[-69,9],[-65,-76],[13,-48],[-49,-40],[-4,-33],[31,-60]],[[1932,150],[-58,-47],[23,-88]],[[418,1563],[30,32],[-6,49],[88,4],[45,44],[-25,39],[-11,62],[-61,81],[20,89],[31,12],[64,94],[-19,81],[16,82],[62,-8],[50,22],[26,66],[44,20],[-1,40],[46,32]],[[817,2404],[29,-25],[96,-33],[37,-35],[-2,-47],[28,-20],[33,-72],[30,-22],[28,-136],[70,-82],[76,-48]],[[1521,472],[-44,-37],[-99,3],[-149,-10],[-63,85],[-27,-30],[-40,38]],[[1461,1727],[49,-29]],[[2591,1979],[-82,-57],[-26,20],[-42,-44],[6,-49],[-26,-24],[-52,39],[-53,-40],[10,-52],[-18,-47],[-55,-25]],[[817,2404],[2,33],[-48,46],[-13,79],[-32,22]],[[726,2584],[9,41],[56,35],[37,-7],[18,43],[87,30],[20,20],[-59,90],[-9,51],[22,67],[41,22],[42,79],[46,13],[-9,161],[73,14],[58,31],[65,-4],[75,-61],[-14,-46],[37,-190],[44,-20],[28,-44],[58,-49],[63,-10],[21,-26],[117,-53],[74,87],[-64,83],[40,16],[55,-22],[70,7],[32,-40],[69,38],[69,2],[5,-100],[64,-37],[-41,-53],[-3,-62],[68,-43],[63,20],[28,-19]],[[349,4518],[31,59],[68,47],[77,-21],[42,74],[-3,38],[117,76],[17,101],[128,36],[52,-47],[50,10],[59,53],[92,24],[63,58],[51,11],[132,79],[12,63],[88,-18],[68,11],[73,77],[-3,43],[56,-5],[83,34],[22,30],[48,-9],[62,103],[80,37],[44,-20],[55,57],[115,2],[23,21],[81,-9],[53,32],[79,84],[52,12],[113,-38],[66,2]],[[2595,5625],[7,-27],[-49,-110],[-71,-109],[-46,-31],[-174,-20],[-19,-71],[19,-60],[-19,-17],[1,-78],[-26,-52],[-48,-38],[34,-67],[-19,-28],[16,-69],[-46,-65],[37,-27],[-12,-34],[27,-38],[125,-104],[-12,-88],[36,-34]],[[2356,4458],[-30,-90],[14,-119],[-10,-85],[-110,-75],[-71,-63],[-47,-2],[19,-72],[-14,-64],[4,-97],[21,-12],[-2,-87],[20,-86],[76,5],[67,-57],[192,-93],[58,-35],[140,-27],[73,-65]],[[726,2584],[-106,6],[-46,-36],[-49,-4],[-76,45],[-72,-38],[-63,62],[-78,0],[-102,20],[-34,52],[-85,27],[-7,38],[12,56],[-20,94],[41,55],[2,56],[23,24],[-12,87],[101,96],[18,61],[38,50],[-11,28],[28,101],[-74,35],[-4,62],[-24,21],[12,64],[48,45],[64,23],[19,49],[-1,79],[56,5],[13,58],[82,80],[-49,49],[-56,5],[-106,42],[-14,33],[-58,11],[29,147],[51,32],[14,79],[46,53],[76,34],[-3,48]],[[2593,254],[-188,-75]],[[2405,179],[12,45],[-22,45],[11,83],[-36,-8],[-25,-40],[-45,-19],[-106,4],[-41,20],[33,81],[-61,13],[-35,-35],[11,-62],[-161,-113],[-8,-43]],[[2465,1201],[77,-94],[67,-6],[84,-31],[10,-104],[63,41],[27,-18],[50,30],[17,-61],[52,7],[33,28],[7,55],[47,-1],[41,-37],[28,23]],[[3068,1033],[-26,-37],[37,-55],[-7,-81]],[[3072,860],[-15,-160],[3,-55],[-41,-16],[-45,21],[12,49],[-95,27],[20,37],[-40,21],[-12,-51],[-81,-29],[-37,8],[-54,-73],[-23,-54],[34,-92],[-51,-78],[-27,-111],[-27,-50]],[[3745,1115],[-32,16],[-49,-15],[-70,7],[-58,-53],[-61,-6],[-56,17],[-25,30],[-48,-45],[-5,-105],[-96,-11],[-57,-36],[-66,-13],[-50,-41]],[[3068,1033],[35,84],[17,121]],[[3120,1238],[46,46],[15,161],[73,151],[73,72],[7,61]],[[3530,1887],[17,-42],[119,-10],[51,6],[46,65],[23,64]],[[3786,1970],[14,-89],[61,16],[44,-36]],[[3905,1861],[-13,-79],[9,-35],[-17,-104],[11,-28],[-20,-74],[15,-30],[-20,-51],[24,-48],[-36,-60],[18,-55]],[[3876,1297],[-7,-44],[21,-50],[-29,-44],[-81,-42],[-35,-2]],[[4801,4725],[98,-38],[13,-26],[-57,-23],[-26,-54],[1,-79],[30,-112],[-8,-35],[20,-80],[-27,-131],[18,-67],[34,-26],[22,-56],[4,-241],[-66,-47]],[[4857,3710],[-108,117],[-28,95],[22,71],[-6,60],[-72,33],[-68,-38],[-33,-75],[-56,-33],[-68,49],[-20,-74],[-26,-11],[-34,-84],[-37,-3],[-21,-46],[-57,-55],[-112,1],[-18,28],[-105,53],[-60,-7],[-41,-64],[-85,-18],[-59,0],[6,-58]],[[3771,3651],[-45,-40],[-93,62],[-2,34],[-54,4],[-86,118]],[[3491,3829],[-31,84],[-87,32],[-68,66],[-90,57],[-68,106],[-30,90]],[[3117,4264],[109,45],[125,-202],[-1,-51],[86,-8],[74,65],[-22,44],[20,66],[66,16],[9,59],[50,32],[-79,95],[85,63],[39,-5],[28,36],[-8,65],[62,78],[38,-56],[55,43],[44,-58],[117,5],[81,74]],[[4095,4670],[20,-52],[75,-71],[43,57],[3,65],[48,22],[48,-38],[37,19],[-9,57],[133,27],[59,-25],[34,14],[117,-31],[98,11]],[[3491,3829],[-42,-6],[-52,-126],[48,-71],[-79,-77],[16,-31],[-55,-35],[29,-34],[-16,-86],[-134,-14]],[[3206,3349],[-113,43],[-3,71],[-62,67],[-16,74],[-114,60],[-60,74],[52,70],[-110,172],[-27,12],[-6,84],[-109,36],[-15,54],[-96,96],[-35,85],[-73,143]],[[2419,4490],[75,17],[37,55],[142,62],[48,-35],[15,-75],[49,-39],[177,-105],[92,-28],[16,-49],[47,-29]],[[2827,6020],[59,-7],[89,45],[114,-36],[92,39],[143,-3],[32,-35]],[[3356,6023],[-86,-50],[-70,-16],[-34,-77],[9,-129],[63,5],[44,-41],[-1,-52],[-50,-79],[21,-62],[8,-116],[123,-49],[26,11],[44,-42],[48,6],[70,-96],[26,-11],[56,-100],[51,-40],[-8,-52],[92,-57],[95,-45],[32,-39],[71,26],[-38,72],[25,34],[89,-89],[82,1],[28,60],[44,5],[35,-114],[-43,-37],[-34,18],[-35,-46],[23,-74],[-67,-78]],[[2419,4490],[-63,-32]],[[2595,5625],[-20,73],[15,77],[-31,47],[67,65],[20,46],[84,37],[69,9],[28,41]],[[3040,3315],[100,-15],[56,5],[10,44]],[[3771,3651],[76,-28],[33,22],[89,-77],[-31,-31],[24,-75]],[[3962,3462],[-76,-47],[25,-41],[-49,-91],[-51,-17],[19,-40],[-145,-166],[-2,-23]],[[3683,3037],[-67,-77],[-60,-17],[-69,55],[-48,-34],[-40,10],[-41,-45],[18,-49],[-16,-39],[-66,-43]],[[4688,3015],[52,-26],[-11,-50],[61,-72],[-10,-34],[19,-58],[-44,-12],[2,-68]],[[4757,2695],[-35,-24],[-3,-47],[-133,-31],[7,-48],[-100,-61],[-48,34],[-37,96],[-91,-16],[-61,17]],[[4256,2615],[13,50],[-186,30],[-34,-78],[-78,-65]],[[3971,2552],[-29,122],[-85,-15],[-24,111],[32,66],[-54,81],[-128,120]],[[3962,3462],[54,-86],[119,-22],[28,-69],[49,0],[40,48],[55,1],[61,-82],[1,-75],[48,-75],[43,-42],[120,-5],[33,15],[44,-62],[31,7]],[[2868,1686],[-36,-20],[7,-151],[-26,-144],[14,-21],[87,3],[51,-22],[24,-38],[65,3],[55,-21],[11,-37]],[[2545,1285],[69,-17],[17,56],[-21,29],[34,78],[7,71],[-21,17],[28,62],[-1,55],[64,17],[9,62],[-39,69],[8,44]],[[4283,1362],[-65,5],[-93,-26],[-24,-22],[9,-59],[-50,-6],[-49,29],[-135,14]],[[3905,1861],[31,31],[-19,34],[22,62],[72,-2],[30,36],[57,-9],[16,26],[53,-7],[96,35]],[[4263,2067],[49,-7],[6,-48],[-56,4],[-2,-84],[53,-5],[-12,-65],[8,-75],[58,-112],[-3,-68],[-58,-108],[-23,-137]],[[4586,1481],[6,-77],[-56,-102],[-39,-40],[-102,11],[-49,-12],[-63,101]],[[4263,2067],[41,66],[-100,81],[37,159],[-41,33],[14,32],[48,-8],[40,72],[-42,23],[-4,90]],[[4757,2695],[25,7],[47,-89],[4,-74],[-31,-94],[19,-108],[-16,-30],[40,-52],[-24,-42],[4,-86],[36,-77],[-36,-46],[7,-47],[-39,-29],[-57,-1],[-6,-77],[-32,-59],[-36,-17],[-72,-156],[18,-50],[-22,-87]],[[3786,1970],[25,31],[25,135],[51,4],[-10,-75],[69,-9],[-27,76],[19,59],[36,17],[-4,71],[-21,110],[45,56],[-20,98]],[[3974,2543],[-3,9]],[[3493,2554],[46,-8],[3,-44],[58,-88],[86,34],[77,7],[14,60],[-17,71],[84,-8],[35,62],[55,-46],[-8,-41],[48,-10]],[[2405,179],[-135,-55],[-61,-52],[-101,-55],[-8,22],[-105,32],[-5,-57],[-68,29],[-25,-28]],[[4317,5684],[40,-88],[31,-7],[45,-58],[63,-7],[43,-24],[-13,-56],[48,-57],[-3,-122],[22,-29],[86,-34],[25,34],[94,0],[34,13],[12,-106],[-58,-57],[56,-107],[-35,-28],[-2,-37],[48,-65],[-45,-38],[-20,-45],[13,-41]],[[3356,6023],[63,-6],[185,-42],[51,18],[119,-48],[55,-60],[44,8],[123,-36],[69,-4],[133,-107],[47,15],[72,-77]],[[5058,3259],[-52,-29],[-59,-9],[-17,-28],[-110,0],[-13,-29],[-57,16],[-68,-83],[24,-60],[-18,-22]],[[4857,3710],[-1,-58],[39,-44],[-32,-47],[38,-76],[111,-90],[22,-55],[-2,-47],[26,-34]]],"transform":{"scale":[0.00019087792251439847,0.00015740888064151088],"translate":[139.32670185500683,36.199681333027286]},"objects":{"japan":{"type":"GeometryCollection","geometries":[{"arcs":[[0,1,2,3,4,5,6,7,8,9]],"type":"Polygon","properties":{"pref":"栃木県","city":"宇都宮市","code5":"09201","code6":"092011"}},{"arcs":[[10,11]],"type":"Polygon","properties":{"pref":"栃木県","city":"足利市","code5":"09202","code6":"092029"}},{"arcs":[[12,13,14,15,16,17,18,19,20]],"type":"Polygon","properties":{"pref":"栃木県","city":"栃木市","code5":"09203","code6":"092037"}},{"arcs":[[[-12,21,22,-14,23]],[[-16,24]]],"type":"MultiPolygon","properties":{"pref":"栃木県","city":"佐野市","code5":"09204","code6":"092045"}},{"arcs":[[-8,25,-17,-25,-15,-23,26,27]],"type":"Polygon","properties":{"pref":"栃木県","city":"鹿沼市","code5":"09205","code6":"092053"}},{"arcs":[[28,29,30,-9,-28,31]],"type":"Polygon","properties":{"pref":"栃木県","city":"日光市","code5":"09206","code6":"092061"}},{"arcs":[[32,33,-20,34,35,36]],"type":"Polygon","properties":{"pref":"栃木県","city":"小山市","code5":"09208","code6":"092088"}},{"arcs":[[37,-36,38,39,-4,40,41,42,43]],"type":"Polygon","properties":{"pref":"栃木県","city":"真岡市","code5":"09209","code6":"092096"}},{"arcs":[[44,45,46,47,48,49]],"type":"Polygon","properties":{"pref":"栃木県","city":"大田原市","code5":"09210","code6":"092100"}},{"arcs":[[-48,50,51,52]],"type":"Polygon","properties":{"pref":"栃木県","city":"矢板市","code5":"09211","code6":"092118"}},{"arcs":[[53,54,-49,-53,55,-30,56]],"type":"Polygon","properties":{"pref":"栃木県","city":"那須塩原市","code5":"09213","code6":"092134"}},{"arcs":[[-1,57,-51,-47,58,59,60]],"type":"Polygon","properties":{"pref":"栃木県","city":"さくら市","code5":"09214","code6":"092142"}},{"arcs":[[61,62,63,64,-60,65]],"type":"Polygon","properties":{"pref":"栃木県","city":"那須烏山市","code5":"09215","code6":"092151"}},{"arcs":[[-6,66,-39,-35,-19,67]],"type":"Polygon","properties":{"pref":"栃木県","city":"下野市","code5":"09216","code6":"092169"}},{"arcs":[[-5,-40,-67]],"type":"Polygon","properties":{"pref":"栃木県","county":"河内郡","city":"上三川町","code5":"09301","code6":"093017"}},{"arcs":[[68,-43,69,70]],"type":"Polygon","properties":{"pref":"栃木県","county":"芳賀郡","city":"益子町","code5":"09342","code6":"093424"}},{"arcs":[[71,-71,72,-63,73]],"type":"Polygon","properties":{"pref":"栃木県","county":"芳賀郡","city":"茂木町","code5":"09343","code6":"093432"}},{"arcs":[[-42,74,75,-64,-73,-70]],"type":"Polygon","properties":{"pref":"栃木県","county":"芳賀郡","city":"市貝町","code5":"09344","code6":"093441"}},{"arcs":[[-3,76,-75,-41]],"type":"Polygon","properties":{"pref":"栃木県","county":"芳賀郡","city":"芳賀町","code5":"09345","code6":"093459"}},{"arcs":[[-7,-68,-18,-26]],"type":"Polygon","properties":{"pref":"栃木県","county":"下都賀郡","city":"壬生町","code5":"09361","code6":"093611"}},{"arcs":[[77,-21,-34]],"type":"Polygon","properties":{"pref":"栃木県","county":"下都賀郡","city":"野木町","code5":"09364","code6":"093645"}},{"arcs":[[-10,-31,-56,-52,-58]],"type":"Polygon","properties":{"pref":"栃木県","county":"塩谷郡","city":"塩谷町","code5":"09384","code6":"093840"}},{"arcs":[[-2,-61,-65,-76,-77]],"type":"Polygon","properties":{"pref":"栃木県","county":"塩谷郡","city":"高根沢町","code5":"09386","code6":"093866"}},{"arcs":[[78,-50,-55,79]],"type":"Polygon","properties":{"pref":"栃木県","county":"那須郡","city":"那須町","code5":"09407","code6":"094072"}},{"arcs":[[80,-66,-59,-46,81]],"type":"Polygon","properties":{"pref":"栃木県","county":"那須郡","city":"那珂川町","code5":"09411","code6":"094111"}}]}}}