{"type":"Topology","arcs":[[[6836,5982],[-6,-115],[22,-48],[-44,-60],[-4,-55],[25,-29],[-33,-40],[66,-127],[20,-68],[26,-161],[35,-39],[45,-121],[-3,-108],[25,-113],[-6,-38],[37,-92],[20,-83],[0,-93],[43,3],[46,-122],[-38,6],[9,-118]],[[7121,4361],[-79,-23],[-15,-70],[-74,-43],[-35,-162],[-30,10],[-67,-34],[-13,-78],[-26,-55],[-102,-78],[-95,-106],[-22,-51],[-90,48],[-39,-18],[-42,-63],[-47,-1]],[[6345,3637],[-139,-1],[55,-72],[-152,-3],[-18,-113],[-102,50],[-15,34]],[[5974,3532],[-134,88],[-22,118],[-49,88],[-52,3],[-56,30],[-11,-45],[-91,3],[-3,128],[-53,32],[-62,79],[-47,102],[11,45],[-39,60],[72,-1],[-5,45],[-31,43],[16,41],[-66,56],[-54,-72],[-60,17],[1,40],[-33,35],[-9,55]],[[5197,4522],[0,81]],[[5197,4603],[30,59],[57,0],[51,-93],[33,-19],[9,-50],[62,39],[-2,76],[53,75],[18,117],[22,55]],[[5530,4862],[69,40],[31,131],[92,80],[108,188],[190,194],[23,45],[116,37],[28,52],[149,89],[15,43],[129,169],[91,11],[58,65]],[[6629,6006],[41,6],[121,-42],[45,12]],[[5974,3532],[-34,-39],[-12,-86],[77,-106],[36,-30],[-35,-44],[0,-69]],[[6006,3158],[-100,29],[-74,0],[-30,-31],[-146,-38],[1,-127],[-58,-33],[-74,12],[-30,-26],[-39,-77],[-82,-6],[36,-136],[-35,-36],[-16,-76],[-34,-25],[2,-119],[-66,-12],[-110,27],[-59,-77],[-35,6],[-34,-35],[-10,-79],[-63,-33],[-61,8],[-108,-48],[-95,3]],[[4686,2229],[33,112],[53,86],[86,31],[-8,55],[-33,27],[9,71],[-27,25],[-22,136],[31,12],[-25,71],[-87,90]],[[4696,2945],[-52,25],[39,82],[61,91],[1,66],[-19,36],[18,49]],[[4744,3294],[34,45],[-85,221],[-46,24],[-16,45],[120,-8],[-98,60],[-5,54],[-102,94],[-35,12],[-62,-38],[-249,161],[-152,52],[-57,37],[-43,0],[-120,-35],[-87,36],[-79,-9],[-33,41],[-134,48],[-234,101],[-75,47],[-44,44],[-95,64],[-217,57],[-84,35],[-63,-71],[-71,1],[-53,31],[-70,11],[-34,33],[-116,-52],[-36,10],[-104,-48],[-42,2]],[[2157,4399],[-34,41]],[[2123,4440],[23,138],[-33,131],[31,67],[72,84]],[[2216,4860],[54,19],[75,94],[68,13],[51,45],[26,56],[90,-5],[78,57],[142,39],[64,-48],[61,1],[91,-20],[52,3],[70,31],[114,-14],[-9,-98],[51,3],[-7,50],[101,35],[91,1],[48,-26],[119,7],[39,-20],[184,20],[25,22],[80,-39],[49,82],[101,18]],[[4124,5186],[47,-33],[104,25],[36,-18],[8,-62],[52,6],[26,-36]],[[4397,5068],[-40,-76],[-42,-22],[19,-47],[46,-5],[103,-89],[47,-7],[111,-134],[104,-58],[39,-48],[49,-11],[-26,-54],[50,-70],[62,54],[29,-42],[71,3],[56,72],[47,32],[75,-44]],[[6289,3106],[-23,-51],[-79,-102],[-87,-77]],[[6100,2876],[-59,31],[42,61],[-28,42],[14,46],[57,36]],[[6126,3092],[163,14]],[[8666,4797],[-35,-92],[-69,-27],[5,-35],[-28,-69],[-51,-29],[-62,-72],[-15,-37],[-12,-112],[-47,-26],[-16,-52],[-61,-95],[46,-45],[34,-139]],[[8355,3967],[-12,-26],[-85,9],[-37,-49],[-115,10],[-52,86],[-40,-1],[-26,60],[-120,31]],[[7868,4087],[22,52],[-13,43],[4,108],[-31,13],[-161,113],[-58,6],[-22,44],[61,43],[17,40],[-73,62],[67,36],[-12,54],[37,86],[51,29],[4,72],[30,51],[114,37],[37,48],[-16,41],[51,58],[45,21],[21,48],[3,81],[89,53],[123,41],[-13,70],[17,52],[76,37],[67,-2],[17,59],[54,-14],[30,49],[71,14],[51,-19],[49,26],[57,75],[11,59],[51,36],[72,110],[41,25],[70,2],[69,-65]],[[9048,5881],[-61,29],[-40,-16],[-26,-134],[10,-59],[35,-19],[-14,-54],[-105,-154],[-51,-20],[11,-45],[-34,-22],[-9,-80],[30,-43],[57,-1],[-19,-61],[32,-27],[18,-102],[51,23],[-10,-88],[-74,-71],[-64,-21],[-49,50],[-31,-36],[10,-81],[-49,-52]],[[6836,5982],[-32,61],[10,36],[226,71],[59,-6],[116,69],[36,68],[116,4],[21,34],[96,-20],[36,18],[89,-23],[44,3],[80,57]],[[7733,6354],[22,-78],[-8,-34],[71,-74],[10,-75],[25,-11],[62,-87],[-26,-38],[-9,-134],[-59,-21],[-46,-59],[-50,-24],[-50,-79],[-8,-80],[-66,-6],[-21,-42],[144,-76],[18,-41],[48,-8],[-42,-56],[-14,-60],[-129,19],[-29,-47],[-67,-28],[-30,-58],[-82,-9],[-64,12],[-19,38],[-99,-17],[-22,-21],[13,-122],[92,-74],[55,-7],[40,-72],[43,-12],[19,-83],[-13,-61],[-32,-15],[90,-133],[2,-86],[-131,-93]],[[7371,4402],[-87,-23],[-41,-89],[-75,6],[18,74],[-65,-9]],[[7371,4402],[-41,-84],[-6,-48],[149,-28],[-11,-148],[42,-47],[16,-52]],[[7520,3995],[-12,-88],[-37,-124],[-24,-9],[8,-87],[-32,-92],[21,-52],[42,-12],[-4,-87],[-17,-61],[7,-77],[-84,5],[-17,-84],[70,-71],[83,-51],[20,-34],[-34,-42],[0,-87],[-24,-30],[24,-89],[76,2],[8,-52],[-78,-23]],[[7516,2750],[-50,12],[2,-81],[-46,1],[-67,33],[-87,-14],[-54,17],[-115,126],[-102,-20],[-33,64],[-88,-2],[-150,71],[-79,48]],[[6647,3005],[3,39],[-88,110],[-55,144],[-107,90],[-32,78],[-2,88],[-21,83]],[[8355,3967],[67,-63],[88,-56],[27,-54],[46,-38],[143,-84],[38,-12],[41,-45],[33,-82],[-53,-13],[-48,12],[8,-88],[94,-124],[41,-31],[-10,-55],[58,14],[55,-35],[1,-55]],[[8984,3158],[-89,-15],[-30,-80],[39,-63],[5,-58]],[[8909,2942],[-74,24],[-106,10],[-68,58],[-63,-72],[33,-53],[-113,23],[-59,-148],[15,-67],[-11,-85]],[[8463,2632],[-54,69],[-76,24],[-82,68],[-40,-19],[-54,22],[-12,-49],[-154,-95],[0,-26],[-110,-8],[-117,34],[-56,39],[-74,16],[-118,43]],[[7520,3995],[54,4],[2,43],[163,-8],[129,53]],[[8207,8214],[12,-47],[-31,-59],[38,-33],[7,-102],[83,-27],[39,-31],[-20,-37],[-4,-68],[-23,-60],[18,-47],[-18,-50],[-44,-32],[-37,-71],[8,-29],[-65,-76],[-102,-80],[19,-74],[1,-70],[-37,-40],[-3,-92],[-34,-19],[-34,-70],[-1,-67],[34,-88],[-20,-92]],[[7993,6753],[-22,1],[-61,-78],[-53,-26],[-58,-78],[-31,-83],[-1,-47],[-31,-42],[-3,-46]],[[6629,6006],[-65,82]],[[6564,6088],[10,92],[-34,84],[-81,109],[-56,177],[0,83],[-96,89],[-62,159],[33,15],[-10,62],[-29,5],[-59,57],[-72,-23],[-124,8],[-61,-28],[-59,-52],[-62,-20],[-63,-69],[-32,-115],[-80,-69],[-51,-20],[-35,-72],[3,-52],[60,-93],[8,-97],[62,-54]],[[5674,6264],[-61,-17],[-59,31],[-69,11],[-57,-26],[-116,-25],[-17,-24],[-83,13],[-22,45],[-55,45]],[[5135,6317],[-55,63],[17,43],[-9,131],[-28,116],[30,36],[9,82],[-35,14],[-15,69]],[[5049,6871],[50,80],[66,-13],[96,71],[82,99],[35,124],[58,43],[-34,52],[20,43],[-14,69],[-29,55],[24,57],[-26,24],[-42,101],[66,98],[-20,34],[69,46],[11,27],[-68,52],[0,34],[37,69],[-46,90],[3,55],[49,1],[61,29],[-13,57],[20,32],[59,9],[17,56],[104,55],[50,-4],[50,-34],[31,36],[52,-31],[62,36],[61,-6],[114,39],[56,-1],[56,-25]],[[6216,8430],[-33,-71],[-8,-88],[-84,-67],[-48,-76],[-71,-70],[-72,-196],[6,-67],[-18,-46],[21,-99],[-13,-158],[-35,-31],[36,-162],[-28,-133],[-36,-59],[15,-43],[51,58],[91,53],[22,-30],[58,3],[37,38],[14,133],[75,-13],[86,34],[80,-4],[52,-26],[52,20],[57,66],[50,30],[51,-11],[55,29],[6,70],[68,62],[35,-2],[78,58]],[[6866,7632],[45,-3],[43,-82],[28,98],[30,60],[53,25],[41,83],[63,81],[61,-15],[117,47],[38,-26],[65,13],[48,-38],[58,28],[13,29],[74,46],[10,30],[96,61],[124,57],[58,2],[100,46],[-2,38],[134,31],[44,-29]],[[9469,3030],[27,52],[49,-25],[53,26],[47,-3],[43,39],[77,-59],[16,29],[65,-62],[44,48],[58,-40],[-20,-28],[66,-71],[78,10],[67,-11],[55,23],[45,-6]],[[10239,2952],[18,-25],[78,-15],[1,-26],[107,-30],[104,-70],[-32,-34],[-58,24],[-116,-20],[-29,59],[-62,-76],[-83,-57],[-47,-3],[-15,-38],[47,-61],[11,-151]],[[10163,2429],[-40,32],[-41,-2],[-70,-45],[-42,10],[-115,1],[-62,36],[-46,-47],[-85,-5],[-95,12],[-38,-14],[-51,-61],[-116,17],[-74,-3]],[[9288,2360],[-159,32],[-2,50],[24,51]],[[9151,2493],[87,0],[28,-56],[34,71],[61,-6],[73,36],[-38,106],[-108,27],[38,82],[50,34],[-6,74],[44,18],[55,151]],[[5530,4862],[-16,40],[-96,47],[-15,-36],[22,-55],[-31,-25],[-58,17],[-34,105],[-49,-9],[-28,37],[-103,-28],[-143,55],[-82,40],[-22,31],[-70,15],[-57,-35],[-53,20],[-102,-12],[-26,-17]],[[4567,5052],[-59,-44],[-54,5],[-57,55]],[[4124,5186],[29,1],[39,109],[56,86],[105,72],[44,0],[70,44],[43,4],[62,74],[1,25],[97,80],[27,69],[9,79],[-8,58],[-69,-38],[-57,42],[-69,10],[-47,-21],[-41,14],[-15,50],[-79,-2],[-34,67]],[[4287,6009],[53,15],[-10,65],[24,36],[-65,50],[11,57],[59,35],[49,-27],[59,-3],[28,24]],[[4495,6261],[58,14],[110,-29],[61,10],[99,-44],[98,-7],[85,36],[129,76]],[[5674,6264],[50,6],[54,-76],[42,-2],[12,48],[77,-11],[86,-43],[110,16],[123,-50],[86,28],[95,-24],[37,14],[84,-21],[34,-61]],[[6006,3158],[44,-12],[25,-37],[51,-17]],[[6100,2876],[30,-30],[-126,-211],[-64,-102],[-63,-141],[-84,-115],[-74,-85],[11,-66],[-13,-37],[-57,-55],[20,-169],[43,-57],[-27,-69],[-99,2],[-55,-46],[-14,-130],[12,-74],[-48,-23],[-48,16],[-40,52],[-47,-15],[-47,29],[-77,-47],[-40,-44],[-77,-9],[-32,-68],[-31,-25],[-79,17],[-56,73],[-49,18],[-40,-20]],[[4829,1445],[-7,55],[39,29],[-34,133],[-55,1],[-110,46],[-75,0],[-74,30],[-60,-3],[-75,-35],[-20,-27],[-56,10],[-84,-49],[-78,7],[-34,-25],[-44,79],[-48,37],[-50,-47],[-75,-3],[-101,-43],[-69,-5],[-78,25],[-96,-33]],[[3545,1627],[55,86],[40,8],[48,78]],[[3688,1799],[155,24],[22,27],[98,34],[21,25],[77,17],[72,-22],[51,3],[53,64],[100,68],[18,61],[76,67],[41,-2],[96,45],[118,19]],[[4696,2945],[-90,-28],[-23,-46],[-77,-9],[-22,-130],[-33,-44],[-90,-52],[-38,-125],[-115,-1],[-77,-59],[18,-70],[-39,-116],[-78,19],[-71,-14],[-6,-54],[-62,-27],[-18,-82],[-54,-37],[-32,-44],[-63,-14]],[[3726,2012],[-21,45],[36,104],[-4,114],[-24,90],[31,123],[27,3],[35,149],[-110,-24],[-80,5],[-21,-45],[-66,-14],[-98,-49],[-63,23],[-53,-18],[-77,183],[-36,17],[4,53],[-151,173],[-9,47],[19,110],[-121,73]],[[2944,3174],[4,41],[134,96],[76,15],[145,-20],[119,-54],[31,3],[93,-47],[19,9],[114,-80],[45,-17],[43,-56],[93,-23],[51,13],[43,-22],[85,64],[69,29],[22,27],[152,20],[54,-5],[-8,72],[65,36],[40,59],[82,29],[43,-45],[58,-5],[35,21],[93,-40]],[[2944,3174],[-21,-24],[-53,7],[-106,-39],[-55,15],[-63,-64],[-89,43],[-25,25],[-76,-64],[-48,57],[-56,22],[-30,-45],[-89,35],[-22,57],[9,58],[-19,54]],[[2201,3311],[-3,50],[-45,69],[46,103],[-23,81],[-7,98],[13,84],[-10,30],[33,48],[-14,58],[41,65],[-47,41],[-17,63],[21,67],[1,102],[-32,49],[-1,80]],[[9319,6177],[-75,-52],[1,-67],[-72,-32],[-42,-108],[-83,-37]],[[7993,6753],[13,-61],[77,-4],[61,-40],[56,-86],[94,-8],[73,-24],[66,12],[62,-12],[73,-89],[31,-13],[117,62],[22,-24],[102,-49],[81,6],[75,58],[175,-8],[52,-38],[28,-86],[-7,-43],[79,-75],[-4,-54]],[[4567,5052],[62,-63],[106,-23],[11,-18],[119,-48],[33,25],[64,3],[94,-56],[58,-16],[-6,-70],[13,-43],[-25,-66],[96,-45],[5,-29]],[[3709,583],[-7,-41],[-109,-20],[-14,-18],[-102,-3],[-96,-42],[-89,78],[-98,20],[-80,-41],[-47,-3],[-7,-65],[-84,-190],[-61,-38],[6,-22],[-45,-63],[-52,-40],[-80,-16],[-36,-79],[-98,28],[-33,31],[-74,8],[-13,84],[-53,47],[-11,76],[-155,4],[-2,45],[-132,39],[-10,42],[-115,44],[109,221],[-16,44],[4,156],[-31,68],[-51,59],[-24,54],[3,55],[124,77],[10,113],[-36,27],[-17,54],[42,23]],[[2129,1399],[108,-32],[73,7],[129,72],[53,40],[55,-32],[47,12],[62,-40],[45,29],[147,10],[77,-23],[36,-51],[64,35],[65,72],[67,-2],[56,39]],[[3213,1535],[2,-77],[71,-21],[-2,-72],[13,-138],[35,-25],[44,12],[80,-42],[5,-75],[45,-78],[55,-39],[53,-8],[-3,-56],[-47,-91],[17,-44],[114,-193],[14,-5]],[[4829,1445],[-29,-126],[3,-65],[-43,-27],[-10,-36],[-48,-54],[-58,-16],[-60,-50],[-127,59],[-158,-33],[-96,-67],[-54,-9],[-138,-65],[-24,-59],[-133,-50],[-28,-112],[-47,-64],[-44,-21],[-26,-67]],[[3213,1535],[14,43],[-75,65],[11,88],[-6,93]],[[3157,1824],[27,-155],[60,-71],[66,8],[68,-33],[107,14],[60,40]],[[3157,1824],[6,94],[-51,68],[3,114],[-52,22],[-41,62],[-102,-31],[-6,95],[-92,39],[-33,42],[-96,32],[-27,27],[-70,-35],[-37,12],[-54,-32],[12,-64],[-34,-13],[-43,-56],[-66,35],[-19,-26],[-56,13],[-35,41],[-63,-3],[-36,-28],[-63,-8],[-45,57]],[[2057,2281],[-30,124],[-94,-16],[-89,154],[5,120],[-89,90],[22,48],[-8,91],[19,41],[-21,85],[-27,36],[58,12],[46,63],[155,30],[59,51],[64,12],[54,48],[20,41]],[[3726,2012],[-7,-51],[-31,-43],[11,-29],[-11,-90]],[[2129,1399],[-67,50],[-7,70],[-21,30],[-102,-21],[-17,21],[-68,-6],[-52,30],[-48,-7],[-42,59],[-21,123],[-53,83],[-27,-7],[-57,80],[28,80],[78,11],[-6,-65],[48,-51],[88,-15],[68,45],[129,28],[70,-3],[10,41],[-66,90],[-18,82],[-39,58],[37,44],[66,46],[17,-14]],[[4287,6009],[-77,45],[-40,1],[-45,61],[-61,28],[-20,42],[-41,22],[-73,-21],[-101,37],[-146,3],[-42,45],[-60,-35],[-59,24],[-18,-72],[-96,28],[-110,-67],[-171,95],[-40,53],[-54,6],[-41,50],[-60,5],[-7,31],[-60,-7],[-47,-56],[-72,-25],[-70,14],[-100,38],[-65,-37],[-69,14],[-28,52],[-36,-46],[64,-77],[25,-77],[-25,-39]],[[2442,6144],[-63,-67],[-47,19],[-164,-1],[-26,-60],[-46,-8],[-48,-46],[-153,62],[-15,76],[-103,44],[-63,60]],[[1714,6223],[-23,52],[-10,73],[17,47],[113,0],[70,77],[19,-34],[103,113],[-4,47],[-46,108],[-73,61],[-26,46],[-104,47],[-149,-15],[-68,-21],[-44,19],[-91,111],[-57,22],[-159,12],[-83,-49]],[[1099,6939],[37,42],[42,115],[-61,26],[-80,85],[18,160],[93,56],[57,12],[53,52],[80,8],[64,24],[93,-14],[31,16],[72,-60],[95,130],[72,-16],[28,-49],[44,-10],[53,53],[39,89],[71,-7],[103,44],[59,35],[226,39],[59,43],[118,36],[80,-20],[67,28],[24,68],[52,41],[-4,99],[48,52],[68,-15],[49,-36],[46,-7],[63,-38],[68,-62],[78,-30],[65,16],[99,-29]],[[3368,7915],[12,-46],[42,-31],[40,-92],[22,-103],[88,-46],[30,-60],[35,-9],[34,-56],[-5,-64],[-31,-154],[21,-124],[-22,-31],[54,-25],[102,-12],[99,29],[88,-11],[88,34],[49,-64],[68,-9],[77,-41]],[[4259,7000],[-42,-70],[12,-57],[-15,-51],[20,-124],[29,-82],[-18,-24],[11,-60],[73,-39],[73,-77],[40,-80],[53,-75]],[[2123,4440],[-62,60],[-42,7],[-49,-25],[-46,11],[-25,43],[-90,27],[-151,7],[-147,-49],[-19,4]],[[1492,4525],[17,144],[29,56],[38,130],[1,50],[-95,-11],[11,86],[-15,43],[0,107],[47,117],[-10,80],[-73,132],[0,143],[-18,83],[69,59],[48,-43],[57,-98],[34,6],[76,47],[-36,168],[40,58],[-106,184]],[[1606,6066],[-19,24],[22,93],[105,40]],[[2442,6144],[47,-19],[28,-46],[140,5],[65,-26],[27,-98],[27,-35],[15,-108],[-64,-56],[-11,-39],[-51,-10],[-62,14],[-27,-35],[-135,-121],[-65,27],[-82,13],[-67,-62],[-51,35],[-51,-57],[9,-25],[-50,-92],[11,-19],[-3,-156],[33,-38],[-43,-135],[67,-50],[6,-71],[61,-80]],[[1492,4525],[-55,7],[-82,-26],[-46,-46],[-32,-62],[-45,-47],[-97,2],[-81,38],[-113,75],[-126,-7],[-28,-45],[1,-83],[-95,36],[-156,3],[13,32],[-30,40],[-6,90],[-46,10],[-38,-20],[-48,34],[-181,63],[-45,31],[-123,33],[3,128],[16,55],[-27,95],[28,57],[-32,67],[10,85],[-30,27],[-1,68],[41,116],[35,59],[-27,90],[12,63],[64,54],[20,56],[-14,92],[46,18],[72,87],[23,49],[-23,43],[23,39],[-3,48],[-70,89],[33,44],[25,71],[-6,54],[21,46],[55,24],[53,-2],[-21,58],[23,53],[75,0],[40,33],[10,54],[38,78],[-19,25],[6,62],[60,21],[60,75],[69,12],[77,-42],[99,34],[56,40],[146,31]],[[1099,6939],[17,-111],[74,-34],[30,-77],[-40,-83],[-57,-36],[42,-27],[51,-62],[32,-75],[-13,-31],[157,-75],[18,-100],[34,-44],[97,-48],[37,-63],[28,-7]],[[4259,7000],[39,-8],[107,40],[115,-38],[64,60],[219,-88],[85,3],[31,-73],[130,-25]],[[7167,9953],[7,-32],[52,-44],[15,-39],[121,30],[58,58],[58,7],[60,-52],[56,-25],[39,32],[74,2],[88,-90],[34,12],[158,-25],[59,2],[69,29],[20,-42],[69,-81],[73,7],[30,20],[72,1],[71,-46],[16,-27],[86,-6],[5,-79],[-124,-55],[-75,-87],[10,-71],[-34,-59],[-47,4],[-36,-56],[-22,-143],[-60,-61],[34,-37],[96,-18],[23,-55],[173,-68],[37,-30],[55,22],[61,-34],[19,-47],[-47,-57],[-58,-32],[-29,-42],[23,-49],[-44,-46],[-92,-9],[-19,-42],[20,-87],[-32,-81],[-58,-5],[-45,-32],[-20,-58],[-59,-16]],[[6866,7632],[-33,53],[16,112],[-101,10],[-86,90],[-68,10],[-58,-42],[-49,48],[0,93],[51,43],[-4,93],[18,105],[-62,105],[-59,33],[-29,90],[-32,52]],[[6370,8527],[93,37],[78,81],[-1,97],[141,97],[7,33],[59,5],[55,-20],[53,30],[5,53],[-21,74],[14,59],[-97,46],[-55,7],[-104,45],[-64,-32],[-23,16],[-18,96],[24,16],[74,108],[65,32],[-7,89],[7,112],[31,62],[-2,57],[-34,122],[-38,23],[-10,40],[19,63],[-11,93],[21,53],[60,35],[33,47]],[[6724,10203],[53,-48],[60,12],[42,-35],[60,-18],[79,20],[35,30],[86,5],[78,-155],[-50,-61]],[[6216,8430],[37,25],[32,64],[35,25],[50,-17]],[[3368,7915],[28,32],[23,106],[94,66],[35,6],[63,-36],[29,23],[50,88],[-16,37],[40,105],[-6,99],[-25,104],[-39,80],[1,48],[67,1],[59,-24],[27,18],[98,-54],[55,1],[62,44],[95,24],[33,66],[47,13],[152,10],[227,57],[6,51],[-49,101],[-60,18],[7,82],[36,44],[-5,48],[-37,49],[41,88],[9,48],[64,37],[17,69],[68,16],[80,-21],[34,22],[115,-43],[38,-40],[66,41],[5,139],[-46,90],[20,80],[-85,104],[-10,130],[-16,99],[20,50],[-3,107],[17,58],[-11,57],[29,26],[118,-16],[146,-7],[128,95],[127,-48],[149,42],[21,75],[39,38],[67,31],[27,35],[68,38],[60,1],[92,118],[-21,94],[23,113],[-9,53],[57,143],[122,-36],[35,-80],[65,-4],[13,-64],[40,-73],[24,-86],[64,-26],[51,-45],[37,-90],[107,-64],[77,-22],[26,-65],[46,-52],[-19,-56],[-17,-123],[44,-95]],[[6647,3005],[-16,11],[-48,43],[-42,-11],[-197,6],[-55,52]],[[10472,3008],[146,-39],[22,-87],[-50,-74],[42,-42],[59,-98],[70,-23],[72,-81],[19,-76],[32,-7],[40,-86],[-44,-85],[-8,56],[-30,26],[-91,-38],[18,-134],[-23,-23],[-99,11],[-94,-41],[-11,-65],[-55,29],[-75,73],[-53,69],[-81,57],[-55,15]],[[10223,2345],[9,79],[-69,5]],[[10239,2952],[162,-5],[71,61]],[[10223,2345],[-42,-12],[-82,-52],[-161,-35],[-167,-83],[-121,-18],[-168,24],[-52,-9],[-18,-5]],[[9412,2155],[-19,117],[-45,19],[-18,47],[-42,22]],[[9412,2155],[-163,-28],[-104,1],[-69,19],[-87,56],[-128,120],[-85,32],[-21,69]],[[8755,2424],[12,77],[-18,39],[-59,52],[91,48],[21,-4],[46,74]],[[8848,2710],[44,-69],[69,-40],[5,-42],[65,-20],[123,-14],[-3,-32]],[[8909,2942],[-11,-70],[-60,-150],[10,-12]],[[8755,2424],[-79,49],[-123,52],[-90,107]],[[8984,3158],[116,8],[89,-90],[-75,-36],[44,-58],[160,5],[26,34],[63,-15],[62,24]]],"transform":{"scale":[0.00011648114243866614,0.00009596745350500746],"translate":[138.39713,35.98533]},"objects":{"japan":{"type":"GeometryCollection","geometries":[{"arcs":[[0,1,2,3,4,5,6,7]],"type":"Polygon","properties":{"pref":"群馬県","city":"前橋市","code5":"10201","code6":"102016"}},{"arcs":[[[-4,8,9,10,11,12,13,14,15,16,17]],[[18,19,20]]],"type":"MultiPolygon","properties":{"pref":"群馬県","city":"高崎市","code5":"10202","code6":"102024"}},{"arcs":[[[21,22,23,24]],[[-1,25,26,27]]],"type":"MultiPolygon","properties":{"pref":"群馬県","city":"桐生市","code5":"10203","code6":"102032"}},{"arcs":[[-2,-28,28,29,30,31]],"type":"Polygon","properties":{"pref":"群馬県","city":"伊勢崎市","code5":"10204","code6":"102041"}},{"arcs":[[32,33,34,35,-30,36,-23]],"type":"Polygon","properties":{"pref":"群馬県","city":"太田市","code5":"10205","code6":"102059"}},{"arcs":[[37,38,-26,-8,39,40,41,42,43,44,45]],"type":"Polygon","properties":{"pref":"群馬県","city":"沼田市","code5":"10206","code6":"102067"}},{"arcs":[[46,47,48,49,50]],"type":"Polygon","properties":{"pref":"群馬県","city":"館林市","code5":"10207","code6":"102075"}},{"arcs":[[-7,51,52,-17,53,54,55,-42,56,-40]],"type":"Polygon","properties":{"pref":"群馬県","city":"渋川市","code5":"10208","code6":"102083"}},{"arcs":[[-10,57,-20,58,59,60,61]],"type":"Polygon","properties":{"pref":"群馬県","city":"藤岡市","code5":"10209","code6":"102091"}},{"arcs":[[-12,62,63,64]],"type":"Polygon","properties":{"pref":"群馬県","city":"富岡市","code5":"10210","code6":"102105"}},{"arcs":[[-13,-65,65,66]],"type":"Polygon","properties":{"pref":"群馬県","city":"安中市","code5":"10211","code6":"102113"}},{"arcs":[[67,-24,-37,-29,-27,-39,68]],"type":"Polygon","properties":{"pref":"群馬県","city":"みどり市","code5":"10212","code6":"102121"}},{"arcs":[[-5,-18,-53,69]],"type":"Polygon","properties":{"pref":"群馬県","county":"北群馬郡","city":"榛東村","code5":"10344","code6":"103446"}},{"arcs":[[-6,-70,-52]],"type":"Polygon","properties":{"pref":"群馬県","county":"北群馬郡","city":"吉岡町","code5":"10345","code6":"103454"}},{"arcs":[[70,71,72]],"type":"Polygon","properties":{"pref":"群馬県","county":"多野郡","city":"上野村","code5":"10366","code6":"103667"}},{"arcs":[[-60,73,-73,74,75]],"type":"Polygon","properties":{"pref":"群馬県","county":"多野郡","city":"神流町","code5":"10367","code6":"103675"}},{"arcs":[[-61,-76,76,77,-66,-64,78]],"type":"Polygon","properties":{"pref":"群馬県","county":"甘楽郡","city":"下仁田町","code5":"10382","code6":"103829"}},{"arcs":[[-72,79,-77,-75]],"type":"Polygon","properties":{"pref":"群馬県","county":"甘楽郡","city":"南牧村","code5":"10383","code6":"103837"}},{"arcs":[[-11,-62,-79,-63]],"type":"Polygon","properties":{"pref":"群馬県","county":"甘楽郡","city":"甘楽町","code5":"10384","code6":"103845"}},{"arcs":[[-55,80,81,82,83,84,85]],"type":"Polygon","properties":{"pref":"群馬県","county":"吾妻郡","city":"中之条町","code5":"10421","code6":"104213"}},{"arcs":[[-15,86,87,88,-82,89]],"type":"Polygon","properties":{"pref":"群馬県","county":"吾妻郡","city":"長野原町","code5":"10424","code6":"104248"}},{"arcs":[[-88,90,91]],"type":"Polygon","properties":{"pref":"群馬県","county":"吾妻郡","city":"嬬恋村","code5":"10425","code6":"104256"}},{"arcs":[[-83,-89,-92]],"type":"Polygon","properties":{"pref":"群馬県","county":"吾妻郡","city":"草津町","code5":"10426","code6":"104264"}},{"arcs":[[-43,-56,-86,92]],"type":"Polygon","properties":{"pref":"群馬県","county":"吾妻郡","city":"高山村","code5":"10428","code6":"104281"}},{"arcs":[[-16,-90,-81,-54]],"type":"Polygon","properties":{"pref":"群馬県","county":"吾妻郡","city":"東吾妻町","code5":"10429","code6":"104299"}},{"arcs":[[93,-46,94,95,96]],"type":"Polygon","properties":{"pref":"群馬県","county":"利根郡","city":"片品村","code5":"10443","code6":"104434"}},{"arcs":[[-45,97,-95]],"type":"Polygon","properties":{"pref":"群馬県","county":"利根郡","city":"川場村","code5":"10444","code6":"104442"}},{"arcs":[[-41,-57]],"type":"Polygon","properties":{"pref":"群馬県","county":"利根郡","city":"昭和村","code5":"10448","code6":"104485"}},{"arcs":[[-44,-93,-85,98,-96,-98]],"type":"Polygon","properties":{"pref":"群馬県","county":"利根郡","city":"みなかみ町","code5":"10449","code6":"104493"}},{"arcs":[[-3,-32,99,-21,-58,-9]],"type":"Polygon","properties":{"pref":"群馬県","county":"佐波郡","city":"玉村町","code5":"10464","code6":"104647"}},{"arcs":[[100,101,-48,102]],"type":"Polygon","properties":{"pref":"群馬県","county":"邑楽郡","city":"板倉町","code5":"10521","code6":"105210"}},{"arcs":[[-49,-102,103,104]],"type":"Polygon","properties":{"pref":"群馬県","county":"邑楽郡","city":"明和町","code5":"10522","code6":"105228"}},{"arcs":[[-50,-105,105,106,107]],"type":"Polygon","properties":{"pref":"群馬県","county":"邑楽郡","city":"千代田町","code5":"10523","code6":"105236"}},{"arcs":[[-35,108,-107,109]],"type":"Polygon","properties":{"pref":"群馬県","county":"邑楽郡","city":"大泉町","code5":"10524","code6":"105244"}},{"arcs":[[110,-51,-108,-109,-34]],"type":"Polygon","properties":{"pref":"群馬県","county":"邑楽郡","city":"邑楽町","code5":"10525","code6":"105252"}}]}}}