{"type":"Topology","arcs":[[[4382,1140],[15,-35],[-24,-43],[13,-59],[33,-57],[-28,-104]],[[4391,842],[-13,-39]],[[4378,803],[-27,-20],[-73,21],[-24,35],[-47,8],[-18,-53],[-81,-97],[-109,-59],[54,-36],[11,-47]],[[4064,555],[-48,-29]],[[4016,526],[-10,15]],[[4006,541],[-91,122],[37,51],[-20,68],[-42,-11],[-66,56],[-44,-6],[-26,47],[-85,61],[-53,-34]],[[3616,895],[-38,37],[-9,43],[-43,2],[-26,72]],[[3500,1049],[51,-36],[119,62],[22,40],[67,64],[-39,98]],[[3720,1277],[51,20],[19,-87],[83,20],[89,75]],[[3962,1305],[62,-24],[122,-5],[97,-35],[80,-12]],[[4323,1229],[49,-34],[-12,-32],[22,-23]],[[3230,3082],[94,58],[65,28],[50,-41],[46,-15],[33,-42],[55,-65],[123,-62],[13,-42],[52,-19],[78,-73]],[[3839,2809],[-12,-16],[-99,21],[-21,-52],[13,-114],[71,-7],[8,-65],[-24,-10],[1,-75],[-52,5],[2,-56],[45,-45],[-11,-118],[14,-15]],[[3774,2262],[6,-115],[44,-61],[28,3]],[[3852,2089],[-6,-19],[-125,-69]],[[3721,2001],[-12,27],[-57,14],[-10,32],[33,58],[-94,69],[-41,4]],[[3540,2205],[-59,-16],[-92,8],[-75,20],[-9,-87],[-63,13],[-49,-9]],[[3193,2134],[-61,93],[-42,32]],[[3090,2259],[53,42],[4,136],[14,52],[-31,40],[-82,57],[15,32],[86,71],[28,-24],[75,71],[-13,68],[20,31],[-3,57],[19,49],[-16,48],[11,48],[-40,45]],[[5059,495],[10,49],[-19,64],[67,-19],[40,7],[12,56],[32,31],[72,0],[12,51],[-35,41],[143,-3],[13,62],[47,-36]],[[5453,798],[47,-61],[45,-28]],[[5545,709],[-32,-19],[40,-94],[38,-41],[3,-57],[48,-54],[-108,-44]],[[5534,400],[-89,-70],[53,-59],[-31,-67],[-88,-42],[-22,62],[-130,13],[-60,41]],[[5167,278],[-13,19],[23,88]],[[5177,385],[41,25],[13,45],[-172,40]],[[4097,2779],[11,3]],[[4108,2782],[32,-63],[-19,-38],[-52,-24],[50,-68],[3,-42],[71,-9],[24,-102],[42,1]],[[4259,2437],[59,-74],[-24,-57]],[[4294,2306],[-108,44],[-23,-59],[-48,-23],[30,-50],[-48,-76],[-30,-2],[-45,76],[-69,59],[-39,-7],[-59,38],[-32,-2],[-49,-42]],[[3839,2809],[53,-34],[105,-13],[100,17]],[[1300,2346],[55,2],[34,-45]],[[1389,2303],[2,-47],[32,-11],[53,-81],[76,14]],[[1552,2178],[-20,-61],[55,-18],[29,-45],[80,-51],[47,28],[58,-11],[13,-81],[140,39],[59,-53],[64,14],[39,-27],[17,-82],[31,-47],[148,-54]],[[2312,1729],[75,-134],[48,-51]],[[2435,1544],[-8,-55]],[[2427,1489],[-57,42],[-27,-6],[-171,40],[-57,-13],[-46,63],[-62,-72],[-39,-140],[8,-63],[44,-83],[-8,-106],[38,-55]],[[2050,1096],[51,-47],[-3,-76],[47,-80],[-54,-84],[-13,-59],[-41,-36]],[[2037,714],[-45,12],[-48,37],[-52,-20],[-58,13],[-61,32],[-64,66],[-74,52],[-68,-2],[-51,-83],[-81,-18],[-34,25],[-57,-18],[-14,-28],[-57,-23],[-61,-89],[6,-34],[-92,-38],[-81,24],[-62,-38],[-37,-43],[-33,46],[-31,-1],[-54,65],[-36,10],[-31,37],[-59,18],[-68,-33],[-21,22],[-78,-21],[-27,48],[-60,14],[-41,134],[-63,46],[-60,-9],[-39,21],[-48,-5],[-105,48],[1,51],[49,75],[4,64],[-43,39],[-29,79],[-60,50],[-14,37],[6,89],[22,48],[81,35],[60,74],[52,116],[4,40],[77,27],[60,-13],[55,-47],[58,26],[63,1],[75,23]],[[613,1795],[70,-43],[-19,-76],[15,-114],[46,-35],[37,-53],[94,-50],[21,-24],[92,-13],[12,15],[103,-46],[45,12],[67,-21],[58,20],[39,62],[82,-4],[40,25],[60,-43],[81,22],[22,-83],[85,16],[77,64],[36,81],[-51,62],[54,48],[-4,64],[-64,8],[-73,-29],[-77,75],[-34,-1],[-99,42],[-77,57],[17,63],[-93,42],[-112,121],[-12,59]],[[1151,2118],[72,41],[61,71],[16,116]],[[4016,526],[23,8],[109,-156],[65,22],[87,46],[12,-37]],[[4312,409],[58,-42],[-20,-33]],[[4350,334],[-65,-84],[-47,-36],[-33,0],[-90,-62],[-91,8],[-44,-42],[-66,-23],[-93,-17],[-111,-7],[-77,20],[-69,-36],[-60,19],[-6,30],[12,20]],[[3510,124],[64,6],[9,45],[-50,38],[18,73],[-17,37],[79,23],[96,55]],[[3709,401],[70,23],[89,58],[72,82],[15,-36],[51,13]],[[2050,1096],[73,23],[52,34],[90,37],[98,24],[29,24],[56,128]],[[2448,1366],[120,-25],[59,-59]],[[2627,1282],[28,-47],[52,-22],[46,-98],[86,-52],[52,14]],[[2891,1077],[52,-72],[-13,-71],[34,-8]],[[2964,926],[12,-23],[-1,-91],[-20,-50],[36,-30],[72,-9],[165,89],[37,-27],[61,15],[41,-21],[45,19],[10,-47],[53,-29]],[[3475,722],[-51,-59],[-21,2]],[[3403,665],[-57,-3],[9,-40],[-37,-17],[4,-142],[-100,-8],[-54,-48]],[[3168,407],[-24,41],[-47,-8],[-7,70],[-102,29],[-52,1],[-59,-24],[-44,14],[-103,-10],[-104,64],[-50,-35],[-56,-6],[-95,51],[-56,17],[-22,39],[-62,36],[-64,17],[-124,-5],[-60,16]],[[5116,2827],[30,-51],[-14,-104],[27,-120],[36,-72]],[[5195,2480],[-96,-52],[4,-65],[-111,-64],[21,-61],[-67,-22],[-52,1],[1,-38],[-32,-67],[-60,-47],[-129,47],[-54,-91],[-37,31],[-53,-40],[-86,2]],[[4444,2014],[-35,48],[-68,16],[59,120],[-70,32],[-36,37],[0,39]],[[4259,2437],[17,28],[58,-34],[128,-4],[51,40],[-1,45],[72,2],[17,87],[92,-31],[31,78],[-53,93],[36,68]],[[4707,2809],[46,-45],[98,47],[74,8],[-11,81],[56,24],[23,-50],[55,8],[13,-44],[55,-11]],[[2410,3298],[139,-73],[54,1],[20,-39],[62,13],[71,-77],[33,-11]],[[2789,3112],[20,-76],[-31,-53],[-69,29],[-50,-3],[-30,-32],[-86,-46],[-14,-50]],[[2529,2881],[-117,15],[-46,-34],[-13,-64],[-43,-81],[11,-39],[-61,-77],[19,-71],[-51,-46]],[[2228,2484],[-53,17],[-59,-33],[-49,3],[-94,-77],[-29,-63]],[[1944,2331],[-59,-17],[-75,46]],[[1810,2360],[7,47],[45,61],[27,-6],[-23,126],[46,-3],[-5,97],[38,48],[72,58],[32,-2],[41,38],[-6,51],[98,-2],[42,91]],[[2224,2964],[70,36],[98,78],[-45,19],[-20,50],[54,62],[19,95]],[[2400,3304],[10,-6]],[[3721,2001],[-29,-95],[20,-40],[-10,-82],[25,-8],[66,-80],[23,-53],[91,-9]],[[3907,1634],[-13,-44],[-106,-9],[-22,-35]],[[3766,1546],[-121,-63],[-14,-18],[-132,-24]],[[3499,1441],[-54,93],[-138,82]],[[3307,1616],[-26,33],[7,74],[-37,33],[-4,64]],[[3247,1820],[193,-29],[33,34],[60,-4],[-5,71],[-32,73],[9,148],[35,92]],[[5451,1180],[-32,75],[-132,39],[-38,46],[59,45],[0,83],[-88,60]],[[5220,1528],[31,61]],[[5251,1589],[57,-43],[101,16]],[[5409,1562],[72,-6],[13,33],[90,11],[33,39],[-29,85],[109,68],[43,41]],[[5740,1833],[44,-41],[10,-45],[-21,-42],[19,-132],[-14,-33],[65,-89],[-8,-48],[43,-42]],[[5878,1361],[-66,-19],[-59,-83],[-37,-73]],[[5716,1186],[-33,50],[-48,37],[-41,-9],[-16,-38],[16,-61],[-71,-16],[-31,33],[-41,-2]],[[3709,401],[-63,143],[-70,8],[-23,70],[-90,-23],[-44,-43],[-16,109]],[[3475,722],[77,46],[-7,43],[71,84]],[[4592,2895],[83,-44],[32,-42]],[[4108,2782],[134,-9],[74,11],[102,50],[98,22],[76,39]],[[4444,2014],[29,-92],[-16,-59],[43,-47]],[[4500,1816],[-32,-32]],[[4468,1784],[-56,56],[-38,-1],[-70,47],[-65,-25],[11,-74],[-60,-10],[-88,4]],[[4102,1781],[-27,47],[-2,46],[-30,60],[-54,8],[-33,60],[-55,64],[-49,23]],[[2789,3112],[53,8],[69,-20],[29,42],[117,-36],[106,-44],[67,20]],[[3090,2259],[-68,-23]],[[3022,2236],[-66,-3],[-14,83],[-97,-22],[-5,21],[-124,-6],[-68,6],[-2,55],[-82,58],[-74,-23],[-31,21],[129,35],[143,95],[-64,13],[-158,112]],[[2509,2681],[71,48],[25,69],[-62,15],[-14,68]],[[4323,1229],[46,19],[-55,61]],[[4314,1309],[0,52],[36,51],[-22,61],[8,38],[104,-11],[27,-19],[51,63],[-21,42],[20,27],[90,0]],[[4607,1613],[75,-38],[0,-51],[38,-33],[44,-78],[69,-41],[44,-6]],[[4877,1366],[34,-48]],[[4911,1318],[-18,-69],[-44,24],[-59,-17],[-33,70],[-30,16],[-71,-41],[-62,5],[56,-103],[-9,-47],[-57,58],[-60,-11],[-96,-55],[-46,-8]],[[5545,709],[51,-48],[40,14],[105,-32],[59,83],[81,16],[31,-10]],[[5912,732],[0,-67]],[[5912,665],[5,-23]],[[5917,642],[-63,9],[13,-74],[-4,-64],[-92,-127],[43,-3]],[[5814,383],[-41,-43],[-58,2],[-51,-21],[-70,19],[-60,60]],[[5453,798],[-37,85],[43,13],[6,93],[-49,45],[48,114],[-13,32]],[[5716,1186],[45,-13],[38,-48],[-69,-52],[12,-44],[65,-14],[18,-37],[74,-16]],[[5899,962],[-46,-52],[53,-26],[6,-152]],[[4987,472],[29,42],[43,-19]],[[5177,385],[-60,-7],[-59,46],[-60,20],[-11,28]],[[4753,472],[30,36],[34,-34],[100,22],[70,-24]],[[5167,278],[-4,2],[-47,13],[-50,-13],[-131,9],[-37,-15]],[[4898,274],[-30,32],[-90,44]],[[4778,350],[-5,90],[-20,32]],[[3510,124],[-7,28],[-53,18],[-6,56],[-97,20],[-19,19],[-85,-18],[-43,38],[-32,122]],[[4694,508],[48,-5],[11,-31]],[[4778,350],[-47,-26],[-1,-56],[-51,-26],[-38,-92]],[[4641,150],[-16,2]],[[4625,152],[-36,47],[-45,9],[-23,169],[19,56]],[[4540,433],[45,54],[45,-28],[64,49]],[[4578,672],[78,-98],[27,-6],[11,-60]],[[4540,433],[-83,-28],[-36,45]],[[4421,450],[0,17]],[[4421,467],[82,45],[75,160]],[[4898,274],[-63,-48],[-50,-67],[-39,-60],[-74,3],[-31,48]],[[4312,409],[94,5],[15,36]],[[4625,152],[-29,-1],[-34,-46],[-102,-62],[-95,-43],[17,122],[-165,-53],[35,40],[48,10],[57,40],[4,53],[-33,17],[51,75],[-29,30]],[[4500,1816],[2,-31],[91,-43]],[[4593,1742],[39,-11]],[[4632,1731],[-25,-118]],[[4314,1309],[-62,46],[-56,101],[11,22],[-35,55]],[[4172,1533],[81,100],[155,18],[33,24],[-14,69],[41,40]],[[5195,2480],[37,-58],[18,-62],[67,-87],[4,-31]],[[5321,2242],[-36,-42],[-105,-19],[-47,-87],[29,-47],[61,-15],[6,-34],[-34,-44]],[[5195,1954],[-19,-42]],[[5176,1912],[-77,12],[23,-78],[-28,-20]],[[5094,1826],[-128,43],[7,-55],[-48,-13],[-164,42],[-32,30],[-40,-27],[-11,-54]],[[4678,1792],[-85,-50]],[[4172,1533],[-39,37],[22,65],[-25,9]],[[4130,1644],[23,65],[-51,72]],[[5917,642],[35,-175],[50,-31],[41,-1],[23,-38],[-11,-37],[-59,-45],[15,-63]],[[6011,252],[-63,13],[-46,28],[-62,-48],[-29,27],[3,111]],[[4391,842],[53,-43],[-4,-41],[92,-16],[11,-45],[35,-25]],[[4421,467],[-77,46],[-67,88]],[[4277,601],[-2,36],[-44,16],[-2,39],[75,27],[88,10],[-14,74]],[[5912,665],[177,55],[24,-15],[110,7]],[[6223,712],[-16,-88],[-32,-57],[-8,-88],[16,-69],[-16,-145],[28,-87],[-87,-10],[-31,28],[28,52],[-31,22],[-63,-18]],[[4877,1366],[13,152],[-41,31],[-10,49],[-67,19],[-56,76],[-84,38]],[[4678,1792],[115,-58],[29,22],[88,1],[10,-133],[60,11],[72,-83],[59,32],[26,-32]],[[5137,1552],[19,-50],[-59,-99],[-95,0],[-66,-48],[23,-26],[-48,-11]],[[3720,1277],[-21,19],[-41,-60],[-62,2],[-31,24],[-103,-53],[-104,-107]],[[3358,1102],[-57,-49],[-73,17]],[[3228,1070],[-19,36],[53,45],[49,-29],[55,35],[-34,27],[57,72],[-49,104]],[[3340,1360],[50,50],[43,1],[66,30]],[[3766,1546],[52,-88],[53,-32],[91,-121]],[[5321,2242],[7,-111],[18,-23],[78,4],[100,-43],[32,12],[23,54],[37,-135],[32,-49]],[[5648,1951],[-44,-34],[-4,-74],[-71,-10],[-72,75],[-69,-92],[-122,71],[-71,67]],[[3500,1049],[-68,50],[-31,-24],[-43,27]],[[2964,926],[96,22],[68,30],[6,43],[94,49]],[[5899,962],[50,31],[-51,102],[13,39],[50,33]],[[5961,1167],[61,-38],[73,-124],[79,-129],[49,-164]],[[4277,601],[-33,-38],[-62,42],[-99,-5],[-19,-45]],[[5220,1528],[-83,24]],[[5094,1826],[32,-87],[77,-17],[27,-40],[-22,-48],[43,-45]],[[2891,1077],[-10,61],[20,40],[52,43],[3,28],[129,-41],[52,33],[27,81],[32,18]],[[3196,1340],[94,-21],[50,41]],[[2627,1282],[34,15],[6,46],[53,53],[71,28],[82,48],[62,-10],[57,45],[30,-4]],[[3022,1503],[68,-38],[106,-125]],[[3247,1820],[51,45],[-38,35],[16,53],[-56,30],[28,95],[-55,56]],[[3307,1616],[-37,-16],[-55,22],[-44,-6]],[[3171,1616],[-4,38],[-103,111]],[[3064,1765],[-29,31],[36,30],[14,109],[41,23],[-91,116],[-2,47],[51,17],[-19,47],[-43,2]],[[3022,2187],[0,49]],[[3064,1765],[-44,-21],[-91,0],[-64,28],[-77,-38],[-73,-55],[-31,-52],[-54,-30],[-59,9],[-63,-9]],[[2508,1597],[3,48],[-26,72],[72,29],[159,151],[-23,37],[-118,41],[-27,20]],[[2548,1995],[64,119],[92,4],[128,-29],[35,22],[64,74],[48,-36],[43,38]],[[3907,1634],[115,50],[108,-40]],[[3022,1503],[12,45],[60,-23],[1,48],[76,43]],[[2435,1544],[50,9],[23,44]],[[2448,1366],[-45,104],[24,19]],[[1552,2178],[77,18],[63,1],[47,44],[8,56],[63,63]],[[1944,2331],[22,-45],[-5,-77],[39,-72],[88,-24],[22,-23],[45,42],[87,3]],[[2242,2135],[64,-15]],[[2306,2120],[22,-36],[19,-152],[-18,-35],[5,-136],[-22,-32]],[[2228,2484],[89,-26],[36,-42]],[[2353,2416],[-65,-12],[-12,-70],[-32,-55],[-2,-144]],[[613,1795],[3,26],[17,41],[55,51],[17,69],[81,30],[15,36],[117,45],[59,41],[96,20],[78,-36]],[[2306,2120],[31,27],[85,-46],[85,-103],[41,-3]],[[2509,2681],[39,-112],[-26,-93],[-84,-61],[-62,-18],[-23,19]],[[1389,2303],[48,-10],[38,56],[47,6],[72,55],[57,-8],[24,-32],[59,5],[2,124],[33,28],[60,-1],[17,42],[-27,34],[-12,103],[35,34],[2,63],[96,122],[77,148]],[[2017,3072],[26,-42],[47,25],[46,-106],[56,28],[32,-13]],[[2076,3219],[53,47],[62,93],[34,-32],[120,-3],[55,-20]],[[2017,3072],[77,129],[-18,18]],[[5176,1912],[-11,-44],[58,-57],[-4,-25],[129,-60],[103,-81],[1,-31],[-43,-52]],[[5648,1951],[92,-118]],[[5878,1361],[23,-96],[60,-98]]],"transform":{"scale":[0.00019086652942395185,0.00015737921511184015],"translate":[138.7114468613837,35.75476077498996]},"objects":{"japan":{"type":"GeometryCollection","geometries":[{"arcs":[[0,1,2,3,4,5,6,7,8,9,10]],"type":"Polygon","properties":{"pref":"埼玉県","city":"川越市","code5":"11201","code6":"112011"}},{"arcs":[[11,12,13,14,15,16,17,18]],"type":"Polygon","properties":{"pref":"埼玉県","city":"熊谷市","code5":"11202","code6":"112020"}},{"arcs":[[19,20,21,22,23,24]],"type":"Polygon","properties":{"pref":"埼玉県","city":"川口市","code5":"11203","code6":"112038"}},{"arcs":[[25,26,27,28,-13,29]],"type":"Polygon","properties":{"pref":"埼玉県","city":"行田市","code5":"11206","code6":"112062"}},{"arcs":[[30,31,32,33,34,35,36,37,38,39]],"type":"Polygon","properties":{"pref":"埼玉県","city":"秩父市","code5":"11207","code6":"112071"}},{"arcs":[[-5,40,41,42,43,44]],"type":"Polygon","properties":{"pref":"埼玉県","city":"所沢市","code5":"11208","code6":"112089"}},{"arcs":[[-37,45,46,47,48,49,50,51,52]],"type":"Polygon","properties":{"pref":"埼玉県","city":"飯能市","code5":"11209","code6":"112097"}},{"arcs":[[53,54,55,-28,56,57]],"type":"Polygon","properties":{"pref":"埼玉県","city":"加須市","code5":"11210","code6":"112101"}},{"arcs":[[58,59,60,61,62,63,64,65]],"type":"Polygon","properties":{"pref":"埼玉県","city":"本庄市","code5":"11211","code6":"112119"}},{"arcs":[[-16,66,67,68,69,70,71]],"type":"Polygon","properties":{"pref":"埼玉県","city":"東松山市","code5":"11212","code6":"112127"}},{"arcs":[[72,73,74,75,76,77,78]],"type":"Polygon","properties":{"pref":"埼玉県","city":"春日部市","code5":"11214","code6":"112143"}},{"arcs":[[-6,-45,79,-51,80]],"type":"Polygon","properties":{"pref":"埼玉県","city":"狭山市","code5":"11215","code6":"112151"}},{"arcs":[[81,-57,-27,82]],"type":"Polygon","properties":{"pref":"埼玉県","city":"羽生市","code5":"11216","code6":"112160"}},{"arcs":[[-14,-29,-56,83,84,85,86]],"type":"Polygon","properties":{"pref":"埼玉県","city":"鴻巣市","code5":"11217","code6":"112178"}},{"arcs":[[87,-19,88,89,90,-60]],"type":"Polygon","properties":{"pref":"埼玉県","city":"深谷市","code5":"11218","code6":"112186"}},{"arcs":[[-11,91,92,93,94,95]],"type":"Polygon","properties":{"pref":"埼玉県","city":"上尾市","code5":"11219","code6":"112194"}},{"arcs":[[-22,96,97,98,99,100]],"type":"Polygon","properties":{"pref":"埼玉県","city":"草加市","code5":"11221","code6":"112216"}},{"arcs":[[101,-79,102,103,-97,-21]],"type":"Polygon","properties":{"pref":"埼玉県","city":"越谷市","code5":"11222","code6":"112224"}},{"arcs":[[104,-25,105]],"type":"Polygon","properties":{"pref":"埼玉県","city":"蕨市","code5":"11223","code6":"112232"}},{"arcs":[[106,-106,-24,107,108,109]],"type":"Polygon","properties":{"pref":"埼玉県","city":"戸田市","code5":"11224","code6":"112241"}},{"arcs":[[-44,110,-52,-80]],"type":"Polygon","properties":{"pref":"埼玉県","city":"入間市","code5":"11225","code6":"112259"}},{"arcs":[[111,-110,112,113,114,115]],"type":"Polygon","properties":{"pref":"埼玉県","city":"朝霞市","code5":"11227","code6":"112275"}},{"arcs":[[116,-116,117,118,119]],"type":"Polygon","properties":{"pref":"埼玉県","city":"志木市","code5":"11228","code6":"112283"}},{"arcs":[[-109,120,-113]],"type":"Polygon","properties":{"pref":"埼玉県","city":"和光市","code5":"11229","code6":"112291"}},{"arcs":[[-42,121,-118,-115,122]],"type":"Polygon","properties":{"pref":"埼玉県","city":"新座市","code5":"11230","code6":"112305"}},{"arcs":[[-85,123,124,125,-93,126,127]],"type":"Polygon","properties":{"pref":"埼玉県","city":"桶川市","code5":"11231","code6":"112313"}},{"arcs":[[128,129,130,131,132,133,-124,-84,-55]],"type":"Polygon","properties":{"pref":"埼玉県","city":"久喜市","code5":"11232","code6":"112321"}},{"arcs":[[-86,-128,134,135]],"type":"Polygon","properties":{"pref":"埼玉県","city":"北本市","code5":"11233","code6":"112330"}},{"arcs":[[-100,136,137]],"type":"Polygon","properties":{"pref":"埼玉県","city":"八潮市","code5":"11234","code6":"112348"}},{"arcs":[[138,-120,139,140,-2]],"type":"Polygon","properties":{"pref":"埼玉県","city":"富士見市","code5":"11235","code6":"112356"}},{"arcs":[[-99,141,142,-137]],"type":"Polygon","properties":{"pref":"埼玉県","city":"三郷市","code5":"11237","code6":"112372"}},{"arcs":[[-95,143,-125,-134,144,145]],"type":"Polygon","properties":{"pref":"埼玉県","city":"蓮田市","code5":"11238","code6":"112381"}},{"arcs":[[-9,146,147,148,149,-69,150]],"type":"Polygon","properties":{"pref":"埼玉県","city":"坂戸市","code5":"11239","code6":"112399"}},{"arcs":[[151,152,-130]],"type":"Polygon","properties":{"pref":"埼玉県","city":"幸手市","code5":"11240","code6":"112402"}},{"arcs":[[-8,153,-147]],"type":"Polygon","properties":{"pref":"埼玉県","city":"鶴ヶ島市","code5":"11241","code6":"112411"}},{"arcs":[[-7,-81,-50,154,-148,-154]],"type":"Polygon","properties":{"pref":"埼玉県","city":"日高市","code5":"11242","code6":"112429"}},{"arcs":[[-98,-104,155,156,-142]],"type":"Polygon","properties":{"pref":"埼玉県","city":"吉川市","code5":"11243","code6":"112437"}},{"arcs":[[-3,-141,157]],"type":"Polygon","properties":{"pref":"埼玉県","city":"ふじみ野市","code5":"11245","code6":"112453"}},{"arcs":[[158,-145,-133,159,-74]],"type":"Polygon","properties":{"pref":"埼玉県","city":"白岡市","code5":"11246","code6":"112461"}},{"arcs":[[-94,-126,-144]],"type":"Polygon","properties":{"pref":"埼玉県","county":"北足立郡","city":"伊奈町","code5":"11301","code6":"113018"}},{"arcs":[[-4,-158,-140,-119,-122,-41]],"type":"Polygon","properties":{"pref":"埼玉県","county":"入間郡","city":"三芳町","code5":"11324","code6":"113247"}},{"arcs":[[-49,160,161,-149,-155]],"type":"Polygon","properties":{"pref":"埼玉県","county":"入間郡","city":"毛呂山町","code5":"11326","code6":"113263"}},{"arcs":[[-48,162,163,-161]],"type":"Polygon","properties":{"pref":"埼玉県","county":"入間郡","city":"越生町","code5":"11327","code6":"113271"}},{"arcs":[[-17,-72,164]],"type":"Polygon","properties":{"pref":"埼玉県","county":"比企郡","city":"滑川町","code5":"11341","code6":"113417"}},{"arcs":[[-18,-165,-71,165,166,167,168,-89]],"type":"Polygon","properties":{"pref":"埼玉県","county":"比企郡","city":"嵐山町","code5":"11342","code6":"113425"}},{"arcs":[[-168,169,170,171]],"type":"Polygon","properties":{"pref":"埼玉県","county":"比企郡","city":"小川町","code5":"11343","code6":"113433"}},{"arcs":[[-10,-151,-68,172,-135,-127,-92]],"type":"Polygon","properties":{"pref":"埼玉県","county":"比企郡","city":"川島町","code5":"11346","code6":"113468"}},{"arcs":[[-15,-87,-136,-173,-67]],"type":"Polygon","properties":{"pref":"埼玉県","county":"比企郡","city":"吉見町","code5":"11347","code6":"113476"}},{"arcs":[[-70,-150,-162,-164,173,-166]],"type":"Polygon","properties":{"pref":"埼玉県","county":"比企郡","city":"鳩山町","code5":"11348","code6":"113484"}},{"arcs":[[-35,174,-170,-167,-174,-163,-47,175]],"type":"Polygon","properties":{"pref":"埼玉県","county":"比企郡","city":"ときがわ町","code5":"11349","code6":"113492"}},{"arcs":[[-36,-176,-46]],"type":"Polygon","properties":{"pref":"埼玉県","county":"秩父郡","city":"横瀬町","code5":"11361","code6":"113611"}},{"arcs":[[-33,176,-63,177,178,179]],"type":"Polygon","properties":{"pref":"埼玉県","county":"秩父郡","city":"皆野町","code5":"11362","code6":"113620"}},{"arcs":[[-62,180,181,-178]],"type":"Polygon","properties":{"pref":"埼玉県","county":"秩父郡","city":"長瀞町","code5":"11363","code6":"113638"}},{"arcs":[[182,-39]],"type":"Polygon","properties":{"pref":"埼玉県","county":"秩父郡","city":"小鹿野町","code5":"11365","code6":"113654"}},{"arcs":[[-34,-180,183,-171,-175]],"type":"Polygon","properties":{"pref":"埼玉県","county":"秩父郡","city":"東秩父村","code5":"11369","code6":"113697"}},{"arcs":[[-61,-91,184,-181]],"type":"Polygon","properties":{"pref":"埼玉県","county":"児玉郡","city":"美里町","code5":"11381","code6":"113816"}},{"arcs":[[185,186,-64,-177,-32]],"type":"Polygon","properties":{"pref":"埼玉県","county":"児玉郡","city":"神川町","code5":"11383","code6":"113832"}},{"arcs":[[187,-65,-187,188]],"type":"Polygon","properties":{"pref":"埼玉県","county":"児玉郡","city":"上里町","code5":"11385","code6":"113859"}},{"arcs":[[-90,-169,-172,-184,-179,-182,-185]],"type":"Polygon","properties":{"pref":"埼玉県","county":"大里郡","city":"寄居町","code5":"11408","code6":"114081"}},{"arcs":[[-75,-160,-132,189]],"type":"Polygon","properties":{"pref":"埼玉県","county":"南埼玉郡","city":"宮代町","code5":"11442","code6":"114421"}},{"arcs":[[-76,-190,-131,-153,190]],"type":"Polygon","properties":{"pref":"埼玉県","county":"北葛飾郡","city":"杉戸町","code5":"11464","code6":"114642"}},{"arcs":[[-78,191,-156,-103]],"type":"Polygon","properties":{"pref":"埼玉県","county":"北葛飾郡","city":"松伏町","code5":"11465","code6":"114651"}},{"arcs":[[-1,-96,-146,-159,-73,-102,-20,-105,-107,-112,-117,-139]],"type":"Polygon","properties":{"pref":"埼玉県","city":"さいたま市","code5":"11100","code6":"111007"}}]}}}