{"type":"Topology","arcs":[[[8306,9490],[45,-133],[26,-43],[109,-119],[85,-64],[315,-215],[109,-91],[124,-85],[57,-22],[134,-3],[72,8],[51,50],[116,-36],[45,-82],[-28,-56],[24,-81],[1,0],[0,0],[1,0],[0,0],[-34,-59],[-32,-124],[-10,-80],[-32,-3],[-104,50],[-41,33],[-25,86],[-60,28],[-149,-8],[-1,0],[-288,-94],[-138,-52],[-26,-8]],[[8652,8287],[-46,51],[-38,-16],[-84,5],[-65,36],[8,53],[28,35],[17,68],[74,34],[-3,50],[-54,103],[-85,-70],[-59,18],[-10,55],[31,181],[-33,29],[-63,3],[-70,25],[-8,99],[-67,35]],[[8125,9081],[40,53],[5,46],[-45,18],[2,77],[-82,17],[22,103],[85,18],[154,77]],[[1912,9077],[-11,-134],[-31,-36],[34,-61],[-18,-30]],[[1886,8816],[15,-39],[-10,-58],[20,-46],[-24,-22],[-85,25],[-52,-163],[-67,-40],[-58,1],[-32,-140],[28,-11],[43,64],[120,-60],[19,-213]],[[1803,8114],[-34,-21],[-53,-80],[-54,95],[-87,-79],[72,-3],[22,-36],[-149,-32],[-81,-62],[-22,-53]],[[1417,7843],[-138,111],[-11,29],[-67,39],[-60,-15]],[[1141,8007],[16,92],[48,21],[88,11],[42,25],[86,128],[-21,107],[-70,61],[-35,59],[-46,41],[-6,87],[25,59],[-12,72],[-78,61]],[[1178,8831],[39,7],[60,51],[12,86],[51,28],[58,-42],[62,-12],[-14,-43],[85,25],[19,-114],[40,-3],[45,28],[1,74],[69,36],[-19,83],[66,55],[160,-13]],[[1807,8018],[-44,9],[36,80]],[[1799,8107],[8,-89]],[[1886,8816],[87,24],[47,-76],[41,-21],[53,24],[63,-13],[14,55],[83,68],[-32,64],[70,13],[-13,36]],[[2299,8990],[82,61],[80,-49],[188,100],[47,95],[2,79],[17,64],[33,-5],[81,-72],[59,-80]],[[2888,9183],[-28,-30],[7,-88],[-28,-23],[18,-49],[-72,-87],[-28,-83],[-72,-11],[-17,-63],[32,-85],[-41,-141],[76,-37],[-64,-64],[35,-27]],[[2706,8395],[-56,-37],[18,-88],[-46,-21],[-48,22],[-19,-48],[-62,10],[-69,35],[-57,-55],[-129,11],[-43,36],[-94,-178],[60,-100],[-25,-33]],[[2136,7949],[-138,-18],[-11,79],[59,36],[-66,23],[27,72],[-7,61],[-29,-86],[-68,18],[-100,-20]],[[1799,8107],[128,-13],[15,-101],[-64,11],[-71,14]],[[2068,8884],[47,-49],[-34,-82],[-40,5],[-35,38],[18,50],[44,38]],[[612,89],[-15,36],[11,77],[30,53],[-21,56],[-79,87],[-75,51],[-117,57],[-107,37],[-106,13],[-83,48],[0,3],[-16,19],[-34,41],[9,24],[9,79],[84,-19],[80,26],[63,-9],[38,-38],[91,11],[134,54],[78,1],[65,123],[114,-6],[-5,-43],[68,-8],[50,52],[25,118],[-3,96],[-31,95],[-62,57],[-50,0],[-8,26],[-63,44]],[[686,1350],[173,-2],[77,64],[63,23],[16,46],[45,16],[58,-59],[4,-162],[77,-57],[-60,-9],[-7,-88],[19,-32],[123,18],[25,14],[3,80],[131,-7],[114,90],[26,-47],[-28,-50],[69,-126],[-5,-38],[-81,-89],[-18,-88],[-84,-36],[-78,-11],[-23,-85],[-29,-50],[-10,-89],[59,-123],[71,-12],[75,-47],[-34,-83],[-38,-57],[-38,15],[-84,-4],[-55,-28],[-58,57],[-78,-74],[-29,10],[-107,-45],[-66,30],[-50,-90],[-45,1],[-46,-30],[-74,-13],[-39,20],[-38,-14]],[[1678,5621],[12,-46],[-35,-54],[4,-47],[-34,-18],[8,-99],[114,-65],[55,39],[42,60],[63,-32],[-35,-76],[35,-23],[42,18],[90,-9],[35,-34],[146,-8],[-11,-64],[-34,-47],[-49,32],[-67,-31],[54,-65],[44,-17],[-26,-61],[6,-79],[-31,-42],[3,-41],[37,-49],[-21,-71],[-34,-25],[42,-62],[56,6],[41,-17],[67,88],[28,87],[76,8],[21,105],[60,-2],[46,99],[50,-25],[64,7],[37,41],[139,26],[33,-29],[51,24],[8,34]],[[2910,5057],[-1,-40],[-18,-35],[81,-60],[54,44],[78,-91],[71,-129],[7,-69],[49,-45],[-8,-42],[-62,-63],[-2,-43],[-36,-43],[-31,3],[-42,-50],[6,-55]],[[3056,4339],[-43,71],[-36,26],[-52,-1],[-59,99],[-32,83],[-53,11],[-55,-11],[-103,89],[-61,10],[-63,-73],[9,-61],[-30,-68],[-75,-29],[-33,-28],[-72,-14],[3,-54],[-39,-53],[-55,0],[-46,83],[-59,-10],[-6,-88],[-154,-1],[-48,11],[-14,44],[-55,45],[-13,48],[-93,-17],[-150,77],[-78,21],[-108,14],[-83,-57],[-38,22],[-24,102],[-85,150]],[[1153,4780],[33,0],[-30,98],[59,-10],[44,23],[22,-41],[43,22],[-25,49],[55,59],[58,18],[-38,94],[-57,-22],[-38,106],[0,48],[-41,85],[36,26],[-40,88],[42,20],[12,66],[159,88],[155,33],[76,-9]],[[1207,9170],[-45,142],[20,43],[-17,72],[23,124],[-31,52],[5,61]],[[1162,9664],[76,-1],[132,68],[46,52],[-3,37],[41,40],[50,8],[64,-106],[49,-49]],[[1617,9713],[77,-74],[17,-110],[52,-83],[76,-13],[0,-55],[98,-46],[88,88],[77,-64]],[[2102,9356],[26,-99],[-45,-39],[-59,35],[-37,-24],[-139,-22],[2,-85],[37,21],[97,-42],[-5,-29],[-67,5]],[[1178,8831],[-4,5],[-58,82],[-32,93],[29,63],[91,49],[3,47]],[[1464,11125],[89,-21],[34,-67],[-55,-117],[60,-106],[114,-49]],[[1706,10765],[-25,-49],[-120,-61],[-57,-76],[-70,-12]],[[1434,10567],[-26,24],[-41,-42],[-90,31],[-11,-35],[-79,7],[-143,-26]],[[1044,10526],[-25,31],[-38,101],[-56,72],[-100,61],[-24,27],[-75,135],[-24,66],[-14,91],[-52,25],[-17,43],[12,80],[-107,145],[23,55],[-30,216],[33,69],[-16,74],[-72,66],[-150,195],[-53,80],[-30,138],[-31,83],[15,81],[75,58],[92,-81],[54,-99],[39,-171],[46,-83],[56,-55],[147,-167],[86,-76],[84,-46],[182,-228],[35,-168],[15,-27],[131,-118],[149,-75],[60,1]],[[4320,6164],[52,13],[-24,64],[63,1],[36,-24],[8,-61]],[[4455,6157],[44,11],[27,41],[86,-23],[197,57],[64,-26],[17,19],[59,-32],[-32,-62],[84,-19],[101,-57],[40,122],[43,-20],[52,9],[79,-13],[56,-71],[-5,-35],[26,-90]],[[5393,5968],[-32,-72],[-40,7],[-29,53],[-53,-2],[-22,-27],[2,-54],[-44,-40],[-48,-9],[-3,-64],[-66,-24],[-19,-119],[3,-57],[66,-28]],[[5108,5532],[-13,-51],[-41,-2],[-105,-91],[-49,-16],[13,-109],[-21,-9],[-40,-23],[-22,-16],[43,-117]],[[4873,5098],[-74,-6],[-36,-96]],[[4763,4996],[-85,-28],[-181,35],[-10,101],[34,41],[-17,70],[-50,-15],[-97,-53],[-29,23],[-31,88],[58,41],[18,102],[-24,41]],[[4349,5442],[-18,83],[-76,63],[-13,124],[21,157],[32,38],[-37,63],[-6,63]],[[4252,6033],[-8,45],[37,20],[-6,39],[45,27]],[[4603,10094],[91,-50],[72,-23],[75,-1],[51,18],[103,66],[115,112],[40,91],[91,78],[105,31]],[[5346,10416],[-3,-75],[71,-60],[10,-46],[60,-19],[77,-114],[-26,-120],[-32,-33],[2,-50],[74,7],[120,127],[47,7],[48,-28],[79,-3],[27,47]],[[5900,10056],[53,-28],[50,55],[31,-54],[37,-26],[23,-81],[25,-28],[56,-14],[-2,-70],[-71,11],[2,-76],[37,-42],[-108,-80],[-8,-85],[94,45],[18,-19],[-61,-60],[-74,-37],[-3,-43]],[[5999,9424],[-64,-39],[5,-39],[-17,-116],[-86,-26],[27,-55],[-106,-57],[-59,5],[7,57],[-32,42],[-57,13],[-45,-33],[6,-89]],[[5578,9087],[-56,-25],[-25,-47],[54,-47],[-34,-70],[53,-35],[-20,-117],[-70,-19],[-55,5],[14,-97],[56,-39],[-53,-46],[-66,57],[-23,95],[-74,16],[-2,-85]],[[5277,8633],[-43,8],[-3,103],[-51,38],[-11,62],[-110,107],[-91,37],[-59,124],[-47,-37],[-62,-145],[15,-44],[-44,-50],[-50,-31]],[[4721,8805],[-95,101],[-20,-55],[-50,-8],[-38,63],[-48,-30],[-91,2]],[[4379,8878],[-46,98],[15,144],[-80,72],[-10,42],[21,119]],[[4279,9353],[48,115],[-14,22],[93,63],[14,39],[92,-49],[63,104],[-30,37],[-25,151],[22,131],[61,128]],[[3429,8196],[-28,24],[-16,5],[-34,-2],[-58,59]],[[3293,8282],[24,55],[-71,90],[24,77],[70,67],[-32,118],[15,85],[60,41],[-76,56],[62,8],[54,51]],[[3423,8930],[134,-102],[126,-20],[55,-25],[143,200],[33,15],[126,-93],[263,-180],[39,-4]],[[4342,8721],[27,-88],[-57,-21],[14,-39],[-66,-34],[32,-86],[56,5],[38,-88],[-4,-44],[32,-21],[71,39],[23,44],[52,-55],[61,38]],[[4621,8371],[-4,-48],[-34,-104],[-47,-30],[11,-105],[-59,13],[-71,-29],[17,-62],[-26,-49],[-62,10],[-22,-38],[17,-53],[-77,-69],[31,-51],[43,-26],[-16,-164],[10,-35]],[[4332,7531],[-59,1],[-17,31],[-66,29],[-107,19],[-49,88],[-29,108],[-55,27]],[[3950,7834],[14,85],[-59,94],[9,41],[-47,51],[-13,59],[54,119],[-16,82],[-120,-13],[-130,-99],[-25,49],[-36,-40],[-95,-1],[-90,55],[-16,-83],[33,-19],[16,-18]],[[4584,6983],[46,-2],[228,139],[155,-7],[-110,75],[-26,108],[36,45],[-12,18],[-76,-16],[-55,57],[52,40],[-18,51],[-43,32],[75,64],[78,-49],[31,56]],[[4945,7594],[51,-71],[-20,-32],[40,-41],[-56,-117],[140,-10],[56,44],[61,-84],[44,6],[46,34],[31,-27],[68,16],[22,-47],[-6,-74],[77,-78],[54,40],[35,-22],[42,47],[37,-36],[44,26],[7,44],[53,10],[27,-142],[56,-151]],[[5854,6929],[-20,-76],[-36,-28],[-11,-66],[-52,11],[7,-55],[-24,-80],[-1,-70],[-34,-59],[-50,30],[-77,-14],[-35,40],[-42,-61],[163,-83],[-54,-99]],[[5588,6319],[-27,-35],[-88,41],[-49,-100],[-45,49],[27,43],[-14,34],[-89,25],[-69,6],[-52,55],[36,104],[-44,-1],[-16,64],[-57,39],[-35,-76],[-60,44],[-50,103],[-58,50],[1,62],[-84,-4],[-89,-37],[-81,70]],[[4645,6855],[-48,60],[1,38],[-14,30]],[[8652,8287],[0,-1],[0,-1],[-93,-48],[-96,-10],[-128,14],[-35,55],[-46,16],[-190,-11],[-239,-80],[-176,-87],[-165,-112]],[[7484,8022],[-28,59],[-82,-30],[-24,73],[5,77],[-58,23],[-7,59],[37,36],[-20,79],[-100,-5],[-10,33],[-83,-29],[-28,44],[56,40],[54,15],[66,-13],[-7,53],[11,122],[41,40],[-94,40],[-6,-38],[-71,20],[-90,-62],[-65,76],[48,63],[-26,64],[-28,21]],[[6975,8882],[54,115],[38,6],[116,69],[22,47],[44,23],[37,-62],[63,79],[66,-7],[77,65],[-11,66]],[[7481,9283],[43,11],[76,-92],[48,19],[92,6],[62,-139],[75,-99],[22,66],[86,62],[35,54],[38,-16],[67,-74]],[[2819,8250],[-36,-63],[-98,-122],[-72,31],[-21,-28],[-61,-6],[-54,15],[-58,-86],[-131,-179]],[[2288,7812],[-52,53],[-48,14],[-28,-26],[-149,-20],[-8,59],[71,9],[70,-13],[-8,61]],[[2706,8395],[143,-48],[-68,-30],[10,-56],[28,-11]],[[2078,10491],[30,-4],[124,20],[49,-11],[105,-98]],[[2386,10398],[-80,-109],[-47,61],[-55,-92],[-97,-36],[-50,-66],[-15,-65],[21,-38],[127,-60],[143,-8],[67,-47],[84,30],[79,-62],[72,-27],[43,48],[308,-41],[89,-38]],[[3075,9848],[5,-46],[-23,-97],[-87,-30],[4,-32],[-58,-22]],[[2916,9621],[-32,43],[-119,9],[-48,28],[-106,17],[-66,-33],[-68,-82],[-81,-130],[-20,-135],[-95,-161]],[[2281,9177],[31,132],[-127,73],[-50,8],[-33,-34]],[[1617,9713],[32,21],[68,-31],[37,12],[-46,67],[4,101],[-46,35],[-50,-30],[-63,15],[73,52],[48,13],[-46,52],[-107,4],[7,40],[90,5],[-14,69],[2,98],[-58,4],[10,73],[-42,86],[-62,-3],[-11,-40],[75,-104],[-33,-33],[-41,38],[-1,33],[-56,40],[-12,44],[45,15],[16,65],[-2,113]],[[1706,10765],[116,-95],[103,-42],[72,-82],[81,-55]],[[4848,3249],[-55,-31],[-27,-36],[0,-65],[-42,-58],[17,-63],[42,-7],[47,-134],[71,-25],[69,33],[61,-21],[65,7]],[[5096,2849],[-19,-36],[-81,-62],[-27,-53],[7,-42],[-47,-67],[-18,-120],[-63,-21],[-46,10],[0,89],[-70,42],[-61,-7],[-18,-52],[-38,-42],[-42,-76],[-78,1],[-22,31],[-92,-29],[-48,36],[-41,-42],[-47,-9],[-4,-53],[-110,-64],[28,-37],[-44,-33],[-107,16],[-71,-23]],[[3937,2206],[16,71],[-16,50],[37,83],[-34,24],[36,51],[-30,56],[4,39],[-48,43],[0,77],[-49,88],[-46,14],[-75,-15]],[[3732,2787],[9,58],[84,22],[16,57],[41,8],[64,-46],[77,73],[49,-4],[30,-54],[63,-11],[65,128],[-13,89],[11,137],[41,24],[34,66],[36,1],[5,49],[-64,58],[39,21],[42,-17],[81,10],[28,50],[62,33]],[[4532,3539],[60,5],[77,-55],[0,-41],[37,-77],[100,-69],[42,-53]],[[3110,6751],[47,7],[24,-36],[55,-7],[45,-48],[60,56],[143,-130],[108,7],[65,-36],[104,40],[27,70],[59,-38],[69,61],[32,-36],[42,21],[81,-32],[41,-79],[-59,-89],[-40,-12],[9,-59],[75,-84],[18,-64],[89,17],[102,-51],[14,-65]],[[4252,6033],[-73,9],[-25,-24],[-112,52],[-34,-6],[-73,21],[-45,-21],[13,-48],[-43,-12],[-10,-45],[-62,-50],[-71,42],[-19,-49],[-85,-1],[4,-89],[-33,-41],[136,-90],[-17,-111],[-45,-22],[-39,-52],[65,-100],[-12,-54],[80,-84],[-14,-33],[57,-126],[42,-12]],[[3837,5087],[58,-127],[-61,-10],[-16,-80],[31,-42],[67,-5],[-30,-61],[18,-38],[10,-101],[41,-65],[-11,-69],[64,-60],[45,-115]],[[4053,4314],[18,-61],[-16,-43],[-112,-51],[-101,47],[-17,-77],[47,-54],[-12,-64],[-51,-33],[-65,-79],[-36,10],[-62,-34],[-1,-51],[-25,-50],[8,-57],[-39,-44],[-73,-1],[-89,-53],[-31,-103],[-50,-41],[-15,-52]],[[3331,3423],[-35,58],[-42,12],[-18,56],[-42,6],[-26,40],[9,38],[-41,123],[14,32],[-15,75],[15,98],[-49,70],[26,162],[41,23],[-1,67],[-34,25],[-88,-38],[-54,50],[65,19]],[[2910,5057],[3,81],[-21,39],[23,74],[-28,58],[4,91],[-79,118],[-33,-23],[-148,-45],[-72,1],[-64,-23],[-96,-1],[72,62],[-9,40],[26,45],[-27,82],[-83,119],[-64,110]],[[2314,5885],[-38,53],[-4,82],[-49,49],[84,121],[96,-53],[27,37],[-94,67],[74,106],[71,-47],[32,45],[-70,48],[106,153],[65,-46],[26,37],[-58,52],[63,90],[28,-10],[66,77],[104,-79],[101,-75],[43,32],[-95,46],[20,121],[49,6],[122,-54],[27,8]],[[1162,9664],[13,144],[52,93],[36,117],[-9,28],[-38,101],[-15,92],[-27,75],[-83,125],[-47,87]],[[3293,8282],[-24,21],[-86,-7],[-11,82],[-43,25],[-37,51],[-67,-49],[-38,-68],[-93,-94],[-75,7]],[[2888,9183],[63,-12]],[[2951,9171],[53,-29],[72,9],[183,-80],[52,-70],[66,-13],[46,-58]],[[2386,10398],[141,-90],[69,-14],[48,-27],[47,-75],[66,-44],[119,77],[40,-2],[85,-32],[77,-49],[86,-25],[46,-29],[61,-125],[105,-137]],[[3376,9826],[-123,-52],[-81,52],[-97,22]],[[3937,2206],[-35,-6],[-43,-43],[-59,68],[9,48],[-57,65],[-39,-27],[-22,-66],[-57,27],[-30,-8],[-42,38],[-125,-24],[-15,-41],[0,-1],[-53,3],[-96,43],[-108,-59],[-112,-96],[-31,-51],[-6,-116],[-54,-70],[11,-45],[-41,-52],[-87,-18],[-14,-96],[-65,-16],[-23,-57],[-53,16],[-1,1],[-97,6],[-72,-36],[-30,-12],[-48,-25]],[[2442,1556],[-47,69],[32,32],[-51,38],[-4,87],[-39,80],[-48,18],[7,57],[-104,80],[-93,-28],[21,81],[-42,24],[-6,50],[23,72],[-115,2],[-8,-105],[-90,64],[-113,8],[-5,34],[-57,39],[-32,47],[-99,-22],[-47,71]],[[1525,2354],[7,111]],[[1532,2465],[1,87],[54,-18],[37,19],[32,54],[145,20],[76,-33],[49,17],[133,23]],[[2059,2634],[101,-16],[30,20],[61,-21],[56,62],[64,47],[46,-56],[71,30],[49,-16],[48,53],[68,4],[29,43],[88,55],[39,-31],[91,-40],[43,23],[7,77],[34,31],[81,-15],[40,11],[54,108],[72,-26],[46,25],[64,-9],[95,-86],[67,-5]],[[3503,2902],[3,-72],[38,-39],[44,-4],[33,-37],[111,37]],[[2281,9177],[26,-28],[-16,-69],[-42,-65],[50,-25]],[[3331,3423],[-16,-35],[37,-106],[39,-59],[3,-47],[33,-14],[7,-67],[57,-103],[12,-90]],[[2059,2634],[37,50],[31,125],[-16,62],[-25,18],[10,130],[-126,185],[10,50],[-36,20],[-17,87],[20,20],[-27,139],[-47,-23],[-90,60],[-78,-31],[-27,104],[59,23],[6,40],[-37,31],[-51,4],[-13,30],[-66,-22],[-36,41],[-82,57],[-57,18],[-51,94],[6,71],[-77,23],[1,45],[-37,55],[-83,25],[-11,106],[-38,77],[-58,65],[-95,60],[9,48],[-39,22],[-78,110]],[[850,4653],[60,-13],[-64,107],[-88,62],[-20,32],[58,83],[147,-86],[169,-60],[41,2]],[[1532,2465],[-167,21],[-86,100],[-16,56],[-48,-2],[-65,37],[-39,-28],[-35,13],[-66,-17],[-28,40],[-69,7],[-46,33],[-138,-52],[-81,-7],[-90,-39]],[[558,2627],[5,75],[27,47],[-45,24],[3,175],[60,126],[34,13],[28,48],[110,51],[40,46],[155,67],[34,118],[-17,124],[-38,121],[-54,84],[-94,98],[41,66],[9,72],[-92,96],[-60,38],[-173,81],[-250,82],[151,11],[139,21],[-27,79],[67,24],[129,77],[-20,42],[-71,-11],[-50,81],[127,151],[80,-127],[44,26]],[[1417,7843],[160,-127],[22,-28],[-253,-168],[-106,-81],[-35,86],[-45,-32],[-135,38],[-10,137],[104,68],[33,115],[-1,131],[-10,25]],[[3950,7834],[-74,-38],[20,-48],[-28,-63],[-89,-141],[-71,25],[61,115],[-18,30],[-117,108],[-24,7],[-87,-91],[-49,10],[-16,81],[-52,146],[-74,-5],[-41,30],[16,51],[-14,43],[23,90],[32,34],[33,4],[48,-26]],[[1678,5621],[21,145],[95,27],[24,-83],[-77,-24],[16,-27],[143,27],[-74,210],[139,65],[88,-182],[4,-32],[17,53],[-49,110],[40,26],[48,-67],[35,24],[-47,66],[74,49],[52,-34],[29,-48],[58,-41]],[[4584,6983],[-34,9],[-18,58],[-51,26],[4,59],[-122,126],[10,67],[42,12],[2,105],[-24,35],[12,61],[-73,-10]],[[4621,8371],[42,63],[58,25]],[[4721,8459],[50,-15],[15,-76],[79,27],[6,-86],[-25,-41],[38,-94],[49,-40],[164,-70]],[[5097,8064],[21,-39],[-78,-48],[37,-32],[79,-26],[6,-63],[-60,36],[-94,-1],[-92,-82],[-13,-78],[-26,-52],[68,-85]],[[3376,9826],[89,-32],[94,29]],[[3559,9823],[122,-40],[92,-53],[90,-18],[81,44],[166,22],[10,-91],[66,-28],[19,-29],[-50,-64],[48,-16],[66,18],[10,-215]],[[4379,8878],[20,-78],[-9,-46],[-48,-33]],[[2951,9171],[79,153],[43,20],[-34,63],[-53,-9],[-6,48],[-62,4],[-52,69],[60,77],[-10,25]],[[5277,8633],[-17,-56],[86,-53],[24,-66],[58,-20],[-26,-93],[-81,-29],[47,-68],[58,-49],[125,3],[13,-69],[-13,-29]],[[5551,8104],[-79,-45],[-62,50],[-51,19],[-35,-21],[-39,46],[-26,-17],[-46,32],[-52,-31],[-64,-73]],[[4721,8459],[-58,54],[-28,74],[-36,38],[15,40],[50,53],[81,13],[-24,74]],[[686,1350],[-67,-11],[-96,56],[0,0],[77,9],[59,38],[25,63],[-44,54],[-13,79],[-57,56],[13,65],[116,68],[62,50],[-6,98],[-44,77]],[[711,2052],[66,5],[103,82],[55,-7],[61,38],[96,-20],[66,4],[108,48],[107,9],[47,-16],[49,46],[-6,48],[21,47],[41,18]],[[2442,1556],[-41,-30],[-74,-59],[-61,-83],[-35,9],[-116,-77],[-104,-111],[-74,-104],[-42,-100],[-18,-68],[4,-60],[-45,-52],[-3,-48],[-51,-96],[17,-130],[25,-39],[-21,-82],[-12,-34],[-1,-3],[-1,1],[0,-1],[-26,-37],[-31,-27],[0,-27],[-5,-5],[-7,-12],[-1,-1],[0,1],[-16,-8],[-31,-8],[0,0],[-17,-42],[-30,-31],[2,-3],[-9,-33],[-93,-53],[-85,-23],[-12,-31],[-7,1],[-11,-5],[0,0],[-3,-4],[-1,0],[0,0],[-9,-2],[-3,2],[-8,-1],[-51,-6],[0,-3],[-3,-3],[0,0],[-15,-11],[-6,-1],[-1,0],[-101,17],[-85,-26],[-114,1],[-48,36],[-154,-28],[-26,-16],[-172,88],[2,1],[0,0]],[[1423,47],[-2,0],[0,0],[0,1],[2,-1]],[[7484,8022],[-115,-84],[-447,-382]],[[6922,7556],[-100,117],[-28,4],[-92,119],[-34,65],[101,84],[-28,46],[-124,96],[-66,-54],[-16,105],[-87,23],[-44,128],[30,81],[-26,43],[-40,18],[-68,72],[-5,26]],[[6295,8529],[-1,35],[139,117],[-1,37],[40,121],[-22,88],[98,14],[29,-59],[65,-12],[30,68],[61,-41],[87,14],[25,32]],[[6845,8943],[49,-70],[81,9]],[[6508,11003],[135,-113],[47,-63],[42,-32],[171,-83],[115,-70],[91,-79],[63,-109],[88,-30],[79,-76],[45,-73],[28,-78],[105,-174],[16,-58],[148,-35]],[[7681,9930],[-28,-95],[30,-46],[6,-74],[23,-9],[-7,-72],[-62,2],[-14,-26],[23,-112],[-87,-63],[-4,-56],[-84,-25],[4,-71]],[[6845,8943],[-35,46],[-2,52],[-31,38],[-80,12],[-120,76],[-66,-15],[-95,83],[18,73],[-65,62],[-65,-44],[-58,-77],[-111,20],[4,59],[-77,40],[-63,56]],[[5900,10056],[-12,29],[-70,32],[-51,-7],[29,110],[-27,47],[37,145],[68,62],[-22,40]],[[5852,10514],[117,34],[86,120],[109,-71],[26,-38],[89,-67],[112,-35],[4,30],[-64,65],[-30,137],[30,35],[57,20],[21,110],[36,69],[63,80]],[[5551,8104],[110,-57],[34,47]],[[5695,8094],[61,6],[71,-27],[32,-56],[-1,-52],[72,-59],[58,48],[137,-66],[37,-35],[44,9],[25,-32],[-110,-109],[81,-69],[105,-65],[65,62],[40,-42],[7,-43],[-78,-72],[-13,-49],[54,-70],[88,70],[75,-61],[86,-95]],[[6631,7287],[-155,-155],[-103,-114],[-145,-188],[-73,-115]],[[6155,6715],[-57,40],[-139,134],[-92,64],[-13,-24]],[[4532,3539],[18,29],[-22,55],[48,54],[-62,62],[-4,39],[-57,51],[-37,-9],[-74,28],[-37,80],[46,46],[53,-1],[90,127],[-22,87],[15,17],[-39,75]],[[4448,4279],[55,58],[98,25],[25,44],[19,81],[59,46],[49,-3],[97,86],[74,-22],[64,7],[31,-20],[35,31]],[[5054,4612],[98,4],[110,-35],[72,4],[-20,-141],[92,11],[42,47],[45,-43],[40,-2]],[[5533,4457],[67,-39],[80,-186],[-87,-232],[-40,-179],[8,-156],[37,-27],[-14,-59],[11,-94],[-49,-77],[12,-14],[-72,-186],[12,-83],[-37,-35],[-39,-72]],[[5422,3018],[-62,56],[-82,7],[-10,32],[-54,9],[21,165],[-63,-16],[-58,6],[-89,-23],[-14,43],[-44,52],[-17,-47],[-53,1],[-8,-59],[-41,5]],[[4455,6157],[17,58],[2,84],[21,44],[47,14],[32,63],[57,-37],[60,37],[-102,48],[37,80],[-52,81],[-43,30],[3,62],[38,17],[53,-12],[-8,77],[28,52]],[[5588,6319],[94,-51],[64,3],[4,-36],[65,-31]],[[5815,6204],[-60,-123],[-65,-153]],[[5690,5928],[-125,33],[-131,20],[-41,-13]],[[3953,9995],[122,-69],[41,-13],[94,14],[190,145],[90,44],[43,6],[70,-28]],[[3559,9823],[162,66],[107,76],[55,23],[70,7]],[[5372,10424],[151,61],[96,2],[88,-29],[70,14],[75,42]],[[5346,10416],[26,8]],[[6295,8529],[-47,5],[-14,-69],[-33,-42],[-64,-135],[-17,-64],[-43,-7],[-12,61],[-39,19]],[[6026,8297],[-7,72],[-37,2],[-16,70],[-41,-4],[-48,58],[-44,-1],[-27,38],[56,98],[-6,46],[-60,162],[-32,39],[-11,63],[15,96],[-33,35],[-51,5],[-76,-37],[-30,48]],[[7681,9930],[159,-26],[176,-57],[88,-56],[81,-64],[56,-71],[35,-69],[30,-97]],[[6155,6715],[-35,-62],[-5,-48],[-59,-31],[-55,-84],[-40,-36],[-146,-250]],[[6026,8297],[-80,-18],[-91,-50],[-154,-112],[-6,-23]],[[6922,7556],[-136,-122],[-155,-147]],[[5054,4612],[20,85],[-18,65],[53,97],[-25,37],[48,87]],[[5132,4983],[56,7],[7,31],[50,11],[10,37],[96,8],[19,-26],[82,30],[-2,-54],[37,-22]],[[5487,5005],[-12,-117],[16,-277],[21,-109],[21,-45]],[[4873,5098],[101,-48],[68,49],[8,-59],[82,-57]],[[4448,4279],[-40,20],[-34,-18],[-29,49],[-54,-4],[-15,68]],[[4276,4394],[14,46],[-6,85],[47,24],[82,122],[21,54],[114,46],[67,1],[79,29],[44,-20],[44,66],[-36,96],[17,53]],[[5108,5532],[139,0],[87,-30],[-6,-70],[52,-24],[147,-31]],[[5527,5377],[-24,-105],[-16,-124],[0,-143]],[[5690,5928],[-26,-63],[-76,-236],[-61,-252]],[[4349,5442],[-13,25],[-124,3],[-44,-10],[-99,-78],[-31,11],[-73,-18],[-27,-68],[16,-26],[-30,-69],[-75,15],[-36,-62],[24,-78]],[[4276,4394],[-43,28],[-52,-32],[-57,-7],[-71,-69]],[[5422,3018],[-3,-50],[-85,-83],[-57,-8],[-73,37],[-87,-23],[-21,-42]],[[711,2052],[-66,0],[-31,143],[60,69],[-1,33],[63,65],[-19,90],[-58,76],[-15,63],[-86,36]],[[3110,6751],[-3,23],[-205,87],[-2,34],[50,20],[165,29],[-16,35],[-31,177],[-43,41],[-142,11],[58,71],[22,51],[-43,-26],[-87,100],[-45,-30],[75,-89],[-24,-53],[-122,145],[-26,16],[-95,105],[-230,228],[-78,86]],[[2833,7143],[170,-9],[18,-102],[38,-10],[19,-65],[-220,-10],[-39,196],[14,0]]],"transform":{"scale":[0.0001164800917239952,0.00009597140118229784],"translate":[139.75319,34.90273]},"objects":{"japan":{"type":"GeometryCollection","geometries":[{"arcs":[[0,1,2]],"type":"Polygon","properties":{"pref":"千葉県","city":"銚子市","code5":"12202","code6":"122025"}},{"arcs":[[[3,4,5,6,7,8]],[[9,10]]],"type":"MultiPolygon","properties":{"pref":"千葉県","city":"市川市","code5":"12203","code6":"122033"}},{"arcs":[[[-5,11,12,13,14,15]],[[-11,16]],[[17]]],"type":"MultiPolygon","properties":{"pref":"千葉県","city":"船橋市","code5":"12204","code6":"122041"}},{"arcs":[[18,19]],"type":"Polygon","properties":{"pref":"千葉県","city":"館山市","code5":"12205","code6":"122050"}},{"arcs":[[20,21,22,23]],"type":"Polygon","properties":{"pref":"千葉県","city":"木更津市","code5":"12206","code6":"122068"}},{"arcs":[[24,25,26,27,-9,28]],"type":"Polygon","properties":{"pref":"千葉県","city":"松戸市","code5":"12207","code6":"122076"}},{"arcs":[[29,30,31,32]],"type":"Polygon","properties":{"pref":"千葉県","city":"野田市","code5":"12208","code6":"122084"}},{"arcs":[[33,34,35,36,37,38,39,40]],"type":"Polygon","properties":{"pref":"千葉県","city":"茂原市","code5":"12210","code6":"122106"}},{"arcs":[[41,42,43,44,45,46,47,48,49]],"type":"Polygon","properties":{"pref":"千葉県","city":"成田市","code5":"12211","code6":"122114"}},{"arcs":[[50,51,52,53,54,55,56]],"type":"Polygon","properties":{"pref":"千葉県","city":"佐倉市","code5":"12212","code6":"122122"}},{"arcs":[[57,58,59,60,61]],"type":"Polygon","properties":{"pref":"千葉県","city":"東金市","code5":"12213","code6":"122131"}},{"arcs":[[-2,62,63,64,65]],"type":"Polygon","properties":{"pref":"千葉県","city":"旭市","code5":"12215","code6":"122157"}},{"arcs":[[66,67,-15,68]],"type":"Polygon","properties":{"pref":"千葉県","city":"習志野市","code5":"12216","code6":"122165"}},{"arcs":[[69,70,71,72,73,-27,74,-31,75]],"type":"Polygon","properties":{"pref":"千葉県","city":"柏市","code5":"12217","code6":"122173"}},{"arcs":[[76,77,78,79,80]],"type":"Polygon","properties":{"pref":"千葉県","city":"勝浦市","code5":"12218","code6":"122181"}},{"arcs":[[81,-41,82,83,84,85,-22,86,87]],"type":"Polygon","properties":{"pref":"千葉県","city":"市原市","code5":"12219","code6":"122190"}},{"arcs":[[88,-32,-75,-26]],"type":"Polygon","properties":{"pref":"千葉県","city":"流山市","code5":"12220","code6":"122203"}},{"arcs":[[89,-69,-14,90,91,-52]],"type":"Polygon","properties":{"pref":"千葉県","city":"八千代市","code5":"12221","code6":"122211"}},{"arcs":[[92,93,-71]],"type":"Polygon","properties":{"pref":"千葉県","city":"我孫子市","code5":"12222","code6":"122220"}},{"arcs":[[-79,94,95,96,97,98,99]],"type":"Polygon","properties":{"pref":"千葉県","city":"鴨川市","code5":"12223","code6":"122238"}},{"arcs":[[-4,-28,-74,100,-12],[-18]],"type":"Polygon","properties":{"pref":"千葉県","city":"鎌ケ谷市","code5":"12224","code6":"122246"}},{"arcs":[[-23,-86,101,-99,102,103]],"type":"Polygon","properties":{"pref":"千葉県","city":"君津市","code5":"12225","code6":"122254"}},{"arcs":[[-98,104,105,-103]],"type":"Polygon","properties":{"pref":"千葉県","city":"富津市","code5":"12226","code6":"122262"}},{"arcs":[[-7,106]],"type":"Polygon","properties":{"pref":"千葉県","city":"浦安市","code5":"12227","code6":"122271"}},{"arcs":[[-57,107]],"type":"Polygon","properties":{"pref":"千葉県","city":"四街道市","code5":"12228","code6":"122289"}},{"arcs":[[-21,108,-87]],"type":"Polygon","properties":{"pref":"千葉県","city":"袖ケ浦市","code5":"12229","code6":"122297"}},{"arcs":[[109,-55,110,111,112,-58]],"type":"Polygon","properties":{"pref":"千葉県","city":"八街市","code5":"12230","code6":"122301"}},{"arcs":[[113,114,-49,115,-53,-92,116,-72,-94]],"type":"Polygon","properties":{"pref":"千葉県","city":"印西市","code5":"12231","code6":"122319"}},{"arcs":[[-13,-101,-73,-117,-91]],"type":"Polygon","properties":{"pref":"千葉県","city":"白井市","code5":"12232","code6":"122327"}},{"arcs":[[-47,117,118,-112,119]],"type":"Polygon","properties":{"pref":"千葉県","city":"富里市","code5":"12233","code6":"122335"}},{"arcs":[[[-20,120,121,-96,122]],[[123]]],"type":"MultiPolygon","properties":{"pref":"千葉県","city":"南房総市","code5":"12234","code6":"122343"}},{"arcs":[[-64,124,125,126,127]],"type":"Polygon","properties":{"pref":"千葉県","city":"匝瑳市","code5":"12235","code6":"122351"}},{"arcs":[[128,129,-65,-128,130,-44,131,132]],"type":"Polygon","properties":{"pref":"千葉県","city":"香取市","code5":"12236","code6":"122360"}},{"arcs":[[-59,-113,-119,133,134,135,136]],"type":"Polygon","properties":{"pref":"千葉県","city":"山武市","code5":"12237","code6":"122378"}},{"arcs":[[-81,137,138,139,140,141]],"type":"Polygon","properties":{"pref":"千葉県","city":"いすみ市","code5":"12238","code6":"122386"}},{"arcs":[[142,-61,143,144,145,-35]],"type":"Polygon","properties":{"pref":"千葉県","city":"大網白里市","code5":"12239","code6":"122394"}},{"arcs":[[-48,-120,-111,-54,-116]],"type":"Polygon","properties":{"pref":"千葉県","county":"印旛郡","city":"酒々井町","code5":"12322","code6":"123226"}},{"arcs":[[146,-50,-115,147]],"type":"Polygon","properties":{"pref":"千葉県","county":"印旛郡","city":"栄町","code5":"12329","code6":"123293"}},{"arcs":[[148,-132,-43,149]],"type":"Polygon","properties":{"pref":"千葉県","county":"香取郡","city":"神崎町","code5":"12342","code6":"123421"}},{"arcs":[[-45,-131,-127,150,151]],"type":"Polygon","properties":{"pref":"千葉県","county":"香取郡","city":"多古町","code5":"12347","code6":"123471"}},{"arcs":[[152,-3,-66,-130]],"type":"Polygon","properties":{"pref":"千葉県","county":"香取郡","city":"東庄町","code5":"12349","code6":"123498"}},{"arcs":[[-60,-137,153,-144]],"type":"Polygon","properties":{"pref":"千葉県","county":"山武郡","city":"九十九里町","code5":"12403","code6":"124036"}},{"arcs":[[-46,-152,154,-134,-118]],"type":"Polygon","properties":{"pref":"千葉県","county":"山武郡","city":"芝山町","code5":"12409","code6":"124095"}},{"arcs":[[-126,155,-135,-155,-151]],"type":"Polygon","properties":{"pref":"千葉県","county":"山武郡","city":"横芝光町","code5":"12410","code6":"124109"}},{"arcs":[[-140,156,157,158]],"type":"Polygon","properties":{"pref":"千葉県","county":"長生郡","city":"一宮町","code5":"12421","code6":"124214"}},{"arcs":[[-38,159,-157,-139,160,161]],"type":"Polygon","properties":{"pref":"千葉県","county":"長生郡","city":"睦沢町","code5":"12422","code6":"124222"}},{"arcs":[[-37,162,163,-158,-160]],"type":"Polygon","properties":{"pref":"千葉県","county":"長生郡","city":"長生村","code5":"12423","code6":"124231"}},{"arcs":[[-36,-146,164,-163]],"type":"Polygon","properties":{"pref":"千葉県","county":"長生郡","city":"白子町","code5":"12424","code6":"124249"}},{"arcs":[[-40,165,-83]],"type":"Polygon","properties":{"pref":"千葉県","county":"長生郡","city":"長柄町","code5":"12426","code6":"124265"}},{"arcs":[[-39,-162,166,-84,-166]],"type":"Polygon","properties":{"pref":"千葉県","county":"長生郡","city":"長南町","code5":"12427","code6":"124273"}},{"arcs":[[-80,-100,-102,-85,-167,-161,-138]],"type":"Polygon","properties":{"pref":"千葉県","county":"夷隅郡","city":"大多喜町","code5":"12441","code6":"124419"}},{"arcs":[[-77,-142,167]],"type":"Polygon","properties":{"pref":"千葉県","county":"夷隅郡","city":"御宿町","code5":"12443","code6":"124435"}},{"arcs":[[-97,-122,168,-105]],"type":"Polygon","properties":{"pref":"千葉県","county":"安房郡","city":"鋸南町","code5":"12463","code6":"124630"}},{"arcs":[[[169,-67,-90,-51,-108,-56,-110,-62,-143,-34,-82]],[[170]]],"type":"MultiPolygon","properties":{"pref":"千葉県","city":"千葉市","code5":"12100","code6":"121002"}}]}}}