{"type":"Topology","arcs":[[[4399,72875],[-61,-76],[-65,-101]],[[4273,72698],[-56,6],[-86,76]],[[4131,72780],[1,51],[75,85]],[[4207,72916],[107,-7],[20,22]],[[4334,72931],[65,-56]],[[4399,72875],[33,-11]],[[4432,72864],[8,-35]],[[4440,72829],[-13,-78],[9,-132]],[[4436,72619],[-88,-65],[-44,64]],[[4304,72618],[-31,80]],[[4304,72618],[-17,-23],[-4,-99],[-41,-15],[-12,-61]],[[4230,72420],[-100,9],[-63,99]],[[4067,72528],[23,31],[-6,56],[-50,18],[-23,36],[42,59]],[[4053,72728],[16,31],[62,21]],[[4398,72449],[-58,-40]],[[4340,72409],[-14,21]],[[4326,72430],[45,32],[27,-13]],[[4053,72728],[-9,48],[-67,52],[-75,-48],[-20,66]],[[3882,72846],[24,47],[8,77],[-38,-8],[-40,86],[12,36]],[[3848,73084],[28,-37],[114,-4],[7,-60],[87,-8]],[[4084,72975],[18,-19],[89,-7],[16,-33]],[[4084,72975],[-22,35],[100,58],[40,57],[41,-5]],[[4243,73120],[43,-18]],[[4286,73102],[9,-9]],[[4295,73093],[39,-162]],[[4295,73093],[73,-37],[41,18],[132,2]],[[4541,73076],[-16,-68],[-50,-61],[-43,-83]],[[4541,73076],[25,68]],[[4566,73144],[31,29]],[[4597,73173],[18,-36],[96,-117]],[[4711,73020],[-45,-34],[31,-26],[-21,-44]],[[4676,72916],[-88,32],[5,-95],[-43,-7],[-34,-33],[-76,16]],[[4729,72622],[-24,-87],[-4,-58],[-34,5],[4,60],[-138,-23],[-36,-26],[5,-64],[-54,23],[-24,-16],[-59,95],[85,67],[-14,21]],[[4676,72916],[64,-51],[-11,-87],[7,-47],[-7,-109]],[[4398,72449],[-7,-35],[61,-91],[-31,-49],[-70,117]],[[4351,72391],[-11,18]],[[4632,72243],[-71,-47],[-32,48],[68,65],[35,-66]],[[4581,72324],[-132,-98],[36,80],[61,40],[35,-22]],[[4700,72466],[-8,-114],[-58,36],[-8,69],[74,9]],[[4230,72420],[1,-121],[-15,-20],[-6,-79]],[[4210,72200],[-86,-18],[-10,44],[-37,0],[-35,36],[-70,9],[-30,39]],[[3942,72310],[1,30],[44,79],[56,28],[-7,54],[23,26]],[[4059,72527],[8,1]],[[4350,72235],[-56,-68],[-68,24]],[[4226,72191],[-3,76],[14,25],[7,82],[47,-19],[8,-38],[51,-82]],[[4351,72391],[-25,39]],[[3942,72310],[-48,26],[-31,-70]],[[3863,72266],[-16,46],[-72,4],[16,64],[-25,57],[11,28],[84,-36],[32,75],[-7,84],[-51,80]],[[3835,72668],[65,-15],[29,-48],[82,-76],[48,-2]],[[4210,72200],[63,-164],[27,-25],[38,54],[76,10],[124,-200],[-74,-44],[-55,21],[-42,-6],[-105,64],[-89,3],[-25,-26],[-45,16],[-46,-35],[-72,-9],[-29,31],[26,75],[-114,52],[-25,29],[-37,119],[-32,33],[-43,1]],[[3731,72199],[4,41],[128,26]],[[4350,72235],[51,-118],[-142,-1],[-33,75]],[[4303,72103],[48,-1],[-41,-63],[-37,23],[30,41]],[[4520,72238],[32,-48],[-31,-20],[-60,42],[52,35],[7,-9]],[[3731,72199],[-62,51],[-63,58],[-100,55],[-81,17],[-34,-1]],[[3391,72379],[18,52],[-48,91],[17,33]],[[3378,72555],[24,59],[-18,89]],[[3384,72703],[-6,78],[34,3]],[[3412,72784],[48,-10],[96,-50],[18,-23],[73,-21],[119,43]],[[3766,72723],[57,-2],[12,-53]],[[3766,72723],[12,24]],[[3778,72747],[104,99]],[[3778,72747],[-25,35],[43,63],[-49,111],[-80,14],[-56,35],[-40,84]],[[3571,73089],[47,32],[34,-57],[117,4],[12,26],[70,-2]],[[3851,73092],[-3,-8]],[[3412,72784],[-1,43],[-38,32]],[[3373,72859],[46,73],[-46,41]],[[3373,72973],[-9,39],[89,50],[70,28],[48,-1]],[[3851,73092],[15,51]],[[3866,73143],[94,24],[28,-34],[33,55],[48,-5]],[[4069,73183],[112,-17],[62,-46]],[[3954,73523],[60,-41],[130,-13],[22,-62]],[[4166,73407],[-7,-64],[47,-19],[64,19],[1,-35],[-49,-31],[48,-31]],[[4270,73246],[-4,-60],[73,-48],[-53,-36]],[[4069,73183],[16,52],[-33,48],[-53,40],[-20,89],[-68,37],[39,77]],[[3950,73526],[4,-3]],[[4270,73246],[128,-5],[46,-24],[6,-61],[116,-12]],[[3685,73519],[37,15],[131,-9],[50,13],[47,-12]],[[3866,73143],[-46,42],[15,42],[-31,93],[-41,13],[-108,3],[-54,21],[-29,47]],[[3572,73404],[50,67],[63,48]],[[3412,73397],[16,-2],[31,-48],[74,-3],[39,60]],[[3373,72973],[-67,48],[-44,14]],[[3262,73035],[20,79],[-14,85],[12,28],[-32,62]],[[3248,73289],[101,61],[35,46],[28,1]],[[4166,73407],[88,42],[31,67],[-53,59],[89,70],[60,-60],[70,-19],[51,21],[58,-2],[40,43],[-2,-111],[29,-27],[62,48],[46,-28]],[[4735,73510],[-8,-56],[66,-107],[-63,-8],[-77,-66],[-92,-30],[36,-70]],[[4735,73510],[63,-13],[63,18],[30,-22],[-27,-52],[31,-28],[86,10],[-1,-28],[-56,-31],[-18,-38],[56,-106]],[[4962,73220],[-39,-8],[-14,-60],[-32,-21],[-61,-152],[-57,-13],[-48,54]],[[4964,73217],[47,-38],[-4,-133],[92,-98],[13,-65],[-53,-78],[-108,-35],[-10,-56],[7,-95],[-20,-70],[-63,-42],[-48,0],[-68,27],[5,87],[-25,1]],[[4962,73220],[2,-3]],[[2034,72983],[7,-6]],[[2041,72977],[19,-104],[54,-27],[89,12],[67,-14]],[[2270,72844],[2,-96],[-22,-68],[-71,-41],[-4,-33],[56,-62],[70,-20],[90,0],[82,37]],[[2473,72561],[77,-83],[-131,-84],[-56,-80]],[[2363,72314],[-64,-39],[-83,42],[-23,-21],[-73,23],[-31,30],[-55,11],[-92,-6],[-81,10],[-24,28],[-87,-12],[-43,-59]],[[1707,72321],[-21,-43],[-65,-5],[-117,82],[-6,35],[-45,34],[-25,73],[1,54],[-92,47],[-34,-35],[-65,-12],[-52,38],[-11,66],[-29,38]],[[1146,72693],[44,78],[7,55]],[[1197,72826],[147,-3],[28,73],[11,82],[64,26],[115,-18],[28,-19],[61,8],[57,-14],[42,25],[139,-9],[65,11],[62,-25],[18,20]],[[2470,73107],[63,-18]],[[2533,73089],[48,-34],[55,-12]],[[2636,73043],[-23,-45],[-70,10],[38,-87],[-27,-1]],[[2554,72920],[7,-42],[-37,-65],[-37,-25]],[[2487,72788],[-170,54]],[[2317,72842],[41,49],[8,80],[-76,89],[-131,-3]],[[2159,73057],[-11,69],[37,23]],[[2185,73149],[94,-29],[38,16],[53,-26],[100,-3]],[[3373,72859],[-53,47],[-31,-16],[-108,50],[3,-73],[-88,24]],[[3096,72891],[-7,64],[-32,52]],[[3057,73007],[57,-38],[104,66],[44,0]],[[3384,72703],[-47,-25],[-72,-8],[-28,118],[-93,-15],[-9,-67],[-52,-14],[-31,84],[8,21]],[[3060,72797],[36,94]],[[1156,73856],[57,-17],[94,-51],[56,6],[50,35],[104,-64],[104,11],[43,-15],[60,24],[52,-1],[101,-29],[7,-70],[47,8],[24,-41],[32,-122],[43,-38]],[[2030,73492],[-50,-34],[1,-70]],[[1981,73388],[-46,-11],[-72,37],[-33,-38],[23,-58],[0,-74]],[[1853,73244],[-46,40],[-162,-1]],[[1645,73283],[-32,34],[-65,6],[-92,44],[-54,-5],[-64,84],[-86,8],[-99,-60]],[[1153,73394],[-44,-32],[-62,20],[-27,-25]],[[1020,73357],[-2,36],[56,25],[-5,70],[150,88],[-7,38],[22,113],[-64,79],[-14,50]],[[2864,72868],[-3,-28],[57,-24],[117,1]],[[3035,72817],[22,-95],[-46,-102],[17,-65]],[[3028,72555],[-46,32],[-47,-8],[-87,18],[-67,-22]],[[2781,72575],[-166,55]],[[2615,72630],[-64,82]],[[2551,72712],[110,5],[14,102],[31,30]],[[2706,72849],[44,-26],[98,25],[16,20]],[[2041,72977],[118,80]],[[2317,72842],[-47,2]],[[3378,72555],[-70,29],[-40,-20],[-25,-95]],[[3243,72469],[-191,64]],[[3052,72533],[-24,22]],[[3035,72817],[25,-20]],[[2363,72314],[114,25],[39,-35],[56,-5],[81,38]],[[2653,72337],[19,-28],[57,11],[39,-51],[30,-10],[92,-84],[-3,-22],[68,-45],[-83,-91],[-43,63],[37,78],[-73,-18],[-32,-69],[3,-61],[48,-6],[14,-76],[-10,-27],[34,-49],[-2,-96],[-50,-58],[41,-46],[-89,-10],[-24,98],[-39,17],[13,48],[-69,83],[-86,59],[-55,72],[-48,86],[-41,14],[-11,46],[-42,3],[-156,88],[-123,34],[-90,13],[-35,-13],[-77,12],[-35,35],[-51,9],[-74,-25]],[[2864,72868],[-27,44],[7,38]],[[2844,72950],[53,31],[143,37]],[[3040,73018],[17,-11]],[[2533,73089],[84,39],[45,4]],[[2662,73132],[81,45],[103,-61],[-2,60]],[[2844,73176],[65,3],[52,-38],[68,4],[-5,-35]],[[3024,73110],[-13,-38],[29,-54]],[[2844,72950],[-72,17],[0,28],[-70,16],[-66,32]],[[2487,72788],[64,-76]],[[2615,72630],[-23,-50],[-57,-40],[-62,21]],[[2608,73323],[94,17],[65,24],[44,41],[91,-8]],[[2902,73397],[4,-41],[38,-71]],[[2944,73285],[-53,-17],[-47,-92]],[[2662,73132],[1,61],[-56,87],[1,43]],[[2706,72849],[-57,54],[-95,17]],[[2034,72983],[-14,91],[-44,35],[-32,88]],[[1944,73197],[42,41],[108,-24]],[[2094,73214],[63,-27]],[[2157,73187],[28,-38]],[[3391,72379],[-100,38],[-48,52]],[[2351,73300],[69,37],[77,-21],[111,7]],[[2470,73107],[-17,27],[-10,133],[-21,24],[-71,9]],[[2902,73397],[90,62],[33,0],[47,36],[65,84],[29,-30],[-51,-75],[33,-16],[-4,-54],[-57,-40],[-48,-10],[-35,-40]],[[3004,73314],[-60,-29]],[[3004,73314],[165,53],[-17,-122]],[[3152,73245],[-70,-91],[-58,-44]],[[2285,73350],[6,-31],[60,-19]],[[2157,73187],[15,63],[52,78],[61,22]],[[2781,72575],[-26,-30],[15,-69],[-39,-58]],[[2731,72418],[-78,-81]],[[3052,72533],[-57,-114],[-58,-12],[-45,-35],[14,-79],[-45,-1],[-41,34],[-26,56],[-63,36]],[[1981,73388],[66,-40],[12,-74],[35,-60]],[[1944,73197],[-59,51],[-32,-4]],[[1197,72826],[4,82],[-36,29],[3,190],[-86,115],[-45,8],[14,69],[-39,25]],[[1012,73344],[8,13]],[[1153,73394],[137,-101],[115,-67],[24,-47],[55,-27],[70,-2],[123,-47],[112,-1],[-20,96],[-27,40],[-71,12],[-26,33]],[[3152,73245],[96,44]],[[2298,73369],[-13,-19]],[[2030,73492],[86,18],[18,-19],[97,-20],[6,-56],[54,-17],[7,-29]],[[1146,72693],[-76,-7],[-83,33],[-23,31],[-111,90],[-70,-3],[-56,32],[-50,-1],[-175,101],[-85,68],[-53,106]],[[364,73143],[152,47],[9,74],[62,16],[105,75],[97,-13],[16,38],[58,5],[121,-74],[28,33]],[[6,73881],[-6,34],[60,89],[57,23],[15,28],[57,18],[33,-25],[81,18],[52,83],[68,2],[73,-53],[64,-65],[61,-32],[58,-13],[53,20],[47,-37],[46,-12],[60,-16],[123,5],[64,-17],[62,-36],[22,-39]],[[364,73143],[-2,1],[-36,74],[-66,32],[-46,89],[14,81],[-50,43],[-34,99],[-6,170],[-37,-11],[-78,87],[-17,73]],[[2191,67174],[59,-4],[62,-54],[146,-20],[111,-92],[18,-30],[35,-126],[25,-21],[-22,-79],[25,-79],[-26,-105],[30,-30],[-57,-125],[-70,26],[-48,-10],[-107,18],[-121,99],[-70,15],[10,53],[-45,56],[19,154],[-37,100],[15,66],[-8,92],[56,96]],[[1743,65477],[39,3],[51,-54],[-58,-74],[-49,1],[-26,56],[43,68]],[[1762,64838],[49,-28],[16,-54],[-26,-44],[25,-21],[-71,-113],[-11,-132],[3,-139],[-24,-107],[-101,53],[-42,59],[4,66],[-17,31],[55,80],[25,102],[-8,50],[60,50],[8,46],[40,2],[28,53],[-13,46]],[[1414,64238],[73,-58],[-70,-73],[-55,30],[52,101]],[[1050,63646],[69,-28],[73,-52],[22,-156],[-32,13],[-59,-22],[-57,-61],[-10,-43],[-74,-26],[-53,53],[8,38],[52,14],[6,61],[-23,66],[44,30],[2,97],[32,16]],[[3088,62890],[37,-6],[102,-82],[23,-34],[10,-74],[-18,-43],[11,-48],[-6,-69],[-61,-63],[-86,-35],[-31,-41],[-86,13],[-59,-19],[-59,36],[-39,0],[-25,55],[14,67],[-33,49],[41,30],[8,56],[56,86],[-25,45],[19,45],[72,19],[135,13]],[[3459,61469],[80,-55],[69,-130],[-2,-26],[-59,-101],[-152,19],[-62,35],[-12,39],[7,101],[67,99],[64,19]],[[4281,56755],[83,-17],[40,-47],[66,-41],[10,-56],[86,-34],[14,-49],[69,-22],[76,-5],[66,-114],[-15,-48],[15,-75],[-91,-19],[-36,-65],[-8,-125],[-61,75],[-125,30],[-62,45],[-21,38],[-8,128],[-62,38],[-49,5],[-35,84],[-58,99],[-4,90],[53,73],[57,12]],[[3892,56613],[69,-76],[5,-40],[-58,-14],[-26,16],[-45,77],[55,37]],[[4275,52401],[56,-29],[59,-75],[-9,-62],[-57,-28],[-71,54],[3,129],[19,11]],[[12486,3744],[57,-34],[51,-81],[17,-63],[-23,-83],[-259,-125],[-56,-47],[-5,44],[38,128],[-6,64],[-30,18],[26,57],[61,45],[55,60],[74,17]],[[17028,18302],[58,-2],[69,-34],[38,-65],[-9,-25],[51,-54],[-11,-53],[6,-78],[-60,-104],[-65,-1],[-100,53],[3,44],[28,46],[-43,63],[29,17],[71,-3],[3,72],[-14,47],[-29,15],[-40,-43],[-41,25],[-5,46],[61,34]],[[16675,15815],[27,-66],[27,-22],[48,37],[49,15],[26,-47],[-73,-50],[21,-61],[79,20],[11,-38],[-28,-51],[10,-66],[56,-52],[-16,-69],[8,-47],[40,-32],[-22,-46],[-35,54],[-40,-12],[-6,60],[-35,-16],[-29,110],[-18,129],[-75,90],[-11,63],[-28,43],[14,54]],[[17019,18546],[15,-40],[55,-57],[60,23],[53,-54],[-3,-45],[-31,-51],[-70,1],[-5,44],[-93,87],[19,92]],[[12265,7776],[21,-9],[26,-69],[1,-69],[-60,-43],[-30,3],[-20,64],[7,78],[55,45]],[[17006,18837],[35,-34],[-4,-72],[37,-27],[-31,-92],[-82,-52],[20,67],[-6,58],[23,67],[-13,67],[21,18]],[[13197,129],[47,-20],[5,-56],[-17,-38],[-50,-15],[-31,28],[9,81],[37,20]],[[10122,19244],[57,-18],[21,-36],[-31,-54],[-49,4],[-28,33],[30,71]],[[16703,22005],[88,-32],[4,-64],[-48,-10],[-4,44],[-61,18],[21,44]],[[78794,462],[14,-86],[-11,-20],[-68,22],[65,84]],[[16827,14864],[33,-33],[-1,-66],[-27,-36],[-20,128],[15,7]],[[16702,15156],[25,-58],[-50,6],[25,52]],[[16932,21669],[42,-35],[-50,-38],[-12,42],[20,31]],[[17129,14863],[14,-48],[-72,-21],[23,52],[35,17]]],"transform":{"scale":[0.0001908903414791055,0.00015741668055540265],"translate":[138.94286758776911,24.224754161575447]},"objects":{"japan":{"type":"GeometryCollection","geometries":[{"arcs":[[0,1,2,3,4]],"type":"Polygon","properties":{"pref":"東京都","city":"千代田区","code5":"13101","code6":"131016"}},{"arcs":[[-1,5,6,7,8,9]],"type":"Polygon","properties":{"pref":"東京都","city":"中央区","code5":"13102","code6":"131024"}},{"arcs":[[[-2,-10,10,11,12,13]],[[14,15,16]]],"type":"MultiPolygon","properties":{"pref":"東京都","city":"港区","code5":"13103","code6":"131032"}},{"arcs":[[-3,-14,17,18,19,20]],"type":"Polygon","properties":{"pref":"東京都","city":"新宿区","code5":"13104","code6":"131041"}},{"arcs":[[-4,-21,21,22,23,24]],"type":"Polygon","properties":{"pref":"東京都","city":"文京区","code5":"13105","code6":"131059"}},{"arcs":[[-5,-25,25,26,-6]],"type":"Polygon","properties":{"pref":"東京都","city":"台東区","code5":"13106","code6":"131067"}},{"arcs":[[-7,-27,27,28,29,30,31]],"type":"Polygon","properties":{"pref":"東京都","city":"墨田区","code5":"13107","code6":"131075"}},{"arcs":[[[32,-8,-32,33]],[[-15,34,35]],[[36]],[[37]],[[38]]],"type":"MultiPolygon","properties":{"pref":"東京都","city":"江東区","code5":"13108","code6":"131083"}},{"arcs":[[[-12,39,40,41,42]],[[43,44]],[[-16,-36,45]]],"type":"MultiPolygon","properties":{"pref":"東京都","city":"品川区","code5":"13109","code6":"131091"}},{"arcs":[[-42,46,47,48]],"type":"Polygon","properties":{"pref":"東京都","city":"目黒区","code5":"13110","code6":"131105"}},{"arcs":[[[-41,49,50,-47]],[[-44,51]],[[52]],[[53]]],"type":"MultiPolygon","properties":{"pref":"東京都","city":"大田区","code5":"13111","code6":"131113"}},{"arcs":[[-48,-51,54,55,56,57,58,59]],"type":"Polygon","properties":{"pref":"東京都","city":"世田谷区","code5":"13112","code6":"131121"}},{"arcs":[[-13,-43,-49,-60,60,61,-18]],"type":"Polygon","properties":{"pref":"東京都","city":"渋谷区","code5":"13113","code6":"131130"}},{"arcs":[[-19,-62,62,63,64]],"type":"Polygon","properties":{"pref":"東京都","city":"中野区","code5":"13114","code6":"131148"}},{"arcs":[[-59,65,66,67,-63,-61]],"type":"Polygon","properties":{"pref":"東京都","city":"杉並区","code5":"13115","code6":"131156"}},{"arcs":[[-20,-65,68,69,70,-22]],"type":"Polygon","properties":{"pref":"東京都","city":"豊島区","code5":"13116","code6":"131164"}},{"arcs":[[71,72,73,-23,-71,74,75]],"type":"Polygon","properties":{"pref":"東京都","city":"北区","code5":"13117","code6":"131172"}},{"arcs":[[-24,-74,76,-28,-26]],"type":"Polygon","properties":{"pref":"東京都","city":"荒川区","code5":"13118","code6":"131181"}},{"arcs":[[77,-75,-70,78,79]],"type":"Polygon","properties":{"pref":"東京都","city":"板橋区","code5":"13119","code6":"131199"}},{"arcs":[[80,-79,-69,-64,-68,81,82,83]],"type":"Polygon","properties":{"pref":"東京都","city":"練馬区","code5":"13120","code6":"131202"}},{"arcs":[[84,85,-29,-77,-73]],"type":"Polygon","properties":{"pref":"東京都","city":"足立区","code5":"13121","code6":"131211"}},{"arcs":[[86,87,-30,-86]],"type":"Polygon","properties":{"pref":"東京都","city":"葛飾区","code5":"13122","code6":"131229"}},{"arcs":[[88,-34,-31,-88,89]],"type":"Polygon","properties":{"pref":"東京都","city":"江戸川区","code5":"13123","code6":"131237"}},{"arcs":[[90,91,92,93,94,95,96,97]],"type":"Polygon","properties":{"pref":"東京都","city":"八王子市","code5":"13201","code6":"132012"}},{"arcs":[[98,99,100,101,102,103,104,105]],"type":"Polygon","properties":{"pref":"東京都","city":"立川市","code5":"13202","code6":"132021"}},{"arcs":[[-67,106,107,108,-82]],"type":"Polygon","properties":{"pref":"東京都","city":"武蔵野市","code5":"13203","code6":"132039"}},{"arcs":[[-58,109,110,-107,-66]],"type":"Polygon","properties":{"pref":"東京都","city":"三鷹市","code5":"13204","code6":"132047"}},{"arcs":[[111,112,113,114,115,116,117]],"type":"Polygon","properties":{"pref":"東京都","city":"青梅市","code5":"13205","code6":"132055"}},{"arcs":[[118,119,120,121,122,123,124]],"type":"Polygon","properties":{"pref":"東京都","city":"府中市","code5":"13206","code6":"132063"}},{"arcs":[[-92,125,-104,126]],"type":"Polygon","properties":{"pref":"東京都","city":"昭島市","code5":"13207","code6":"132071"}},{"arcs":[[-57,127,128,129,-120,130,-110]],"type":"Polygon","properties":{"pref":"東京都","city":"調布市","code5":"13208","code6":"132080"}},{"arcs":[[-95,131,132]],"type":"Polygon","properties":{"pref":"東京都","city":"町田市","code5":"13209","code6":"132098"}},{"arcs":[[-108,-111,-131,-119,133,134,135]],"type":"Polygon","properties":{"pref":"東京都","city":"小金井市","code5":"13210","code6":"132101"}},{"arcs":[[-100,136,137,138,139,-135,140]],"type":"Polygon","properties":{"pref":"東京都","city":"小平市","code5":"13211","code6":"132110"}},{"arcs":[[-93,-127,-103,141,-123,142]],"type":"Polygon","properties":{"pref":"東京都","city":"日野市","code5":"13212","code6":"132128"}},{"arcs":[[143,144,145,-138,146]],"type":"Polygon","properties":{"pref":"東京都","city":"東村山市","code5":"13213","code6":"132136"}},{"arcs":[[-101,-141,-134,-125,147]],"type":"Polygon","properties":{"pref":"東京都","city":"国分寺市","code5":"13214","code6":"132144"}},{"arcs":[[-102,-148,-124,-142]],"type":"Polygon","properties":{"pref":"東京都","city":"国立市","code5":"13215","code6":"132152"}},{"arcs":[[-91,148,149,150,151,-105,-126]],"type":"Polygon","properties":{"pref":"東京都","city":"福生市","code5":"13218","code6":"132187"}},{"arcs":[[-56,152,-128]],"type":"Polygon","properties":{"pref":"東京都","city":"狛江市","code5":"13219","code6":"132195"}},{"arcs":[[153,-147,-137,-99,154]],"type":"Polygon","properties":{"pref":"東京都","city":"東大和市","code5":"13220","code6":"132209"}},{"arcs":[[155,156,-145]],"type":"Polygon","properties":{"pref":"東京都","city":"清瀬市","code5":"13221","code6":"132217"}},{"arcs":[[157,158,-139,-146,-157]],"type":"Polygon","properties":{"pref":"東京都","city":"東久留米市","code5":"13222","code6":"132225"}},{"arcs":[[159,-155,-106,-152,160]],"type":"Polygon","properties":{"pref":"東京都","city":"武蔵村山市","code5":"13223","code6":"132233"}},{"arcs":[[-94,-143,-122,161,162,-132]],"type":"Polygon","properties":{"pref":"東京都","city":"多摩市","code5":"13224","code6":"132241"}},{"arcs":[[-121,-130,163,-162]],"type":"Polygon","properties":{"pref":"東京都","city":"稲城市","code5":"13225","code6":"132250"}},{"arcs":[[-114,164,-150,165]],"type":"Polygon","properties":{"pref":"東京都","city":"羽村市","code5":"13227","code6":"132276"}},{"arcs":[[-98,166,167,-117,168,-115,-166,-149]],"type":"Polygon","properties":{"pref":"東京都","city":"あきる野市","code5":"13228","code6":"132284"}},{"arcs":[[169,-83,-109,-136,-140,-159]],"type":"Polygon","properties":{"pref":"東京都","city":"西東京市","code5":"13229","code6":"132292"}},{"arcs":[[170,-161,-151,-165,-113,171]],"type":"Polygon","properties":{"pref":"東京都","county":"西多摩郡","city":"瑞穂町","code5":"13303","code6":"133035"}},{"arcs":[[-116,-169]],"type":"Polygon","properties":{"pref":"東京都","county":"西多摩郡","city":"日の出町","code5":"13305","code6":"133051"}},{"arcs":[[-97,172,173,-167]],"type":"Polygon","properties":{"pref":"東京都","county":"西多摩郡","city":"檜原村","code5":"13307","code6":"133078"}},{"arcs":[[174,-118,-168,-174,175]],"type":"Polygon","properties":{"pref":"東京都","county":"西多摩郡","city":"奥多摩町","code5":"13308","code6":"133086"}},{"arcs":[[176]],"type":"Polygon","properties":{"pref":"東京都","city":"大島町","code5":"13361","code6":"133612"}},{"arcs":[[177]],"type":"Polygon","properties":{"pref":"東京都","city":"利島村","code5":"13362","code6":"133621"}},{"arcs":[[[178]],[[179]]],"type":"MultiPolygon","properties":{"pref":"東京都","city":"新島村","code5":"13363","code6":"133639"}},{"arcs":[[180]],"type":"Polygon","properties":{"pref":"東京都","city":"神津島村","code5":"13364","code6":"133647"}},{"arcs":[[181]],"type":"Polygon","properties":{"pref":"東京都","city":"三宅村","code5":"13381","code6":"133817"}},{"arcs":[[182]],"type":"Polygon","properties":{"pref":"東京都","city":"御蔵島村","code5":"13382","code6":"133825"}},{"arcs":[[[183]],[[184]]],"type":"MultiPolygon","properties":{"pref":"東京都","city":"八丈町","code5":"13401","code6":"134015"}},{"arcs":[[185]],"type":"Polygon","properties":{"pref":"東京都","city":"青ヶ島村","code5":"13402","code6":"134023"}},{"arcs":[[[186]],[[187]],[[188]],[[189]],[[190]],[[191]],[[192]],[[193]],[[194]],[[195]],[[196]],[[197]],[[198]],[[199]]],"type":"MultiPolygon","properties":{"pref":"東京都","city":"小笠原村","code5":"13421","code6":"134210"}}]}}}