{"type":"Topology","arcs":[[[3631,1110],[79,40],[37,41]],[[3747,1191],[22,-11],[5,7],[1,1],[2,2],[1,2],[1,2],[120,16],[-133,-204],[53,7],[52,-79],[12,39],[41,11],[-19,51],[65,-1],[30,-30],[-30,-56],[16,-44],[45,-28],[27,-58],[64,-16],[127,1],[64,-17],[35,-52],[-45,-24],[-24,-55],[-68,-3],[48,-71],[-36,-68],[13,-42],[-169,-16],[-38,-14],[-108,-90]],[[3921,351],[-51,73],[-41,12],[-75,-7],[-19,-39],[-46,-16],[-25,-42]],[[3664,332],[-67,22],[32,98],[73,-8],[23,51],[-31,28],[-99,34],[8,38],[-22,48],[-73,80],[-42,12]],[[3466,735],[134,30],[126,-14],[44,36],[18,76],[-86,36]],[[3702,899],[4,58],[-30,92],[-45,61]],[[3853,1078],[24,-35],[-42,-45],[-25,35],[43,45]],[[2395,1631],[6,-38],[-20,-131],[-2,-106]],[[2379,1356],[4,-101],[-10,-76],[26,-51]],[[2399,1128],[-83,-1],[-149,-19]],[[2167,1108],[-12,81],[-47,1],[-61,-37],[-61,35],[4,37],[-62,-3],[-63,25],[-54,1],[-59,-34]],[[1752,1214],[-8,6]],[[1744,1220],[-46,33],[-9,73],[65,48]],[[1754,1374],[83,14],[42,105],[87,4],[-7,51]],[[1959,1548],[72,11],[49,-33],[96,17],[16,25],[64,-36],[54,62],[-19,38]],[[2291,1632],[104,-1]],[[3546,1160],[-174,-83],[-43,-50]],[[3329,1027],[-34,54],[-57,4],[-45,-43],[-195,37]],[[2998,1079],[44,76],[31,84],[36,5],[37,50],[-45,59],[-68,44]],[[3033,1397],[38,63],[85,-38],[36,-30],[119,-9],[67,-59],[44,9],[21,-68],[75,-2],[28,-103]],[[2998,1079],[-30,-18],[-74,65],[-161,26]],[[2733,1152],[28,82],[3,61],[-43,112],[18,66],[-39,20],[-19,71],[-64,5],[-57,-47]],[[2560,1522],[-50,85],[0,67]],[[2510,1674],[30,-4],[30,45]],[[2570,1715],[34,52],[87,23],[98,-76],[41,61],[-46,69]],[[2784,1844],[70,-33],[61,8]],[[2915,1819],[27,-26],[-12,-62],[16,-117],[29,-28],[49,-78],[-40,-100],[49,-11]],[[1419,1178],[82,-74],[57,37],[52,-9],[48,25]],[[1658,1157],[27,-33],[-3,-121],[-18,-58]],[[1664,945],[-137,-59],[-112,-102],[-81,-45],[-120,-98],[-33,-84],[3,-106],[-21,-58],[9,-74],[-15,-58]],[[1157,261],[-179,53]],[[978,314],[-63,39],[-67,18],[-8,26]],[[840,397],[26,17],[17,75],[83,66],[78,17],[-34,70],[-91,30],[-43,-61],[-58,52],[-29,-5],[-20,151],[-16,43]],[[753,852],[60,1],[106,37],[138,14],[11,33],[55,19],[15,140],[-16,47]],[[1122,1143],[65,37]],[[1187,1180],[30,-63],[35,-2],[53,30],[25,56],[58,17],[31,-40]],[[2379,1356],[128,6],[-5,70],[35,33],[23,57]],[[2733,1152],[-122,-19],[-60,13],[-33,-13],[-119,-5]],[[3546,1160],[85,-50]],[[3702,899],[-90,-20],[30,67],[-51,33],[-65,-3],[-77,-56],[-26,16]],[[3423,936],[7,52],[-91,7],[-10,32]],[[3921,351],[-52,-78],[44,-135],[84,-17],[9,-37],[-21,-74],[-42,17],[-120,-27],[-32,21],[-131,-12],[-28,100],[36,43],[19,75],[-23,105]],[[1754,1374],[-36,8],[-56,-25],[-84,2],[-64,61],[-90,-60]],[[1424,1360],[-41,-37],[-50,80],[-55,-13]],[[1278,1390],[-15,56],[-44,47],[-26,57],[32,65],[-1,77],[-20,20],[12,82],[-37,95],[0,58]],[[1179,1947],[70,6],[45,56]],[[1294,2009],[70,-16],[12,-26],[94,15],[55,60],[45,13],[66,-27],[-2,-30]],[[1634,1998],[15,-72]],[[1649,1926],[-5,-20],[45,-127],[84,-80],[18,-48],[-39,-42],[25,-59],[130,27],[52,-29]],[[2295,2476],[3,-4],[46,-38],[60,-23],[5,-90],[-12,-72]],[[2397,2249],[29,-137]],[[2426,2112],[-5,-76],[-38,-54],[21,-80],[-32,-192],[14,-40]],[[2386,1670],[9,-39]],[[2291,1632],[-31,73],[-5,62],[-107,77],[-52,-42],[-70,44],[-18,44],[-59,31],[-175,49],[-63,-5],[-12,-32],[-50,-7]],[[1634,1998],[45,44],[231,21],[80,15],[13,83],[-43,25],[-46,82],[-30,80]],[[1884,2348],[102,84],[63,14],[79,-107],[63,-9],[49,-40],[33,69],[-15,50],[37,67]],[[2826,2431],[39,-16],[23,-99]],[[2888,2316],[24,-254],[44,-87],[-39,-82],[-2,-74]],[[2784,1844],[10,112],[25,42],[-18,98],[-76,-2]],[[2725,2094],[-9,63]],[[2716,2157],[21,17],[-50,174]],[[2687,2348],[71,32],[68,51]],[[2510,1674],[-124,-4]],[[2426,2112],[124,22],[91,-32],[75,55]],[[2725,2094],[-75,-9],[-71,-61],[-9,-85],[17,-85],[-17,-139]],[[2397,2249],[72,-5],[40,41],[60,12],[22,47],[50,55],[46,-51]],[[753,852],[-56,62],[-122,-26],[-81,31],[-32,48]],[[462,967],[32,131],[41,122]],[[535,1220],[68,16],[26,61],[67,20],[53,41],[62,-27],[51,18],[165,13]],[[1027,1362],[-31,-47],[42,-39],[32,-108],[52,-25]],[[3466,735],[-2,-1],[-5,-1],[17,17],[-39,66],[-14,120]],[[2167,1108],[-93,-39],[-225,-55]],[[1849,1014],[-32,118],[-27,-6],[-38,88]],[[1849,1014],[-102,-29],[-83,-40]],[[1658,1157],[86,63]],[[1419,1178],[34,37],[-33,116],[4,29]],[[1187,1180],[-39,84]],[[1148,1264],[74,49],[51,11],[5,66]],[[1148,1264],[-34,64],[-76,33]],[[1038,1361],[42,68],[11,75],[-16,42],[-113,58],[1,103],[31,18],[-28,58],[36,53],[107,97],[70,14]],[[784,2361],[43,-84],[65,-20],[52,-41],[30,-48],[64,-13],[63,7],[19,42],[52,10],[43,-54],[48,5],[28,-25]],[[1291,2140],[18,-59],[-15,-72]],[[1038,1361],[-11,1]],[[535,1220],[-40,53],[-15,77],[22,50],[-28,21],[-5,89],[-38,55],[16,94],[-43,29],[-49,-11],[-77,20],[-16,-19],[-262,-8],[9,68],[40,25],[26,70],[-17,72],[52,71],[114,85],[103,10],[52,63],[102,6],[35,34],[66,6],[16,50],[33,14],[37,54],[11,65],[74,-14],[31,12]],[[840,397],[-143,-95],[-74,-58],[-46,-5]],[[577,239],[-26,42],[-41,3],[-64,47],[-72,70],[0,75],[-43,131],[-18,14],[14,25],[-23,53],[5,102],[55,92],[38,42],[60,32]],[[1157,261],[42,-73],[-9,-98],[-32,-21]],[[1158,69],[-56,68],[13,40],[-137,137]],[[1158,69],[-29,14],[-62,-10],[-44,-50],[-113,-7],[-90,31],[-36,-6],[-138,41],[-49,-6],[-21,69],[16,27],[-15,67]],[[1738,2571],[9,28],[91,20],[50,-26],[51,66],[42,1],[45,-31],[22,-44],[52,-41],[43,37],[152,-105]],[[1884,2348],[-62,23],[-14,47],[-56,39],[-28,61],[14,53]],[[1291,2140],[20,54],[134,147],[38,4],[122,138],[-14,38],[51,12],[45,-15],[51,53]],[[4165,2243],[-97,-60],[-103,-40],[-31,54],[10,-39],[-129,-9],[-34,-69],[-24,-1],[10,-61],[46,-10],[40,-55],[28,39],[34,-29],[35,29],[58,-62],[48,-15],[-27,-80],[-39,-66],[8,-34],[-52,-51],[-89,65],[-54,-9],[16,-56],[-68,-16],[22,-63],[-38,-41],[24,-7],[62,49],[39,-20],[-38,-59],[24,-31],[2,-85],[32,-40],[0,-74],[-122,-37],[-11,-69]],[[2888,2316],[90,11],[-41,46],[50,57],[1,97],[-34,48],[11,28],[-14,76],[-49,6],[-2,60]],[[2900,2745],[68,10]],[[2968,2755],[43,-63],[83,91]],[[3094,2783],[31,-40],[47,10],[38,71],[-13,65],[153,-33],[49,-54],[14,-47],[221,-43],[18,-23],[104,2],[79,-10],[52,-32],[-15,-101],[58,-37],[58,43],[38,1],[-6,-54],[26,-32],[42,-130],[35,-9],[42,-87]],[[4078,2081],[39,-65],[-35,-33],[-118,68],[-2,29],[103,44],[13,-43]],[[4238,2109],[-66,-35],[-65,92],[75,47]],[[4182,2213],[56,-104]],[[4062,1733],[-5,-67],[-44,-43],[-59,62],[48,46],[60,2]],[[3094,2783],[-68,44],[2,23],[-92,84],[-29,9],[-39,52],[-57,-11],[-19,27],[78,81],[63,-35],[26,-56],[41,-35],[45,2],[-14,79],[44,35],[59,12],[57,114],[191,-64],[48,-52],[100,-38],[34,0],[81,-17],[100,-54],[63,-58],[62,-51],[43,-2],[32,-32],[37,-119],[25,-29],[114,-52],[-26,-75],[28,-31],[73,9],[46,35],[45,-16],[25,26],[89,-4],[105,-64],[58,-63],[21,-71],[-112,3],[-48,105],[-78,-72],[14,-77],[-196,-102]],[[4478,2341],[40,-42],[-174,-93],[-49,60],[131,72],[52,3]],[[4182,2213],[104,55],[3,-47],[36,-66],[-87,-46]],[[4418,2460],[33,-72],[-74,-26],[-15,66],[56,32]],[[2900,2745],[32,69],[72,18],[-36,-77]],[[784,2361],[103,17],[45,62],[51,32],[52,74],[-10,72],[86,81],[-4,117],[-33,38],[42,48],[23,135],[-54,52],[18,114],[-51,82],[74,109],[83,-33],[76,7],[29,-39],[11,-65],[52,-38],[64,12],[34,35],[93,-47],[-1,-55],[25,-72],[45,-34],[5,-36],[117,-82],[66,5],[21,44],[74,25],[51,-9],[34,-36],[78,-12],[34,14],[91,-14],[123,-33],[156,-88],[42,-4],[11,-45],[41,-14],[48,-86],[55,-73],[86,-58],[69,-83],[-13,-49]]],"transform":{"scale":[0.00019087399718357997,0.00015741135683933343],"translate":[138.9164029177606,35.13774044096874]},"objects":{"japan":{"type":"GeometryCollection","geometries":[{"arcs":[[[0,1,2,3,4,5]],[[6]]],"type":"MultiPolygon","properties":{"pref":"神奈川県","city":"横須賀市","code5":"14201","code6":"142018"}},{"arcs":[[7,8,9,10,11,12,13,14,15]],"type":"Polygon","properties":{"pref":"神奈川県","city":"平塚市","code5":"14203","code6":"142034"}},{"arcs":[[16,17,18,19]],"type":"Polygon","properties":{"pref":"神奈川県","city":"鎌倉市","code5":"14204","code6":"142042"}},{"arcs":[[-19,20,21,22,23,24,25,26]],"type":"Polygon","properties":{"pref":"神奈川県","city":"藤沢市","code5":"14205","code6":"142051"}},{"arcs":[[27,28,29,30,31,32,33,34,35]],"type":"Polygon","properties":{"pref":"神奈川県","city":"小田原市","code5":"14206","code6":"142069"}},{"arcs":[[-9,36,-22,37]],"type":"Polygon","properties":{"pref":"神奈川県","city":"茅ヶ崎市","code5":"14207","code6":"142077"}},{"arcs":[[38,-6,39,40,-17]],"type":"Polygon","properties":{"pref":"神奈川県","city":"逗子市","code5":"14208","code6":"142085"}},{"arcs":[[-3,41]],"type":"Polygon","properties":{"pref":"神奈川県","city":"三浦市","code5":"14210","code6":"142107"}},{"arcs":[[-14,42,43,44,45,46,47,48]],"type":"Polygon","properties":{"pref":"神奈川県","city":"秦野市","code5":"14211","code6":"142115"}},{"arcs":[[49,50,51,52,-16,53,-48,54,55]],"type":"Polygon","properties":{"pref":"神奈川県","city":"厚木市","code5":"14212","code6":"142123"}},{"arcs":[[56,57,-26,58,59,60,61]],"type":"Polygon","properties":{"pref":"神奈川県","city":"大和市","code5":"14213","code6":"142131"}},{"arcs":[[-15,-49,-54]],"type":"Polygon","properties":{"pref":"神奈川県","city":"伊勢原市","code5":"14214","code6":"142140"}},{"arcs":[[-24,62,-52,63,-60,64]],"type":"Polygon","properties":{"pref":"神奈川県","city":"海老名市","code5":"14215","code6":"142158"}},{"arcs":[[65,-61,-64,-51]],"type":"Polygon","properties":{"pref":"神奈川県","city":"座間市","code5":"14216","code6":"142166"}},{"arcs":[[-34,66,67,68,69]],"type":"Polygon","properties":{"pref":"神奈川県","city":"南足柄市","code5":"14217","code6":"142174"}},{"arcs":[[-25,-65,-59]],"type":"Polygon","properties":{"pref":"神奈川県","city":"綾瀬市","code5":"14218","code6":"142182"}},{"arcs":[[-5,70,-40]],"type":"Polygon","properties":{"pref":"神奈川県","county":"三浦郡","city":"葉山町","code5":"14301","code6":"143014"}},{"arcs":[[-8,-53,-63,-23,-37]],"type":"Polygon","properties":{"pref":"神奈川県","county":"高座郡","city":"寒川町","code5":"14321","code6":"143219"}},{"arcs":[[-11,71,72]],"type":"Polygon","properties":{"pref":"神奈川県","county":"中郡","city":"大磯町","code5":"14341","code6":"143413"}},{"arcs":[[-12,-73,73,-29,74]],"type":"Polygon","properties":{"pref":"神奈川県","county":"中郡","city":"二宮町","code5":"14342","code6":"143421"}},{"arcs":[[-13,-75,-28,75,-43]],"type":"Polygon","properties":{"pref":"神奈川県","county":"足柄上郡","city":"中井町","code5":"14361","code6":"143618"}},{"arcs":[[-36,76,77,-44,-76]],"type":"Polygon","properties":{"pref":"神奈川県","county":"足柄上郡","city":"大井町","code5":"14362","code6":"143626"}},{"arcs":[[-45,-78,78,79]],"type":"Polygon","properties":{"pref":"神奈川県","county":"足柄上郡","city":"松田町","code5":"14363","code6":"143634"}},{"arcs":[[80,81,-46,-80,82,-69,83]],"type":"Polygon","properties":{"pref":"神奈川県","county":"足柄上郡","city":"山北町","code5":"14364","code6":"143642"}},{"arcs":[[-35,-70,-83,-79,-77]],"type":"Polygon","properties":{"pref":"神奈川県","county":"足柄上郡","city":"開成町","code5":"14366","code6":"143669"}},{"arcs":[[-33,84,85,-67]],"type":"Polygon","properties":{"pref":"神奈川県","county":"足柄下郡","city":"箱根町","code5":"14382","code6":"143821"}},{"arcs":[[-31,86,87]],"type":"Polygon","properties":{"pref":"神奈川県","county":"足柄下郡","city":"真鶴町","code5":"14383","code6":"143839"}},{"arcs":[[-32,-88,88,-85]],"type":"Polygon","properties":{"pref":"神奈川県","county":"足柄下郡","city":"湯河原町","code5":"14384","code6":"143847"}},{"arcs":[[89,-56,90]],"type":"Polygon","properties":{"pref":"神奈川県","county":"愛甲郡","city":"愛川町","code5":"14401","code6":"144011"}},{"arcs":[[91,-91,-55,-47,-82]],"type":"Polygon","properties":{"pref":"神奈川県","county":"愛甲郡","city":"清川村","code5":"14402","code6":"144029"}},{"arcs":[[[92,-1,-39,-20,-27,-58,93,94,95,96]],[[97]],[[98,99]],[[100]]],"type":"MultiPolygon","properties":{"pref":"神奈川県","city":"横浜市","code5":"14100","code6":"141003"}},{"arcs":[[[-97,101]],[[102]],[[-100,103]],[[104]],[[-95,105]]],"type":"MultiPolygon","properties":{"pref":"神奈川県","city":"川崎市","code5":"14130","code6":"141305"}},{"arcs":[[-92,-81,106,-62,-66,-50,-90]],"type":"Polygon","properties":{"pref":"神奈川県","city":"相模原市","code5":"14150","code6":"141500"}}]}}}