{"type":"Topology","arcs":[[[6027,6166],[61,19],[59,-21]],[[6147,6164],[16,-38],[-35,-95],[4,-50]],[[6132,5981],[-62,5],[-29,-45],[-5,-104],[109,-119],[29,42],[49,13],[3,-61],[74,-111],[-63,-61],[29,-30],[51,8],[56,39],[154,56]],[[6527,5613],[-1,-103],[-38,-75]],[[6488,5435],[15,-104],[-26,-49],[19,-75],[52,-59],[-31,-40],[20,-33],[-20,-63],[36,-58],[41,-31],[-26,-42],[66,-10],[-1,-72],[80,-24],[87,2],[24,-31],[17,-85],[42,-12],[86,36],[-47,98],[111,63],[43,-9],[16,96],[39,19],[22,62]],[[7153,5014],[142,26],[105,-54],[88,20],[86,4],[62,-24],[103,-68],[-37,-60],[-13,-57],[16,-43],[-54,-57],[-37,-9],[-4,-46],[30,-114],[152,-149],[4,-106]],[[7796,4277],[-149,-2],[-73,-39],[-99,14],[-34,51],[-46,-34],[14,-42],[-108,-24],[-53,-59],[-23,-66],[-105,-42],[-133,78],[-35,-62],[-28,-5],[1,-84],[-29,-95],[-97,-41],[37,-89],[-5,-42],[-39,-34],[11,-54],[-38,-49],[-80,-20]],[[6685,3537],[20,34],[-47,45],[-157,60],[-45,38],[54,122],[-43,73],[-84,-56],[-106,-31],[-53,6],[-11,116],[-52,61],[-50,2],[-43,40],[10,40],[-109,28],[-55,-59],[-34,-103],[11,-75],[-40,-131],[16,-62],[-16,-33],[17,-45],[-26,-28],[-14,-82],[24,-35],[-44,-35],[21,-72],[-80,-114],[-14,-83],[-24,-27]],[[5711,3131],[-33,35],[-83,-11],[-148,25]],[[5447,3180],[-73,172],[-88,122],[0,70],[41,28],[34,71],[-8,29],[56,93],[45,5],[30,88],[41,42],[50,10],[10,51],[70,92],[18,78],[-100,94]],[[5573,4225],[49,113],[-58,39],[1,43],[-32,37]],[[5533,4457],[39,114],[31,60],[56,70],[34,69]],[[5693,4770],[35,26],[54,-7],[6,42],[-32,36],[43,44],[0,38],[53,4],[49,109],[-41,49],[-66,38],[42,96],[-137,22],[20,79]],[[5719,5346],[32,84],[82,93],[97,243],[82,305],[15,95]],[[6634,3508],[-13,-50],[-39,-11],[-20,-91],[28,-62],[-27,-75],[-33,-22],[-6,-99],[-49,-26],[-11,-77],[-58,-32],[-49,-116],[-71,-52]],[[6286,2795],[9,73],[-16,114]],[[6279,2982],[43,44],[-23,67],[-32,22],[28,102],[65,11],[17,34],[-57,80],[-78,79],[49,48],[41,116],[31,48],[180,-52],[25,-61],[66,-12]],[[8467,4548],[-72,-47],[-76,22],[-52,-63],[-29,-62],[4,-75],[-58,-40]],[[8184,4283],[-131,-3],[-44,19],[-82,-58],[-29,-39],[-79,21],[-23,54]],[[7153,5014],[2,45],[-96,47],[19,62],[-52,76],[-43,-45],[-12,-58],[-59,-32],[-41,50],[-12,45],[-50,-9],[-34,59],[-93,11],[-62,57],[-40,57],[-65,65],[-27,-9]],[[6527,5613],[24,19],[68,-3],[110,53],[69,0],[13,29],[-41,32],[-5,94],[53,-46],[91,64],[11,93],[57,50]],[[6977,5998],[136,-6]],[[7113,5992],[74,-13],[18,-26],[-28,-52],[97,-72],[19,-41],[40,-17],[22,-89],[-37,-73],[45,-41],[60,20],[31,-29],[94,-3],[1,-71],[47,-41],[72,6],[48,-25],[-1,-53],[76,-12],[59,-87],[215,-69],[112,-6],[75,39],[116,-13]],[[8368,5224],[52,-60],[28,-71],[58,-16],[-16,-59],[23,-46],[-1,-45],[74,23],[11,-38]],[[8597,4912],[59,-14],[14,-63],[43,-81],[-79,-8],[-36,-52],[-99,-70],[-32,-76]],[[5447,3180],[-18,-52],[32,-43],[-25,-25],[0,-68],[-114,-119],[-7,-74],[-51,-16],[-83,31],[-27,-12],[0,-85],[-34,1],[-65,45],[-82,-31],[-97,24]],[[4876,2756],[16,55],[-78,71],[11,53],[-39,20],[-63,-21],[-46,44],[-6,75],[-114,75],[56,60],[-3,51],[26,39],[78,60],[-27,69],[-35,23],[-57,-21],[-66,43],[-49,52],[-88,10],[-154,44],[-55,31],[-55,-45],[-26,77]],[[4102,3621],[100,99],[48,13],[78,78],[18,-5],[111,67],[15,33],[61,3],[78,31],[61,56],[90,20],[79,93],[151,238],[19,51],[90,164],[47,118],[-2,69],[67,18],[158,232]],[[5371,4999],[72,0],[30,-40],[-38,-59],[13,-80],[119,20],[126,-70]],[[5533,4457],[-55,-30],[-11,-67],[106,-135]],[[5216,4557],[-66,-18],[-79,-52],[-19,-40],[43,-41],[-39,-100],[-50,-79],[14,-19],[85,26],[64,-4],[56,71],[71,-37],[99,-10],[24,36],[-128,122],[-69,20],[54,123],[-60,2]],[[10448,7351],[47,-87],[96,-53],[2,-52],[115,-76],[9,-29],[6,-1]],[[10723,7053],[-44,-55],[-69,-33],[-80,-23],[-62,22],[-70,-16],[-48,-35],[-16,-37],[-119,-51],[-87,2],[-64,-46],[-31,16],[-78,-15],[-11,-48],[-47,-22],[-90,24],[-91,-20],[-41,20],[-72,-39],[-70,22],[-61,75],[-104,68],[-66,-16],[-109,79],[-148,-31]],[[9045,6894],[-11,19],[51,134],[-47,8],[-22,41],[-59,12],[-94,55],[-87,-36],[-59,-6],[-100,75],[-42,58],[-7,43],[-53,44]],[[8515,7341],[26,62],[-18,40],[-75,51],[11,109],[50,28],[-57,55],[-31,2]],[[8421,7688],[76,55],[61,-12],[127,13],[29,75],[37,18],[42,99],[-74,23],[-70,-24],[-79,57],[152,121],[-52,61],[-9,46]],[[8661,8220],[132,121]],[[8793,8341],[47,-80],[148,-110],[28,3],[21,75],[117,8],[36,-32],[51,17],[97,-67],[89,13],[83,-40],[51,-50],[74,9],[14,-40],[45,-2],[40,-31],[4,-89],[-18,-50],[-6,-86],[14,-84],[61,-70],[43,-109],[-62,-126],[37,-80],[179,-26],[60,-16],[33,-52],[-16,-67],[60,-14],[96,15],[51,39],[55,67],[3,37],[120,48]],[[6685,3537],[-51,-29]],[[6279,2982],[-74,61],[-132,10],[-96,19],[-86,-28],[-143,14],[-31,24],[-6,49]],[[7113,5992],[-14,36],[14,65],[43,51],[83,44],[42,-31],[1,-71],[39,-7]],[[7321,6079],[40,-56],[32,-86],[121,19],[122,39],[30,-4]],[[7666,5991],[8,-63],[50,-57],[-2,-56],[60,31],[71,0],[-13,-38],[12,-55],[29,-30],[4,-51],[54,-22],[20,-110],[69,-29],[12,-31],[55,2],[74,93],[51,-20],[76,-56],[4,-50],[29,-77],[32,-28],[14,-60],[-7,-60]],[[6286,2795],[52,-70]],[[6338,2725],[49,-45],[34,-63],[39,3],[35,-55],[-25,-45],[-56,-13],[-8,-39],[-89,-42],[-35,-97],[-24,-8],[-32,-95],[35,-66],[-99,-61],[2,-50],[-43,-33],[-10,-61],[-50,-91],[-21,-1],[-34,-85],[-32,-43],[-22,-167],[-34,-38],[21,-90],[54,-35]],[[5993,1405],[-32,-72],[-53,-71],[-50,-28],[-79,-117],[-39,-21],[10,-43],[-95,-131],[-4,-50],[-70,-36]],[[5581,836],[-41,53],[-94,30],[-34,69],[-43,23],[-33,71],[43,39],[-1,91],[15,48],[52,46],[82,49],[-3,-67],[73,43],[41,7],[25,88],[-42,49],[3,75],[-52,60],[3,82],[-41,75],[-35,-21],[-5,119],[43,38],[-48,91],[16,43],[-97,52],[-119,-56],[-9,-46],[-88,-50],[-143,-16],[-59,-53],[-52,3],[-61,-62]],[[4877,1809],[-70,15],[-84,-18],[-62,60]],[[4661,1866],[2,25],[80,67],[-19,71],[-4,100],[45,89],[-51,37],[-3,46],[-58,81],[32,78],[-21,32],[21,57],[67,8],[37,50],[67,54],[20,95]],[[10021,11539],[46,-49],[203,-117],[21,-29],[76,25],[91,-28],[48,-70],[66,-24],[47,9],[109,-22],[53,12],[45,-33],[100,-34],[27,-62],[-51,-48],[-21,-46],[16,-78],[26,-56],[-19,-118],[3,-70],[-58,-85],[-6,-90],[39,-42],[51,45],[48,-80],[9,-63],[102,-79],[49,13],[47,-52],[70,1],[29,-27],[73,40],[68,6],[47,-36],[9,-34],[111,-14],[-3,-40],[92,-68],[50,-57],[23,-85],[48,-16],[55,-49],[5,-111],[-122,-89],[-5,-61],[-37,-26],[-44,-108],[-69,-41],[-44,-7],[-101,-68],[-44,-8],[-56,-58],[-100,-52],[-27,25],[-64,5],[-29,-37],[-60,21],[-43,36],[-38,-8],[-95,37],[-78,-74],[-10,-53],[-73,-108],[12,-65]],[[10738,9039],[-80,-10],[-78,67],[-51,-24],[-39,7],[-116,-11],[-146,36],[-54,-56],[-84,-25],[-24,-53],[-57,-4],[-40,20],[-47,-12],[-44,-44],[-51,8],[-38,-56],[55,-49],[-54,-22],[-11,-47],[56,-48],[-60,-103],[-58,-49]],[[9717,8564],[-18,-38],[-87,17],[-136,88],[-8,47],[-64,-33],[-83,73],[19,25],[-50,49],[4,186]],[[9294,8978],[27,63],[82,137],[-10,102],[46,115],[66,118],[4,49],[-46,34],[39,166],[-5,70],[17,159],[-12,23],[19,153],[-8,156],[49,128],[-27,52],[39,71],[27,103],[78,104],[-4,40],[69,92],[33,93],[31,52],[4,46],[34,39],[38,96],[84,118],[64,121],[-11,61]],[[6132,5981],[18,-26],[87,-23],[90,-9],[25,-69],[40,96],[69,-14],[18,92],[-28,41],[30,28],[-36,66]],[[6445,6163],[35,30],[148,18],[62,27],[15,75],[94,1],[-11,-59],[51,-7],[31,-27],[-3,-71],[52,-10],[54,14],[-23,-80],[57,-26],[9,-43],[-39,-7]],[[2448,1491],[2,-27],[52,-69],[-26,-60],[-38,7],[-110,-36],[-63,-126],[-71,-5],[-62,-20],[-46,18],[-47,-62],[-46,-6],[-9,-41]],[[1984,1064],[-57,6],[-59,36],[-79,-15],[-36,16],[-38,-55],[-48,18],[-31,51],[-79,8],[-65,35],[-46,-12],[-93,-51],[-77,18],[-20,20],[-59,-19],[-5,-38],[47,-27],[-52,-75],[25,-23],[10,-60],[50,-29],[-23,-61],[-27,-6],[-65,-84],[5,-36],[-61,-58],[-74,-107],[0,-62],[-43,-13],[-15,-49],[-140,-74],[-9,-47],[-50,-40],[-33,4],[-57,-37],[-12,-10],[-24,53],[-43,33],[24,107],[-49,119],[-68,53],[13,49],[-8,87],[12,65],[-16,117],[-38,27],[-62,101],[-3,65],[28,24],[1,94],[13,26],[-37,53],[-12,58],[-66,-12],[-58,6],[-111,66],[-45,39],[-32,59],[-87,68],[85,5],[151,64],[107,24],[350,147],[244,79],[81,62],[88,30],[204,49],[144,55],[146,92],[46,67],[64,17],[63,38],[13,27],[67,35],[86,70],[63,-8],[54,17],[111,71],[59,98],[41,31]],[[2267,2615],[87,-173],[-10,-79],[-36,-37],[-6,-73],[33,-4],[34,-71],[-10,-65],[54,-46],[-39,-201],[-4,-100],[36,-122],[10,-73],[-12,-49],[44,-31]],[[2448,1491],[26,31],[87,-65],[27,-40],[69,-27],[54,-70],[76,20],[52,-10],[83,11],[69,30],[81,-73],[50,24],[-2,38],[49,38],[13,67],[41,70],[-36,76],[26,66],[1,68],[-55,-20],[-58,-79],[-44,31],[-178,-100],[-54,-89],[-67,0],[-45,-39],[-122,76],[11,81],[45,49],[-27,158],[15,57],[49,3],[61,30],[19,57],[75,-12],[33,10],[-39,90],[162,58],[56,-19],[95,18],[90,-16],[140,-13],[-63,-81],[81,-59],[-14,-36],[45,-113],[-10,-37],[51,-93],[173,-33],[69,-41],[27,-59],[76,-5],[85,30]],[[3896,1549],[-14,-52],[-64,-120],[4,-58],[-36,-66],[-46,-31],[-30,-52],[-73,39],[-61,-11],[-112,-91],[-31,-89],[47,-64],[-56,-116],[40,-65],[-45,-80],[-67,-31],[-23,22],[7,69],[-18,34],[-100,31],[-104,-7],[-86,26],[-38,-59],[-53,-34],[-93,-12],[-6,-21],[-73,-27],[-112,19],[-50,22],[-34,-17],[-54,15],[-46,-42],[-37,-2],[-53,-49],[-40,-37],[-44,-83],[11,-40],[-37,-43],[-83,-24],[-2,47],[-95,9],[-26,53],[-62,11],[-71,48],[57,78],[30,22],[-22,65],[4,51],[79,112],[-3,84],[-81,12],[-10,69]],[[7716,6284],[18,55],[50,-9],[54,32],[11,62],[75,51],[-1,47],[123,41],[-10,31],[60,19],[39,-23]],[[8135,6590],[123,-62],[75,-82],[-12,-41],[42,-20],[33,26],[126,-17],[120,-51],[13,16]],[[8655,6359],[30,4],[19,-58],[-57,-53],[-2,-86],[-25,-33],[34,-42],[78,-3],[43,-48],[-12,-79],[32,-50],[53,-31],[-11,-94],[35,-52],[102,-60],[-25,-118],[27,-66],[-50,-30],[-85,1],[15,-46],[-88,-153],[25,-74],[37,-17],[8,-46],[-73,-76],[-34,-9],[-57,-76],[-77,-52]],[[7666,5991],[35,132],[-61,58],[35,71],[41,32]],[[4661,1866],[-26,-16],[-96,-17],[-51,-30],[-54,7],[-70,-23],[-68,11],[-124,-86],[-102,-26],[-5,-21],[-90,-23],[-16,-42],[-63,-51]],[[2267,2615],[80,62],[45,78],[53,24],[110,-24],[47,-39],[105,-19],[134,19],[102,38],[55,-13],[128,39],[174,150],[66,89],[41,-49],[159,131],[208,191],[328,329]],[[9045,6894],[13,-44],[-44,-35],[-148,-193],[-16,-54],[-51,-30],[-83,-25],[-49,-32],[14,-82],[-26,-40]],[[8135,6590],[4,31],[-61,6],[-17,47],[33,79],[-9,33],[-120,17],[-24,48],[65,52],[61,-10],[-5,66],[-81,26],[-30,38],[33,54],[100,91],[73,-18],[32,26],[183,-10],[16,66],[47,5],[21,89],[33,-42],[26,57]],[[4547,10137],[63,-1],[32,-62],[-46,-49],[-23,-121],[7,-68],[-6,-136],[-26,-144],[-49,-100],[-14,-145],[-49,-61],[-27,-80],[-87,-117],[-52,-98],[-16,-79],[-62,-120],[13,-83],[-17,-50],[11,-75],[76,-65],[153,-61],[62,48],[72,16],[80,-6],[77,46],[91,16],[41,33],[40,-15],[21,-138],[-28,-41],[-19,-87],[-53,-70],[-37,-147],[-38,-30],[-142,-273],[-49,-104],[5,-45],[-24,-109],[-48,0],[-89,-107],[-12,-37],[-115,-42],[-37,-45],[-76,-23],[-85,-68],[-2,-37],[-54,-16],[-98,-110],[-115,-82],[-183,-38],[-20,15],[-86,-1],[-66,-29],[-145,-101],[-76,-20],[-70,29],[-30,-9],[-81,27],[-56,62],[16,52],[49,56],[43,-11],[37,21],[69,-4],[23,33],[52,-11],[50,40],[58,95],[51,144],[-3,72],[-57,67],[35,81],[82,72],[24,52],[125,64],[18,41],[58,59],[-13,78],[-119,136],[-63,39],[-106,8],[-63,-28],[-8,-62],[-56,-49],[-47,-130],[-136,98],[39,27],[4,73],[-12,86],[-61,35],[35,55],[43,15],[14,38],[-20,47],[15,51],[-25,97],[39,30],[38,58],[-43,30],[23,52],[90,58],[-6,24],[63,83],[-6,43],[100,78],[6,56],[57,59],[7,86],[43,20],[19,63],[57,98],[130,66],[113,102],[20,44],[58,32],[15,42],[77,66],[60,29],[64,2],[45,49],[-1,51],[35,48],[-20,58],[61,88],[8,50],[56,41],[-2,54],[52,-8],[108,63],[47,1]],[[8397,2867],[35,-43],[-7,-68],[51,-58],[-38,-104],[-13,-113],[-41,-84],[17,-149],[53,-58],[-9,-67],[54,-94],[11,-80],[-57,-79],[0,-44],[-27,-56],[40,-67],[14,-91],[-8,-87],[-22,-33],[17,-60],[-49,-82],[-8,-50],[-44,-4],[30,37],[-47,94],[-53,-3],[-69,-30],[-132,54],[-26,58],[22,109],[-44,71],[-113,52],[-22,56],[-70,43],[-47,136],[-40,2],[-21,49],[-75,22]],[[7659,2046],[4,49],[-75,52],[-36,75],[22,35],[-12,42],[-3,111],[-12,40],[14,57],[-79,15],[-43,56],[-81,13],[-68,31],[6,104],[-34,14],[8,79],[-29,47],[-76,-2],[-53,41],[-68,5],[-83,-18],[-43,-40],[-12,-65],[-75,-23],[-58,57],[87,111],[-62,67],[-93,-50],[-38,-43],[21,-56],[-37,-68],[-77,-19],[-23,38],[-18,86],[-50,21],[-25,-48],[-57,-65],[-48,-18],[-15,-52]],[[8184,4283],[25,-13],[30,-79],[40,-32],[34,13],[51,-38],[-1,-45],[35,-46],[-24,-101],[1,-86],[-29,-2],[-54,-59],[22,-120],[-33,-41],[-18,-142],[-36,-17],[-72,-90],[-89,-83],[-52,-107],[6,-47],[90,-93],[21,-49],[40,-37],[10,-63],[45,1],[41,35],[25,62],[44,-38],[11,-40],[50,-59]],[[7659,2046],[-35,-87],[-8,-102],[12,-57],[-56,-72],[-36,0],[-123,-87],[-12,-46],[-91,-25],[-78,29],[-78,-58],[-161,14],[-18,-16],[-2,-135],[-12,-31],[16,-139],[52,-64],[-12,-48],[28,-55],[-3,-85],[-40,-25],[-94,51],[-111,-11]],[[6797,997],[-35,72],[2,51],[-52,63],[-15,58],[-80,28],[7,28],[-52,55],[-74,12],[-56,-24],[-30,15],[-21,64],[-74,0],[-14,-37],[-94,-19],[-20,38],[-49,32],[-119,11],[-28,-39]],[[10425,7508],[7,-59],[29,-65],[-13,-33]],[[8793,8341],[190,203],[193,261],[118,173]],[[9717,8564],[41,24],[57,1],[26,-35],[57,-3],[12,-52],[-21,-75],[22,-83],[51,-54],[15,-56],[-31,-56],[-13,-66],[61,-42],[15,-52],[39,-17],[63,-72],[-12,-117],[-30,-23],[28,-42],[-5,-73],[34,-78],[90,21],[112,1],[20,-57],[77,-50]],[[8421,7688],[-57,9],[21,47],[-13,65]],[[8372,7809],[4,38],[-44,128],[10,45],[73,50],[24,-15],[162,114],[60,51]],[[6147,6164],[42,73],[87,-25],[60,2],[37,-36],[72,-15]],[[7321,6079],[0,46],[50,61],[27,58],[76,56],[36,15],[74,-25],[27,31],[59,15],[46,-52]],[[10723,7053],[83,6],[68,42],[22,-11],[0,-17],[7,-22],[22,-44],[44,-53],[37,-21],[29,-65],[-69,-35],[-35,-17],[-42,-67],[-45,-20],[-44,-68],[-86,-64],[-60,-75],[-12,-39],[-45,-13],[-3,-90],[-40,-75],[-35,-9],[-97,-123],[-14,-54],[34,-50],[-99,-49],[-44,-98],[-64,-10],[-106,-89],[-101,-26],[13,-78],[-30,-50],[32,-65],[-19,-56],[31,-48],[42,-14],[9,-72],[33,-59],[7,-71],[-22,-36],[14,-150],[43,-57],[64,-14],[-29,-95],[-95,-67],[-126,61],[-120,12],[-33,-33],[-89,25],[-56,-15],[-54,-49],[-51,37],[-46,60],[-96,-29],[-55,6],[-74,-37],[-33,-101],[10,-55],[-21,-40],[3,-72],[-47,-40],[-63,24],[-89,11],[-31,29],[-59,-28],[-29,-34],[-56,-15],[-45,29],[-101,-24],[-108,-41],[-49,4],[-96,-36],[-40,34]],[[5371,4999],[84,94],[76,42],[117,87],[71,124]],[[6048,53],[-60,18],[-40,-10],[-89,56],[-138,58],[-30,-31],[3,-61],[-46,-66],[-41,-17],[-49,12],[-21,49],[-2,79],[-19,46],[-42,4],[-54,46],[11,63],[65,27],[61,134],[-79,96],[49,52],[2,85]],[[5529,693],[66,27],[18,58],[-32,58]],[[6797,997],[-10,-42],[-40,-22],[-30,-83],[26,-59],[-27,-77],[37,-11],[30,-62],[-4,-31],[-138,-35],[-121,-13],[-21,-41],[-129,-42],[-60,33],[-93,3],[38,-141],[4,-61],[-15,-86],[-48,-68],[-60,19],[-57,-41],[-31,-84]],[[5529,693],[16,43],[-26,52],[-63,42],[-100,5],[-34,41],[-144,65],[-29,46],[16,77],[-42,29],[-88,-10],[-36,53],[14,64],[-39,41],[19,286],[-9,63],[-56,62],[-51,157]],[[10738,9039],[30,-26],[6,-64],[-17,-67],[20,-138],[-50,-31],[-41,-105],[-13,-93],[74,0],[27,-36],[-27,-34],[33,-56],[-56,-48],[-38,-57],[-91,-20],[-27,-107],[11,-37],[-1,-116],[-48,-29],[-30,-48],[26,-29],[-30,-71],[35,-38],[-27,-66],[15,-35],[-19,-76],[-40,-29],[-35,-75]],[[8492,11145],[14,-54],[-26,-110],[-30,-75],[-113,-101],[-60,0],[41,64],[3,71],[79,79],[-6,23],[98,103]],[[6027,6166],[3,87],[39,64],[40,155],[46,92],[33,116],[134,181],[96,95],[50,46],[150,110],[103,59],[40,37],[64,29],[157,94],[173,112],[277,209],[23,34],[43,-13],[49,46],[78,17],[20,27],[79,-1],[72,24],[34,-13],[199,82],[96,26],[79,34],[20,38],[54,29],[32,-23],[62,-150]]],"transform":{"scale":[0.000190890848943634,0.00015741151321445952],"translate":[137.6349847466489,36.73657627887235]},"objects":{"japan":{"type":"GeometryCollection","geometries":[{"arcs":[[[0,1,2,3,4,5,6,7,8,9,10,11,12,13]],[[14,15,16]]],"type":"MultiPolygon","properties":{"pref":"新潟県","city":"長岡市","code5":"15202","code6":"152021"}},{"arcs":[[17,18,-6,19,-4,20,21,22,23,24]],"type":"Polygon","properties":{"pref":"新潟県","city":"三条市","code5":"15204","code6":"152048"}},{"arcs":[[-10,25,26,27,28,-12,29],[30]],"type":"Polygon","properties":{"pref":"新潟県","city":"柏崎市","code5":"15205","code6":"152056"}},{"arcs":[[31,32,33,34,35,36,37]],"type":"Polygon","properties":{"pref":"新潟県","city":"新発田市","code5":"15206","code6":"152064"}},{"arcs":[[-8,38,-17,39]],"type":"Polygon","properties":{"pref":"新潟県","city":"小千谷市","code5":"15208","code6":"152081"}},{"arcs":[[40,41,42,-23]],"type":"Polygon","properties":{"pref":"新潟県","city":"加茂市","code5":"15209","code6":"152099"}},{"arcs":[[-9,-40,-16,43,44,45,46,47,48,-26]],"type":"Polygon","properties":{"pref":"新潟県","city":"十日町市","code5":"15210","code6":"152102"}},{"arcs":[[-5,-20]],"type":"Polygon","properties":{"pref":"新潟県","city":"見附市","code5":"15211","code6":"152111"}},{"arcs":[[49,50,51,52]],"type":"Polygon","properties":{"pref":"新潟県","city":"村上市","code5":"15212","code6":"152129"}},{"arcs":[[-21,-3,53,54]],"type":"Polygon","properties":{"pref":"新潟県","city":"燕市","code5":"15213","code6":"152137"}},{"arcs":[[55,56,57]],"type":"Polygon","properties":{"pref":"新潟県","city":"糸魚川市","code5":"15216","code6":"152161"}},{"arcs":[[-56,58,59]],"type":"Polygon","properties":{"pref":"新潟県","city":"妙高市","code5":"15217","code6":"152170"}},{"arcs":[[60,61,62,-24,-43,63]],"type":"Polygon","properties":{"pref":"新潟県","city":"五泉市","code5":"15218","code6":"152188"}},{"arcs":[[-27,-49,64,-59,-58,65]],"type":"Polygon","properties":{"pref":"新潟県","city":"上越市","code5":"15222","code6":"152226"}},{"arcs":[[-34,66,-62,67]],"type":"Polygon","properties":{"pref":"新潟県","city":"阿賀野市","code5":"15223","code6":"152234"}},{"arcs":[[68]],"type":"Polygon","properties":{"pref":"新潟県","city":"佐渡市","code5":"15224","code6":"152242"}},{"arcs":[[69,70,-44,-15,-39,-7,-19,71]],"type":"Polygon","properties":{"pref":"新潟県","city":"魚沼市","code5":"15225","code6":"152251"}},{"arcs":[[72,73,-45,-71]],"type":"Polygon","properties":{"pref":"新潟県","city":"南魚沼市","code5":"15226","code6":"152269"}},{"arcs":[[74,-38,75,-52,76]],"type":"Polygon","properties":{"pref":"新潟県","city":"胎内市","code5":"15227","code6":"152277"}},{"arcs":[[77,78,-36]],"type":"Polygon","properties":{"pref":"新潟県","county":"北蒲原郡","city":"聖籠町","code5":"15307","code6":"153079"}},{"arcs":[[79,-54,-2]],"type":"Polygon","properties":{"pref":"新潟県","county":"西蒲原郡","city":"弥彦村","code5":"15342","code6":"153427"}},{"arcs":[[-64,-42,80]],"type":"Polygon","properties":{"pref":"新潟県","county":"南蒲原郡","city":"田上町","code5":"15361","code6":"153613"}},{"arcs":[[81,-25,-63,-67,-33]],"type":"Polygon","properties":{"pref":"新潟県","county":"東蒲原郡","city":"阿賀町","code5":"15385","code6":"153851"}},{"arcs":[[-13,-29,82]],"type":"Polygon","properties":{"pref":"新潟県","county":"三島郡","city":"出雲崎町","code5":"15405","code6":"154059"}},{"arcs":[[83,84,-46,-74,85]],"type":"Polygon","properties":{"pref":"新潟県","county":"南魚沼郡","city":"湯沢町","code5":"15461","code6":"154610"}},{"arcs":[[-47,-85,86]],"type":"Polygon","properties":{"pref":"新潟県","county":"中魚沼郡","city":"津南町","code5":"15482","code6":"154822"}},{"arcs":[[[-31]],[[-11,-30]]],"type":"MultiPolygon","properties":{"pref":"新潟県","county":"刈羽郡","city":"刈羽村","code5":"15504","code6":"155047"}},{"arcs":[[87,-77,-51]],"type":"Polygon","properties":{"pref":"新潟県","county":"岩船郡","city":"関川村","code5":"15581","code6":"155811"}},{"arcs":[[88]],"type":"Polygon","properties":{"pref":"新潟県","county":"岩船郡","city":"粟島浦村","code5":"15586","code6":"155861"}},{"arcs":[[-78,-35,-68,-61,-81,-41,-22,-55,-80,-1,89]],"type":"Polygon","properties":{"pref":"新潟県","city":"新潟市","code5":"15100","code6":"151009"}}]}}}