{"type":"Topology","arcs":[[[4700,5046],[63,-83],[41,5],[23,-69],[51,-18],[18,-43]],[[4896,4838],[-32,-46],[50,-36],[21,-49],[-54,-22],[-45,23],[-90,7],[8,-67],[-47,-86]],[[4707,4562],[-57,-32],[-39,43],[-47,-27],[-60,-70]],[[4504,4476],[-18,-59],[-47,-24],[-69,-10],[49,-230],[-5,-222],[18,-106],[31,-70],[130,-192],[53,-60],[69,-122],[10,-70],[49,-64],[58,-31],[21,-38],[100,-53],[73,-8],[51,-23],[115,10],[124,46],[33,-4],[119,33],[116,47],[54,-13],[103,25],[45,-45],[57,-15],[67,-70],[89,-24],[61,-47],[63,11],[53,-17],[89,-80],[28,15],[67,-63],[14,-61],[95,-25],[65,37],[67,7],[49,-30],[138,48],[100,53],[108,0],[63,-16],[77,-67],[407,-239],[73,-54],[55,42],[88,30],[165,-72],[50,30],[18,43],[36,0]],[[8028,2629],[16,-91],[-74,-36],[-119,-18],[-49,17],[-26,-36],[-47,-15],[-22,-169],[-74,-2],[-48,-51],[-11,-84],[51,-101],[-14,-122],[-48,-40],[-36,-4],[-18,-61],[-28,-29],[-18,-151],[-39,-66],[-92,-15],[-44,-52],[-71,-7],[-46,-96],[13,-64],[-40,-32],[-71,-102],[-43,1],[-84,33],[-155,-58],[-168,55],[-86,111],[-83,28],[-65,108],[-9,74],[-64,23],[-62,4],[-48,-26],[-72,1],[-78,17],[-48,-88],[-65,-48],[-70,39],[-89,-18],[-54,64],[-131,24],[-30,30],[-61,-10],[-54,27],[-74,96],[-3,199],[-50,18],[-236,-75],[-33,-72],[3,-71],[-68,-35],[-99,9],[-47,-43],[-73,-13],[-44,-42],[-57,9],[-52,72],[-14,42],[75,56],[-5,76],[38,24],[-8,102],[-88,30],[-71,-59],[-105,31],[-71,38],[-119,-67],[-9,-31],[-56,-45],[-37,73],[-38,40],[-45,-45],[-20,-51],[-75,-89],[-78,-6],[-34,-52],[-44,-7],[-5,-81],[-67,25],[1,43],[-87,103],[-8,73],[-25,15],[-128,-42],[-63,46],[-77,10],[-41,-76],[-108,-62],[10,-47],[-56,-9],[-109,-164],[-19,-51],[-90,-19],[-83,-168],[-49,2],[-37,-32],[25,-37],[1,-92],[-42,-13],[-97,17],[-113,-96],[-61,-33]],[[2489,1017],[-67,-23],[-31,25],[13,75],[52,141],[32,50],[-19,148],[52,157],[-42,38],[-22,70],[13,44],[69,110],[-26,100],[-20,19],[9,75],[-43,80],[-41,257],[-50,34],[-53,-11],[-58,-55],[-27,64],[54,82],[-7,159],[-10,40],[30,82]],[[2297,2778],[19,161],[-9,92],[30,54],[-10,100],[52,47],[-10,53],[41,48],[4,68],[35,-5],[-4,135],[24,58],[-20,28],[23,90],[76,86],[-57,68],[-60,12]],[[2431,3873],[45,65],[60,47],[23,-51],[56,-28],[61,151],[61,-48],[107,255],[68,-29],[56,52],[64,3],[29,95],[-15,74],[-36,93],[42,8],[4,60],[55,23],[10,55],[119,-8],[12,74],[33,95],[134,27],[105,52],[10,101]],[[3534,5039],[76,-6],[40,39],[94,-19],[168,25],[42,32],[118,9],[149,-39],[98,-5],[194,-47],[142,26],[45,-8]],[[2572,5414],[-82,-60],[3,-31],[81,-16],[51,-27],[29,-77],[79,22],[48,-40]],[[2781,5185],[98,-23]],[[2879,5162],[-30,-35],[-68,-37],[-65,19],[-46,-24],[-95,51],[-71,10],[-55,42],[-31,-22],[-13,-62],[20,-97],[-54,-157],[-50,-41],[6,-51],[-245,-331],[53,-27],[128,-41],[57,-30],[-31,-109],[66,-68],[2,-61],[37,-34],[-2,-41]],[[2392,4016],[-48,-16],[-77,21],[1,23],[-90,41],[10,45],[-101,16],[-32,-65],[-3,-71],[-82,8],[-57,-32],[-40,2],[26,128],[-101,15],[-31,-59],[-71,-3],[-5,-53],[-80,9],[5,98],[-27,12],[-30,91],[-45,-5],[-98,65],[-83,-6]],[[1333,4280],[-29,58],[-56,-38],[-60,86],[12,52],[-38,26],[-56,-32],[-57,-8],[-6,55],[-30,22],[-8,103],[-74,9],[-55,40],[-23,42],[-71,13],[-18,69],[-60,33],[-76,1],[-44,63],[-27,10]],[[557,4884],[49,21],[52,111],[33,34],[18,99],[-20,81],[-48,53],[66,58]],[[707,5341],[65,-10],[126,-41],[95,32],[36,-24],[-9,-54],[59,-38],[40,1],[59,65],[30,-51],[84,-20],[67,-36],[114,69],[23,41],[50,14],[-10,59],[57,34],[23,-15],[16,-74],[64,45],[85,41],[53,-18],[30,57],[43,-12],[50,28],[143,-56],[41,70],[-40,54],[-66,4],[-45,77],[31,31],[74,26],[-8,83],[44,61]],[[2131,5784],[151,-112],[86,-48],[55,-56],[52,-74],[53,36],[44,-45],[-32,-33],[32,-38]],[[7056,4239],[-9,-47],[-81,-36],[-92,-3],[-59,30],[-82,-21],[-20,23],[-77,22],[-61,-15],[-71,42],[-75,-20],[-70,74],[-11,137],[28,73],[-102,152],[-51,24],[-96,12],[-61,-13],[10,-67],[-52,-133],[-47,35],[-21,-51],[-49,-3],[-73,122]],[[5834,4576],[-60,128],[-56,60],[-70,166],[-98,103],[-113,178],[-52,122],[-116,148]],[[5269,5481],[91,71],[10,83],[-7,108],[31,41],[0,1],[5,16],[-1,0],[13,42],[108,137],[-15,133]],[[5504,6113],[114,-60],[60,-69],[38,18],[25,-52],[127,-46],[55,-43],[131,-31],[62,7],[48,-35],[171,-74],[0,-73],[-59,-142],[61,-81],[-6,-92],[100,-84],[31,-10],[102,40],[94,-117],[165,-48],[9,-45],[44,-11],[117,-74],[62,-148],[78,-84],[72,-11],[29,-43],[-6,-73],[-39,-58],[-48,-41],[-48,-69],[-67,-40],[-8,-98],[30,-32],[8,-55]],[[707,5341],[27,86],[-31,69],[-14,116],[96,168],[-30,112],[58,32],[-11,52],[43,29],[-50,44],[11,57],[76,25],[18,51],[24,1],[59,95],[-8,42],[30,45],[-36,33],[-30,116],[9,71],[58,78],[50,44],[35,70],[88,18],[21,29],[57,13],[64,73],[42,70],[3,36],[181,82],[45,5],[80,-76],[67,-13],[23,-33],[66,74],[38,143],[7,22],[88,-7],[63,-53],[148,25],[49,-15],[90,49],[66,-36],[54,-47],[-97,-87],[-115,-122],[12,-70],[28,-54],[-55,-138],[-63,-33],[-55,-117],[-73,-104],[-76,-59],[-10,-47],[-68,-22],[1,-85],[42,-85],[9,-76],[3,-5],[8,-13],[77,-108],[132,-127]],[[2336,6853],[0,0],[7,4],[4,-2],[-11,-2]],[[4700,5046],[141,37],[91,104],[11,51],[47,56],[58,44],[105,79],[58,19],[58,45]],[[5834,4576],[17,-48],[-40,-82],[-38,46],[-72,21],[39,118],[-44,13],[-17,52],[-33,28],[-60,-69],[-64,5],[-55,26],[-73,-60],[-52,-6],[-65,67],[-39,-8],[-73,29],[-37,-10],[-232,140]],[[5504,6113],[61,71],[19,134],[-28,89],[-52,77],[1,23],[76,129],[17,63],[48,52]],[[5646,6751],[107,-109],[121,-84],[266,-72],[138,-62],[113,-101],[99,-63],[82,-12],[64,-58],[24,122],[-53,140],[34,5],[39,-44],[39,-148],[81,9],[108,-83],[77,-11],[34,-39],[26,-123],[51,8],[36,51],[99,93]],[[7231,6170],[67,-23],[113,-142],[41,15],[68,-10],[38,-98],[-16,-56],[858,-720],[33,-94],[29,-44]],[[8462,4998],[-21,-30],[65,-109],[-72,-143],[15,-79],[-22,-150],[9,-46],[35,-22],[12,-45],[-21,-69],[48,-16],[-11,-102],[28,-96],[-10,-25],[-34,-62],[-3,-122],[-32,-123],[-11,-87],[-39,-23]],[[8398,3649],[-35,9],[-129,-27],[-95,39],[-129,118],[-81,58],[-60,16],[-27,-57],[-63,-41],[-105,7],[-133,-11],[-21,43],[-54,-8],[-93,11]],[[7373,3806],[-42,69],[-25,87],[-45,7],[-106,154],[-99,116]],[[2297,2778],[-123,2],[-91,25],[-71,5],[8,58],[-75,23],[-46,31],[-16,70],[-33,-9],[-51,87],[-52,60],[13,24],[-27,83],[-90,82],[-22,53],[-103,75],[-35,2],[-150,71],[-5,60],[-124,36],[-23,13],[9,43]],[[1190,3672],[108,125],[-57,132],[39,45],[-32,98],[56,95],[114,-18],[-23,51],[-62,80]],[[2392,4016],[12,-45],[39,-37],[-12,-61]],[[1190,3672],[-27,-31],[35,-32],[9,-62],[-57,-57],[-18,-74],[-101,13],[-63,-8],[-51,14],[-60,-20],[-19,26],[-90,-50],[-30,-33],[-11,-100],[-55,-14],[-100,97],[-17,30],[-63,24],[-81,10],[-36,34],[28,94],[-11,28],[-92,9],[-38,-39],[25,-42],[-41,-51],[-46,12]],[[180,3450],[-52,101],[7,124],[16,27],[67,15],[51,56],[-1,85],[67,36],[-3,53],[59,64],[39,87],[44,22],[-27,54],[17,59],[-43,51],[-56,-5],[3,85],[21,59],[-6,44],[-48,17],[-31,40],[-43,13],[-78,80],[35,50],[-1,49],[49,32],[175,7],[16,97],[100,32]],[[2489,1017],[30,-65],[-63,-139],[-48,-70],[83,-33],[-53,-41],[-2,-94],[-126,-126],[-165,-16],[25,-70],[-90,-116],[-25,-87],[-46,-29],[-106,2],[-34,-50],[-52,-32],[-42,-51],[-74,32],[-72,3],[29,73],[-10,32],[43,46],[29,132],[29,60],[-10,51],[-63,39],[-20,86],[-56,123],[-33,-1],[-37,68],[-61,36],[-63,-8],[-81,68],[-84,27],[-48,34],[-149,-159],[-63,-37],[-54,50],[-4,145],[-62,33],[-39,-88],[7,-60],[-85,-1],[-30,-21],[-66,37],[-57,-40],[16,-93],[28,-53],[-36,-105],[-50,-81],[-18,-80],[-33,-54],[-82,9],[-67,-8],[-43,37],[-75,-37],[-27,-36],[-34,137],[20,37],[-13,93],[-44,43],[24,45],[-20,94],[23,62],[70,13],[12,27],[79,34],[19,35],[-13,48],[-52,63],[-1,118],[-19,36],[-27,178],[-139,137],[-66,-4],[4,65],[-27,32],[8,77],[42,21],[33,-19],[70,79],[76,51],[-53,63],[1,53],[78,76],[-27,24],[27,50],[-23,63],[37,85],[24,17],[-66,121],[18,59],[-17,92],[76,122],[32,84],[45,78],[33,109],[3,44],[-46,82],[-34,15],[-46,70],[-99,11],[38,141],[-10,68],[-50,33],[10,129]],[[2879,5162],[71,-19],[13,-29],[94,-70],[73,-16],[11,31],[-72,24],[-66,45],[-6,92],[37,43],[130,-42],[-9,-49],[106,-38],[64,-40],[209,-55]],[[2572,5414],[47,-22],[109,-87],[87,-25],[34,41],[112,-37],[-47,-24],[50,-40],[-38,-25],[-130,22],[-5,-24],[-10,-8]],[[4707,4562],[-3,-83]],[[4704,4479],[9,-46],[-73,-52],[9,-39],[-35,-41],[-76,13],[25,89],[-8,77],[-51,-4]],[[7373,3806],[-64,-58],[28,-46],[-72,-90],[-8,-93],[-50,-58],[17,-74],[-64,-56],[-61,-21],[-95,7],[-21,51],[-81,17],[-74,-36],[-74,4],[-79,52],[-47,62],[-82,6],[-101,-69],[-148,-6],[-9,73],[-117,32],[-46,-32],[-62,14],[-107,-41],[-33,-25],[-83,-3],[-61,28],[-11,77],[-22,40],[-86,98],[-32,-6],[-91,29],[-68,-8],[4,62],[-82,60],[-23,-8],[-41,55],[-21,70],[-54,21],[-23,50],[-70,2],[-52,66],[-29,61],[-41,2],[7,76],[-31,60],[-82,9],[-30,77],[-57,5],[-24,42],[25,28],[-9,49],[-31,27],[-101,-9]],[[8398,3649],[-24,-123],[33,-95],[26,-31],[20,-72],[-45,-72],[-148,12],[-48,-13],[-60,-47],[-42,-54],[-126,-77],[-40,-6],[-52,-73],[15,-89],[-42,-164],[167,-11],[52,-22],[-56,-83]],[[5646,6751],[19,44],[65,47],[207,78],[77,60],[65,20],[120,84],[170,46],[218,25],[60,1]],[[6647,7156],[-21,-156],[-28,-48],[-50,-4],[-37,-160],[4,-66],[20,-24],[17,-86],[74,18],[158,0],[1,-102],[-31,-81],[22,-51],[51,-15],[29,-35],[137,-21],[73,65],[91,-115],[42,-21],[32,-84]],[[7439,7351],[23,-34],[119,-78],[53,-96],[73,-64],[117,-56],[65,-53],[96,-10],[108,20],[19,-95],[60,-87],[-21,-43],[-1,-154],[-45,-39],[14,-43],[-11,-65],[103,-165],[61,-44],[27,-192],[-20,-106],[-2,-93],[15,-49],[-37,-49],[16,-32],[111,-88],[38,-58],[14,-95],[29,-41],[-30,-55],[-10,-121],[70,-54],[48,-66],[-8,-21],[-71,-127]],[[6647,7156],[17,7],[256,25],[129,115],[189,12],[201,36]]],"transform":{"scale":[0.00011648050579557296,0.00009596517480614826],"translate":[136.76853,36.27436]},"objects":{"japan":{"type":"GeometryCollection","geometries":[{"arcs":[[0,1,2,3,4,5,6,7,8]],"type":"Polygon","properties":{"pref":"富山県","city":"富山市","code5":"16201","code6":"162019"}},{"arcs":[[9,10,11,12,13,14,15,16]],"type":"Polygon","properties":{"pref":"富山県","city":"高岡市","code5":"16202","code6":"162027"}},{"arcs":[[17,18,19,20]],"type":"Polygon","properties":{"pref":"富山県","city":"魚津市","code5":"16204","code6":"162043"}},{"arcs":[[[-16,21]],[[22]]],"type":"MultiPolygon","properties":{"pref":"富山県","city":"氷見市","code5":"16205","code6":"162051"}},{"arcs":[[-1,23,-19,24]],"type":"Polygon","properties":{"pref":"富山県","city":"滑川市","code5":"16206","code6":"162060"}},{"arcs":[[-21,25,26,27,28,29,30]],"type":"Polygon","properties":{"pref":"富山県","city":"黒部市","code5":"16207","code6":"162078"}},{"arcs":[[-7,31,32,-13,33]],"type":"Polygon","properties":{"pref":"富山県","city":"砺波市","code5":"16208","code6":"162086"}},{"arcs":[[-14,-33,34,35]],"type":"Polygon","properties":{"pref":"富山県","city":"小矢部市","code5":"16209","code6":"162094"}},{"arcs":[[-6,36,-35,-32]],"type":"Polygon","properties":{"pref":"富山県","city":"南砺市","code5":"16210","code6":"162108"}},{"arcs":[[[-8,-34,-12,37]],[[-10,38]]],"type":"MultiPolygon","properties":{"pref":"富山県","city":"射水市","code5":"16211","code6":"162116"}},{"arcs":[[-3,39,40]],"type":"Polygon","properties":{"pref":"富山県","county":"中新川郡","city":"舟橋村","code5":"16321","code6":"163210"}},{"arcs":[[-2,-25,-18,-31,41,-40]],"type":"Polygon","properties":{"pref":"富山県","county":"中新川郡","city":"上市町","code5":"16322","code6":"163228"}},{"arcs":[[-4,-41,-42,-30,42]],"type":"Polygon","properties":{"pref":"富山県","county":"中新川郡","city":"立山町","code5":"16323","code6":"163236"}},{"arcs":[[-27,43,44]],"type":"Polygon","properties":{"pref":"富山県","county":"下新川郡","city":"入善町","code5":"16342","code6":"163422"}},{"arcs":[[45,-28,-45,46]],"type":"Polygon","properties":{"pref":"富山県","county":"下新川郡","city":"朝日町","code5":"16343","code6":"163431"}}]}}}