{"type":"Topology","arcs":[[[2841,3573],[-14,-92],[32,-62],[-7,-79],[37,-61],[-23,-86],[60,-7],[77,-101],[-22,-94],[-47,-99],[-46,-74],[-1,-92],[40,-74],[-37,-62],[15,-83],[-48,-47],[32,-70],[-90,-80],[-45,-1],[9,-106],[40,2],[85,-83],[29,-203],[32,-38],[-4,-50],[-98,-46],[-15,-38]],[[2832,1747],[-36,-26],[-39,51],[-76,17],[-72,86],[-74,40],[-62,18],[-31,59],[2,67],[-107,-11],[-87,84],[-59,19],[18,69],[-46,62],[2,88],[-45,32],[31,40],[-48,72],[7,33],[-55,45],[39,58],[-53,5],[-71,69],[-34,4]],[[1936,2728],[10,169],[69,9],[12,42],[-46,84],[-53,10],[-35,-38],[-23,94],[-33,-13],[-12,-49]],[[1825,3036],[-64,46],[-17,67],[-37,-6],[-66,37]],[[1641,3180],[39,60],[108,133],[7,70],[73,72],[16,48],[52,69],[25,0]],[[1961,3632],[77,-85],[108,117],[69,51],[101,141]],[[2316,3856],[56,-39],[-36,-51],[108,-85],[26,4],[103,-31],[93,-44],[13,23],[67,-37],[54,2],[41,-25]],[[4232,5666],[-73,51],[-55,-30],[-30,9],[-90,-15],[-38,32],[-59,-9]],[[3887,5704],[-48,73],[-82,-31],[-62,33],[35,37],[-67,71],[-81,15],[-50,133],[-116,-20],[-136,19],[-42,15],[-46,58]],[[3192,6107],[36,74],[-9,43],[-75,52],[-32,101],[-100,48],[-79,86],[-75,37],[-17,66],[-51,70],[43,49],[8,46],[-25,64],[42,90],[58,97],[5,57],[42,70],[64,28]],[[3027,7185],[51,17],[103,-33],[0,-76],[24,-56],[86,27],[89,-65]],[[3380,6999],[-22,-27],[-52,-154],[55,3],[79,-24],[-40,-120],[-132,-46],[-10,-89],[17,-47],[-50,-61],[2,-28],[73,-34],[74,-13],[73,35],[9,61],[41,46],[138,-29],[-13,-46],[27,-69],[74,2],[44,-14],[-38,-56],[89,-65],[19,39],[42,-31],[22,52],[73,62],[70,179],[29,41],[55,37],[87,6],[22,-83],[-7,-95],[17,-28],[-28,-97],[-1,-110],[-18,-31],[29,-112],[-25,-58],[5,-49],[32,-53],[-24,-50],[9,-72],[32,-52],[-26,-53]],[[4159,6993],[16,-1],[66,-108],[-54,-41],[-13,-42],[50,-94],[-47,-37],[-79,-6],[-62,-28],[-47,35],[-59,3],[-81,-86],[-12,-43],[-40,7],[-15,38],[-77,-48],[-24,12],[-39,108],[-41,42],[-44,7],[-41,63],[-44,31],[-25,88],[80,-22],[41,-26],[-10,-72],[87,47],[119,13],[34,74],[132,-99],[74,-11],[85,50],[6,85],[64,61]],[[1753,2075],[48,-115],[-36,-34],[-21,-61],[21,-22],[-7,-99],[-52,-49],[-49,2],[-4,-45],[-55,-40],[18,-75],[-15,-53],[27,-29],[-28,-56],[42,-46],[79,26],[80,-33],[36,-32],[26,-63],[49,-8],[-57,-167],[7,-42],[-29,-88],[-57,-7],[-81,-70],[-9,-48],[-43,-78],[0,-54],[-39,-83],[9,-49]],[[1613,557],[-131,-43],[-27,21],[-51,-33],[-77,22],[-29,54]],[[1298,578],[28,76],[5,95],[-36,21],[-1,116],[-31,60],[0,124],[-36,4],[-22,40],[11,64],[-48,21],[-31,56],[-163,-5],[-50,23],[5,54],[-50,58],[22,31],[-16,61],[11,34],[-55,38],[22,47],[45,26],[-9,68],[-35,44],[-43,0],[-69,85],[37,67],[-51,29],[-22,53],[-43,41]],[[673,2009],[218,214],[64,83]],[[955,2306],[26,-19],[66,50],[151,3],[42,50],[19,-60],[-10,-115],[59,33],[172,49],[75,-89],[1,-35],[59,-17],[0,-36],[39,-43],[35,28],[64,-30]],[[4651,8482],[-144,-50],[3,-41],[-56,10],[-46,-17],[-16,37],[-52,13],[-50,-14],[7,-35],[-42,-52],[-194,98],[-92,7],[-63,-65],[-101,-49],[-13,-45],[13,-60],[48,-72],[-41,-61],[40,-62],[-7,-44],[-78,-98],[41,-31],[-20,-56]],[[3788,7795],[-126,-39],[-21,-34],[-112,-3],[-78,-16],[-51,-50],[-85,31],[-85,-103],[-39,-15],[-87,-96],[-32,63],[-47,42],[-70,-28],[23,-39],[-51,-48],[-54,-136]],[[2873,7324],[-62,-44],[-42,-60],[-46,-40],[-49,-1],[-41,-37],[-57,42],[-21,39],[-110,29],[29,58],[-21,28],[-83,-17]],[[2370,7321],[46,72],[-24,44],[14,49],[46,16],[47,49],[68,150],[6,56],[-53,41],[14,65],[-31,98],[20,49],[75,81],[71,32],[-3,52],[19,68],[88,7],[109,70],[47,0],[45,61],[99,21],[90,75],[168,29],[53,-30],[49,-3],[78,-38],[54,0],[90,39],[134,74],[38,2],[59,50],[171,76],[58,-2],[84,74],[15,31],[52,3],[78,38],[67,65]],[[4411,8885],[57,-77],[53,-1],[65,35],[41,1],[30,-32],[-29,-34],[7,-55],[72,-51],[129,-33],[-75,-115],[-67,-6],[-43,-35]],[[4411,8885],[48,81],[55,9],[32,44],[172,76],[148,24],[40,-20],[115,44],[73,14],[54,54],[99,18],[95,71],[62,14],[37,-41],[31,18],[55,-23],[144,21],[13,-64],[69,-17],[48,-94],[-57,-96],[36,-87],[54,-53],[16,-89],[-60,-47],[-91,-26],[-106,-10],[-66,33],[-129,-22],[-91,-51],[-28,-37],[-39,-115],[4,-65],[-38,-46],[8,-107]],[[5214,8296],[-53,-25],[-65,0],[-86,-18],[-70,-31],[-33,3],[-139,-46],[-2,54],[-62,140],[-46,28],[-7,81]],[[1298,578],[-43,-9],[-99,-120],[-42,-10],[-40,28],[-44,-21],[-46,38],[-39,71],[-52,13],[-5,66],[-21,33],[-98,-30],[-114,15],[-57,-30],[-73,50],[-34,68],[-3,45],[-40,71],[-8,50],[24,125],[-83,35],[-7,69],[-36,6],[-33,68],[-66,18],[-111,56],[-63,68],[12,60],[-77,38],[126,107],[58,71],[13,55],[38,34],[16,52],[41,39],[115,18],[125,65],[141,119]],[[3362,5378],[-35,-48],[-5,-43],[18,-71],[22,-20],[-13,-53],[-51,-58]],[[3298,5085],[-27,21],[-108,14],[-60,-13],[-52,105],[-132,-1],[-47,-35],[-6,-52],[-38,-5],[-33,-41],[-102,-3]],[[2693,5075],[50,232],[0,70],[-19,46],[-73,40],[9,48],[55,64],[-17,35],[39,41],[11,44]],[[2748,5695],[45,6],[74,-117],[27,36],[63,-57],[52,-1],[38,40]],[[3047,5602],[19,-39],[66,-7],[67,29],[-5,-52],[62,-12],[43,-53],[29,-94],[34,4]],[[3001,4448],[0,-15],[-120,-28],[-58,-41],[-64,27],[-36,-30],[-9,-67],[23,-24],[-73,-106],[-51,-27],[-40,-107],[-178,-14],[-28,-30],[-14,-79]],[[2353,3907],[-58,39],[27,39],[-92,41]],[[2230,4026],[157,290],[130,275]],[[2517,4591],[128,11],[6,-43],[141,12],[23,-45],[48,-32],[101,-12],[37,-34]],[[2832,1747],[25,-110],[-4,-80],[20,-83],[17,-43],[56,-56],[-1,-50],[45,-60],[99,-10],[89,-82],[-35,-96],[-60,-84],[-3,-37],[-56,-44],[-13,-62],[-41,-31],[-59,-94],[-6,-56],[-62,-40],[-48,1],[-60,-35],[31,-37],[21,-71],[26,-16],[-11,-75],[-32,-22],[-11,-66],[-29,-64],[-46,-41],[-10,-82],[-47,-7],[-34,-30],[-123,10],[-103,-48],[-90,-25],[-22,-21],[-82,14],[-19,53],[9,43],[-28,49],[-49,37],[-51,8],[-53,45],[-39,12],[-13,54],[-41,34],[-5,37],[-68,20],[-74,70],[-71,27],[-14,42],[-44,12]],[[1753,2075],[64,-34],[55,40],[23,67],[32,1],[48,70],[10,60],[38,29],[10,45],[-50,33],[-13,43],[-41,38],[-57,17]],[[1872,2484],[-59,70],[-52,-8],[-135,72],[-59,16],[-9,-39],[-48,-23],[-69,35],[-64,0],[-71,28],[-65,-88]],[[1241,2547],[-28,-15],[-54,38]],[[1159,2570],[75,117],[69,69],[111,130],[200,265],[27,29]],[[1825,3036],[-9,-81],[26,-48],[-10,-70],[-22,-24],[12,-49],[35,-29],[79,-7]],[[955,2306],[54,63],[150,201]],[[1241,2547],[65,-46],[93,41],[43,3],[23,-36],[301,-13],[106,-12]],[[3150,4373],[-32,-67],[-29,-13],[-62,-19],[-9,-60],[-107,-3],[-30,-20],[-21,-60],[48,-49],[75,-43],[-11,-115],[60,-27],[-45,-136],[-75,-93],[1,-52],[-72,-43]],[[2316,3856],[37,51]],[[3001,4448],[41,34],[47,4],[3,-68],[58,-45]],[[1961,3632],[101,122],[168,272]],[[3192,6107],[-12,-30],[-8,-127],[-31,-59],[5,-104],[34,-93],[-93,-81],[-40,-11]],[[2748,5695],[11,112],[-18,32],[12,81],[-36,36],[-100,46],[-5,34],[22,75],[-40,21],[-28,62],[1,46],[-38,7],[-25,46],[-18,138],[58,112],[-21,117],[10,124],[-45,59],[-88,27],[-35,-59],[-111,-1],[-24,51],[37,121],[-6,115],[36,72],[-24,25],[13,48],[84,79]],[[2873,7324],[47,-5],[70,51],[36,-11],[16,-85],[-30,-27],[15,-62]],[[3180,4572],[-40,-36],[41,-81],[-31,-82]],[[2517,4591],[101,236],[47,139],[28,109]],[[3298,5085],[-11,-32],[-47,-15],[5,-111],[-36,-19],[19,-68],[-59,-103],[28,-113],[-17,-52]],[[3887,5704],[-23,-87],[-40,-45],[-55,28],[-49,46],[-138,-53],[-27,-65],[-39,-44],[-102,-37],[-52,-69]],[[3788,7795],[94,69],[38,0],[12,-78],[-4,-125],[98,-98],[23,-51],[81,14],[52,-17],[45,75],[128,-49],[43,-33]],[[4398,7502],[-51,-47],[-29,-59],[7,-85],[-48,-33],[-161,-70],[-17,-88],[-40,5],[-67,-33],[-13,32],[-64,70],[-54,25],[-51,-17],[-41,23],[-64,109],[40,54],[-24,31],[-46,-49],[-41,16],[-18,-45],[-56,-21],[-15,-92],[-55,-38],[-30,-88],[-80,-103]],[[5214,8296],[51,-121],[65,5],[-12,-107],[26,-81],[-67,-49],[-22,-64],[-93,-52],[-82,-23],[-25,37],[-71,-23],[-137,29],[-85,4],[-137,-80],[-53,-13],[-48,-49],[-44,-11],[-25,-97],[-57,-99]]],"transform":{"scale":[0.00019087515168998408,0.0001574186199668965],"translate":[136.2438602846246,36.06722819822295]},"objects":{"japan":{"type":"GeometryCollection","geometries":[{"arcs":[[0,1,2,3,4,5,6]],"type":"Polygon","properties":{"pref":"石川県","city":"金沢市","code5":"17201","code6":"172014"}},{"arcs":[[[7,8,9,10,11]],[[12]]],"type":"MultiPolygon","properties":{"pref":"石川県","city":"七尾市","code5":"17202","code6":"172022"}},{"arcs":[[13,14,15,16,17]],"type":"Polygon","properties":{"pref":"石川県","city":"小松市","code5":"17203","code6":"172031"}},{"arcs":[[18,19,20,21,22]],"type":"Polygon","properties":{"pref":"石川県","city":"輪島市","code5":"17204","code6":"172049"}},{"arcs":[[-23,23,24]],"type":"Polygon","properties":{"pref":"石川県","city":"珠洲市","code5":"17205","code6":"172057"}},{"arcs":[[-16,25]],"type":"Polygon","properties":{"pref":"石川県","city":"加賀市","code5":"17206","code6":"172065"}},{"arcs":[[26,27,28,29,30]],"type":"Polygon","properties":{"pref":"石川県","city":"羽咋市","code5":"17207","code6":"172073"}},{"arcs":[[31,32,33,34]],"type":"Polygon","properties":{"pref":"石川県","city":"かほく市","code5":"17209","code6":"172090"}},{"arcs":[[35,-14,36,37,38,39,-4,40,-2]],"type":"Polygon","properties":{"pref":"石川県","city":"白山市","code5":"17210","code6":"172103"}},{"arcs":[[-18,41,-39,42,-37]],"type":"Polygon","properties":{"pref":"石川県","city":"能美市","code5":"17211","code6":"172111"}},{"arcs":[[-3,-41]],"type":"Polygon","properties":{"pref":"石川県","city":"野々市市","code5":"17212","code6":"172120"}},{"arcs":[[-38,-43]],"type":"Polygon","properties":{"pref":"石川県","county":"能美郡","city":"川北町","code5":"17324","code6":"173240"}},{"arcs":[[43,-7,44,-32,45]],"type":"Polygon","properties":{"pref":"石川県","county":"河北郡","city":"津幡町","code5":"17361","code6":"173614"}},{"arcs":[[-6,46,-33,-45]],"type":"Polygon","properties":{"pref":"石川県","county":"河北郡","city":"内灘町","code5":"17365","code6":"173657"}},{"arcs":[[-10,47,-30,48,-21,49]],"type":"Polygon","properties":{"pref":"石川県","county":"羽咋郡","city":"志賀町","code5":"17384","code6":"173843"}},{"arcs":[[50,-46,-35,51,-28,52]],"type":"Polygon","properties":{"pref":"石川県","county":"羽咋郡","city":"宝達志水町","code5":"17386","code6":"173860"}},{"arcs":[[53,-31,-48,-9]],"type":"Polygon","properties":{"pref":"石川県","county":"鹿島郡","city":"中能登町","code5":"17407","code6":"174076"}},{"arcs":[[-11,-50,-20,54,55]],"type":"Polygon","properties":{"pref":"石川県","county":"鳳珠郡","city":"穴水町","code5":"17461","code6":"174611"}},{"arcs":[[-19,-25,56,-55]],"type":"Polygon","properties":{"pref":"石川県","county":"鳳珠郡","city":"能登町","code5":"17463","code6":"174637"}}]}}}