{"type":"Topology","arcs":[[[4297,4831],[56,-3],[-3,-67],[64,-90],[-56,-30],[25,-115],[57,-63],[91,-30],[30,40],[106,33],[53,-104],[87,-19],[89,86],[121,-7],[95,-39],[33,22]],[[5145,4445],[48,-70],[23,-65],[65,-36]],[[5281,4274],[-47,-40],[31,-58],[8,-58],[-40,-40],[40,-104],[0,-93],[47,-24],[-18,-38],[12,-76],[-19,-78]],[[5295,3665],[-43,6],[-72,40],[6,28],[-88,42],[-85,65],[-91,21],[-73,-4],[-90,-26],[-32,-33],[-10,-51],[-86,-36]],[[4631,3717],[-12,90],[24,54],[-69,3],[-29,74],[-71,6],[-72,61],[-80,-12],[-19,37],[-87,8],[-82,27],[-36,46],[-43,-2],[-46,-64],[-59,-32],[13,66],[-139,56],[-20,34],[-109,-48]],[[3695,4121],[-73,-1],[-69,74],[-38,-17],[-127,31],[-22,42],[-151,96],[-33,-5],[-11,-75],[-40,-69],[-76,-46],[-31,2],[-24,52],[-56,55],[-32,-27],[-18,-150],[-60,-22],[-27,31],[-83,26],[-28,36]],[[2696,4154],[111,72],[62,66],[69,90],[8,87],[35,62],[13,89],[47,96],[29,105],[67,48],[0,44],[30,26],[2,44],[38,12],[77,55],[87,93],[-15,47],[50,78]],[[3406,5268],[137,-64],[114,4],[19,22],[54,-51],[33,-100],[51,-60],[73,-21],[32,-56],[61,-7],[175,2],[58,18],[-2,-108],[86,-16]],[[3670,2249],[-1,-42],[-82,-135],[16,-30],[54,-16],[19,-91],[43,-84],[1,-62],[37,-42],[55,-150],[-58,-79],[21,-73],[-102,11],[-64,18],[-90,3],[-47,-17],[-19,-40],[6,-50],[-24,-25],[20,-65],[-19,-104],[-64,54],[-54,21],[-32,-64],[-41,-27],[-45,36],[-65,17],[-114,-32]],[[3021,1181],[6,82],[-22,118],[33,52],[-18,108],[-89,2],[-14,68],[14,75],[-16,29],[15,114],[-28,93],[-29,38],[78,82],[-21,81],[20,39],[-14,155],[18,57],[-6,49],[-38,32],[-125,-37],[-68,8],[-20,29]],[[2697,2455],[20,32],[66,-13],[18,42],[54,57],[33,8],[99,87],[54,-66],[-11,-101],[43,-49],[-3,-55],[31,-95],[-4,-47],[-50,-44],[-26,-80],[86,-61],[28,-79],[41,-2],[83,25],[12,110],[63,47],[-25,24],[-15,91],[72,48],[-7,37],[40,60],[-21,101],[28,28],[6,73],[-15,45]],[[3397,2678],[76,1],[30,-86],[74,-92],[-3,-93],[88,-77],[8,-82]],[[1914,1448],[37,-76],[115,-66],[37,-52],[-9,-24],[-92,-94],[50,-60],[20,-70],[-16,-41],[13,-55],[-112,-45],[-60,58],[-79,5],[26,-62],[53,-27],[-10,-61],[29,-27],[21,-70],[50,-15],[62,-45],[42,6],[53,-64],[-9,-95],[-22,-37]],[[2113,431],[-139,20],[-70,-11],[-13,-22],[-17,-153],[-87,8]],[[1787,273],[-27,30],[-63,14],[-30,65],[-65,54],[-102,24],[-88,-8],[-31,-34],[-105,5],[-59,53],[-50,-5],[-36,-48],[-60,35],[-56,6],[-13,49],[-49,13],[-57,-29],[-29,-47],[-57,8],[-32,57],[-50,34],[94,66],[49,-3],[39,33],[43,-4],[81,35],[-29,38],[34,55],[-16,88]],[[1023,857],[48,12],[31,74],[80,-29],[85,1],[45,32],[73,-60],[30,50],[57,25],[35,-4],[16,52],[53,94],[7,93],[60,-7],[-1,42],[-137,-15],[-27,-62],[-73,-37],[-7,134],[-72,23],[-45,-11],[-23,39],[71,59],[61,76],[71,-6],[37,14],[49,-44],[46,-117],[26,-21],[109,49],[27,-47],[19,-73],[41,-34],[50,38],[146,24],[-33,49],[-15,57],[-67,41],[-45,60],[63,20]],[[6333,4611],[82,-14],[22,21],[89,25],[104,48],[123,-10],[34,30],[47,7],[51,-77],[1,-41],[-104,-49],[-47,-77],[-5,-171],[-29,-74],[-10,-87],[119,-30],[19,-81],[1,-64],[-25,-28],[22,-46],[100,-39],[89,-10],[23,-50],[-50,-83],[14,-35],[68,-12],[33,-48],[41,-12],[53,-115],[-19,-85],[31,-31],[33,-109],[-38,-76],[-51,-19],[-69,10],[-33,-222],[-35,-62],[-79,4],[1,43],[-55,25],[-49,-9],[-70,-52],[-87,45],[-21,-50],[-55,-52],[-52,13],[-54,-31],[-93,13],[-31,-39],[-62,4],[-9,82],[-39,52],[-36,-60],[-64,-13],[-16,-49],[-60,7],[-65,62],[-68,-45],[-1,-45],[-71,-40],[-114,19],[-28,-15],[-105,59],[-70,-102],[10,-62],[-55,-72],[-36,93],[-62,61],[-89,-12],[-32,35],[-106,-23],[-55,0],[-78,47]],[[5061,2788],[36,69],[45,29],[6,59],[-48,37],[18,65],[-18,59],[64,109],[-41,58],[38,53],[-10,30],[36,38],[-3,52],[-34,18],[-2,47],[33,78],[88,32],[26,44]],[[5281,4274],[47,14],[20,58],[136,-15],[33,-37],[107,-9],[107,-71],[43,33],[50,-23],[34,15],[17,70],[38,14],[50,57],[59,33],[58,2],[18,37],[40,12],[54,46],[30,52],[111,49]],[[5458,5176],[28,-55],[78,-22],[51,33],[27,-21],[131,43],[44,-12],[14,-42],[71,-27],[74,-69],[67,-21],[6,-37],[41,-34],[13,-54],[39,-12],[53,-45],[51,-8],[49,-37],[28,-49],[-9,-43],[19,-53]],[[5145,4445],[3,69],[36,97],[-7,38],[-150,36],[-111,41],[84,74],[-38,92],[-30,16],[8,56]],[[4940,4964],[249,79]],[[5189,5043],[45,21],[40,-28],[41,10],[99,120],[44,10]],[[4631,3717],[-48,5],[-82,83],[-103,17],[-39,-23],[-166,-1],[-7,45],[-43,-2],[-79,-63],[-5,-47],[-124,-13],[-119,8],[-15,42],[-133,-6],[-50,11],[-30,-30]],[[3588,3743],[-42,46],[31,107],[32,46],[-3,35],[83,82],[6,62]],[[4160,6046],[77,-38],[-13,-60],[64,-67],[111,-57],[66,-18],[33,-68],[36,-6],[7,-69],[83,-35],[-24,-125],[8,-50]],[[4608,5453],[-46,-18],[-20,-38],[-58,-30],[-43,-58],[-63,-30],[-45,20],[-76,4],[-55,45],[-76,-10],[-46,85],[-69,-31],[-98,-8],[-85,11],[-41,38],[15,79],[-46,9],[42,58],[38,14],[12,57],[52,6],[-3,44],[37,33],[-28,33],[-66,3],[2,38]],[[3842,5807],[179,115],[122,98],[17,26]],[[4631,3717],[-50,-56],[-55,3],[-20,-41],[27,-39],[-32,-80],[14,-51],[-28,-60],[-65,-70],[-72,-7],[-36,-31],[-38,-77],[-53,-41]],[[4223,3167],[-63,15],[-105,73],[-80,9],[-140,-5],[-36,-41],[-4,-44],[-80,-59],[-31,-108],[-97,-44],[-24,94],[9,20],[-27,97],[-61,23],[-40,-27],[-38,11],[-91,-5],[-29,41],[-42,-11],[-73,13],[-6,35],[-60,38],[-11,30],[-94,50],[-15,29]],[[2985,3401],[3,98],[43,37],[72,23],[31,85],[134,12],[26,41],[49,-16],[41,-82],[157,37],[47,107]],[[4608,5453],[40,-71],[3,-45],[34,-68],[73,-50],[57,30],[114,-15],[98,30],[20,-33],[6,-66],[52,-13],[39,-71],[45,-38]],[[4940,4964],[-89,6],[-22,26],[-60,-17],[-25,-67],[-61,-35],[-41,7],[-60,-36],[-8,-25],[-87,6],[-40,50],[-70,51],[-80,-99]],[[3406,5268],[76,126],[69,-16],[-6,56],[-25,14],[54,81],[6,92],[-40,62],[28,23],[-39,52],[160,22],[42,-23],[111,50]],[[5061,2788],[-37,-14],[-45,58],[-123,37],[-103,-54]],[[4753,2815],[-31,61],[12,29],[-37,40],[16,36],[-48,63],[-110,-30],[-91,69],[-86,-54],[-145,31],[9,79],[-19,28]],[[3397,2678],[8,89],[-51,76],[-12,43],[-60,87],[-31,84],[-46,31],[-120,132],[-144,139]],[[2941,3359],[44,42]],[[4753,2815],[-54,-67],[-99,-7],[-33,-62],[-17,-91],[35,-40],[10,-84],[-34,-54],[12,-47],[-50,-17],[-111,-183],[36,-34],[-51,-45],[7,-37],[-51,-46],[-60,64],[-62,16],[-37,32],[-30,-16],[-54,55],[-35,-12],[-43,24],[-40,-12],[-20,34],[-50,12],[-28,71],[-41,18],[-97,-9],[-86,-29]],[[2941,3359],[-72,77],[-13,50],[15,67],[-14,59],[13,70],[-5,80],[-54,52],[2,32],[-90,85],[-14,46],[-44,41],[-4,36],[39,65],[-4,35]],[[3021,1181],[12,-39],[-67,-71],[-23,-93],[-26,-37],[-90,6],[-45,-38],[-43,85],[-53,8],[-56,62],[-25,59]],[[2605,1123],[38,37],[-9,95],[-40,63],[-25,146],[-45,36],[-58,-3],[-67,65],[5,30],[-35,57],[-67,-34],[-41,59],[-39,1],[-18,-38],[-77,41],[-113,169],[-103,50]],[[1911,1897],[43,12],[25,-34],[97,-21],[-13,-56],[62,-13],[20,-86],[57,-18],[78,61],[34,-37],[38,76],[48,2],[5,-69],[24,-26],[64,5],[68,28],[33,58],[50,34],[41,-42],[83,33],[35,56],[4,43],[-99,105],[8,92],[49,79],[-12,74],[-82,22],[-1,95],[-27,22],[54,63]],[[800,1081],[42,-47],[-37,-79],[15,-24]],[[820,931],[-6,-42]],[[814,889],[-54,-99],[-77,8],[-90,-27],[-9,-20],[-79,-17],[-52,4],[-60,-27],[-45,47],[-33,-12],[-78,-72],[-47,-7]],[[190,667],[-28,-4],[-55,41],[-62,91],[21,63],[73,70],[-20,73],[-31,52],[-88,72],[0,41],[56,135],[136,60],[-42,-43],[-3,-57],[22,-77],[107,-34],[-16,145],[99,13],[-22,-88],[13,-61],[-49,-130],[61,-75],[90,-32],[52,36],[52,-25],[99,18],[89,57],[56,73]],[[1787,273],[5,-35],[-67,-48],[-7,-49],[-47,-63],[-71,-10],[-58,29],[-41,-50],[-59,4],[-32,23],[-43,-47],[-51,-27],[-125,39],[-47,46],[-36,-5],[-99,66],[-30,-19],[-69,40],[-86,10],[-100,-21],[-44,42],[-237,16],[-36,18],[21,80],[-33,65],[25,34],[-16,64],[-32,28],[-56,10],[-23,-22],[-55,35],[27,39],[-50,38],[-25,64]],[[814,889],[81,15],[128,-47]],[[800,1081],[80,32],[10,49],[70,69],[125,48],[44,-23],[18,-103],[-74,37],[-104,-77],[38,-76],[-30,-19],[-41,-77],[-116,-10]],[[1914,1448],[31,14],[36,-62],[61,-6],[45,49],[1,43],[47,27],[-20,135],[-39,-11],[-16,39],[-46,-17],[-38,29],[63,69],[-83,54],[-6,56],[-39,30]],[[2605,1123],[-39,1],[-9,-60],[-42,-122],[-40,-39],[-3,-62],[-30,-35],[-2,-92],[-16,-47],[8,-105],[-59,-17],[-51,-61],[-13,-106],[-137,-56],[-53,41],[-6,68]]],"transform":{"scale":[0.00019087406006614022,0.00015739536820957934],"translate":[135.4498620485948,35.343686945896025]},"objects":{"japan":{"type":"GeometryCollection","geometries":[{"arcs":[[0,1,2,3,4,5,6,7]],"type":"Polygon","properties":{"pref":"福井県","city":"福井市","code5":"18201","code6":"182010"}},{"arcs":[[8,9,10,11]],"type":"Polygon","properties":{"pref":"福井県","city":"敦賀市","code5":"18202","code6":"182028"}},{"arcs":[[12,13,14,15]],"type":"Polygon","properties":{"pref":"福井県","city":"小浜市","code5":"18204","code6":"182044"}},{"arcs":[[16,17,-3,18]],"type":"Polygon","properties":{"pref":"福井県","city":"大野市","code5":"18205","code6":"182052"}},{"arcs":[[19,-19,-2,20,21,22]],"type":"Polygon","properties":{"pref":"福井県","city":"勝山市","code5":"18206","code6":"182061"}},{"arcs":[[-5,23,24]],"type":"Polygon","properties":{"pref":"福井県","city":"鯖江市","code5":"18207","code6":"182079"}},{"arcs":[[25,26,27]],"type":"Polygon","properties":{"pref":"福井県","city":"あわら市","code5":"18208","code6":"182087"}},{"arcs":[[-24,28,29,30]],"type":"Polygon","properties":{"pref":"福井県","city":"越前市","code5":"18209","code6":"182095"}},{"arcs":[[31,-22,32,-8,33,-27]],"type":"Polygon","properties":{"pref":"福井県","city":"坂井市","code5":"18210","code6":"182109"}},{"arcs":[[-1,-33,-21]],"type":"Polygon","properties":{"pref":"福井県","county":"吉田郡","city":"永平寺町","code5":"18322","code6":"183229"}},{"arcs":[[-4,-18,34,35,-29]],"type":"Polygon","properties":{"pref":"福井県","county":"今立郡","city":"池田町","code5":"18382","code6":"183822"}},{"arcs":[[-12,36,37,-30,-36,38]],"type":"Polygon","properties":{"pref":"福井県","county":"南条郡","city":"南越前町","code5":"18404","code6":"184047"}},{"arcs":[[-6,-25,-31,-38,39]],"type":"Polygon","properties":{"pref":"福井県","county":"丹生郡","city":"越前町","code5":"18423","code6":"184233"}},{"arcs":[[-10,40,41,42]],"type":"Polygon","properties":{"pref":"福井県","county":"三方郡","city":"美浜町","code5":"18442","code6":"184420"}},{"arcs":[[43,44,45,46]],"type":"Polygon","properties":{"pref":"福井県","county":"大飯郡","city":"高浜町","code5":"18481","code6":"184811"}},{"arcs":[[[-15,47,-46,48]],[[-44,49]]],"type":"MultiPolygon","properties":{"pref":"福井県","county":"大飯郡","city":"おおい町","code5":"18483","code6":"184837"}},{"arcs":[[-13,50,-42,51]],"type":"Polygon","properties":{"pref":"福井県","county":"三方上中郡","city":"若狭町","code5":"18501","code6":"185019"}}]}}}