{"type":"Topology","arcs":[[[4121,7351],[-35,-49],[-75,-64],[-53,-78],[-52,-32],[27,-72],[-38,-182],[-29,-31],[-1,-104],[49,-24],[-14,-95],[-44,4],[-33,-59],[-31,8],[-60,-56],[-22,-45],[32,-92],[-3,-33],[-44,-57],[-49,-130],[-94,-94],[11,-57],[-9,-79],[28,-25],[-38,-76],[160,-104],[48,20],[29,-26],[-38,-59]],[[3743,5660],[10,-45],[54,-88],[-41,-67],[-61,4],[-17,-23],[53,-86],[50,-125],[33,-18],[11,-104],[39,-85],[-187,-98],[-33,-36],[-70,-36],[-8,-64],[10,-105],[79,-7],[-15,-68],[22,-75],[-166,-95],[-1,-58],[46,-57],[90,-60],[63,4],[44,-30],[34,-113],[27,-32],[-2,-48],[-64,-86],[75,-42],[42,-52],[11,-46],[71,-14],[17,-75],[70,-58],[2,-48]],[[4031,3624],[-47,-32],[-72,2],[-104,-80],[-29,-35],[-55,-3],[-30,22],[-75,8]],[[3619,3506],[-24,54],[-33,22],[-9,69]],[[3553,3651],[-16,67],[-34,35],[10,89],[37,32],[19,57],[-25,41],[-83,21]],[[3461,3993],[2,65],[-46,14],[4,38],[-32,52],[4,43],[-63,73],[-76,40],[27,33],[-4,54],[-54,14],[31,53],[-4,77],[-45,39],[-4,86]],[[3201,4674],[-2,35],[-47,19],[-7,52],[32,35],[-31,88],[50,54],[-85,75],[-39,-46]],[[3072,4986],[-54,51],[36,35],[-50,96],[27,79],[23,21],[-3,63],[-84,162],[-25,18],[13,106],[30,3],[58,66],[63,-9],[18,64],[32,10],[3,60],[102,72],[41,75],[-35,71],[-66,20],[10,106],[-105,13],[-19,57],[-2,76],[36,74],[20,85],[32,37],[-20,89]],[[3153,6586],[11,69],[56,52],[21,52],[-23,33],[5,81],[136,7],[69,-9],[39,32],[48,136],[36,41],[80,6],[46,119],[53,-9],[44,30],[10,89]],[[3784,7315],[58,30],[50,-34],[71,49],[81,-8],[34,20],[43,-21]],[[5795,3508],[11,-66],[63,-59],[15,-80]],[[5884,3303],[-12,-50],[-72,-22],[-20,-34],[-68,-42],[-41,11],[-47,-31],[-42,-3],[-121,78],[-23,-45],[-14,-109],[-54,-55]],[[5370,3001],[35,-61],[-10,-118],[-57,-11],[266,-93],[3,-48],[-47,-131],[176,-120],[125,-74],[-10,-35]],[[5851,2310],[-52,-22],[-47,26],[-61,-40],[-84,-29],[-43,-61],[-60,-40],[-55,24],[-62,-8],[-77,10],[-451,-107],[-138,-37]],[[4721,2026],[-4,68],[27,253],[-50,299],[193,205]],[[4887,2851],[71,93],[30,83],[14,124],[52,112],[119,76],[-104,-3],[-4,49],[74,-11],[23,35],[-13,80],[53,51],[-1,46],[60,78],[73,49],[36,83]],[[5370,3796],[110,-5],[28,-48],[96,-18],[29,-60],[-30,-96],[32,-80],[25,-19],[87,11],[48,27]],[[5795,3508],[-21,183],[11,47],[92,46],[-56,29],[-9,50],[-39,-6],[-51,71],[-80,46],[-48,-15],[-83,8],[-45,19],[-63,-3]],[[5403,3983],[-76,79],[-19,93],[3,53]],[[5311,4208],[101,35],[62,59],[95,27],[70,-3],[218,-99],[46,20],[64,4],[35,-20],[47,54],[81,33],[24,-11],[51,69],[85,14],[76,64],[36,-12],[28,68],[87,35],[29,-86],[58,-50],[-11,-78],[15,-100],[54,-54],[47,26],[51,-8],[53,44],[69,6],[22,33],[52,-11],[46,32],[73,-20]],[[7075,4279],[19,-78],[90,-104],[6,-76],[78,-49],[-27,-55]],[[7241,3917],[-103,-11],[-58,-44],[11,-41],[-22,-69],[-54,-44],[-155,-40],[-47,9],[-27,-129],[-34,-43],[-111,-62],[-59,-42],[-65,-10],[-91,-98],[-1,-108],[-23,-57],[5,-96],[-28,-15]],[[6379,3017],[-137,-79],[-57,1]],[[6185,2939],[-59,40],[-55,105],[-47,40],[15,33],[-16,85],[-50,65],[-89,-4]],[[4706,7719],[50,-54],[37,19],[85,-44],[79,8],[63,-34],[99,14],[103,-75],[17,-26],[14,-92],[-8,-62],[44,-40],[98,-22],[45,-80]],[[5432,7231],[-81,-111],[-12,-111],[-51,-37],[-62,-22],[-43,-104],[18,-45],[-21,-44],[16,-91],[-17,-42],[14,-62],[-12,-46],[20,-72],[-87,-4],[-23,28],[-107,11],[-16,-17],[-160,7],[-14,-55],[17,-52],[36,-16],[-30,-138],[-159,-114],[-23,-117],[-58,-73],[-30,-12],[9,-66],[-34,-43],[-17,-75],[-29,-40],[96,-41],[-29,-140],[48,-98],[-133,-112],[58,-45],[7,-78]],[[4523,5154],[-102,0],[-72,-21],[-72,-3],[-113,19],[53,124],[-137,42],[-118,64],[45,33],[-101,102],[-72,59],[-48,68],[-43,19]],[[4121,7351],[130,-42],[57,121],[27,129],[52,21],[71,75],[47,30],[20,39],[139,-18],[42,13]],[[5311,4208],[-54,-24]],[[5257,4184],[-56,51],[17,57],[-33,55],[-51,-14],[-53,25],[11,69],[-60,126]],[[5032,4553],[74,21],[31,24],[19,63],[36,21],[68,-3],[86,61],[96,-12],[44,77],[86,-4],[41,68],[59,53],[77,87],[-20,62],[20,61],[-18,29],[-12,94],[47,97],[45,20],[19,50],[-41,138],[13,48],[-14,84],[42,163]],[[5830,5855],[67,40],[46,-1],[76,24],[41,33],[83,22],[87,5],[81,-28],[66,13],[56,-35],[61,-6],[49,-27],[24,-49],[74,-48],[102,-40],[47,-90]],[[6790,5668],[-33,-36],[4,-44],[36,-37],[46,-9],[20,-78],[25,-37],[98,-73],[-18,-70],[66,-56],[103,-32],[67,0],[46,-138],[-100,-172],[65,-50],[7,-105],[27,-61],[65,-11],[98,-38],[132,50],[35,-11],[3,-96],[26,-51],[-22,-26],[12,-131],[-18,-24],[-79,16],[-126,-13],[-123,-40],[-51,35],[-70,-49],[-56,-2]],[[2743,6265],[118,12],[46,-35],[-9,-142],[-64,-157],[5,-71],[-33,-57],[-52,-46],[-48,-7],[-65,-72],[-42,-18],[-14,45],[-65,17],[-48,-72],[-29,-92],[59,-134],[-19,-19],[92,-92],[50,-27]],[[2625,5298],[-61,-41],[-92,-4],[-93,-28],[-90,-43],[-139,-33],[-16,27],[-62,1],[-112,92],[-92,-26],[-76,38],[-20,46],[-67,2],[-66,39],[-72,12],[-56,-11],[-22,-83],[-148,-39],[-129,45],[-51,47],[-9,72],[-32,38],[-24,75],[-100,123]],[[996,5647],[25,27],[107,-33],[60,10],[120,109],[13,68],[46,54],[36,68],[-9,72],[71,-4],[49,41],[61,-2],[93,48],[-75,113],[68,42],[141,33],[81,6],[26,-72],[62,11],[69,72],[73,-60],[64,-114],[9,-45],[117,-176],[78,110],[91,47],[67,21],[96,97],[11,50],[97,25]],[[2625,5298],[73,-22],[24,-40],[43,-187],[22,-204],[35,1]],[[2822,4846],[10,-104]],[[2832,4742],[-34,-9],[0,-114],[30,-128],[-8,-63],[-37,-76],[-41,-29],[-38,-105]],[[2704,4218],[-120,-64],[-24,-34]],[[2560,4120],[-37,36],[1,55],[-78,58],[-55,2],[-73,29],[-109,-31],[-83,13],[-59,26],[-5,61],[-74,4],[16,40],[-50,24],[-58,-44],[-159,12],[-46,41],[-70,-45],[-4,-45],[-109,11],[-29,43],[-39,-15]],[[1440,4395],[-84,11],[-35,75],[9,60],[-65,58],[-45,-19],[-77,-62],[-46,55],[37,70],[17,119],[-30,68],[37,47],[-40,75],[-92,2],[-131,26],[-65,-28],[-156,30],[-40,-10],[-114,49],[-101,-18],[-11,-27]],[[408,4976],[-83,-14],[-21,40],[-70,77],[-23,88],[-104,83],[6,242],[-25,67],[-38,26],[-50,71],[8,74],[42,40],[93,51],[26,63],[57,26],[49,62],[55,42],[24,51],[64,27]],[[418,6092],[41,-77],[0,-80],[66,-64],[111,-17],[71,-32],[16,-51],[107,-85],[88,-45],[78,6]],[[3153,6586],[-85,15],[-81,51],[-88,-42],[-54,-5],[13,-42],[-26,-145],[-89,-153]],[[418,6092],[61,49],[-39,60],[-64,23],[-29,52],[-34,7],[-103,117],[-60,-11],[-59,29],[-54,70],[22,93],[48,40],[106,124],[-19,72],[29,93],[50,57],[30,88],[24,14],[45,98],[22,12],[50,196],[49,65],[89,37],[136,-105],[72,-114],[52,-47],[40,-12],[81,81],[88,129],[38,83],[44,37],[99,119],[56,89],[5,36],[68,107],[23,11],[31,100],[-5,63],[61,69],[68,32],[2,64],[13,57],[65,48],[9,43],[97,-1],[76,-52],[153,-40],[72,-36],[63,0],[163,-82],[63,-60],[33,-74],[-59,-94],[-2,-59],[-24,-61],[39,-51],[45,-100],[54,3],[95,-76],[90,26],[66,-24],[42,59],[26,97],[43,8],[25,70],[64,12],[71,-14],[69,-43],[137,2],[73,44],[36,-31],[55,14],[68,-54],[37,-8],[37,59],[98,13],[70,-47],[17,-41],[84,-12],[-44,-94],[-10,-82],[6,-139],[35,-50],[93,-34]],[[3072,4986],[-94,-94],[29,-43],[-21,-47],[-164,44]],[[4523,5154],[49,-2],[-2,-182],[40,24],[49,-89],[124,-30],[14,-57],[40,-42],[60,-27],[44,-41],[73,28],[14,-39],[4,-144]],[[5257,4184],[-14,-95],[-77,-23],[-149,6],[-54,-58],[-41,1],[-188,-72],[-48,-39],[-214,-83],[-66,-15],[-32,-38],[-52,-22],[-9,-41],[-58,-44],[-224,-37]],[[7138,5942],[13,-38],[61,-80],[14,-56],[55,-54],[50,-19],[34,-38],[68,-19],[46,-48],[95,-46],[77,-53],[82,2],[91,-52],[42,18],[73,-13],[60,-63],[122,-85],[39,-51],[-64,-94],[-35,-26],[-22,-58],[83,-135],[-29,-82],[-1,-104],[88,-86],[-51,-33],[45,-64],[-32,-124],[-40,-20],[-27,-60],[22,-50],[32,-12],[-6,-96],[22,-49],[-10,-46],[-62,-67],[-52,-26],[-28,-41]],[[7993,3974],[-90,-39],[-106,-24],[-28,43],[-66,9],[-114,-38],[-67,21],[-98,-26],[-29,11],[-140,-28],[-14,14]],[[6790,5668],[47,19],[122,-5],[4,32],[67,86],[24,48],[80,96]],[[7134,5944],[4,-2]],[[5432,7231],[52,30],[76,5],[34,-36],[79,28],[32,25],[96,-28],[19,-74],[33,13]],[[5853,7194],[14,-33],[-15,-89],[24,-61],[-45,-64],[9,-31],[-78,-42],[-7,-45],[75,-80],[-27,-99],[52,-25],[23,-93],[37,-7],[-24,-72],[8,-50],[-44,-36],[-87,-8],[-64,-29],[-35,18],[-72,-10],[-134,0],[22,-60],[-2,-60],[73,-105],[149,-64],[2,-24],[58,-60]],[[5765,5965],[15,-77],[50,-33]],[[3461,3993],[-89,-14],[-2,-46],[-122,7],[-104,52],[-50,5],[-32,31],[34,59],[-21,52],[73,118],[-41,2],[-72,55],[-84,-57],[-29,-47],[-47,26],[-171,-18]],[[2832,4742],[46,-1],[35,-136],[104,-6],[9,75],[88,20],[16,-24],[71,4]],[[3553,3651],[-42,-13],[-187,-3],[-97,-28],[-119,39],[-62,7],[-83,-43],[-21,-61],[-161,10],[-82,-63],[31,-52],[-30,-43],[-80,-41],[-69,-65],[-73,9],[-46,-13],[-16,-67],[-45,-11],[-11,-36],[-69,-52],[-19,11],[16,92],[63,83],[-4,64],[-60,73]],[[2287,3448],[139,79],[40,56],[-19,85],[-52,-6],[-71,48],[-6,57],[16,66],[103,0],[9,65],[76,110],[38,112]],[[1440,4395],[-16,-36],[-75,-29],[-44,-49],[-41,-113],[-60,-38],[32,-37],[13,-129],[52,33],[197,-39],[4,-76],[-20,-104],[1,-97],[38,-44],[25,-137],[64,-53],[12,-114],[60,-20],[65,-83]],[[1747,3230],[-45,-121],[10,-60],[-19,-37],[16,-92],[45,-55],[82,-40],[19,-53],[91,-77],[19,-56],[51,-11],[56,-46],[-23,-89],[7,-51],[-26,-53],[-110,-17],[-53,-67],[-42,-13],[14,-140],[-13,-100],[-53,-102],[-102,-38],[-34,-31],[-180,102],[-68,-91],[4,-93],[-64,-151]],[[1329,1648],[-96,7],[-95,-48],[-18,-31],[-72,-31],[-56,-2],[-20,-47],[-76,-80],[-76,33],[-57,72],[-101,22],[-27,35],[2,45],[-54,78],[70,73],[-26,71],[11,31],[-36,103],[2,54],[-38,38],[-35,-13],[-47,43],[-45,13],[7,56],[63,120],[50,30],[4,91],[100,79],[-4,78],[14,73],[2,96],[-37,106],[1,35],[-60,27],[-34,72],[17,98],[61,26],[38,105],[17,137],[-8,42],[12,132],[74,86],[-36,60],[-18,75],[-45,39],[23,125],[-5,105],[-64,29],[-65,81],[6,61],[-40,73],[-9,107],[35,51],[-25,142],[-42,11],[5,68],[-19,23],[17,76],[-67,52],[35,134],[-34,61]],[[1457,2107],[74,38],[-14,107],[-38,-28],[-26,-84],[4,-33]],[[3619,3506],[-68,-97],[-4,-77],[16,-50],[-87,-52],[-27,-41],[12,-281],[-18,-18]],[[3443,2890],[-39,-51],[-59,-14],[-62,-52],[-36,-3],[-30,-84],[-85,-98],[-63,-27],[-56,-50],[-5,-76],[40,-127],[-66,-113]],[[2982,2195],[-68,-11],[-58,24],[-6,-73],[-45,-60],[1,-57],[-101,-37],[-23,-83],[-32,-37],[-66,-20],[-21,-73],[21,-72],[-37,-40],[41,-48],[-16,-104],[-46,-38],[-193,-12],[-26,86],[-45,-12],[-135,-10],[-75,-61],[-51,17],[-72,-58],[-6,-41],[-183,-50],[-95,40]],[[1645,1365],[-16,56],[-51,76],[-45,14],[-16,45],[-65,-26],[-57,29],[-66,89]],[[1747,3230],[75,38],[33,66],[58,6],[83,53],[22,35],[101,25],[76,-48],[53,-8],[39,51]],[[2982,2195],[21,-30],[-7,-172],[7,-147],[36,-47],[2,-109],[-71,-48],[-12,-43],[-114,-86],[34,-182],[48,-132],[-12,-131],[-42,-37],[-10,-53],[55,-71],[21,-71],[33,-167],[22,-16],[24,-80],[-42,-68],[33,-60],[17,-107],[-41,-34],[-52,17],[-43,-6],[-44,-100],[-52,-31],[-44,-99],[-41,-22],[-41,-63],[-62,61],[-104,20],[-95,35],[-37,-14],[-222,23],[-30,24],[-23,76],[-49,80],[-99,55],[-76,-28],[-38,79],[-31,126],[10,51],[-44,153],[-5,70],[-68,81],[-40,97],[-56,72],[19,67],[-22,40],[1,103],[49,94]],[[7993,3974],[-2,-55],[19,-63],[-62,-65],[-22,-55],[-84,-53],[-73,-102],[-44,7],[-54,-29],[-72,-6],[-51,-19],[-75,32],[-46,-10],[-18,-106],[-60,-89],[-54,-23],[-26,-81],[-57,-23],[-52,12],[-58,-56],[-89,5],[-77,-14],[-32,-53],[-54,-50],[-46,29],[-36,-32],[-86,-13],[-41,-25],[-119,-107],[-28,-8]],[[6494,2922],[-103,65],[-12,30]],[[5370,3796],[-5,60],[-28,75],[66,52]],[[6185,2939],[-51,-38],[-19,-44],[-43,-24],[-76,-14],[-58,10],[-70,-33],[-54,69],[56,69],[-127,69],[-22,-113],[-114,-55],[-237,166]],[[6494,2922],[1,-19],[-86,-97],[-6,-75],[34,-43],[-4,-57],[-39,-58],[-65,-41],[-15,-112],[-46,-30],[-70,-15],[-39,-47],[-48,-15],[-41,-42],[-74,-4],[-50,-44],[-95,87]],[[4721,2026],[-51,25],[-210,-27],[-15,-31],[-155,-21],[-81,367],[-67,56],[-209,0]],[[3933,2395],[40,25],[57,112],[11,58],[111,37],[-1,39],[-46,80],[2,114],[-39,72],[86,294],[71,64],[48,-1],[70,37],[64,2],[106,68],[89,12],[51,-48],[72,-25],[-21,-91],[-24,-39],[-23,-125],[72,-8],[112,-58],[33,-90],[13,-73]],[[3933,2395],[-256,-53],[-98,403],[-79,52],[-57,93]],[[6893,6263],[48,-62],[26,-83],[55,-46],[54,-7],[58,-121]],[[5765,5965],[58,14],[133,133],[12,70],[40,33],[88,24],[47,-30],[121,44],[85,11],[106,111],[80,-56],[33,-1],[34,-45],[49,15],[77,-34],[69,19],[96,-10]],[[5853,7194],[58,-16],[88,-108],[51,2],[55,-76],[61,72],[102,63],[100,-22],[32,-18],[75,22],[76,39],[39,-55],[-10,-65],[51,-70],[77,-72],[61,18],[10,-42],[-6,-120],[19,-22],[-15,-95],[13,-58],[46,-65],[-2,-39],[70,-39],[12,-32],[-23,-133]]],"transform":{"scale":[0.00011648533007335113,0.00009597227202103555],"translate":[138.18086,35.16838]},"objects":{"japan":{"type":"GeometryCollection","geometries":[{"arcs":[[0,1,2,3,4,5,6,7,8,9]],"type":"Polygon","properties":{"pref":"山梨県","city":"甲府市","code5":"19201","code6":"192015"}},{"arcs":[[10,11,12,13,14,15,16]],"type":"Polygon","properties":{"pref":"山梨県","city":"富士吉田市","code5":"19202","code6":"192023"}},{"arcs":[[-11,17,18,19,20,21,22,23]],"type":"Polygon","properties":{"pref":"山梨県","city":"都留市","code5":"19204","code6":"192040"}},{"arcs":[[24,25,26,-1,27]],"type":"Polygon","properties":{"pref":"山梨県","city":"山梨市","code5":"19205","code6":"192058"}},{"arcs":[[-20,28,29,30,31,32]],"type":"Polygon","properties":{"pref":"山梨県","city":"大月市","code5":"19206","code6":"192066"}},{"arcs":[[33,34,35]],"type":"Polygon","properties":{"pref":"山梨県","city":"韮崎市","code5":"19207","code6":"192074"}},{"arcs":[[-35,36,37,38,39,40,41,42,43]],"type":"Polygon","properties":{"pref":"山梨県","city":"南アルプス市","code5":"19208","code6":"192082"}},{"arcs":[[-9,44,-36,-44,45]],"type":"Polygon","properties":{"pref":"山梨県","city":"北杜市","code5":"19209","code6":"192091"}},{"arcs":[[-8,46,-37,-34,-45]],"type":"Polygon","properties":{"pref":"山梨県","city":"甲斐市","code5":"19210","code6":"192104"}},{"arcs":[[-2,-27,47,-30,48]],"type":"Polygon","properties":{"pref":"山梨県","city":"笛吹市","code5":"19211","code6":"192112"}},{"arcs":[[49,50,-21,-33,51,52]],"type":"Polygon","properties":{"pref":"山梨県","city":"上野原市","code5":"19212","code6":"192121"}},{"arcs":[[53,54,55,-31,-48,-26]],"type":"Polygon","properties":{"pref":"山梨県","city":"甲州市","code5":"19213","code6":"192139"}},{"arcs":[[-6,56,-39,57]],"type":"Polygon","properties":{"pref":"山梨県","city":"中央市","code5":"19214","code6":"192147"}},{"arcs":[[-5,58,59,-40,-57]],"type":"Polygon","properties":{"pref":"山梨県","county":"西八代郡","city":"市川三郷町","code5":"19346","code6":"193461"}},{"arcs":[[-42,60,61,62],[63]],"type":"Polygon","properties":{"pref":"山梨県","county":"南巨摩郡","city":"早川町","code5":"19364","code6":"193640"}},{"arcs":[[[-4,64,65,66,67,-62,68,-59]],[[-64]]],"type":"MultiPolygon","properties":{"pref":"山梨県","county":"南巨摩郡","city":"身延町","code5":"19365","code6":"193658"}},{"arcs":[[-67,69]],"type":"Polygon","properties":{"pref":"山梨県","county":"南巨摩郡","city":"南部町","code5":"19366","code6":"193666"}},{"arcs":[[-41,-60,-69,-61]],"type":"Polygon","properties":{"pref":"山梨県","county":"南巨摩郡","city":"富士川町","code5":"19368","code6":"193682"}},{"arcs":[[-7,-58,-38,-47]],"type":"Polygon","properties":{"pref":"山梨県","county":"中巨摩郡","city":"昭和町","code5":"19384","code6":"193844"}},{"arcs":[[70,71,-22,-51]],"type":"Polygon","properties":{"pref":"山梨県","county":"南都留郡","city":"道志村","code5":"19422","code6":"194221"}},{"arcs":[[-17,72,-18]],"type":"Polygon","properties":{"pref":"山梨県","county":"南都留郡","city":"西桂町","code5":"19423","code6":"194239"}},{"arcs":[[-12,-24,73]],"type":"Polygon","properties":{"pref":"山梨県","county":"南都留郡","city":"忍野村","code5":"19424","code6":"194247"}},{"arcs":[[74,-13,-74,-23,-72]],"type":"Polygon","properties":{"pref":"山梨県","county":"南都留郡","city":"山中湖村","code5":"19425","code6":"194255"}},{"arcs":[[-15,75,76]],"type":"Polygon","properties":{"pref":"山梨県","county":"南都留郡","city":"鳴沢村","code5":"19429","code6":"194298"}},{"arcs":[[-3,-49,-29,-19,-73,-16,-77,77,-65]],"type":"Polygon","properties":{"pref":"山梨県","county":"南都留郡","city":"富士河口湖町","code5":"19430","code6":"194301"}},{"arcs":[[78,-52,-32,-56,79]],"type":"Polygon","properties":{"pref":"山梨県","county":"北都留郡","city":"小菅村","code5":"19442","code6":"194425"}},{"arcs":[[80,-80,-55]],"type":"Polygon","properties":{"pref":"山梨県","county":"北都留郡","city":"丹波山村","code5":"19443","code6":"194433"}}]}}}