{"type":"Topology","arcs":[[[3549,10342],[71,-48],[62,-11],[26,-52],[95,-9],[2,-48],[83,25],[37,42],[-11,40],[44,84],[40,36]],[[3998,10401],[-1,-35],[60,-88],[7,-43],[-34,-55],[17,-135],[138,23],[-25,-57],[13,-76],[36,-59],[56,-35]],[[4265,9841],[2,-50],[172,-74],[29,-41],[83,-56],[110,-23],[82,75],[106,-11],[48,54],[20,58],[-12,36],[95,-5],[72,27]],[[5072,9831],[56,-1],[19,-43],[0,-97],[13,-18]],[[5160,9672],[-49,-36],[-61,-3],[2,-43],[-37,-31],[0,-98]],[[5015,9461],[-136,-302],[58,-20],[102,-99],[8,-53],[56,-38],[28,-49],[15,-109],[-4,-58],[56,-40],[-37,-47],[2,-58]],[[5163,8588],[-92,-114],[-62,29],[-24,-12],[-58,-138],[-87,15],[-55,-39],[-52,30],[-50,-41],[-105,21]],[[4578,8339],[-2,75],[-64,128],[-84,36],[-19,67],[-101,-12],[-80,5],[-24,-46],[-68,-57],[-69,-15],[-110,28],[-79,-26],[-51,17],[-54,-18],[-21,-86],[9,-41],[-46,-56],[-29,-128],[50,-19]],[[3736,8191],[-176,-49],[-149,-123]],[[3411,8019],[-45,4],[-48,42],[-44,75],[12,33]],[[3286,8173],[20,34],[-5,69],[41,29],[14,71],[-48,44],[-40,1],[-52,-46],[-47,19],[2,31],[-64,87],[-8,72],[46,58],[49,159],[32,70]],[[3226,8871],[56,1],[55,56],[93,-15],[28,-31],[85,25],[5,84],[-25,58],[20,67],[-10,35],[54,100],[-34,35],[-119,40],[-34,39],[-27,-30],[-55,29],[-21,-22],[-55,20],[-128,-96],[-54,29]],[[3060,9295],[38,129],[-12,76],[44,40],[54,161],[41,67]],[[3225,9768],[61,79],[-2,45],[79,98],[-1,64],[36,28],[12,61],[64,105],[41,33],[34,61]],[[3946,7456],[-6,-71],[-60,-99],[29,-149],[-6,-34],[52,-27]],[[3955,7076],[-49,-163],[7,-88],[52,-70],[-20,-68],[59,-47],[12,-41],[52,-4],[24,-67],[67,-47]],[[4159,6481],[50,-44],[-19,-69],[2,-110],[27,-43],[-18,-65]],[[4201,6150],[-103,-26],[-22,9],[-82,-40]],[[3994,6093],[-55,-5],[-126,74],[-44,-45],[-16,-84]],[[3753,6033],[-63,0],[-35,18],[-128,13],[-104,35],[-55,-53],[-9,123],[-16,14],[-90,-8],[-32,-115],[-68,-55],[-19,7],[39,93],[-39,30],[-37,-34],[1,-66],[-37,-8],[-86,-104]],[[2975,5923],[-42,22],[34,40],[-40,38]],[[2927,6023],[47,103],[9,51],[30,24],[-18,86],[-38,15],[-81,-24],[-86,-49],[-65,-54],[-33,-59],[-52,-10],[-81,-56],[-19,-35]],[[2540,6015],[-86,-99],[-47,-119],[-39,-73],[-76,-72],[-46,-10]],[[2246,5642],[-40,-33],[-26,-52],[-34,-23],[7,-138],[-74,-87],[-16,-49],[-84,-104]],[[1979,5156],[-43,29],[-73,14],[-70,-41],[-58,19],[-18,36],[-108,49],[-106,-53],[-30,44],[-40,4]],[[1433,5257],[-6,109],[37,35],[8,46],[35,24],[-29,116],[-59,-13],[-21,32],[-108,49],[-112,135],[50,131],[-30,46],[26,43],[44,23],[-1,33],[52,40],[70,29],[20,50],[-20,40],[21,76],[-74,32],[-31,54],[-11,93],[52,12],[35,52],[35,92],[50,37],[46,89],[61,59],[13,40],[100,67],[-5,47],[32,53],[-21,27],[9,117],[-23,18],[-4,70]],[[1674,7260],[69,-25],[116,4],[35,113],[28,44],[43,15]],[[1965,7411],[74,-73],[19,1],[43,-74],[5,-134],[-35,-101],[-2,-54],[25,-56],[77,-38],[22,-42],[197,7],[31,47],[45,-51],[6,-101],[-46,-65],[26,-53],[89,10],[32,-14],[31,39],[50,-2],[74,-44],[103,-13],[88,13],[11,22],[173,22],[60,85],[40,90],[31,33],[7,56],[59,42],[87,29],[29,38],[-45,81],[-58,-4],[-55,45],[50,104],[-22,22],[15,96],[21,30],[45,1],[17,42],[44,34],[58,4]],[[3486,7485],[40,-35],[80,9],[30,20],[145,7],[21,17],[106,-56],[38,9]],[[5692,8532],[8,-56],[-51,-67],[9,-94],[-46,-106],[19,-58],[-7,-52],[20,-41],[-17,-35],[16,-57],[-11,-112]],[[5632,7854],[-224,-26],[-60,-61],[-8,-87],[-85,-47],[-11,-33],[-95,-90],[-62,-3],[-15,-32],[26,-48],[65,-55],[58,-16],[4,-59],[-23,-80],[-54,-74],[-52,-23]],[[5096,7120],[-37,24],[-43,-102],[11,-110],[-12,-14]],[[5015,6918],[-39,-12],[-22,50],[-44,22],[-40,-21],[-63,-98],[14,-171],[-64,-26],[-3,-52],[-64,-96],[-63,-5],[-118,10],[-62,-39],[-61,-7],[-44,42],[-63,13],[-47,32],[-29,-8],[-44,-71]],[[3955,7076],[64,35],[78,66],[34,-38],[84,83],[-8,72],[77,50],[55,102],[-25,77],[6,60],[-68,18],[-68,48],[-48,8]],[[4136,7657],[-11,63],[20,48],[-15,82],[38,17]],[[4168,7867],[37,9]],[[4205,7876],[59,-27],[136,-109],[77,27],[160,32],[26,21],[171,25],[6,69],[-44,82],[-67,48],[10,95],[-47,22],[-11,47],[-93,67]],[[4588,8275],[-10,64]],[[5163,8588],[64,-26],[54,-56],[94,25],[22,50],[136,35],[49,-7],[22,-28],[88,-49]],[[3994,6093],[-35,-69],[88,-53],[11,-79],[-37,14],[-49,-21],[-42,24],[-36,-209],[30,-140],[-2,-83],[60,-67]],[[3982,5410],[-38,-135],[-59,-69],[-81,18],[-77,-54]],[[3727,5170],[-67,13],[-27,-22],[-70,20],[-28,-18],[-48,33],[29,43],[14,112],[37,79]],[[3567,5430],[48,57],[-17,50],[23,55],[60,43],[-4,70],[12,113],[60,161],[4,54]],[[2607,2650],[-34,-34],[-8,-56],[42,-47],[-33,-75],[-8,-60],[15,-40],[72,-55],[6,-46],[63,-7],[114,-96],[54,-28]],[[2890,2106],[-77,-116],[-2,-79],[105,-12],[-27,-60],[-4,-66],[52,-58],[69,-29],[64,-1],[18,-30],[-12,-91],[27,-38],[116,-38],[34,-35],[66,55],[24,36],[-11,41],[134,207],[0,43]],[[3466,1835],[18,37]],[[3484,1872],[58,-26],[92,-92],[53,-28],[46,-80],[57,32],[21,40],[40,21],[49,56],[67,30],[59,-70],[67,-9],[69,-119]],[[4162,1627],[-6,-55],[24,-65],[-12,-45],[96,-38],[-26,-94],[49,-11],[43,-51],[-7,-51],[-29,-41],[-24,-89],[-62,-27],[-27,17],[-47,-20],[-79,-69],[-19,-89],[-47,-13],[-85,58],[-52,1],[-56,-75],[-69,-18],[8,-42],[-67,-37],[8,-54],[-47,-67],[-68,21],[-71,-17],[-51,-59],[-47,4],[-32,-56],[-81,-7],[-40,-44],[-79,-5],[-23,-96],[-32,-38],[-62,-1],[-60,24]],[[2983,378],[2,93],[23,52],[-113,84],[-40,-24],[-41,34],[7,55],[-22,44],[-89,33]],[[2710,749],[34,-1],[16,48],[81,-20],[87,24],[58,-13],[110,97],[37,46],[10,104],[-65,-27],[-118,105],[15,38],[-35,41],[-87,14],[-21,58],[-87,62],[-56,14],[-69,55],[-52,21]],[[2568,1415],[-98,35],[-73,-8],[-24,-40],[-44,9]],[[2329,1411],[-19,5],[-37,117],[13,19],[3,107],[-52,-24],[-42,36],[-72,156],[-10,61],[59,36],[21,63],[-18,24],[-123,41],[-43,102],[-27,96],[-53,9]],[[1929,2259],[-19,52],[7,45],[34,44],[47,15],[68,48],[-27,82],[75,91]],[[2114,2636],[41,-3],[84,44],[35,49],[91,26],[45,46],[80,107]],[[2490,2905],[45,-47],[-6,-28]],[[2529,2830],[44,-42],[10,-92],[24,-46]],[[3982,5410],[139,77],[85,94],[-20,72],[66,-2],[5,77],[101,1],[69,15],[0,79],[-28,47]],[[4399,5870],[133,2],[-6,-40],[50,-56]],[[4576,5776],[-32,-42],[-10,-62],[-57,-13],[-38,-172],[-2,-40],[-90,-116],[17,-60],[-9,-83],[-114,-35],[9,-40],[-74,-85],[-39,-23],[-13,-73]],[[4124,4932],[-73,-49],[-38,2],[-29,-46]],[[3984,4839],[-36,2],[-29,-65],[-79,-25],[-80,46],[-46,56]],[[3714,4853],[58,18],[12,58],[-16,161],[-44,12],[3,68]],[[5844,8972],[-33,-67],[-33,-15],[-9,-61],[-36,-70],[43,-54],[2,-79],[-59,-83],[-27,-11]],[[5015,9461],[38,-8],[135,11],[80,-38]],[[5268,9426],[36,-130],[42,-86],[125,-25],[17,18],[75,-19],[33,-70],[89,-31],[11,-27],[88,-39],[60,-45]],[[5929,7707],[10,-44],[96,-1],[58,-23],[16,78],[77,5]],[[6186,7722],[-54,-31],[-20,-106],[-57,-29],[-104,-210],[127,-25],[-34,-108],[17,-21],[-2,-101]],[[6059,7091],[-28,-29],[38,-79],[-40,-28],[-39,7],[-53,-50],[-67,-39],[-154,8],[7,55],[-60,41],[-74,-16],[-34,21]],[[5555,6982],[-35,34],[-36,91],[-49,54],[19,48],[74,6],[4,87],[26,28],[-8,50],[67,76],[74,-6],[135,86],[31,86],[72,85]],[[4734,3523],[-168,-165],[-82,-55],[-5,-45],[53,-60],[15,-40],[-3,-148],[64,-51],[13,-54],[56,-71],[-39,-59],[-41,-20],[-6,-88],[20,-63],[-53,-82],[-7,-43],[-54,-99],[-60,54],[-57,-2],[-54,-66]],[[4326,2366],[-29,35],[-81,31],[-24,72],[-79,48],[-52,93],[22,78],[-18,126],[-52,51],[-34,114],[-32,41],[-12,95],[-82,59]],[[3853,3209],[13,30],[-17,106],[7,57],[-52,39],[-1,31],[-48,63],[12,38],[-27,38],[-57,35],[-32,-3],[-112,48],[-110,11],[-43,-73],[-38,1],[-27,53]],[[3321,3683],[-70,-45],[-116,49],[-81,19],[-146,18],[-66,121],[-32,15],[-179,1]],[[2631,3861],[-22,44]],[[2609,3905],[68,64],[53,90],[-1,131],[38,10],[11,52]],[[2778,4252],[54,23],[56,-45],[51,9],[-55,84],[5,56],[51,88],[116,-26],[68,14],[26,37]],[[3150,4492],[121,-47]],[[3271,4445],[-25,-51],[-33,27],[-32,-83],[103,-36],[-22,-57],[-43,-18],[-27,48],[-35,-46],[-118,-12],[44,-43],[81,-5],[89,-30],[42,96],[97,-72],[53,61],[6,74],[20,21]],[[3471,4319],[68,14],[28,26],[132,65],[78,132],[44,24],[43,-27],[97,106],[45,103],[-22,77]],[[4124,4932],[61,-21],[47,-51],[88,-59],[-20,-74],[73,-58],[43,-107]],[[4416,4562],[26,-27],[-23,-49],[24,-89],[36,-9],[-17,-68],[28,-20],[-28,-51],[53,-27],[6,-33],[-62,-83],[18,-74],[-26,-63],[-17,-143],[27,-92],[54,-30],[55,0]],[[4570,3704],[37,7],[101,-107],[63,-51],[-37,-30]],[[3853,3209],[-74,-29],[-21,-49],[4,-106],[-46,-49]],[[3716,2976],[-46,50],[-68,-10],[-83,42],[-64,-27],[-39,63]],[[3416,3094],[-7,39],[-70,-24],[-41,26],[-20,54],[-91,0],[-118,36],[-174,-78],[-107,71],[-40,-14],[-136,58],[-41,31]],[[2571,3293],[-61,61],[-5,102],[51,69],[-26,166]],[[2530,3691],[2,12]],[[2532,3703],[46,-16],[56,-59],[59,-21],[36,-39],[54,0],[12,-74],[38,19],[41,-24],[191,14],[96,-4],[181,8],[-28,65],[7,111]],[[5072,9831],[53,115],[-22,60],[15,51],[-17,41],[-103,28],[-4,94],[10,61],[-26,73],[-2,54]],[[4976,10408],[47,20],[49,-5],[37,-42],[1,-53],[36,-40],[49,3],[37,-75],[154,-18],[27,34],[-29,90],[52,93],[109,-66]],[[5545,10349],[69,-1],[-13,-108],[9,-51],[37,-19]],[[5647,10170],[5,-55],[-93,-109],[55,-75],[-22,-70],[-30,-14],[6,-53],[28,-30],[-11,-93],[40,-97],[31,-41]],[[5656,9533],[-55,-19],[-100,26],[-41,26],[-66,-58],[-38,10]],[[5356,9518],[-40,68],[16,52],[-65,60],[-69,-3],[-38,-23]],[[1369,7568],[27,0],[67,81],[-8,40],[29,58],[43,4],[27,32],[56,9],[23,41],[11,91],[29,56],[51,26],[8,75],[-31,61],[7,52],[29,31],[45,0],[14,104],[44,31],[31,-11],[117,33],[-10,56],[3,64],[-102,7],[25,100],[-9,54],[133,95],[63,61],[119,1],[27,44],[-48,121],[15,75],[24,14],[26,128],[2,74],[21,38]],[[2277,9314],[46,-46],[59,-10],[97,-40],[24,-46],[71,-43],[35,-76],[-4,-60],[56,1],[14,49],[113,0],[51,-10],[2,81],[76,40],[70,6],[6,29],[64,26]],[[3057,9215],[48,-92],[-26,-67],[4,-34],[71,-77],[-3,-41],[75,-33]],[[3286,8173],[-33,28],[-52,-19],[11,-34],[-67,-63]],[[3145,8085],[-45,17],[-103,12],[-57,-9],[10,-87],[22,-76],[-51,-19],[-36,-42],[-39,12]],[[2846,7893],[-67,-24],[-65,56],[-70,-1],[-57,-27],[-18,66],[-64,-29],[23,-56],[-7,-94],[-19,-24],[-56,8],[-67,-43],[-51,9],[-18,-26],[-68,-7]],[[2242,7701],[-37,49],[-104,44],[-82,-93],[16,-79],[-43,-84],[14,-52],[-41,-75]],[[1674,7260],[-53,8],[-58,78],[-27,60],[-101,38],[-67,11],[1,113]],[[4971,10434],[67,31],[45,80],[-40,64],[56,116],[-47,64],[31,89],[112,92],[61,10],[73,-38],[30,52],[46,31],[36,66],[-4,58],[64,120],[14,52],[63,51],[16,42],[90,22],[5,22],[102,26],[124,86],[68,-12],[70,24],[54,-7],[51,29],[97,18]],[[6255,11622],[-8,-67],[-37,-66],[-81,-54],[-24,-72],[13,-45]],[[6118,11318],[-46,-19],[-120,-2],[-105,-111],[-54,-24],[13,-45],[-64,-15],[0,-74],[-19,-21],[2,-76],[37,17],[16,-83],[43,-13],[20,-60],[110,-92]],[[5951,10700],[-81,-49],[-39,8],[-87,-27],[-83,22],[-22,-35],[-32,-110],[-63,-12],[67,-66],[-33,-14],[-33,-68]],[[4976,10408],[-5,26]],[[4576,5776],[91,-15],[94,33]],[[4761,5794],[67,-61],[-5,-38],[108,-23],[43,-31],[59,22],[47,98],[32,36]],[[5112,5797],[99,4],[26,-22]],[[5237,5779],[-5,-46],[17,-60],[33,-42],[1,-104],[59,-47],[13,-85],[27,-6]],[[5382,5389],[13,-79],[31,-107]],[[5426,5203],[17,-91],[36,-51],[14,-76],[-21,-75]],[[5472,4910],[-115,20],[-153,-11],[-52,19],[-328,35],[-82,21],[-88,0],[-9,-51],[-91,-17],[-63,6],[-19,-42],[78,-96],[26,4],[100,-83]],[[4676,4715],[-92,-7],[-58,-30],[-27,32],[-83,-148]],[[3567,5430],[-31,8],[-111,-65],[-107,63],[-47,3],[-4,58],[-57,-14],[-4,-54],[-54,-24],[-2,-43],[-63,-49],[-46,-1],[-39,-63],[29,-41],[-81,-84],[-45,-22],[-39,-61],[-13,-60],[-27,-15],[-21,-55],[-53,-22],[-27,-61],[-37,-10],[-41,-57],[-11,-65],[30,-60],[88,-27],[35,-76]],[[2789,4533],[-36,-37],[-22,-101],[51,-83],[-4,-60]],[[2609,3905],[-41,99],[-39,15],[7,108],[-30,15],[11,122],[51,57],[-8,57],[-52,70],[10,101],[-28,76]],[[2490,4625],[2,59],[-33,153],[27,60],[32,24],[-9,43],[21,115],[-5,113],[17,86],[-4,55],[25,105]],[[2563,5438],[62,4],[63,60],[9,49],[58,26],[36,77],[63,33],[8,39],[147,152],[-34,45]],[[6676,6861],[30,-74],[-20,-110],[54,-54],[-3,-74],[54,-94],[57,10],[19,-75],[-73,-47],[35,-85],[40,-55],[-128,-40],[-41,-28],[-54,9],[-73,65],[-18,-49]],[[6555,6160],[-71,17],[-72,-2],[-116,-18],[-103,-5],[-57,8],[-70,70],[-61,-66],[-58,2],[-66,-25],[-81,13],[-73,-69],[-51,-11],[-65,-53],[-94,-45],[-75,-77],[-57,-42],[-55,8],[-93,-86]],[[5112,5797],[-1,103],[-51,63],[-17,61],[-32,18],[5,70],[-17,26],[11,86],[38,97],[-3,39],[33,47],[45,164],[61,76],[82,60],[39,49],[-4,69],[22,124]],[[5323,6949],[75,38],[63,8],[57,-52],[37,39]],[[6059,7091],[23,-19],[-9,-56],[62,-2],[22,-39],[67,8],[57,-90],[91,14],[82,-38],[115,16]],[[6569,6885],[107,-24]],[[4588,8275],[-10,-40],[-70,-43],[-54,-15],[-16,-77],[-63,-1],[43,-57],[-45,-53],[-134,-59],[-34,-54]],[[4168,7867],[-19,78],[-62,64],[-21,57],[-46,34],[-45,8]],[[3975,8108],[-47,37],[-14,60],[-68,4],[-72,27],[-38,-45]],[[5632,7854],[213,-77],[29,-21],[51,6],[4,-55]],[[5323,6949],[-25,96],[19,58],[-54,26],[-33,-87],[-155,13],[21,65]],[[2242,7701],[6,-57],[80,-63],[26,35],[51,-5],[29,-28],[47,17],[135,-23],[15,-50],[42,0],[90,67],[87,-67],[12,-26]],[[2862,7501],[21,-9],[62,-87],[105,46],[-35,118],[30,29],[29,79],[62,29]],[[3136,7706],[22,-54],[-13,-70],[47,-43],[77,-7],[38,68],[81,62]],[[3388,7662],[8,-37],[54,-66],[30,-6],[6,-68]],[[5382,5389],[72,45],[-5,81],[23,22],[52,-40],[63,39],[51,13],[35,43],[85,48],[93,100],[57,24],[14,43],[56,70],[25,-4],[20,-67],[31,-43],[61,12],[59,-28],[34,65],[44,5],[60,-31],[74,23],[100,-73],[37,1],[58,-31]],[[6581,5706],[6,-59],[-57,-22],[-61,-59],[-94,9],[-95,-32],[-45,10],[-59,-79]],[[6176,5474],[-67,-77],[-5,-64]],[[6104,5333],[-27,-8],[-38,80],[-55,22],[-16,-68],[-38,-55],[-66,-59],[-200,2],[-110,-50],[-128,6]],[[7139,5040],[125,-41],[-6,-89],[15,-37],[59,-50],[29,-79],[43,-39],[-4,-64],[-49,-75],[-1,-51],[-110,3],[-84,-88],[-32,-12],[-16,-79],[-35,-74],[-79,26],[-97,6],[-43,-30],[-66,2],[-57,21],[-21,30],[2,135],[27,57],[-51,7],[-53,54],[-60,-8],[-23,-36],[-64,38],[-55,10],[-45,-26],[-84,-2],[-42,27],[-82,1],[-42,-48]],[[6138,4529],[-4,44],[-35,50],[0,72],[-16,45],[-5,86],[110,61],[-40,114],[38,22],[53,-79],[32,60],[60,-4],[26,37],[98,22]],[[6455,5059],[47,-19],[129,20],[50,-25],[120,13],[21,-24],[99,-12],[64,37],[31,-21],[43,15],[80,-3]],[[6138,4529],[-41,-95],[-40,15],[-55,-16],[-58,46],[-33,-2],[-52,92],[17,74],[35,57],[-58,82],[-100,49],[-175,47],[-47,31],[-59,1]],[[6104,5333],[60,5],[-1,-55],[43,-39],[55,-2],[73,-33],[67,-69],[33,-7],[21,-74]],[[6839,5272],[70,-27],[6,-26],[81,-23],[2,-28],[94,-2],[7,-47],[32,-28],[8,-51]],[[6176,5474],[31,-17],[102,-16],[71,-54],[89,-5],[16,-35],[130,-38],[108,-12],[116,-25]],[[6835,5673],[-1,-34],[65,-110],[7,-122],[-67,-135]],[[6581,5706],[82,-5],[10,16],[137,-21],[25,-23]],[[6911,5852],[0,-132],[-76,-47]],[[6555,6160],[84,-95],[13,-76],[26,-35],[113,-24],[62,13],[17,-61],[41,-30]],[[6907,7706],[21,-25],[20,-79],[-14,-103],[40,-63],[-25,-40],[-12,-65],[2,-129],[15,-49],[-29,-63],[29,-73],[-44,-54],[-75,-38],[-95,-18],[-64,-46]],[[6569,6885],[-24,66],[-59,46],[-61,69],[-4,38],[41,47],[-38,22],[-64,-3],[-106,24],[18,75],[-44,94],[-4,81],[-33,161],[64,71]],[[6255,7676],[49,-23],[59,-2],[76,95],[83,12],[101,27],[93,-4],[98,-49],[55,11],[38,-37]],[[6186,7722],[69,-46]],[[4761,5794],[83,72],[54,62],[77,127],[6,79],[34,131],[6,134],[-8,93],[47,105],[39,59],[-17,42],[-43,31],[3,60],[-27,129]],[[3946,7456],[-33,42],[-49,126],[42,39],[132,16],[83,-49],[15,27]],[[4399,5870],[-58,46],[-7,50],[-33,42],[-64,26],[-5,93],[-31,23]],[[5419,4820],[-2,-39],[-78,-62],[-16,-99],[-55,-72],[-38,-76],[-87,-95],[-77,-129],[-49,-50],[-57,36],[-44,70],[-83,63],[-54,-22],[-29,-40],[-31,-119],[-74,-129],[-31,-35],[-17,-57],[12,-44],[-94,-100],[-14,-56],[69,-61]],[[4676,4715],[77,-59],[100,96],[95,20],[95,85],[95,22],[78,-25],[203,-34]],[[5472,4910],[-53,-90]],[[3714,4853],[-14,-39],[-82,-77],[-69,43],[-56,4],[-2,-55],[-60,18],[-65,-24],[-33,32],[-113,59],[-72,-69],[-71,-40],[-18,-33],[-63,-3],[-57,-50]],[[2939,4619],[-40,-19],[-13,-63],[-97,-4]],[[3471,4319],[-9,109],[-152,23],[-39,-6]],[[3150,4492],[-24,-1],[-99,74],[-88,54]],[[2490,2905],[0,62],[21,56],[-12,45],[55,68],[-10,61],[27,51],[0,45]],[[3416,3094],[-26,-5],[-14,-81],[-22,-25],[-62,37],[-49,-124],[-43,-8],[-64,35],[-52,-96],[-46,14],[-36,-36]],[[3002,2805],[-64,-27],[-53,4],[-44,25],[-16,52],[-117,23],[-5,-37],[-57,-47],[-50,29],[-67,3]],[[3716,2976],[16,-190],[-42,-56],[-39,-90],[-58,-45],[-50,-61]],[[3543,2534],[-30,55],[-38,23],[-94,-15],[-55,-33],[-102,46],[-46,-43],[-83,66],[-63,69],[1,100],[-31,3]],[[2532,3703],[-24,52]],[[2508,3755],[108,73],[15,33]],[[3543,2534],[-47,-80],[63,-66],[-4,-28],[72,-57],[-4,-53],[-25,-29]],[[3598,2221],[-14,45],[-89,56],[-91,100],[-47,-12],[-47,-37],[-93,-17],[-81,56],[-36,-27]],[[3100,2385],[-63,34],[-25,44],[-149,90],[-60,2],[-138,30],[-58,65]],[[3100,2385],[-74,-14],[-41,-47],[-42,-137],[-51,-78]],[[2892,2109],[-2,-3]],[[2705,721],[-15,-38],[-75,-39],[-43,0],[-78,-61],[-29,23],[-127,-141],[-22,-122],[-57,-11],[-43,-61],[-97,-24],[-45,-42]],[[2074,205],[-53,-12],[-21,20]],[[2000,213],[37,-4],[55,77],[-26,52],[26,19],[12,84],[24,15],[13,108],[-42,68],[-123,-8],[-38,32],[-110,31]],[[1828,687],[6,41],[59,54],[-6,88],[12,40]],[[1899,910],[95,21],[63,35],[23,62],[66,-3],[44,65]],[[2190,1090],[48,-39],[8,-43],[84,-53],[37,30],[39,88],[84,76],[38,78]],[[2528,1227],[10,-71],[103,-125],[16,-66],[59,-40],[-61,-109],[21,-67],[29,-28]],[[2329,1411],[-62,-78],[-121,-74],[-25,-66],[30,-14],[15,-77],[24,-12]],[[1899,910],[-56,8],[-57,33],[-74,67],[-51,69],[7,69],[-16,70],[-40,48]],[[1612,1274],[-9,74],[-53,8],[-32,73],[-2,47],[-117,102],[132,133],[53,-3],[6,64],[-27,104],[1,43],[38,55]],[[1602,1974],[63,11],[1,64],[52,71],[108,-3],[51,30],[19,90],[33,22]],[[1828,687],[-46,-112],[4,-50],[-43,-29],[0,-67]],[[1743,429],[-74,39],[-54,-45],[-50,2],[-1,95],[14,84],[27,41],[-151,84],[-64,-7],[-86,31]],[[1304,753],[66,43],[16,43],[57,3],[-5,71],[11,78],[-24,71],[2,86],[-56,47],[-51,23],[-14,62],[80,-40],[77,2],[69,-14],[80,46]],[[1743,429],[27,-88],[38,-64],[-38,-90]],[[1770,187],[-52,-8],[-2,-58],[-47,-54],[-93,18],[-124,-37],[-61,-42],[-67,-6],[-10,26],[10,107],[-84,101],[-64,48],[-24,57],[13,50],[48,31],[-9,50],[78,68],[-46,39],[-23,34],[13,95],[60,56],[18,-9]],[[2568,1415],[-21,-45],[20,-41],[-45,-44],[6,-58]],[[2000,213],[-72,11],[-36,-19],[-31,28],[-70,-50],[-21,4]],[[2983,378],[-68,-63],[13,-75],[-24,-63],[-41,-47],[-70,28],[-74,-15],[-36,-54],[-87,20],[-111,-63],[-88,2],[-23,-21],[-60,27],[2,73],[-40,15],[-90,-12],[-41,24],[-68,-4],[-3,55]],[[2705,721],[5,28]],[[2892,2109],[79,-33],[120,-130],[72,7],[25,24],[97,-25],[46,28],[74,-103],[61,-42]],[[3598,2221],[-66,-209],[-9,-62],[-24,-12],[-15,-66]],[[4326,2366],[-29,-88],[51,-34],[18,-43],[-65,-97],[-45,-47],[42,-23],[-33,-120],[44,1],[50,-36],[-7,-136],[19,-13],[-18,-69],[-83,-6],[-50,-36],[-58,8]],[[2530,3691],[-45,-36],[-35,-57],[-36,-27],[-63,-11],[-119,-160],[5,-63],[-50,-53],[-41,-19],[-44,31],[-109,34],[-37,30],[-45,0],[-40,104],[-61,29],[-93,13],[-61,-128],[46,-35],[-33,-75],[-136,-35],[-93,-9],[-40,27],[-32,82],[18,43],[-16,33],[-66,20],[-51,-50],[-66,-30]],[[1187,3349],[-49,29],[-24,93],[-30,56],[81,-14],[44,12],[42,-16],[40,64],[56,-1],[15,36],[68,23],[-40,68],[-5,43],[48,43],[49,-42],[71,19],[14,39]],[[1567,3801],[69,-22],[64,14],[38,-37],[63,16],[3,37],[76,89],[62,26],[1,25],[189,16],[64,-24],[27,-39],[105,-4],[82,-101],[57,-45],[41,3]],[[1602,1974],[-65,78],[-3,25],[-61,52],[-25,-18],[-146,87],[-20,61],[2,54],[-34,25],[30,85],[-26,33],[-101,14],[-41,-16],[-30,43],[-65,55],[-33,50],[17,66],[29,6],[29,105],[52,15],[8,52],[31,29],[-50,64],[-3,30],[-57,36],[-79,69]],[[961,3074],[67,41],[67,12],[100,-24],[60,-59],[110,-2],[110,-61],[28,-79],[66,-29],[25,-35],[41,19],[57,-1],[65,67],[36,7],[53,-51],[69,-44],[12,-51],[37,-43],[135,-60],[15,-45]],[[2246,5642],[143,-85],[38,33],[39,-2],[7,-62],[29,-17],[16,-68],[45,-3]],[[2490,4625],[-123,-64],[-14,-58],[-39,-24],[-65,30],[-10,46],[-62,54],[-45,62],[-69,54],[-39,87],[-85,85],[2,62],[24,51],[-17,55],[31,91]],[[1187,3349],[5,-42],[-55,-7],[-2,-33],[-53,-25],[-75,11],[-33,-11],[-31,35],[-96,14]],[[847,3291],[-13,52],[-75,71],[-28,50],[-4,80],[-27,32],[-102,-18],[-34,59],[-51,42],[-67,18],[-59,-12],[-46,32],[28,30],[-24,85],[-56,18],[-110,-34],[-34,34],[-91,-16],[-21,67],[-33,18],[32,181],[20,22],[109,-9],[23,22],[34,92],[-2,102],[71,100],[89,20],[87,37],[122,23],[58,-77],[52,-23],[92,30]],[[787,4419],[123,-96],[29,-42],[102,-12],[112,-57],[67,-16],[76,-40],[28,-89],[-5,-29],[55,-99],[41,-29],[69,104],[47,13],[-27,-92],[-27,-6],[-12,-89],[10,-52],[92,13]],[[961,3074],[-64,39],[8,49],[-67,59],[9,70]],[[787,4419],[30,41],[8,84],[75,96],[41,75],[69,-6],[29,33],[43,106],[61,69],[-4,66],[164,82],[82,69],[48,123]],[[3975,8108],[-88,-71],[-36,-48],[-39,-6],[-20,-59],[6,-54],[29,-30],[-15,-80],[-60,59],[-65,28],[-95,18],[-10,100],[-33,42],[-50,19],[-88,-7]],[[3411,8019],[-21,-57],[-46,-26],[18,-40],[-37,-125],[44,-34],[19,-75]],[[3136,7706],[-59,73],[-42,104],[44,11],[79,58],[22,67],[-35,66]],[[2927,6023],[-40,16],[-127,-61],[-109,-26],[-49,64],[-62,-1]],[[2862,7501],[16,80],[-25,194],[14,30],[-21,88]],[[2286,9959],[13,10]],[[2299,9969],[285,-53],[24,-33],[130,-63],[40,42],[28,-49],[112,-41],[17,-38],[81,28],[21,23],[66,-12],[56,10],[66,-15]],[[3060,9295],[-25,-9],[22,-71]],[[2277,9314],[-11,74],[6,62],[-50,121],[13,91],[-9,48],[44,87],[-39,67],[12,18],[43,77]],[[2299,9969],[57,38],[33,-4],[50,39],[9,48],[140,73],[15,49],[42,13],[1,63],[74,106],[61,59],[-5,36],[64,84],[28,5],[23,61],[-50,30],[-11,60],[-24,22],[51,76],[-46,27],[5,38],[58,18],[21,-20],[77,-17],[93,50],[46,13],[64,-36],[80,-8],[31,-50],[48,-19],[38,55],[36,-16],[79,16],[59,-36],[57,-7],[10,-68],[81,-12],[3,-84],[-79,-113],[-4,-51],[22,-64],[-31,-23],[-56,-78]],[[5356,9518],[-40,-31],[4,-34],[-52,-27]],[[6330,9325],[-48,-96],[-89,-19],[-94,-44],[-47,25],[-42,-7],[-37,-46],[-37,-13],[8,-53],[-29,-80],[-71,-20]],[[5656,9533],[120,-21],[102,-37],[109,-23],[16,-57],[145,-12],[75,-50],[107,-8]],[[6895,9690],[-63,-27],[-44,5],[-55,-87],[-88,46],[-58,-80],[-44,37],[-76,-1],[-88,-20],[-32,-31],[-92,-42],[-11,-97],[49,-52],[37,-16]],[[5647,10170],[72,21],[77,111],[62,-45],[220,-48],[22,-64],[106,30],[45,35],[52,-22],[23,88],[42,52],[42,-2]],[[6410,10326],[27,-28],[110,-60],[172,20],[57,-23],[27,-75],[42,-33],[11,-39],[-38,-100],[-5,-104],[54,-62],[28,-132]],[[5951,10700],[49,-5],[84,82],[35,-14],[0,-44]],[[6119,10719],[39,-61],[-7,-85],[-21,-37],[74,-20],[75,33],[92,-30],[47,20],[30,-35],[-81,-98],[43,-80]],[[6118,11318],[26,-13],[98,44],[-3,-65],[-93,-64],[-38,-100],[-49,-67],[2,-88],[74,2],[89,-103],[-69,-121],[-36,-24]],[[3998,10401],[53,50],[37,2],[46,42],[54,-15],[34,16],[50,-22],[112,-18],[72,26],[7,22],[93,11],[53,35],[38,58],[86,-26],[104,7],[100,-30],[18,-35],[-7,-68],[23,-22]],[[4976,10408],[-71,-94],[91,-27],[-35,-54],[-74,-22],[-39,-49],[1,-49],[-46,-31],[-101,-42],[-54,-76],[-5,-49],[-65,6],[-25,-39],[-50,5],[-69,-48],[-169,2]],[[7177,9784],[-108,-48],[-138,-25],[-36,-21]],[[6255,11622],[25,16],[62,-60],[84,17],[70,-15],[51,-156],[56,-62],[9,-64],[-19,-286],[40,-41],[-15,-63],[36,-53],[88,9],[43,-28],[-17,-78],[29,-46],[144,-65],[34,-40],[100,-5],[63,-42],[27,-52],[-17,-44],[-2,-84],[-49,-52],[79,-96],[-60,-134],[-66,-28],[-11,-63],[55,-46],[41,-4],[19,-46],[2,-79],[21,-48]]],"transform":{"scale":[0.00019087322488716392,0.00015740753491856222],"translate":[137.32602897455774,35.19846905430359]},"objects":{"japan":{"type":"GeometryCollection","geometries":[{"arcs":[[0,1,2,3,4,5,6,7,8,9,10,11,12,13]],"type":"Polygon","properties":{"pref":"長野県","city":"長野市","code5":"20201","code6":"202011"}},{"arcs":[[14,15,16,17,18,19,20,21,22,23,24,25,26,27,28]],"type":"Polygon","properties":{"pref":"長野県","city":"松本市","code5":"20202","code6":"202029"}},{"arcs":[[29,30,31,32,-16,33,34,35,36,37,-7,38]],"type":"Polygon","properties":{"pref":"長野県","city":"上田市","code5":"20203","code6":"202037"}},{"arcs":[[-19,39,40,41,42]],"type":"Polygon","properties":{"pref":"長野県","city":"岡谷市","code5":"20204","code6":"202045"}},{"arcs":[[43,44,45,46,47,48,49,50,51,52,53,54,55]],"type":"Polygon","properties":{"pref":"長野県","city":"飯田市","code5":"20205","code6":"202053"}},{"arcs":[[-41,56,57,58,59,60,61]],"type":"Polygon","properties":{"pref":"長野県","city":"諏訪市","code5":"20206","code6":"202061"}},{"arcs":[[62,-39,-6,63,64]],"type":"Polygon","properties":{"pref":"長野県","city":"須坂市","code5":"20207","code6":"202070"}},{"arcs":[[65,66,67,68]],"type":"Polygon","properties":{"pref":"長野県","city":"小諸市","code5":"20208","code6":"202088"}},{"arcs":[[69,70,71,72,73,74,75,76,77,78,-60,79,80,81]],"type":"Polygon","properties":{"pref":"長野県","city":"伊那市","code5":"20209","code6":"202096"}},{"arcs":[[-72,82,83,84,85,86,87]],"type":"Polygon","properties":{"pref":"長野県","city":"駒ヶ根市","code5":"20210","code6":"202100"}},{"arcs":[[-4,88,89,90,91,92,93]],"type":"Polygon","properties":{"pref":"長野県","city":"中野市","code5":"20211","code6":"202118"}},{"arcs":[[94,95,96,-11,97,98,99,100,-27,101]],"type":"Polygon","properties":{"pref":"長野県","city":"大町市","code5":"20212","code6":"202126"}},{"arcs":[[102,103,104,105,-90,106]],"type":"Polygon","properties":{"pref":"長野県","city":"飯山市","code5":"20213","code6":"202134"}},{"arcs":[[-59,107,108,109,110,111,112,113,114,-80]],"type":"Polygon","properties":{"pref":"長野県","city":"茅野市","code5":"20214","code6":"202142"}},{"arcs":[[-20,-43,115,116,-75,117,118,119]],"type":"Polygon","properties":{"pref":"長野県","city":"塩尻市","code5":"20215","code6":"202151"}},{"arcs":[[120,121,-110,122,123,-68,124,125]],"type":"Polygon","properties":{"pref":"長野県","city":"佐久市","code5":"20217","code6":"202177"}},{"arcs":[[-8,-38,126,-36,127,128]],"type":"Polygon","properties":{"pref":"長野県","city":"千曲市","code5":"20218","code6":"202185"}},{"arcs":[[129,-69,-124,130,-31]],"type":"Polygon","properties":{"pref":"長野県","city":"東御市","code5":"20219","code6":"202193"}},{"arcs":[[-28,-101,131,132,133,134]],"type":"Polygon","properties":{"pref":"長野県","city":"安曇野市","code5":"20220","code6":"202207"}},{"arcs":[[-112,135,136,137,138]],"type":"Polygon","properties":{"pref":"長野県","county":"南佐久郡","city":"小海町","code5":"20303","code6":"203033"}},{"arcs":[[139,140,141]],"type":"Polygon","properties":{"pref":"長野県","county":"南佐久郡","city":"川上村","code5":"20304","code6":"203041"}},{"arcs":[[142,-113,-139,143,-141]],"type":"Polygon","properties":{"pref":"長野県","county":"南佐久郡","city":"南牧村","code5":"20305","code6":"203050"}},{"arcs":[[144,-142,-144,-138,145]],"type":"Polygon","properties":{"pref":"長野県","county":"南佐久郡","city":"南相木村","code5":"20306","code6":"203068"}},{"arcs":[[146,-146,-137,147]],"type":"Polygon","properties":{"pref":"長野県","county":"南佐久郡","city":"北相木村","code5":"20307","code6":"203076"}},{"arcs":[[148,-148,-136,-111,-122,149]],"type":"Polygon","properties":{"pref":"長野県","county":"南佐久郡","city":"佐久穂町","code5":"20309","code6":"203092"}},{"arcs":[[150,-126,151,152]],"type":"Polygon","properties":{"pref":"長野県","county":"北佐久郡","city":"軽井沢町","code5":"20321","code6":"203211"}},{"arcs":[[153,-152,-125,-67]],"type":"Polygon","properties":{"pref":"長野県","county":"北佐久郡","city":"御代田町","code5":"20323","code6":"203238"}},{"arcs":[[-32,-131,-123,-109,154]],"type":"Polygon","properties":{"pref":"長野県","county":"北佐久郡","city":"立科町","code5":"20324","code6":"203246"}},{"arcs":[[-15,155,-34]],"type":"Polygon","properties":{"pref":"長野県","county":"小県郡","city":"青木村","code5":"20349","code6":"203491"}},{"arcs":[[-17,-33,-155,-108,-58,156]],"type":"Polygon","properties":{"pref":"長野県","county":"小県郡","city":"長和町","code5":"20350","code6":"203505"}},{"arcs":[[-18,-157,-57,-40]],"type":"Polygon","properties":{"pref":"長野県","county":"諏訪郡","city":"下諏訪町","code5":"20361","code6":"203611"}},{"arcs":[[157,-81,-115,158]],"type":"Polygon","properties":{"pref":"長野県","county":"諏訪郡","city":"富士見町","code5":"20362","code6":"203629"}},{"arcs":[[159,-159,-114]],"type":"Polygon","properties":{"pref":"長野県","county":"諏訪郡","city":"原村","code5":"20363","code6":"203637"}},{"arcs":[[-42,-62,160,161,-116]],"type":"Polygon","properties":{"pref":"長野県","county":"上伊那郡","city":"辰野町","code5":"20382","code6":"203823"}},{"arcs":[[-61,-79,162,-77,163,-161]],"type":"Polygon","properties":{"pref":"長野県","county":"上伊那郡","city":"箕輪町","code5":"20383","code6":"203831"}},{"arcs":[[-55,164,-85,165,166]],"type":"Polygon","properties":{"pref":"長野県","county":"上伊那郡","city":"飯島町","code5":"20384","code6":"203840"}},{"arcs":[[[-76,-117,-162,-164]],[[-78,-163]]],"type":"MultiPolygon","properties":{"pref":"長野県","county":"上伊那郡","city":"南箕輪村","code5":"20385","code6":"203858"}},{"arcs":[[-84,167,168,-166]],"type":"Polygon","properties":{"pref":"長野県","county":"上伊那郡","city":"中川村","code5":"20386","code6":"203866"}},{"arcs":[[-73,-88,169,170]],"type":"Polygon","properties":{"pref":"長野県","county":"上伊那郡","city":"宮田村","code5":"20388","code6":"203882"}},{"arcs":[[-56,-167,-169,171,172,173]],"type":"Polygon","properties":{"pref":"長野県","county":"下伊那郡","city":"松川町","code5":"20402","code6":"204021"}},{"arcs":[[-44,-174,174,175]],"type":"Polygon","properties":{"pref":"長野県","county":"下伊那郡","city":"高森町","code5":"20403","code6":"204030"}},{"arcs":[[176,177,178,179,180,181,182]],"type":"Polygon","properties":{"pref":"長野県","county":"下伊那郡","city":"阿南町","code5":"20404","code6":"204048"}},{"arcs":[[-52,183,-181,184,185,186]],"type":"Polygon","properties":{"pref":"長野県","county":"下伊那郡","city":"阿智村","code5":"20407","code6":"204072"}},{"arcs":[[-180,187,188,189,-185]],"type":"Polygon","properties":{"pref":"長野県","county":"下伊那郡","city":"平谷村","code5":"20409","code6":"204099"}},{"arcs":[[-189,190,191]],"type":"Polygon","properties":{"pref":"長野県","county":"下伊那郡","city":"根羽村","code5":"20410","code6":"204102"}},{"arcs":[[-51,192,-182,-184]],"type":"Polygon","properties":{"pref":"長野県","county":"下伊那郡","city":"下條村","code5":"20411","code6":"204111"}},{"arcs":[[-179,193,-191,-188]],"type":"Polygon","properties":{"pref":"長野県","county":"下伊那郡","city":"売木村","code5":"20412","code6":"204129"}},{"arcs":[[-49,194,-177,195]],"type":"Polygon","properties":{"pref":"長野県","county":"下伊那郡","city":"天龍村","code5":"20413","code6":"204137"}},{"arcs":[[-50,-196,-183,-193]],"type":"Polygon","properties":{"pref":"長野県","county":"下伊那郡","city":"泰阜村","code5":"20414","code6":"204145"}},{"arcs":[[-45,-176,196]],"type":"Polygon","properties":{"pref":"長野県","county":"下伊那郡","city":"喬木村","code5":"20415","code6":"204153"}},{"arcs":[[-46,-197,-175,-173,197]],"type":"Polygon","properties":{"pref":"長野県","county":"下伊那郡","city":"豊丘村","code5":"20416","code6":"204161"}},{"arcs":[[-47,-198,-172,-168,-83,-71,198]],"type":"Polygon","properties":{"pref":"長野県","county":"下伊那郡","city":"大鹿村","code5":"20417","code6":"204170"}},{"arcs":[[-87,199,200,201,-170]],"type":"Polygon","properties":{"pref":"長野県","county":"木曽郡","city":"上松町","code5":"20422","code6":"204226"}},{"arcs":[[-53,-187,202,203]],"type":"Polygon","properties":{"pref":"長野県","county":"木曽郡","city":"南木曽町","code5":"20423","code6":"204234"}},{"arcs":[[-24,204,-119,205]],"type":"Polygon","properties":{"pref":"長野県","county":"木曽郡","city":"木祖村","code5":"20425","code6":"204251"}},{"arcs":[[-201,206,207,208]],"type":"Polygon","properties":{"pref":"長野県","county":"木曽郡","city":"王滝村","code5":"20429","code6":"204293"}},{"arcs":[[-54,-204,209,-207,-200,-86,-165]],"type":"Polygon","properties":{"pref":"長野県","county":"木曽郡","city":"大桑村","code5":"20430","code6":"204307"}},{"arcs":[[-25,-206,-118,-74,-171,-202,-209,210]],"type":"Polygon","properties":{"pref":"長野県","county":"木曽郡","city":"木曽町","code5":"20432","code6":"204323"}},{"arcs":[[-9,-129,211]],"type":"Polygon","properties":{"pref":"長野県","county":"東筑摩郡","city":"麻績村","code5":"20446","code6":"204463"}},{"arcs":[[-10,212,-134,213,-98]],"type":"Polygon","properties":{"pref":"長野県","county":"東筑摩郡","city":"生坂村","code5":"20448","code6":"204480"}},{"arcs":[[-22,214]],"type":"Polygon","properties":{"pref":"長野県","county":"東筑摩郡","city":"山形村","code5":"20450","code6":"204501"}},{"arcs":[[-21,-120,-205,-23,-215]],"type":"Polygon","properties":{"pref":"長野県","county":"東筑摩郡","city":"朝日村","code5":"20451","code6":"204510"}},{"arcs":[[-29,-135,-213,-212,-128,-35,-156]],"type":"Polygon","properties":{"pref":"長野県","county":"東筑摩郡","city":"筑北村","code5":"20452","code6":"204528"}},{"arcs":[[-99,-214,-133,215]],"type":"Polygon","properties":{"pref":"長野県","county":"北安曇郡","city":"池田町","code5":"20481","code6":"204811"}},{"arcs":[[-100,-216,-132]],"type":"Polygon","properties":{"pref":"長野県","county":"北安曇郡","city":"松川村","code5":"20482","code6":"204820"}},{"arcs":[[216,217,-13,218,-96,219]],"type":"Polygon","properties":{"pref":"長野県","county":"北安曇郡","city":"白馬村","code5":"20485","code6":"204854"}},{"arcs":[[220,-14,-218]],"type":"Polygon","properties":{"pref":"長野県","county":"北安曇郡","city":"小谷村","code5":"20486","code6":"204862"}},{"arcs":[[-37,-127]],"type":"Polygon","properties":{"pref":"長野県","county":"埴科郡","city":"坂城町","code5":"20521","code6":"205214"}},{"arcs":[[-5,-94,221,-64]],"type":"Polygon","properties":{"pref":"長野県","county":"上高井郡","city":"小布施町","code5":"20541","code6":"205419"}},{"arcs":[[222,-65,-222,-93,223]],"type":"Polygon","properties":{"pref":"長野県","county":"上高井郡","city":"高山村","code5":"20543","code6":"205435"}},{"arcs":[[224,-224,-92,225,226]],"type":"Polygon","properties":{"pref":"長野県","county":"下高井郡","city":"山ノ内町","code5":"20561","code6":"205613"}},{"arcs":[[-91,-106,227,228,-226]],"type":"Polygon","properties":{"pref":"長野県","county":"下高井郡","city":"木島平村","code5":"20562","code6":"205621"}},{"arcs":[[-105,229,-228]],"type":"Polygon","properties":{"pref":"長野県","county":"下高井郡","city":"野沢温泉村","code5":"20563","code6":"205630"}},{"arcs":[[230,-107,231,-2]],"type":"Polygon","properties":{"pref":"長野県","county":"上水内郡","city":"信濃町","code5":"20583","code6":"205834"}},{"arcs":[[-12,-97,-219]],"type":"Polygon","properties":{"pref":"長野県","county":"上水内郡","city":"小川村","code5":"20588","code6":"205885"}},{"arcs":[[-3,-232,-89]],"type":"Polygon","properties":{"pref":"長野県","county":"上水内郡","city":"飯綱町","code5":"20590","code6":"205907"}},{"arcs":[[232,-227,-229,-230,-104,233]],"type":"Polygon","properties":{"pref":"長野県","county":"下水内郡","city":"栄村","code5":"20602","code6":"206024"}}]}}}