{"type":"Topology","arcs":[[[2822,2522],[58,-7],[74,-116],[40,-33],[-24,-48],[-17,-150],[-30,-38],[16,-42],[70,37],[48,-39],[51,8],[82,-45],[-19,-80]],[[3171,1969],[-67,-4],[15,-47],[-61,-15],[-7,-57],[-72,-5],[-16,42],[-102,-28],[-27,-52],[-24,-198]],[[2810,1605],[-49,-2],[-92,82],[-90,-43],[-32,-94]],[[2547,1548],[-95,-95],[-59,-14],[-23,-30]],[[2370,1409],[-17,-25],[-53,17],[-24,-25],[-59,34],[-59,-28]],[[2158,1382],[11,92]],[[2169,1474],[62,76],[18,74],[-42,109],[-24,26]],[[2183,1759],[-1,61],[30,2],[-2,163]],[[2210,1985],[-2,100],[-27,7],[-51,72],[14,48],[64,-1],[-30,99],[23,68],[-73,42],[36,67],[-34,73],[55,4],[16,30]],[[2201,2594],[64,-67],[46,-76],[61,-19],[39,-61],[55,15],[42,-40],[77,-38],[44,-52],[68,6],[43,-37],[65,175],[-8,81],[25,41]],[[1179,1409],[47,-66],[67,11],[64,-94]],[[1357,1260],[-36,-28],[-41,27],[-33,-17],[-40,-55],[43,-83],[38,-46],[-20,-53],[30,-141],[-10,-40],[27,-44]],[[1315,780],[-73,-45],[-15,-74],[-25,-24],[-122,30],[-13,-31],[-76,16],[-63,-50],[-68,-81],[-32,23],[-19,57],[-83,-74],[-36,38],[-48,15],[-41,53],[-60,41],[-4,41],[53,16],[41,51],[-18,26],[11,121],[-21,39],[-3,19],[61,66]],[[661,1053],[30,-15],[60,-68],[50,79],[-20,44],[69,-1],[87,46],[-1,73],[56,117],[32,-7],[47,98],[108,-10]],[[1616,1737],[79,-95],[41,-3],[15,75],[63,-5],[-6,-69],[37,-30],[65,-4]],[[1910,1606],[61,-40]],[[1971,1566],[19,-28],[8,-161],[-30,-79],[-43,-3],[-31,-34],[17,-113],[-11,-18]],[[1900,1130],[-109,-72],[-44,-47]],[[1747,1011],[-69,46],[-16,34],[0,77],[-34,23],[-49,121],[-91,17]],[[1488,1329],[-22,53],[30,42],[-8,72],[-77,49],[13,59],[-14,99],[15,29]],[[1425,1732],[74,22],[48,-31],[69,14]],[[2158,1382],[1,-41]],[[2159,1341],[-81,8],[-2,128]],[[2076,1477],[93,-3]],[[6619,7992],[102,-34],[95,35],[51,-20],[-2,-113],[68,-11],[100,-38],[28,-60],[58,-78],[53,-8],[4,-70],[23,-18],[-10,-117],[22,-27],[-32,-53],[5,-47],[-100,-68],[-13,-39],[-61,-59],[-46,-89],[-50,-37],[-35,-92],[-35,-52],[-52,-12],[11,-93],[31,-54],[74,-32],[-21,-76],[20,-40],[-20,-50],[-71,-30],[-51,-39],[1,-33],[-44,-23],[-26,-43],[30,-46],[-50,-131],[112,-135],[107,-49],[21,-32],[60,13],[29,-116],[-35,-24],[-9,-46],[-37,-35],[6,-109],[-48,-124],[-81,-68],[-164,-82],[4,-67],[-61,-68],[-44,-106],[-28,-33],[-70,6],[-41,-75],[-75,-96]],[[6322,4949],[-52,25],[-75,68],[-71,80],[-25,116],[-63,20],[-30,54],[-88,-15],[-136,-128],[-66,-18],[-16,32],[27,46],[-6,80],[-67,35],[-35,80],[-36,8],[13,78],[-75,-17],[-16,-31],[-74,-5],[-97,-46],[-65,18],[-24,-14],[-62,17],[-26,-15],[-77,64],[-63,108],[-4,46],[-128,26],[-59,41],[-6,30],[-64,0],[-52,-52],[-22,3],[-58,-51],[-57,-107],[-93,-51],[-52,-69],[-21,-82],[-40,-41],[-8,-66],[72,-46],[-47,-109],[-51,-37]],[[4327,5024],[-37,21],[-25,-51],[12,-48],[-14,-95],[-30,4],[-29,87],[-50,30],[-22,107],[20,31],[-59,57],[-17,56],[-32,23],[-47,-43],[-81,44],[-39,-51],[-44,-10],[-55,-75],[8,-54],[-38,-16],[-48,-68],[-57,45],[3,84],[-21,69],[15,52],[-31,32],[-32,105],[-42,8],[-104,118],[-4,48],[-141,79],[-41,60],[-112,-76],[-54,-7],[-99,-39],[-113,9],[-61,31],[-25,82],[-45,36],[16,61],[-36,54],[-93,8],[-48,33],[-20,62]],[[2555,5927],[-1,41],[-51,77],[10,82],[46,41]],[[2559,6168],[124,-49],[51,52],[46,-4],[56,-78],[52,21],[86,7],[66,49],[67,-20],[142,16],[46,-30],[47,5],[54,-41],[53,69],[-13,43],[70,33],[41,41],[-31,67],[-52,53],[-3,134],[33,42],[18,70],[10,100],[-14,60],[28,20]],[[3536,6828],[10,-38],[57,-54],[133,-6],[179,-26],[29,42],[96,-10],[65,27],[50,-9],[76,109],[86,30],[30,-18],[-2,-86],[38,-86],[43,-43],[76,54],[34,58],[58,-3],[27,27],[5,63],[92,-16],[58,65],[71,-41],[17,47],[-49,48],[17,31],[73,39],[0,56],[37,39],[101,-10],[16,30],[108,53],[73,116],[78,9],[79,-7],[117,15],[35,67],[148,-19],[38,65],[-29,35],[22,42],[-50,63],[14,39],[-23,70],[32,31],[64,-40],[140,-6],[75,47],[-3,66],[26,57],[84,11],[43,-25],[141,49],[55,-30],[39,23],[33,50],[132,-5],[89,69]],[[4551,1539],[14,-41],[57,-93],[-16,-27],[-53,-11],[60,-94],[16,-48],[-33,-46],[57,-7],[65,-99],[24,-99],[-30,-27],[55,-41],[-55,-44]],[[4712,862],[-55,75],[-103,-16],[-75,88],[-160,51],[-25,-69],[-78,9],[-8,93],[-40,-1],[-42,89],[46,37],[-25,58],[-34,22],[-62,-30],[-19,33],[19,127],[-12,33]],[[4039,1461],[38,26],[2,92],[39,56],[71,-42],[16,-73],[81,-22],[56,22],[41,-31],[39,39],[16,58],[113,-47]],[[2041,4132],[31,39],[93,-13],[53,31],[53,-13],[55,52],[21,50],[87,-45],[70,52],[49,9],[55,-25],[-1,-42],[79,-5]],[[2686,4222],[27,-92],[67,2],[108,-60],[63,7],[18,-58],[-36,-10],[-16,-74],[27,-27],[85,-26],[-8,-140],[-25,-78],[-43,-32],[-4,-38],[45,-77],[37,-28],[23,-82],[61,-40],[44,-81]],[[3159,3288],[-53,-34],[4,-66],[-77,-7],[-11,-87],[-31,-35],[31,-34],[-18,-55],[-44,-56],[32,-140],[-47,-58],[21,-76],[59,-26],[-4,-40],[39,-28],[9,-71],[102,-44],[65,-44],[42,105],[98,-27],[54,32],[60,77],[10,41],[63,2],[18,23],[-23,72],[61,66],[0,69],[27,28],[34,89],[-2,89]],[[3678,3053],[40,26],[-6,64],[-26,79],[106,50],[64,20],[35,-17],[25,-50],[57,11],[27,41],[40,-1],[34,79],[-32,113],[15,85]],[[4057,3553],[64,-41],[91,-30],[10,-36],[86,14],[-14,-138],[-54,-51],[36,-26],[9,-54],[-18,-36]],[[4267,3155],[-144,-52],[-55,-190],[25,-58],[39,-28],[31,-59],[-105,-73],[-37,-59]],[[4021,2636],[-42,23],[-37,-86],[-68,-17],[-73,-88],[-48,-36],[-3,-60]],[[3750,2372],[-79,3],[-148,-9],[-10,-52],[28,-78],[36,-29],[-29,-56],[48,-31]],[[3596,2120],[-17,-139]],[[3579,1981],[-31,-101],[-28,-8]],[[3520,1872],[-33,-13],[-135,68],[-61,52],[-29,-17],[-91,7]],[[2822,2522],[-29,26],[-3,76],[61,79],[-86,82],[-55,-12],[-9,73],[22,56],[-36,13],[89,99],[-15,46],[16,36],[-11,209],[-21,30],[-97,47],[-50,2],[-21,100],[-61,-23],[-54,31],[-35,-4],[-32,62],[-64,5],[46,109],[-88,45],[-93,-10]],[[2196,3699],[-47,33],[-2,59],[-27,19],[18,88],[37,28],[-33,46],[-13,75],[-70,41],[-18,44]],[[7099,2379],[-37,-55],[-1,-43],[27,-104],[-6,-64],[-53,3],[-132,-133],[116,-102],[2,-48],[33,-72],[53,-8],[9,-74],[-80,-46],[-70,14],[-76,-3],[-81,41]],[[6803,1685],[-38,20],[-50,-43],[1,-40],[-76,-39],[-24,-39],[-55,-28],[-22,15],[-79,-13],[-88,-66],[-134,45],[-59,102],[-37,21],[-31,49],[-44,120],[52,39],[90,25],[118,4],[47,21],[46,47],[-22,19],[-188,-7],[-106,123],[-45,81],[-76,52],[-37,-11],[-45,21],[-53,-2],[-17,69],[30,59],[-19,41],[-78,-2],[-43,-21],[-108,53],[16,122],[-44,45],[-6,58]],[[5579,2625],[35,96],[110,25],[89,-32],[67,73],[0,38],[-59,101],[-6,50],[34,33]],[[5849,3009],[58,39],[6,51],[39,25],[-11,70],[-52,56],[44,64],[-18,30],[-170,70],[-101,143],[-54,8]],[[5590,3565],[-13,73],[-53,23]],[[5524,3661],[0,106],[-12,85],[27,148],[54,59],[20,49],[64,93]],[[5677,4201],[110,33],[55,-17],[25,-85],[-28,-30],[46,-32],[58,12],[68,-19],[51,-41],[34,-59],[101,18],[28,-32],[4,-80],[27,-51],[76,-70],[12,-52],[-8,-70],[66,-59],[-8,-49],[65,-39],[78,-69],[57,-36],[4,-30],[49,-64],[-31,-29],[-7,-52],[-52,-15],[-29,-105],[-30,-6],[-16,-66],[32,-51],[66,-55],[30,-42],[41,16],[101,-14],[26,-33],[-30,-86],[34,-24],[-2,-54],[20,-61],[146,-88],[25,18],[61,-52],[3,-25],[64,-77]],[[3159,3288],[97,-44],[28,-112],[46,-31],[20,-67],[50,-71],[89,-15],[9,40],[44,63],[106,17],[30,-15]],[[5103,2094],[66,-4],[50,-78],[69,-15],[5,33],[44,42],[24,-65],[62,-55],[76,13],[32,-21],[9,-83],[88,-51],[-12,-47],[-38,-49],[20,-60],[-56,-122],[-66,-93],[13,-33],[-52,-26],[-65,-81],[-19,-56],[53,-24],[27,29],[109,11],[33,-44],[12,-82],[-28,3],[-61,-65],[11,-53],[-105,-24]],[[5404,994],[-132,-22],[-37,18]],[[5235,990],[27,181],[-29,-15],[-25,51],[-39,-3],[-97,44],[-8,50],[-47,34],[-77,87],[18,69],[-31,157],[-41,8],[-79,56]],[[4807,1709],[-9,48],[70,86],[-38,81],[-3,73],[28,131]],[[4855,2128],[59,32],[40,-34],[34,23],[30,-93],[85,38]],[[2370,1409],[19,-49],[61,-27],[51,2]],[[2501,1335],[-20,-53],[-71,-131],[-44,-103],[-46,-70],[-78,-83],[-34,-87],[-106,-133]],[[2102,675],[-32,16],[-76,89],[23,35],[59,41],[23,55],[-25,89]],[[2074,1000],[-38,97]],[[2036,1097],[20,70],[85,60],[15,32],[3,82]],[[6803,1685],[15,-63],[51,-22],[56,-47],[-2,-86],[24,-71],[-12,-79],[6,-70],[-57,-4],[-16,-43],[-66,-42],[-18,8],[-60,-55],[-13,-95],[23,-34],[-21,-34],[-76,-22],[-116,24],[-38,-91],[-92,-70],[-64,-10],[-41,-25],[-75,-78],[-46,-4],[-15,-35],[-44,-9],[-39,-60],[-51,17],[-43,86],[-41,-35],[-41,43],[-68,-10],[-26,42],[10,76],[-121,15],[-94,-20],[-21,42],[24,59],[-99,43],[-92,68]],[[5103,2094],[35,38],[-16,32],[89,130],[64,40],[18,39],[-38,69],[-56,50]],[[5199,2492],[85,27],[81,6],[52,26],[67,-5],[95,79]],[[4021,2636],[36,-24],[37,30]],[[4094,2642],[50,-19],[-17,-125],[-67,-124],[-62,-28],[-13,-55],[58,-42],[23,-61],[-18,-45],[20,-39],[64,76],[112,-55]],[[4244,2125],[-13,-51],[-44,-14],[5,-40],[35,-21]],[[4227,1999],[-1,-6]],[[4226,1993],[-16,-40],[-43,-17]],[[4167,1936],[-60,34],[-44,0],[-99,-51],[-114,-6],[-26,-38]],[[3824,1875],[-28,65],[-139,77],[-50,-47],[-28,11]],[[3596,2120],[42,19],[68,-1],[2,51],[53,-5],[90,51],[-73,137],[-28,0]],[[4551,1539],[39,42],[14,67],[26,27]],[[4630,1675],[52,-38],[44,-3],[70,44],[11,31]],[[5235,990],[-22,-28],[-47,-6],[-67,-106],[-33,0],[-100,-77],[-69,21],[-60,-53],[-54,7],[-69,50],[-2,64]],[[3520,1872],[24,-97],[42,3]],[[3586,1778],[3,-94],[-139,-74],[-72,-58],[-150,-6],[-146,-35],[-19,-27],[-143,-79],[-156,27],[-53,37]],[[2711,1469],[44,30],[96,35],[-10,30]],[[2841,1564],[-31,41]],[[4039,1461],[-71,21],[-30,46],[-64,15],[-10,26],[-63,-2],[-15,55],[-41,19],[-22,57],[-45,28],[35,70],[41,43]],[[3754,1839],[62,3],[8,33]],[[4167,1936],[-4,-48],[50,-5],[42,29],[94,-30],[-7,-80],[25,-16],[113,-8],[53,-51],[24,5],[73,-57]],[[4227,1999],[5,23],[101,77],[47,-43]],[[4380,2056],[-40,-24],[-27,-46],[-41,36],[-46,-29]],[[2201,2594],[-63,100],[-18,75],[11,36],[-75,90],[-30,76],[30,50],[-4,75],[-17,27],[62,75],[-11,107],[74,38],[21,82],[-16,62],[26,44],[-6,114],[11,54]],[[2076,1477],[-51,26],[-54,63]],[[1910,1606],[-6,104]],[[1904,1710],[-32,101],[-5,57]],[[1867,1868],[40,-1],[25,-38],[188,-20]],[[2120,1809],[4,-33],[59,-17]],[[4096,7860],[106,79],[85,-3],[7,98],[30,-1],[50,103],[55,11],[12,32],[94,133],[66,38],[25,47],[86,-35],[78,26],[20,-53],[93,-105],[4,49],[47,36],[48,4],[85,113],[46,-69],[40,46],[72,41],[108,-42],[43,36],[53,-18],[6,-63],[-21,-60],[-46,-35],[41,-69],[35,-5],[100,60],[60,-6],[41,21],[19,87],[144,46],[30,-11],[2,-122],[45,-58],[34,-16],[135,-27],[32,-39],[55,11],[43,-24],[39,29],[30,54],[91,-11],[29,16],[78,-17],[5,-45],[39,-65],[51,-18],[53,-67]],[[3536,6828],[-2,47],[36,86],[-33,45],[33,92],[28,29],[16,59],[35,9],[11,45]],[[3660,7240],[78,81],[65,-1],[98,141],[-15,43],[101,10],[77,76],[1,58],[-19,45],[69,128],[-19,39]],[[1242,3986],[-9,62],[70,102],[105,-59],[28,15],[113,-19],[72,40],[1,45],[68,45],[64,-62],[61,-6],[16,48],[63,13],[37,60],[38,-52],[10,-81],[62,-5]],[[2210,1985],[-36,-31],[-66,-14],[12,-131]],[[1867,1868],[7,120],[32,9],[42,126],[41,70],[20,90],[-33,98]],[[1976,2381],[-73,89],[51,31],[-84,127],[53,35],[-44,76],[-37,33],[-56,11],[-55,36],[-115,-5],[-20,29],[-52,-10],[-36,36],[-4,66],[-20,27],[17,68],[-26,59],[8,47],[-124,105],[7,42],[-86,78],[-29,77],[62,77],[44,10],[6,56],[-41,118],[34,92],[-30,124],[-39,13],[-45,58]],[[2686,4222],[34,62],[34,222],[69,-9],[51,18],[38,76],[-34,109],[-30,31],[19,85],[-53,115],[-41,12],[-34,48],[-68,12],[-13,35],[49,84],[-22,49],[-89,10],[-101,39],[-21,46],[24,29],[0,64],[-19,80],[-119,30],[10,87],[28,74],[6,171],[47,77],[104,49]],[[4327,5024],[31,-71],[71,-24],[96,-177],[41,-34],[90,-108],[-2,-85],[-50,-11],[-61,34],[-76,-31],[-35,-78],[41,-186],[-6,-96],[18,-27],[-27,-51],[21,-49],[-8,-65],[10,-113],[-41,-33],[-70,-10],[-73,-50],[-81,-5],[-65,-36],[-12,-103],[-79,-29],[-3,-33]],[[6284,4824],[-91,-30],[-53,22],[-58,78],[-121,-24],[-87,-36],[-89,-21],[-72,-99],[3,-102],[-34,-92],[-23,-22],[-109,9],[-20,-22],[-32,-182],[33,-17],[20,-67],[92,16],[34,-34]],[[5524,3661],[-150,-56],[-10,-43],[-82,-27],[-48,6],[-41,39],[-96,-56],[-32,-93],[-131,44],[-71,-28],[-61,-60],[24,-72],[-50,-55],[-50,-17],[-45,-51],[-126,-38],[-29,-40]],[[4526,3114],[-110,-7],[-37,-19],[-40,32],[-47,-5],[-25,40]],[[6322,4949],[-7,-84],[-31,-41]],[[2102,675],[11,-81],[17,-181],[-57,-70],[-6,-98],[17,-132],[-17,-81],[9,-32],[-59,92],[-31,75],[-49,30],[-2,-115],[-81,16],[-33,-23],[-45,21],[-16,61],[-41,57],[-13,61],[-41,18],[-51,49],[3,37],[-56,46],[-67,24],[-26,97],[-51,11],[17,60],[-55,58],[-18,58]],[[1361,733],[77,42],[11,27],[86,0],[12,-32],[54,-42],[52,-11],[-4,-55],[36,-9],[42,-60],[60,77],[-4,37],[43,42]],[[1826,749],[18,81],[47,-1],[70,33],[24,39],[-18,68],[85,10],[22,21]],[[2841,1564],[-79,6],[-24,-36],[-111,35],[-3,-54],[-38,0],[-39,33]],[[2711,1469],[-88,22],[-14,1],[-34,-17],[-47,-62],[-27,-78]],[[1357,1260],[96,13],[-3,54],[38,2]],[[1747,1011],[-12,-195],[23,-31],[68,-36]],[[1361,733],[-46,47]],[[1179,1409],[17,31],[-4,88],[-78,-48],[-70,73],[10,24],[-73,76]],[[981,1653],[0,30],[38,97],[31,-1],[64,52],[40,68],[57,-13],[49,39]],[[1260,1925],[31,-104],[134,-89]],[[661,1053],[50,96],[-6,78],[59,130],[-5,35],[-41,39],[-9,63],[19,23],[55,-1],[57,36],[39,66]],[[879,1618],[42,29],[60,6]],[[1616,1737],[-1,141],[30,88],[52,27]],[[1697,1993],[35,-44],[63,-113],[109,-126]],[[1900,1130],[62,-29],[74,-4]],[[730,4115],[78,-47],[55,1],[106,22],[32,-35],[89,12],[62,-61],[36,-93],[54,72]],[[1976,2381],[-54,-56],[-39,30],[-105,-62],[-14,-23],[-108,-35],[4,-54],[62,-28],[11,-75],[-76,-10]],[[1657,2068],[-35,17],[-64,-7],[-22,62],[-94,0],[-133,-52],[-46,-120],[-3,-43]],[[879,1618],[-18,28],[-68,44],[-40,77],[-45,36],[38,58],[-17,36],[39,40],[16,54],[-25,47],[-6,68],[-97,23],[-20,70],[-58,48],[5,53],[76,105],[-10,106],[-85,20],[-21,82],[-35,85],[-58,-6],[-30,-118],[-57,-24],[-26,7],[-19,83],[-39,4],[-40,-42],[-31,74],[34,89],[-6,180],[-13,35],[24,81],[-43,43],[-47,-7],[-44,-30],[-50,19],[-6,47],[-43,56],[20,45],[-34,49],[22,45],[51,46],[-7,37],[51,45],[-37,34],[111,183],[51,17],[-12,47],[34,54],[-10,84],[-35,40],[17,91],[33,62],[99,7],[54,68],[102,53],[123,-37],[46,-58],[37,14]],[[1697,1993],[-40,75]],[[3754,1839],[-39,2],[-112,-23],[-17,-40]],[[4094,2642],[97,10],[95,-46],[60,-15],[14,-135],[74,-31]],[[4434,2425],[46,-19],[-2,-56],[-62,-6],[-61,-43],[-31,-50],[-91,-4],[-10,-34],[48,-65],[-27,-23]],[[4526,3114],[-3,-44],[95,-33],[-4,-30],[-80,-85],[60,-17],[55,-90],[55,-27],[48,-81],[6,-48]],[[4758,2659],[-23,-34],[-53,-17],[-15,-29],[-72,21],[-43,-29],[-58,-117],[-60,-29]],[[4855,2128],[-55,25],[-59,-9],[-69,-33],[-8,-56],[-40,-34],[-78,18],[-26,-30],[-101,9],[-39,38]],[[4758,2659],[70,4],[42,-49],[71,47],[33,-4],[70,-66],[53,-24],[30,-50],[72,-25]],[[5590,3565],[-57,-23],[-66,-47],[-33,-68],[-52,-49],[-37,5],[-51,-76],[4,-48],[-86,-73],[-52,-14],[-13,-102],[21,-53],[45,-23],[18,-41],[39,-13],[140,73],[48,13],[77,70],[75,-35],[58,9],[181,-61]],[[2702,7398],[62,44],[26,-22],[91,-1],[84,195],[-27,89],[34,24],[41,-22],[70,13],[20,91],[37,-20],[3,-88],[33,-31],[38,22],[91,97],[80,-37],[50,-41],[39,5],[80,-63],[46,-128],[39,-23],[-30,-149],[-38,-92],[89,-21]],[[2559,6168],[29,64],[10,66],[32,22],[11,75],[-26,16],[-20,71],[-31,37],[59,35],[48,-1],[63,40],[5,56],[59,94],[42,32],[12,61],[56,44],[3,38],[61,83],[34,96],[-88,83],[-100,9],[-44,60],[0,50],[-56,56],[-16,43]]],"transform":{"scale":[0.0001908876174114809,0.00015740105225817516],"translate":[136.27656622625057,35.13477713525674]},"objects":{"japan":{"type":"GeometryCollection","geometries":[{"arcs":[[0,1,2,3,4,5,6,7,8,9]],"type":"Polygon","properties":{"pref":"岐阜県","city":"岐阜市","code5":"21201","code6":"212016"}},{"arcs":[[[10,11,12,13]],[[14,15,16,17,18,19,20]],[[-6,21,22,23]]],"type":"MultiPolygon","properties":{"pref":"岐阜県","city":"大垣市","code5":"21202","code6":"212024"}},{"arcs":[[24,25,26,27,28,29]],"type":"Polygon","properties":{"pref":"岐阜県","city":"高山市","code5":"21203","code6":"212032"}},{"arcs":[[30,31,32]],"type":"Polygon","properties":{"pref":"岐阜県","city":"多治見市","code5":"21204","code6":"212041"}},{"arcs":[[33,34,35,36,37,38,39,40,41,42,43,-1,44,45]],"type":"Polygon","properties":{"pref":"岐阜県","city":"関市","code5":"21205","code6":"212059"}},{"arcs":[[46,47,48,49,50,51,52]],"type":"Polygon","properties":{"pref":"岐阜県","city":"中津川市","code5":"21206","code6":"212067"}},{"arcs":[[-36,53]],"type":"Polygon","properties":{"pref":"岐阜県","city":"美濃市","code5":"21207","code6":"212075"}},{"arcs":[[54,55,56,57,58]],"type":"Polygon","properties":{"pref":"岐阜県","city":"瑞浪市","code5":"21208","code6":"212083"}},{"arcs":[[-5,59,60,61,62,63,-22]],"type":"Polygon","properties":{"pref":"岐阜県","city":"羽島市","code5":"21209","code6":"212091"}},{"arcs":[[64,-55,65,66,-48]],"type":"Polygon","properties":{"pref":"岐阜県","city":"恵那市","code5":"21210","code6":"212105"}},{"arcs":[[-40,67,68,69,70,71,72,73,-42,74]],"type":"Polygon","properties":{"pref":"岐阜県","city":"美濃加茂市","code5":"21211","code6":"212113"}},{"arcs":[[-31,75,76,-57,77]],"type":"Polygon","properties":{"pref":"岐阜県","city":"土岐市","code5":"21212","code6":"212121"}},{"arcs":[[-2,-44,78,79,80,81]],"type":"Polygon","properties":{"pref":"岐阜県","city":"各務原市","code5":"21213","code6":"212130"}},{"arcs":[[[-33,82,83,-73,84,-76]],[[-71,85,86]]],"type":"MultiPolygon","properties":{"pref":"岐阜県","city":"可児市","code5":"21214","code6":"212148"}},{"arcs":[[-10,87,-45]],"type":"Polygon","properties":{"pref":"岐阜県","city":"山県市","code5":"21215","code6":"212156"}},{"arcs":[[-7,-24,88,-16,89,90,91,92]],"type":"Polygon","properties":{"pref":"岐阜県","city":"瑞穂市","code5":"21216","code6":"212164"}},{"arcs":[[93,-30,94,95]],"type":"Polygon","properties":{"pref":"岐阜県","city":"飛騨市","code5":"21217","code6":"212172"}},{"arcs":[[96,-46,-88,-9,97,-92,98,99]],"type":"Polygon","properties":{"pref":"岐阜県","city":"本巣市","code5":"21218","code6":"212181"}},{"arcs":[[100,-27,101,-37,-54,-35]],"type":"Polygon","properties":{"pref":"岐阜県","city":"郡上市","code5":"21219","code6":"212199"}},{"arcs":[[102,-52,103,104,-38,-102,-26,105]],"type":"Polygon","properties":{"pref":"岐阜県","city":"下呂市","code5":"21220","code6":"212202"}},{"arcs":[[-62,106,107,108]],"type":"Polygon","properties":{"pref":"岐阜県","city":"海津市","code5":"21221","code6":"212211"}},{"arcs":[[-3,-82,109]],"type":"Polygon","properties":{"pref":"岐阜県","county":"羽島郡","city":"岐南町","code5":"21302","code6":"213021"}},{"arcs":[[-4,-110,-81,110,-60]],"type":"Polygon","properties":{"pref":"岐阜県","county":"羽島郡","city":"笠松町","code5":"21303","code6":"213039"}},{"arcs":[[-12,111,-19,112,-108,113]],"type":"Polygon","properties":{"pref":"岐阜県","county":"養老郡","city":"養老町","code5":"21341","code6":"213411"}},{"arcs":[[-11,114,115,116,-20,-112]],"type":"Polygon","properties":{"pref":"岐阜県","county":"不破郡","city":"垂井町","code5":"21361","code6":"213616"}},{"arcs":[[-14,117,118,-115]],"type":"Polygon","properties":{"pref":"岐阜県","county":"不破郡","city":"関ケ原町","code5":"21362","code6":"213624"}},{"arcs":[[-15,119,120,-90]],"type":"Polygon","properties":{"pref":"岐阜県","county":"安八郡","city":"神戸町","code5":"21381","code6":"213811"}},{"arcs":[[-18,121,-63,-109,-113]],"type":"Polygon","properties":{"pref":"岐阜県","county":"安八郡","city":"輪之内町","code5":"21382","code6":"213829"}},{"arcs":[[-17,-89,-23,-64,-122]],"type":"Polygon","properties":{"pref":"岐阜県","county":"安八郡","city":"安八町","code5":"21383","code6":"213837"}},{"arcs":[[122,-100,123,124,-116,-119,125]],"type":"Polygon","properties":{"pref":"岐阜県","county":"揖斐郡","city":"揖斐川町","code5":"21401","code6":"214019"}},{"arcs":[[-91,-121,126,-124,-99]],"type":"Polygon","properties":{"pref":"岐阜県","county":"揖斐郡","city":"大野町","code5":"21403","code6":"214035"}},{"arcs":[[-21,-117,-125,-127,-120]],"type":"Polygon","properties":{"pref":"岐阜県","county":"揖斐郡","city":"池田町","code5":"21404","code6":"214043"}},{"arcs":[[-8,-93,-98]],"type":"Polygon","properties":{"pref":"岐阜県","county":"本巣郡","city":"北方町","code5":"21421","code6":"214213"}},{"arcs":[[-43,-74,-84,127,-79]],"type":"Polygon","properties":{"pref":"岐阜県","county":"加茂郡","city":"坂祝町","code5":"21501","code6":"215015"}},{"arcs":[[-41,-75]],"type":"Polygon","properties":{"pref":"岐阜県","county":"加茂郡","city":"富加町","code5":"21502","code6":"215023"}},{"arcs":[[-69,128,129]],"type":"Polygon","properties":{"pref":"岐阜県","county":"加茂郡","city":"川辺町","code5":"21503","code6":"215031"}},{"arcs":[[-39,-105,130,131,-129,-68]],"type":"Polygon","properties":{"pref":"岐阜県","county":"加茂郡","city":"七宗町","code5":"21504","code6":"215040"}},{"arcs":[[-59,132,-86,-70,-130,-132,133,-66]],"type":"Polygon","properties":{"pref":"岐阜県","county":"加茂郡","city":"八百津町","code5":"21505","code6":"215058"}},{"arcs":[[-49,-67,-134,-131,-104,-51,134]],"type":"Polygon","properties":{"pref":"岐阜県","county":"加茂郡","city":"白川町","code5":"21506","code6":"215066"}},{"arcs":[[-50,-135]],"type":"Polygon","properties":{"pref":"岐阜県","county":"加茂郡","city":"東白川村","code5":"21507","code6":"215074"}},{"arcs":[[-58,-77,-85,-72,-87,-133]],"type":"Polygon","properties":{"pref":"岐阜県","county":"可児郡","city":"御嵩町","code5":"21521","code6":"215210"}},{"arcs":[[135,-95,-29,136]],"type":"Polygon","properties":{"pref":"岐阜県","county":"大野郡","city":"白川村","code5":"21604","code6":"216046"}}]}}}