{"type":"Topology","arcs":[[[7410,3289],[1,-67],[-25,-30],[36,-131],[51,6],[36,34]],[[7509,3101],[38,0],[45,-49]],[[7592,3052],[-53,-83]],[[7539,2969],[-36,-20],[29,-140],[-47,-34],[48,-40],[-48,-77],[26,-36]],[[7511,2622],[-123,-65],[-43,-54],[-97,-36],[-48,-49],[-59,-15],[11,-119],[-4,-66],[-84,31],[-55,-25],[-35,16],[-80,-49],[-73,-5]],[[6821,2186],[-42,63],[-30,143],[67,-13],[9,28],[-42,50],[31,95],[28,31],[-11,57],[29,91],[85,-24],[142,8],[92,-52],[69,40],[102,28],[77,-50],[36,45],[-32,45],[59,103],[-63,27],[-24,-32],[-58,122],[-46,50],[-61,32],[-54,100],[-61,57],[-134,80],[-124,50],[-167,48]],[[6698,3408],[19,54],[49,-11],[19,28],[22,92],[26,59],[-70,13],[39,132],[69,44],[40,48],[62,42],[35,56]],[[7008,3965],[64,-88],[40,-26],[38,-108],[111,-110],[28,-94],[50,-62],[38,-2],[56,-81],[-30,-14],[7,-91]],[[8154,3524],[48,5],[139,-41],[35,7],[90,-32],[113,7],[-12,-69],[-67,-86],[-37,-17],[-13,-45],[-52,-57],[26,-75],[-38,-35],[18,-53],[-21,-78],[-25,-40],[25,-46],[57,-12],[47,31],[33,-30],[-9,-86]],[[8511,2772],[-41,32],[-100,-73],[-107,34]],[[8263,2765],[-69,27],[-23,70],[-1,76],[35,14],[-52,69],[-13,70]],[[8140,3091],[28,15],[-5,61],[25,60],[-4,72],[45,59],[-13,51],[-39,40],[-23,75]],[[8003,3778],[64,-47]],[[8067,3731],[-55,-86],[-11,-72],[-39,-31],[-18,-61],[-85,-65],[-7,-27],[-100,-120],[-44,-126],[-54,-10],[-62,-81]],[[7509,3101],[38,83],[-39,86],[-10,64]],[[7498,3334],[33,63],[-32,119]],[[7499,3516],[15,48],[85,97],[55,11],[74,-12],[75,55],[112,8],[88,55]],[[5522,4980],[41,69],[-24,78],[3,46],[72,47],[52,59],[18,52],[96,42],[24,31],[35,-57],[48,-32],[60,-245],[156,33],[128,-1],[41,-34],[49,-223],[95,12],[9,19],[128,17],[31,-16]],[[6584,4877],[5,-17]],[[6589,4860],[2,-6]],[[6591,4854],[19,-44],[34,-153],[-34,-55],[-52,-142],[-53,-81],[16,-30],[-76,-32],[-66,-64],[-72,-46],[-40,-61],[-59,-42],[28,-70],[10,-82],[-11,-45],[-62,4],[-22,40],[-77,-84],[7,-45],[52,-72],[-87,33],[-67,-72],[-72,85],[-40,-20],[-32,37],[-60,4],[-94,-72],[13,-45],[-13,-116]],[[5681,3584],[-13,-24],[-88,-13],[-16,47],[-55,33],[-11,93],[-21,12],[15,105]],[[5492,3837],[57,11],[-31,102],[26,41],[-28,59],[-33,145],[-34,43],[32,55],[7,80],[-29,80],[-21,111],[70,53],[51,55],[-2,67],[-22,29],[1,194],[-14,18]],[[8511,2772],[-14,-155],[-60,-6],[-8,-36],[59,-75],[8,-80],[52,-39],[73,20],[45,-25],[10,-90],[24,-23],[51,30],[18,-128],[-39,-94],[-5,-79],[-39,-62],[44,-44],[-44,-78],[-75,-51],[-73,-10],[-28,-77],[-60,2],[-23,-36]],[[8427,1636],[-47,-6],[-56,58],[-40,60],[-61,29],[-47,55]],[[8176,1832],[49,92],[73,72],[-54,73],[-22,54],[13,93],[60,87],[-24,68],[82,62],[-8,46],[-69,-16],[-82,50],[1,55],[47,89]],[[8242,2657],[-30,52],[51,56]],[[3800,2891],[-56,-221]],[[3744,2670],[-25,-19],[29,-76],[-44,-70],[4,-57],[-88,-45],[-22,-56],[5,-76],[-22,-19],[13,-53],[-44,-81],[5,-42],[61,-36],[12,-47],[-19,-45],[141,-81],[51,-60],[-2,-66],[60,-61],[-11,-35],[85,-94],[40,8],[-43,-111],[66,-46]],[[3996,1402],[73,-82]],[[4069,1320],[-59,-60],[-83,-43]],[[3927,1217],[-209,75],[-131,20],[-65,-62],[-40,10]],[[3482,1260],[-27,85],[-53,-87],[-38,39],[-35,77],[-46,-6]],[[3283,1368],[-16,65],[6,71],[-30,49],[-93,20],[-35,66],[8,26],[-117,13],[-12,58],[1,87],[56,81],[1,80],[-51,30],[-26,50]],[[2975,2064],[12,22],[-41,53],[-81,22],[-30,50],[3,78],[-19,46],[10,45],[-22,37]],[[2807,2417],[8,35],[91,64],[37,49]],[[2943,2565],[102,14],[84,-27],[23,-36],[-13,-48],[94,-50],[52,52],[21,80],[74,24],[19,78],[30,55],[-11,31],[67,64],[4,40],[36,51],[-3,41],[34,36],[65,-59],[33,51],[70,17],[76,-88]],[[6101,3312],[-45,109],[-90,-25],[-41,30],[-27,58],[-97,-1],[-120,101]],[[6591,4854],[28,-47],[6,-48],[57,-84]],[[6682,4675],[48,-148],[0,-71],[126,-271],[89,-163],[64,-45]],[[7009,3977],[-1,-12]],[[6698,3408],[-74,17],[-154,15],[-152,-30],[-30,-24],[-152,-66],[-35,-8]],[[1700,325],[-45,25],[-15,39],[2,87],[30,93],[11,87],[26,19],[29,183],[38,110],[31,57],[18,113],[30,98],[-26,77],[20,124],[-14,214],[-9,10],[85,35],[27,38],[44,-4],[15,49],[33,20],[143,14],[106,67]],[[2279,1880],[0,-56],[-84,-76],[-14,-52],[-48,-28],[1,-117],[-45,-14],[-1,-93]],[[2088,1444],[-17,-33],[-99,-46],[41,-129],[36,-71],[75,-2],[46,-53],[-9,-125],[48,-9],[33,-84],[-17,-53],[23,-55],[-32,-81],[-4,-49],[25,-47],[49,3],[10,-49],[-22,-45],[20,-63]],[[2294,453],[-307,-51],[-134,-34],[-71,-32],[-82,-11]],[[4427,2061],[37,20],[34,-66],[83,-87]],[[4581,1928],[-47,-62],[-6,-49],[-57,-88],[-11,-94],[61,-70],[4,-69],[-111,-192],[-71,-101],[6,-46],[-52,-63]],[[4297,1094],[-180,173],[-48,53]],[[3996,1402],[41,2],[72,54],[81,-21],[24,31],[-19,79],[44,78],[-28,33],[21,111],[63,8],[-16,35],[43,93],[68,75],[47,-13],[25,61],[-35,33]],[[3283,1368],[-14,-34],[-46,-15],[-22,-55],[-116,-155],[-64,-30],[54,-81],[5,-42],[-33,-30],[-42,8],[55,-147],[104,-119],[-59,-33],[27,-59],[65,-53],[0,-105]],[[3197,418],[-17,-23],[-15,-95]],[[3165,300],[-109,40],[-205,58],[-107,25],[-145,23]],[[2599,446],[-29,85],[-50,25],[-14,34],[63,26],[1,48],[104,59],[-41,72],[50,41],[70,25],[53,42],[-16,24],[-76,36],[-32,-22],[-42,19],[-103,77],[24,37],[-60,55],[-10,34],[-63,75],[29,83],[7,60],[-18,53]],[[2446,1434],[34,64],[58,77],[-9,32],[26,85],[44,56],[66,47],[72,124],[41,19],[34,51],[-1,35],[117,-5],[47,45]],[[3744,2670],[62,-40],[86,7],[121,-48],[38,-58],[59,-6],[22,-25],[27,-97],[82,-37],[17,-102],[27,-12],[13,-79],[109,-43],[20,-69]],[[7959,4382],[-38,-42],[-55,-92],[-5,-101],[22,-54],[-14,-24]],[[7869,4069],[-63,-42],[-59,4],[-186,-62],[-39,51],[-25,-5],[-43,48],[5,77],[-69,46],[-15,62],[-39,56],[2,46],[-112,-26],[-100,-63],[-115,-10],[-74,57],[11,67],[-21,48],[-38,7],[-69,58],[-12,87],[-126,100]],[[6589,4860],[230,-41],[261,-11],[62,-26],[57,6],[81,-17],[74,-73],[31,15],[24,71],[-18,44],[101,-16],[3,-38],[52,-2],[142,-48],[54,-33],[40,1],[57,-59],[-31,-31],[5,-55],[51,-67],[41,-29],[53,-69]],[[2088,1444],[38,-58],[57,1],[0,-79],[-28,-60],[18,-35],[41,11],[29,52],[31,-18],[64,24],[27,69],[23,-1],[29,82],[29,2]],[[2599,446],[-96,11],[-160,5],[-49,-9]],[[7957,779],[-68,-53],[-30,-90],[26,-173],[30,-36],[-40,-56],[-93,9],[-1,94],[-150,-59],[-75,-67],[-21,-96],[-39,-35]],[[7496,217],[-27,83],[-38,61],[26,16],[23,111],[-87,20],[-8,44],[43,42],[-2,73],[-210,48]],[[7216,715],[-28,47],[57,88],[6,43],[56,42],[37,-9],[64,61],[22,39],[4,73],[17,36]],[[7451,1135],[42,1],[52,-26],[47,5],[53,-36],[42,17],[20,-43],[-26,-54],[78,-34],[46,-73],[7,-82],[81,-33],[64,2]],[[7869,4069],[18,-15],[44,-131],[-1,-75],[73,-70]],[[7499,3516],[-35,18],[17,45],[-114,111],[-48,28],[-42,96],[-62,45],[-55,22],[-118,88],[-33,8]],[[648,526],[-138,14],[-261,-17],[-192,-21],[36,180],[-24,93],[-24,18],[-11,131],[-34,60],[17,42],[-3,115],[28,48],[57,29]],[[99,1218],[99,-100],[70,-21],[45,33],[44,2],[44,-154],[80,-55],[52,-206],[61,-42],[17,-42],[41,-17],[-4,-90]],[[7511,2622],[8,-67],[35,-38],[64,16],[74,-11],[109,71],[111,2],[49,56],[65,-17],[33,24],[84,-54],[44,62],[55,-9]],[[8176,1832],[-6,-39],[-41,-38],[-25,-72],[-110,21],[-28,-24],[-87,-12],[-88,-50],[27,-51]],[[7818,1567],[-18,-22],[-99,-50],[-34,12],[-81,-37],[-47,5],[-41,44],[-66,6]],[[7432,1525],[-1,37],[-33,42],[-87,6],[-13,34],[-143,72],[-26,44],[-8,64],[-61,-8],[-52,-46],[-85,8],[-87,-26],[-2,-58],[-60,-20]],[[6774,1674],[-44,18],[-11,152],[50,65],[38,-4],[52,62],[31,10],[-19,86],[-41,49],[-9,74]],[[3197,418],[93,-21],[37,84],[14,84],[56,38],[12,32],[63,35],[46,-19]],[[3518,651],[93,-43],[52,-57],[3,-66],[45,-14],[4,-62],[-77,-99],[-3,-58],[17,-67],[48,8],[79,-42],[60,9]],[[3839,160],[79,-85],[49,3],[9,-51],[-30,-27],[-109,33],[-77,3],[-65,43],[-176,64],[-162,81],[-192,76]],[[3482,1260],[18,-125],[-39,-63],[-15,-83],[53,-61],[-10,-97],[30,-83],[-1,-97]],[[7539,2969],[103,12],[55,44],[158,62],[28,-11],[73,22],[84,-27],[100,20]],[[3927,1217],[63,-63],[8,-51],[33,-58],[-10,-90],[22,-31]],[[4043,924],[-66,-57],[-50,-58],[-47,-80],[-4,-68],[-27,-76],[-70,-143],[-12,-128],[23,-76],[49,-78]],[[8427,1636],[-30,-70],[-6,-81],[19,-31],[-90,-146],[-21,-99],[-86,-74],[36,-32],[-120,-29]],[[8129,1074],[-60,65],[11,26],[-19,69],[-92,99],[-54,91],[-45,49],[-9,40],[-43,54]],[[7451,1135],[-59,12],[-49,51],[4,32]],[[7347,1230],[33,43],[6,213],[46,39]],[[8129,1074],[-29,-65],[-82,-16],[-36,-60],[17,-35],[-49,-66],[7,-53]],[[7496,217],[-65,37],[-20,-65],[-52,-2],[-34,-42],[-38,9],[-80,-67],[-24,-46],[-100,40],[-87,113],[-86,-13],[5,68],[-34,37],[-60,7],[-24,48],[65,78],[-34,92],[-59,65],[-53,38],[-72,-26],[-8,80]],[[6636,668],[59,43],[46,2],[56,29],[105,20],[17,-56],[97,-28],[17,15],[83,2],[65,28],[35,-8]],[[6636,668],[-4,30],[36,177],[78,40],[-6,65],[82,40],[-3,44]],[[6819,1064],[48,8],[101,50],[71,52],[83,87],[12,40],[74,4],[27,-95],[112,20]],[[6819,1064],[-56,144],[-61,93],[64,48],[-49,27],[-26,57],[69,68],[-24,73],[63,25],[21,40],[-46,35]],[[8067,3731],[41,-3],[25,-41],[16,-68],[-16,-27],[21,-68]],[[7410,3289],[22,33],[66,12]],[[8091,4668],[-41,-123],[-31,-131],[-60,-32]],[[6584,4877],[360,88],[84,-1],[34,-15],[63,62],[88,42],[60,-3],[58,-53],[76,30],[78,63],[71,27],[262,8],[16,20],[77,-20],[50,10],[43,-28],[-17,-95],[38,-55],[5,-89],[29,-21],[-22,-49],[14,-77],[40,-53]],[[4297,1094],[-27,-31],[-115,-61],[-112,-78]],[[2854,4485],[47,67],[-9,55],[67,36],[-8,42],[70,18],[56,75],[51,-1],[86,-57]],[[3214,4720],[-24,-84],[80,-98],[0,-32],[81,-22],[67,-49],[56,-60],[7,-104],[37,-25],[1,-46],[83,1],[85,23],[46,-72],[40,2],[44,-58],[-20,-27],[15,-45],[-82,-74],[-14,-120],[38,-45],[43,-13],[40,91],[42,4],[48,-27],[5,-39],[36,-37],[42,-82],[-43,-94],[-53,-5],[-59,-91],[-72,-6],[-66,-47],[6,-74],[44,-96],[-23,-102],[56,-38],[5,-44],[48,-64],[-49,-61],[-4,-69]],[[2943,2565],[-15,63],[-64,64],[0,35],[138,91],[0,69],[-45,114],[35,33],[-2,98],[61,116],[-149,146],[-88,-10],[-24,49],[-1,47],[-37,22],[7,128],[38,74],[149,208],[-18,61],[18,44],[-127,92],[19,68],[-14,40],[-53,-2],[-9,37],[68,60],[-10,96],[31,36],[3,41]],[[2279,1880],[58,14],[-5,53],[-62,34],[-22,83],[49,60],[27,-13],[56,78],[102,62],[76,-10],[44,70],[52,-7],[21,32],[132,81]],[[3214,4720],[46,12],[19,89],[79,69],[47,20],[28,-17],[62,27],[24,89],[28,41],[7,51],[-42,51],[-50,11],[26,94],[-96,38],[13,45],[-25,66],[6,54],[59,-8],[49,36],[83,6],[19,69],[-19,13],[6,136],[-49,37],[-44,-2],[32,120],[-42,23],[45,47],[65,97],[-17,44],[-52,33],[30,89],[53,65],[57,2],[60,-54],[54,99],[7,43],[53,82],[-19,63],[5,88],[41,20],[39,59],[51,9],[20,-37],[-21,-82],[41,-31],[-2,-103],[26,-7],[15,-86],[-21,-31],[26,-147],[40,-49],[39,-18],[3,-64],[-14,-76],[27,-24],[33,-83],[-45,-52],[-13,-190],[-23,-64],[-37,-15],[-11,-60],[21,-44],[37,-16],[21,-86],[-7,-151],[-61,-48],[-2,-55],[-31,-19],[-42,-107],[101,-49],[-2,-33],[32,-126],[-44,-44],[48,-96],[63,-13],[34,-45],[47,-20],[58,78],[34,1],[113,67],[59,-5],[40,-54],[35,-17],[40,16],[68,-83],[10,-34],[-30,-57],[1,-128],[59,-104],[41,-48],[30,-136],[-6,-32],[42,-124],[47,16],[60,-33],[62,-110],[136,-14],[22,8],[121,-33],[38,-37],[51,52],[26,60],[32,19],[27,61],[26,3]],[[6101,3312],[-33,-8],[-164,0],[-117,-22],[-104,-64],[-38,-58],[-25,-99],[-65,-133],[-76,-58],[20,-27],[-123,-82],[-28,-50],[14,-74],[1,-89],[41,-67],[28,68],[-51,37],[7,59],[84,12],[19,46],[59,-48],[-36,-115],[-100,-110],[-172,-100],[-26,-14],[-307,-120],[-47,-57],[-163,-63],[-71,-44],[-47,-104]],[[1700,325],[-111,8],[-151,64],[-133,34],[-332,59],[-193,22],[-123,2],[-9,12]],[[99,1218],[7,95],[-38,63],[76,74],[-14,22],[47,52],[52,5],[32,33],[55,20],[23,-15],[64,49],[74,17],[115,-14],[42,58],[13,85],[98,18],[91,65],[40,48],[-5,73],[39,48],[-4,42],[30,43],[-9,50],[44,71],[59,24],[25,-19],[39,61],[35,12],[2,43],[32,50],[43,-9],[15,14],[-38,80],[43,61],[-37,58],[20,71],[61,81],[4,48],[60,33],[61,103],[147,101],[38,36],[-6,93],[20,44],[77,-26],[11,48],[32,22],[-21,131],[45,25],[47,60],[-7,67],[44,-20],[37,25],[-40,42],[22,62],[-39,41],[-40,1],[-38,53],[56,20],[41,107],[38,7],[-2,46],[50,6],[36,54],[75,15],[69,-28],[41,47],[24,63],[-13,75],[68,63],[60,-24],[62,1],[32,38],[24,96],[78,5],[40,44],[81,7],[32,56],[47,-4],[51,59],[71,17],[69,-21]]],"transform":{"scale":[0.00019087056326932405,0.00015740326927164366],"translate":[137.47410693868449,34.59513227933138]},"objects":{"japan":{"type":"GeometryCollection","geometries":[{"arcs":[[0,1,2,3,4,5,6,7]],"type":"Polygon","properties":{"pref":"静岡県","city":"沼津市","code5":"22203","code6":"222038"}},{"arcs":[[8,9,10,11]],"type":"Polygon","properties":{"pref":"静岡県","city":"熱海市","code5":"22205","code6":"222054"}},{"arcs":[[12,13,-2,14,15,16]],"type":"Polygon","properties":{"pref":"静岡県","city":"三島市","code5":"22206","code6":"222062"}},{"arcs":[[17,18,19,20,21,22]],"type":"Polygon","properties":{"pref":"静岡県","city":"富士宮市","code5":"22207","code6":"222071"}},{"arcs":[[-10,23,24,25,26]],"type":"Polygon","properties":{"pref":"静岡県","city":"伊東市","code5":"22208","code6":"222089"}},{"arcs":[[27,28,29,30,31,32,33,34,35,36]],"type":"Polygon","properties":{"pref":"静岡県","city":"島田市","code5":"22209","code6":"222097"}},{"arcs":[[37,-21,38,39,40,-7,41]],"type":"Polygon","properties":{"pref":"静岡県","city":"富士市","code5":"22210","code6":"222101"}},{"arcs":[[42,43,44,45]],"type":"Polygon","properties":{"pref":"静岡県","city":"磐田市","code5":"22211","code6":"222119"}},{"arcs":[[46,47,48,-30,49]],"type":"Polygon","properties":{"pref":"静岡県","city":"焼津市","code5":"22212","code6":"222127"}},{"arcs":[[-34,50,51,52,53,54]],"type":"Polygon","properties":{"pref":"静岡県","city":"掛川市","code5":"22213","code6":"222135"}},{"arcs":[[55,-50,-29]],"type":"Polygon","properties":{"pref":"静岡県","city":"藤枝市","code5":"22214","code6":"222143"}},{"arcs":[[56,57,-39,-20,58]],"type":"Polygon","properties":{"pref":"静岡県","city":"御殿場市","code5":"22215","code6":"222151"}},{"arcs":[[-45,59,-54,60]],"type":"Polygon","properties":{"pref":"静岡県","city":"袋井市","code5":"22216","code6":"222160"}},{"arcs":[[61,62,63,64]],"type":"Polygon","properties":{"pref":"静岡県","city":"下田市","code5":"22219","code6":"222194"}},{"arcs":[[65,-17,66,-40,-58]],"type":"Polygon","properties":{"pref":"静岡県","city":"裾野市","code5":"22220","code6":"222208"}},{"arcs":[[67,68]],"type":"Polygon","properties":{"pref":"静岡県","city":"湖西市","code5":"22221","code6":"222216"}},{"arcs":[[-5,69,-26,70,71,72,73]],"type":"Polygon","properties":{"pref":"静岡県","city":"伊豆市","code5":"22222","code6":"222224"}},{"arcs":[[-52,74,75,76]],"type":"Polygon","properties":{"pref":"静岡県","city":"御前崎市","code5":"22223","code6":"222232"}},{"arcs":[[-33,77,-75,-51]],"type":"Polygon","properties":{"pref":"静岡県","city":"菊川市","code5":"22224","code6":"222241"}},{"arcs":[[-4,78,-11,-27,-70]],"type":"Polygon","properties":{"pref":"静岡県","city":"伊豆の国市","code5":"22225","code6":"222259"}},{"arcs":[[-32,79,80,-76,-78]],"type":"Polygon","properties":{"pref":"静岡県","city":"牧之原市","code5":"22226","code6":"222267"}},{"arcs":[[-25,81,82,-71]],"type":"Polygon","properties":{"pref":"静岡県","county":"賀茂郡","city":"東伊豆町","code5":"22301","code6":"223018"}},{"arcs":[[-65,83,84,-72,-83,85]],"type":"Polygon","properties":{"pref":"静岡県","county":"賀茂郡","city":"河津町","code5":"22302","code6":"223026"}},{"arcs":[[-63,86,87]],"type":"Polygon","properties":{"pref":"静岡県","county":"賀茂郡","city":"南伊豆町","code5":"22304","code6":"223042"}},{"arcs":[[-64,-88,88,89,-84]],"type":"Polygon","properties":{"pref":"静岡県","county":"賀茂郡","city":"松崎町","code5":"22305","code6":"223051"}},{"arcs":[[-73,-85,-90,90]],"type":"Polygon","properties":{"pref":"静岡県","county":"賀茂郡","city":"西伊豆町","code5":"22306","code6":"223069"}},{"arcs":[[91,-12,-79,-3,-14]],"type":"Polygon","properties":{"pref":"静岡県","county":"田方郡","city":"函南町","code5":"22325","code6":"223255"}},{"arcs":[[-1,92,-15]],"type":"Polygon","properties":{"pref":"静岡県","county":"駿東郡","city":"清水町","code5":"22341","code6":"223417"}},{"arcs":[[-8,-41,-67,-16,-93]],"type":"Polygon","properties":{"pref":"静岡県","county":"駿東郡","city":"長泉町","code5":"22342","code6":"223425"}},{"arcs":[[93,-59,-19,94]],"type":"Polygon","properties":{"pref":"静岡県","county":"駿東郡","city":"小山町","code5":"22344","code6":"223441"}},{"arcs":[[-31,-49,95,-80]],"type":"Polygon","properties":{"pref":"静岡県","county":"榛原郡","city":"吉田町","code5":"22424","code6":"224243"}},{"arcs":[[96,97,-37,98]],"type":"Polygon","properties":{"pref":"静岡県","county":"榛原郡","city":"川根本町","code5":"22429","code6":"224294"}},{"arcs":[[99,-35,-55,-60,-44]],"type":"Polygon","properties":{"pref":"静岡県","county":"周智郡","city":"森町","code5":"22461","code6":"224618"}},{"arcs":[[-28,-98,100,-22,-38,101,-47,-56]],"type":"Polygon","properties":{"pref":"静岡県","city":"静岡市","code5":"22100","code6":"221007"}},{"arcs":[[102,-69,103,-99,-36,-100,-43]],"type":"Polygon","properties":{"pref":"静岡県","city":"浜松市","code5":"22130","code6":"221309"}}]}}}