{"type":"Topology","arcs":[[[4337,1578],[14,-22],[-76,-74],[38,-63],[-7,-95],[-58,-29],[-27,-48],[3,-115],[-17,-42],[34,-60],[11,-131],[24,-18],[24,-93],[-36,-180],[-260,-47],[-260,-62],[-233,-60]],[[3511,439],[-11,85],[-80,-2],[-91,26],[22,59],[-19,38]],[[3332,645],[46,54],[-39,87],[1,143],[156,1],[2,24],[-97,27],[4,244],[24,-2],[28,61],[-28,32],[-33,-32],[-56,-11],[-11,36]],[[3329,1309],[126,33],[96,-35],[75,43],[70,8],[52,54],[61,-27],[35,51],[83,40],[57,-6],[39,40],[-9,73],[-35,-17],[-39,86],[14,28],[106,9],[51,21],[29,71]],[[4140,1781],[56,16],[50,-36],[-12,-45],[42,-34],[8,-67],[53,-37]],[[3393,1080],[0,-97],[-56,12],[9,61],[47,24]],[[3741,2619],[28,-50],[52,-5],[-1,-40],[-44,-62],[56,-43],[-2,-49],[55,-59],[-16,-29],[8,-63],[31,-27],[18,-87]],[[3926,2105],[-88,-49],[4,-51],[-55,-68],[-61,29],[-27,35],[-85,-49],[-46,38],[-11,42],[-76,-46],[-119,-46],[-49,-38],[-35,54],[-28,-25],[-68,-7],[-53,25],[-64,-101],[1,-53]],[[3066,1795],[-92,37],[-34,-14],[-35,35],[-71,-16]],[[2834,1837],[-7,65],[-53,43],[13,92],[-53,40],[-84,28],[-79,-60],[-19,-71],[-24,-15],[-83,24]],[[2445,1983],[-48,-7],[-59,-61],[-75,-6],[17,53],[47,22],[-3,59],[-35,26]],[[2289,2069],[-13,48],[72,98],[-56,53],[-15,54],[56,79],[18,52],[-23,33],[50,48],[-31,28],[-14,61]],[[2333,2623],[34,-4],[36,53],[58,-7],[37,-34],[64,25],[31,41],[-30,88],[-3,60],[56,55],[80,-23],[37,44],[79,-33],[92,45],[61,-5],[29,-66],[68,-5],[31,-72],[62,74],[83,-67],[159,-15],[47,12],[90,-52],[10,38],[121,1],[31,-89],[-8,-22],[53,-46]],[[175,4429],[78,84],[47,69],[43,103],[71,131],[20,53],[27,78],[47,62],[34,17],[14,0],[88,-22],[53,-38],[157,-27]],[[854,4939],[40,-66],[-1,-51],[21,-50],[59,-48],[-10,-33],[62,-31],[55,-62]],[[1080,4598],[-64,-35],[-4,-39],[-41,-68],[-39,0],[-27,-55],[36,-41]],[[941,4360],[-40,-32],[0,-50]],[[901,4278],[-33,-8]],[[868,4270],[-42,119],[-31,41],[-81,4],[-20,-34],[-65,-17],[-26,-32],[-54,-19],[-77,21],[-6,27],[-104,-62],[-20,64],[-103,21],[-64,26]],[[2227,4525],[25,69],[160,-51],[75,-87],[103,15],[56,-75],[1,-64],[69,-49]],[[2716,4283],[-28,-17],[-35,-87],[18,-49],[-40,-68],[-26,-79],[-40,8],[-164,-116],[-43,-20],[-63,3],[-16,-41],[-55,1]],[[2224,3818],[-74,59],[-76,46],[-41,-31],[-49,23]],[[1984,3915],[-4,51],[69,36],[-26,85],[45,109],[-31,47]],[[2037,4243],[-50,88]],[[1987,4331],[28,33],[66,-15],[65,73],[6,28],[75,75]],[[1593,2247],[-14,-129],[-17,-67],[-63,-128],[-69,-1],[9,-74],[-26,-42]],[[1413,1806],[-90,46],[-44,-9],[-108,41],[-55,-9],[-44,30]],[[1072,1905],[6,115],[-58,24],[19,61],[54,53]],[[1093,2158],[38,-45],[65,20],[75,-22],[99,16],[6,64],[25,82],[30,35]],[[1431,2308],[50,-23],[35,13],[77,-51]],[[1966,4835],[18,-33],[63,30],[33,-21],[25,-59],[-46,-37],[42,-89],[40,1],[8,-93],[78,-9]],[[1987,4331],[-111,-7],[-47,-43],[-34,-4],[-44,-72],[-64,3],[-18,-18],[-4,-72],[-39,-9],[-41,-43],[-194,-15],[-58,95],[7,73]],[[1340,4219],[24,26],[-3,68]],[[1361,4313],[1,102],[78,26],[-15,62],[73,-40],[83,27],[86,-29],[96,36],[31,44],[22,83],[4,69],[33,50],[80,32],[32,60]],[[1965,4835],[1,0]],[[3329,1309],[-17,54],[64,22],[-25,52],[-67,38]],[[3284,1475],[-45,84],[64,17],[-31,43],[-95,13],[-64,22],[-26,46],[-21,95]],[[3926,2105],[43,-64],[75,-22],[2,-26],[65,-81],[22,-53],[-38,-45],[45,-33]],[[594,3678],[-12,-49],[-59,-13],[0,-68]],[[523,3548],[-59,-21],[-31,96],[-112,114],[-29,11],[-88,-30],[-16,98],[11,66],[150,-52],[86,-15],[49,132]],[[484,3947],[44,-10],[39,-87],[3,-77],[35,-1],[-11,-94]],[[1915,1980],[-83,-77],[-72,-37],[-39,-40],[-151,-287]],[[1570,1539],[-33,13],[-41,67],[-13,96],[6,41],[70,107],[45,146],[2,81]],[[1606,2090],[29,1],[70,45],[26,0],[119,109]],[[1850,2245],[40,34],[16,-101],[-84,-64],[-29,-40],[16,-67],[106,-27]],[[2081,3042],[-59,-54],[-39,-84],[-3,-45],[-49,-42]],[[1931,2817],[-50,-93],[-37,-12],[-23,-49],[57,-76],[45,-2],[40,-30]],[[1963,2555],[13,-44],[-65,-69],[-35,-16],[-98,-82]],[[1778,2344],[-99,65],[-44,-10]],[[1635,2399],[-4,102],[-19,77],[12,110]],[[1624,2688],[37,47],[13,85],[58,30]],[[1732,2850],[19,41],[62,40],[43,62],[44,23],[47,59],[1,34]],[[1948,3109],[11,9]],[[1959,3118],[124,-49],[-2,-27]],[[4667,4516],[46,-39],[-78,-68],[9,-50],[-48,-31],[-12,-50],[23,-57],[64,-48],[84,-101],[-10,-107],[10,-26]],[[4755,3939],[12,-52],[-30,-30],[-45,16],[-152,14],[-98,-78],[-34,46],[-66,-3],[14,68],[-37,11],[-45,-22],[-24,-52],[4,-38],[-45,-61],[-65,-62],[66,-64],[-34,-58],[-57,-48],[-67,-19],[17,-69],[-28,-60],[-68,-37],[22,-110],[48,-37],[18,-59]],[[4061,3135],[-5,-53],[-29,-9],[-42,-64],[-8,-93],[28,-45],[-51,-43],[-2,-77],[-47,-12],[-47,18],[-54,-43],[-19,-68],[-44,-27]],[[2333,2623],[-23,68],[-59,43],[-82,7]],[[2169,2741],[-39,-11],[-26,61],[-56,-52],[-74,30],[-43,48]],[[2081,3042],[144,14],[34,30],[14,124],[83,198],[49,30],[-80,75],[-53,2],[-38,82]],[[2234,3597],[-7,80]],[[2227,3677],[6,104],[-9,37]],[[2716,4283],[55,-7],[59,52],[70,-20],[99,76],[33,0],[67,106],[48,6],[21,28],[37,-18],[132,22],[92,-68],[100,-43],[-25,-58],[22,-43],[93,20],[122,-14],[-10,-76],[26,-42],[67,9],[41,-43],[42,35],[42,-86],[52,-17],[38,61],[44,9],[15,34],[46,4],[76,78],[40,26],[65,10],[92,69],[38,91],[115,-24],[77,22],[20,34]],[[2289,2069],[-54,-64],[-43,-23],[-130,-10],[-9,72],[24,80],[-142,-106],[-20,-38]],[[1850,2245],[-64,24],[-8,75]],[[1963,2555],[77,-5],[62,39],[-12,72],[46,21],[33,59]],[[2445,1983],[10,-52],[-37,-81],[-92,2],[0,-64],[62,-41],[-29,-47],[-43,48],[-45,-11],[-15,-58],[81,-25],[36,36],[58,-64],[106,-60],[44,-63]],[[2581,1503],[34,-14],[-10,-160]],[[2605,1329],[-83,-40],[-34,43],[-61,3],[-49,-36],[-39,45],[-99,-41],[-55,-46],[-62,68],[-145,-49],[-41,-23],[-81,15],[-45,50],[-25,62],[-62,57],[-17,75],[-34,-3],[-103,30]],[[1938,978],[71,-36],[-23,-49],[-48,85]],[[3284,1475],[-27,-39],[-70,20],[-52,-18],[-85,7],[-18,32],[-141,37],[-69,-89],[-59,53],[-28,-39],[-33,-155],[13,-31],[-60,-63],[-23,29],[23,57],[-50,53]],[[2581,1503],[35,41],[153,24],[-41,48],[32,55],[-26,43],[66,52],[-6,30],[40,41]],[[1973,4995],[11,-32],[-18,-128]],[[1965,4835],[-72,-36],[-103,6],[-3,-20],[-121,-7],[-20,-59],[-34,22],[-49,-16],[-25,-35],[-91,-21],[16,60],[-123,-9],[-27,-14]],[[1313,4706],[49,60],[55,150],[-9,58]],[[1408,4974],[-24,56],[-75,-15],[-21,23],[23,48]],[[1311,5086],[72,59],[139,73],[-3,94],[17,40],[112,23],[39,-2],[-41,-43],[-35,-70],[46,-28],[21,-57],[41,-19],[15,-54],[63,1],[10,-26],[64,-15],[30,-46],[72,-21]],[[1072,1905],[30,-64],[35,-19],[17,-61],[-50,-31],[14,-66],[-11,-107],[24,-54]],[[1131,1503],[-44,-14],[-88,8]],[[999,1497],[25,152],[-49,153],[-85,100],[-71,-16],[-30,57],[22,53],[-19,60],[-1,83],[15,154]],[[806,2293],[116,-46],[41,1],[49,59],[86,5]],[[1098,2312],[59,-32],[-44,-107],[-20,-15]],[[706,1901],[50,-36],[42,-81],[5,-67],[-94,-18],[-42,189],[39,13]],[[854,4939],[142,79],[19,27],[146,35]],[[1161,5080],[32,-40],[-13,-77],[-24,-37],[41,-79]],[[1197,4847],[-27,-38],[-28,-90],[-29,-18],[-3,-58],[24,-30]],[[1134,4613],[-19,-33]],[[1115,4580],[-35,18]],[[1361,4313],[-72,50],[-78,-62]],[[1211,4301],[-32,47],[-81,24]],[[1098,4372],[22,54],[-5,154]],[[1134,4613],[44,13],[59,86],[76,-6]],[[35,4210],[106,132],[34,87]],[[868,4270],[-41,-47],[4,-42],[46,-45],[-19,-45],[-46,-3],[-18,-42]],[[794,4046],[-74,14],[-11,-27],[-64,-1],[-74,-34],[-93,-16]],[[478,3982],[-50,-6],[-53,-60],[-31,-7],[-68,36],[35,55],[-11,75],[-56,20],[18,46],[-59,0],[-80,36],[-77,-49]],[[46,4128],[-11,82]],[[4061,3135],[27,-33],[3,-79],[100,-3],[25,50],[66,16],[16,29],[56,-21],[41,-102],[-25,-49],[33,-13],[31,49],[72,-31],[18,58],[43,36],[86,-14],[57,34],[50,-5],[56,-139],[-3,-23],[49,-55],[25,-58],[84,19],[24,90],[-8,43],[28,89],[50,64]],[[5065,3087],[74,-63],[54,-29],[22,-49],[74,2],[57,-29],[0,-31],[51,-18],[24,-49],[-5,-49]],[[5416,2772],[-20,-71],[37,-58],[-43,-61],[38,-80],[-15,-14],[-43,9],[-32,-50],[-2,-43],[-35,-12],[-39,-61],[-26,19],[-58,-24],[-44,-71],[9,-50],[-30,-43],[4,-42],[-39,-48],[5,-73],[-41,-48],[-90,-65],[-98,-18],[-13,-85],[-43,-57],[-114,13],[-74,-17],[-64,-49],[-23,15],[-55,-20],[-32,-33],[-52,-5],[-47,-52]],[[1115,3106],[93,10],[21,-3],[38,0],[25,-35],[35,9],[36,-86]],[[1363,3001],[6,-52],[-31,-78],[36,-38],[2,-83],[-38,18],[-40,-46],[-9,-82],[10,-78],[22,-37]],[[1321,2525],[-47,-40]],[[1274,2485],[-38,69],[-48,5],[-25,99],[-41,9],[-29,37],[-52,27]],[[1041,2731],[4,27],[-94,17],[8,33],[84,138],[47,33],[38,117],[-13,10]],[[1363,3001],[52,9],[27,-51],[36,4],[45,-33],[55,22],[8,37]],[[1586,2989],[71,-69],[51,6],[24,-76]],[[1624,2688],[-45,-13],[-56,25],[-82,-73],[-51,-15],[-69,-87]],[[806,2293],[21,140],[-44,31],[135,208],[-13,36],[30,38],[106,-15]],[[1274,2485],[19,-43]],[[1293,2442],[-60,-66],[-64,40],[-48,-14],[-33,-36],[10,-54]],[[800,2424],[-19,-65],[-48,32],[40,61],[27,-28]],[[1892,3897],[-99,58],[-62,53],[27,63],[67,76],[212,96]],[[1984,3915],[-33,-22],[-59,4]],[[1606,2090],[23,140],[-14,25],[11,69],[26,49],[-17,24]],[[1635,2397],[0,2]],[[1098,4372],[-33,-52],[-75,41],[-49,-1]],[[1586,2989],[-8,48],[19,37],[44,-7],[17,72],[115,18],[42,106],[21,-5]],[[1836,3258],[31,-38],[69,-36],[12,-75]],[[1834,3376],[-6,-2],[-88,120],[35,53],[70,19],[-25,46],[45,58]],[[1865,3670],[86,42],[24,32],[61,0],[-3,-34],[89,-27],[105,-6]],[[2234,3597],[-49,-34],[13,-44],[-33,-45]],[[2165,3474],[-47,-38],[-40,12],[-38,-38],[-75,-8],[-35,-33],[-35,25],[-61,-18]],[[3511,439],[-170,-50],[-358,-124],[-97,-44],[-80,-17],[-73,-34],[-69,-15],[-192,-80],[-135,-20],[-118,24],[-138,-31],[-155,-45],[-40,13],[-68,-16],[48,77],[15,67],[62,122],[92,209],[46,51],[69,4],[46,-37],[-5,-40],[66,-26],[0,-47],[92,-23],[89,42],[36,81],[139,16],[85,80],[62,-1],[44,57],[90,-14],[31,22],[19,61],[34,12],[-36,54],[67,45],[85,-47],[27,62],[-27,46],[121,96],[85,-18],[-1,-218],[-51,-17],[-24,-39],[108,-32]],[[9,3534],[-8,33],[16,80],[-17,133],[6,97],[57,71],[-17,180]],[[478,3982],[6,-35]],[[523,3548],[13,-60],[-18,-58]],[[518,3430],[-39,-14],[-85,92],[-47,-22],[-64,3],[-41,30],[-67,-28],[-16,-59]],[[159,3432],[-33,38],[-98,27],[-19,37]],[[978,4143],[-8,-60],[21,-38],[96,-37],[-46,-97],[-20,-15],[-51,-22],[-43,-49]],[[927,3825],[-22,85],[-32,23],[-6,45],[-71,-3],[-2,71]],[[901,4278],[-20,-36],[23,-56],[38,3],[36,-46]],[[1215,4205],[-20,-35],[-128,-62],[-20,37],[-69,-2]],[[1211,4301],[4,-96]],[[518,3430],[80,-46],[57,-86]],[[655,3298],[-59,-35],[-35,33],[-37,-30],[-67,-12],[27,-36],[61,-21],[106,-102],[59,-34],[0,-55]],[[710,3006],[-32,-16],[-2,-129],[-73,44],[-29,-14],[83,-71],[-14,-50],[-86,49],[-36,-5],[11,19],[-62,85],[-39,97],[-7,119],[-13,57],[-96,105],[-90,50],[-66,86]],[[1959,3118],[26,42],[30,97],[54,35],[84,5],[17,47],[21,116],[-26,14]],[[927,3825],[-36,-41]],[[891,3784],[-91,39],[-1,45],[-76,18],[-7,-139]],[[716,3747],[-32,-44],[-4,-84]],[[680,3619],[-75,12],[-11,47]],[[1865,3670],[-22,45],[24,35],[-18,32],[9,72],[-30,36],[64,7]],[[1836,3258],[10,73],[-12,45]],[[1340,4219],[-84,-39],[-41,25]],[[1197,4847],[53,49],[49,17],[86,-11],[23,72]],[[1161,5080],[150,6]],[[891,3784],[-41,-58],[-17,-49],[-68,11],[6,36],[-55,23]],[[680,3619],[-18,-166],[-29,-62],[31,-97]],[[664,3294],[-9,4]],[[664,3294],[64,-23],[77,-83]],[[805,3188],[-26,-52],[71,-51],[-17,-88],[-123,9]],[[837,2992],[42,-122],[-109,-27],[-38,5],[-4,143],[109,1]],[[1293,2442],[50,-52],[62,-30],[26,-52]],[[1635,2397],[-17,-30],[-25,-120]],[[1420,1074],[48,-59],[73,-29],[25,-54],[-42,-25],[56,-32],[-15,-37],[8,-70],[-53,15],[-97,-6],[-37,48],[-58,-8],[-76,47],[-109,42],[-82,55],[-37,49],[-30,9],[-47,62]],[[947,1081],[35,-10],[153,123],[53,-17],[6,-58],[59,-100],[65,-65],[102,120]],[[1762,830],[14,-35],[-59,-19],[-12,30],[57,24]],[[1131,1503],[90,-1],[53,-24],[37,14]],[[1311,1492],[-1,-128],[-27,-65],[-6,-82],[64,-38],[2,-44],[77,-61]],[[947,1081],[-52,88],[74,198],[30,130]],[[1413,1806],[-69,14],[2,-40],[39,-9],[-26,-55],[-6,-60],[32,-57],[-45,-16],[-8,-86],[-21,-5]],[[4755,3939],[67,6],[61,42],[124,37],[93,-18],[47,54]],[[5147,4060],[18,-15],[-11,-103],[45,-75],[18,-72],[53,-111],[2,-85],[-36,-22],[-80,-13]],[[5156,3564],[-25,44],[-102,-24],[-50,-29],[-58,13],[-1,-132],[-21,-52],[18,-84],[60,1],[22,-55],[42,-35],[5,-72],[19,-52]],[[5800,3311],[-19,-44],[6,-93],[-38,-36],[-148,-101],[-60,-103],[-60,-33],[-4,-48],[-61,-81]],[[5156,3564],[23,-64],[57,-2],[97,25],[27,-57],[92,10],[21,34],[126,-53],[42,-49],[72,-18],[66,-74],[21,-5]],[[5431,4152],[21,-20],[53,12],[3,-55],[68,4],[41,-24],[90,12],[40,-15],[-2,-73],[60,-27],[23,21],[89,-2],[110,63],[87,-20],[-50,-6],[2,-46],[-38,-7],[-41,-107],[-56,-21],[38,-52],[40,-1],[39,-41],[-22,-62],[40,-42],[-37,-25],[-44,20],[7,-67],[-47,-60],[-45,-25],[21,-131],[-32,-22],[-12,-48],[-77,26]],[[5147,4060],[2,58],[52,8],[21,-4],[70,50],[31,-28],[36,19],[72,-11]],[[1115,3106],[30,19],[4,124],[-79,3],[-32,-52],[-72,-162],[-68,17],[37,119],[-12,32],[-118,-18]],[[1085,3135],[20,-16],[-31,-96],[-57,-27],[27,82],[-5,33],[46,24]],[[930,3034],[33,-4],[-15,-73],[-42,-14],[-32,64],[56,27]]],"transform":{"scale":[0.00019087202839323215,0.00015741468267169482],"translate":[136.67112408600792,34.578415441019956]},"objects":{"japan":{"type":"GeometryCollection","geometries":[{"arcs":[[[0,1,2,3,4]],[[5]]],"type":"MultiPolygon","properties":{"pref":"愛知県","city":"豊橋市","code5":"23201","code6":"232017"}},{"arcs":[[6,7,8,9,10,11,12]],"type":"Polygon","properties":{"pref":"愛知県","city":"岡崎市","code5":"23202","code6":"232025"}},{"arcs":[[13,14,15,16,17,18]],"type":"Polygon","properties":{"pref":"愛知県","city":"一宮市","code5":"23203","code6":"232033"}},{"arcs":[[19,20,21,22,23,24]],"type":"Polygon","properties":{"pref":"愛知県","city":"瀬戸市","code5":"23204","code6":"232041"}},{"arcs":[[25,26,27,28,29]],"type":"Polygon","properties":{"pref":"愛知県","city":"半田市","code5":"23205","code6":"232050"}},{"arcs":[[30,-25,31,32,33,34]],"type":"Polygon","properties":{"pref":"愛知県","city":"春日井市","code5":"23206","code6":"232068"}},{"arcs":[[-4,35,36,-8,37]],"type":"Polygon","properties":{"pref":"愛知県","city":"豊川市","code5":"23207","code6":"232076"}},{"arcs":[[38,39,40]],"type":"Polygon","properties":{"pref":"愛知県","city":"津島市","code5":"23208","code6":"232084"}},{"arcs":[[41,42,43,44]],"type":"Polygon","properties":{"pref":"愛知県","city":"碧南市","code5":"23209","code6":"232092"}},{"arcs":[[45,46,47,48,49,50,51,52,53]],"type":"Polygon","properties":{"pref":"愛知県","city":"刈谷市","code5":"23210","code6":"232106"}},{"arcs":[[54,55,56,-13,57,58,-46,59,60,61,-21,62]],"type":"Polygon","properties":{"pref":"愛知県","city":"豊田市","code5":"23211","code6":"232114"}},{"arcs":[[-12,63,-45,64,-48,65,-58]],"type":"Polygon","properties":{"pref":"愛知県","city":"安城市","code5":"23212","code6":"232122"}},{"arcs":[[[-11,66,67,68,-42,-64]],[[69]]],"type":"MultiPolygon","properties":{"pref":"愛知県","city":"西尾市","code5":"23213","code6":"232131"}},{"arcs":[[-9,-37,70,-68,71]],"type":"Polygon","properties":{"pref":"愛知県","city":"蒲郡市","code5":"23214","code6":"232149"}},{"arcs":[[72,-35,73,74,75,76]],"type":"Polygon","properties":{"pref":"愛知県","city":"犬山市","code5":"23215","code6":"232157"}},{"arcs":[[[-28,77,78,79,80,81]],[[82]]],"type":"MultiPolygon","properties":{"pref":"愛知県","city":"常滑市","code5":"23216","code6":"232165"}},{"arcs":[[83,84,85,86,87,-15]],"type":"Polygon","properties":{"pref":"愛知県","city":"江南市","code5":"23217","code6":"232173"}},{"arcs":[[-34,88,89,90,-87,91,-74]],"type":"Polygon","properties":{"pref":"愛知県","city":"小牧市","code5":"23219","code6":"232190"}},{"arcs":[[92,-19,93,94,95,96]],"type":"Polygon","properties":{"pref":"愛知県","city":"稲沢市","code5":"23220","code6":"232203"}},{"arcs":[[-5,-38,-7,-57,97,98,99]],"type":"Polygon","properties":{"pref":"愛知県","city":"新城市","code5":"23221","code6":"232211"}},{"arcs":[[100,101,102,103,104]],"type":"Polygon","properties":{"pref":"愛知県","city":"東海市","code5":"23222","code6":"232220"}},{"arcs":[[105,106,-51,107,-102]],"type":"Polygon","properties":{"pref":"愛知県","city":"大府市","code5":"23223","code6":"232238"}},{"arcs":[[[-81,108,-104,109,110]],[[111]]],"type":"MultiPolygon","properties":{"pref":"愛知県","city":"知多市","code5":"23224","code6":"232246"}},{"arcs":[[-47,-59,-66]],"type":"Polygon","properties":{"pref":"愛知県","city":"知立市","code5":"23225","code6":"232254"}},{"arcs":[[112,-23,113]],"type":"Polygon","properties":{"pref":"愛知県","city":"尾張旭市","code5":"23226","code6":"232262"}},{"arcs":[[-44,114,115,-49,-65]],"type":"Polygon","properties":{"pref":"愛知県","city":"高浜市","code5":"23227","code6":"232271"}},{"arcs":[[-16,-88,-91,116]],"type":"Polygon","properties":{"pref":"愛知県","city":"岩倉市","code5":"23228","code6":"232289"}},{"arcs":[[117,118,-52,-107]],"type":"Polygon","properties":{"pref":"愛知県","city":"豊明市","code5":"23229","code6":"232297"}},{"arcs":[[119,120,-61,121,122]],"type":"Polygon","properties":{"pref":"愛知県","city":"日進市","code5":"23230","code6":"232301"}},{"arcs":[[-2,123]],"type":"Polygon","properties":{"pref":"愛知県","city":"田原市","code5":"23231","code6":"232319"}},{"arcs":[[124,-96,125,-40,126,127,128]],"type":"Polygon","properties":{"pref":"愛知県","city":"愛西市","code5":"23232","code6":"232327"}},{"arcs":[[129,130,-94,-18,131]],"type":"Polygon","properties":{"pref":"愛知県","city":"清須市","code5":"23233","code6":"232335"}},{"arcs":[[132,-132,-17,-117,-90,133]],"type":"Polygon","properties":{"pref":"愛知県","city":"北名古屋市","code5":"23234","code6":"232343"}},{"arcs":[[-128,134,135,136]],"type":"Polygon","properties":{"pref":"愛知県","city":"弥富市","code5":"23235","code6":"232351"}},{"arcs":[[-54,137,-122,-60]],"type":"Polygon","properties":{"pref":"愛知県","city":"みよし市","code5":"23236","code6":"232360"}},{"arcs":[[138,139,140,141,-41,-126,-95,-131]],"type":"Polygon","properties":{"pref":"愛知県","city":"あま市","code5":"23237","code6":"232378"}},{"arcs":[[-114,-22,-62,-121,142]],"type":"Polygon","properties":{"pref":"愛知県","city":"長久手市","code5":"23238","code6":"232386"}},{"arcs":[[143,-123,-138,-53,-119]],"type":"Polygon","properties":{"pref":"愛知県","county":"愛知郡","city":"東郷町","code5":"23302","code6":"233021"}},{"arcs":[[144,-134,-89,-33]],"type":"Polygon","properties":{"pref":"愛知県","county":"西春日井郡","city":"豊山町","code5":"23342","code6":"233421"}},{"arcs":[[-75,-92,-86,145]],"type":"Polygon","properties":{"pref":"愛知県","county":"丹羽郡","city":"大口町","code5":"23361","code6":"233617"}},{"arcs":[[146,-76,-146,-85]],"type":"Polygon","properties":{"pref":"愛知県","county":"丹羽郡","city":"扶桑町","code5":"23362","code6":"233625"}},{"arcs":[[147,-140]],"type":"Polygon","properties":{"pref":"愛知県","county":"海部郡","city":"大治町","code5":"23424","code6":"234249"}},{"arcs":[[148,149,-135,-127,-39,-142]],"type":"Polygon","properties":{"pref":"愛知県","county":"海部郡","city":"蟹江町","code5":"23425","code6":"234257"}},{"arcs":[[[150,151,-136,-150]],[[152]]],"type":"MultiPolygon","properties":{"pref":"愛知県","county":"海部郡","city":"飛島村","code5":"23427","code6":"234273"}},{"arcs":[[-29,-82,-111,153]],"type":"Polygon","properties":{"pref":"愛知県","county":"知多郡","city":"阿久比町","code5":"23441","code6":"234419"}},{"arcs":[[-30,-154,-110,-103,-108,-50,-116,154]],"type":"Polygon","properties":{"pref":"愛知県","county":"知多郡","city":"東浦町","code5":"23442","code6":"234427"}},{"arcs":[[[155,156]],[[157]]],"type":"MultiPolygon","properties":{"pref":"愛知県","county":"知多郡","city":"南知多町","code5":"23445","code6":"234451"}},{"arcs":[[-79,158,159,-157,160]],"type":"Polygon","properties":{"pref":"愛知県","county":"知多郡","city":"美浜町","code5":"23446","code6":"234460"}},{"arcs":[[-27,161,-159,-78]],"type":"Polygon","properties":{"pref":"愛知県","county":"知多郡","city":"武豊町","code5":"23447","code6":"234478"}},{"arcs":[[-10,-72,-67]],"type":"Polygon","properties":{"pref":"愛知県","county":"額田郡","city":"幸田町","code5":"23501","code6":"235016"}},{"arcs":[[162,163,164,-98,-56]],"type":"Polygon","properties":{"pref":"愛知県","county":"北設楽郡","city":"設楽町","code5":"23561","code6":"235610"}},{"arcs":[[165,-99,-165,166]],"type":"Polygon","properties":{"pref":"愛知県","county":"北設楽郡","city":"東栄町","code5":"23562","code6":"235628"}},{"arcs":[[167,-167,-164,168]],"type":"Polygon","properties":{"pref":"愛知県","county":"北設楽郡","city":"豊根村","code5":"23563","code6":"235636"}},{"arcs":[[[-145,-32,-24,-113,-143,-120,-144,-118,-106,-101,169,-151,-149,-141,-148,-139,-130,-133]],[[170]],[[171]]],"type":"MultiPolygon","properties":{"pref":"愛知県","city":"名古屋市","code5":"23100","code6":"231002"}}]}}}