{"type":"Topology","arcs":[[[5449,11247],[27,-36],[36,7],[57,68],[67,-16],[14,23],[133,56],[20,-44],[89,3],[20,19],[146,19],[99,-76]],[[6157,11270],[-133,-172],[-89,-149],[-26,-66],[-62,-138],[-47,-176],[-6,-120],[-33,-132],[-28,-153],[4,-92],[16,-47],[54,-10],[55,-40],[46,31],[46,-32],[-38,-57],[60,-41],[35,57],[36,-51],[-29,-42],[-50,-11],[-4,-218],[14,-111]],[[5978,9500],[-60,22],[-59,45],[-30,58],[-46,21],[-43,-10],[-190,35],[-120,-64],[-101,37],[-89,7],[-6,-65],[-56,-62],[-31,8],[-45,-106],[-68,21],[-25,56],[-55,17],[-67,-53],[-37,-77],[-67,-31],[-74,-71],[-41,14],[-48,-57],[4,-100],[-12,-59],[-113,-112],[-10,-98],[-44,-32],[-19,-91],[-56,-57],[-21,-86],[-49,-22],[5,-47],[-96,-102],[-55,-31],[10,-80],[24,-12],[61,-140],[-40,-82],[-80,-96],[-82,-5],[-3,-113],[-70,-52],[-17,-62],[-76,-73],[-102,13],[-50,-29],[-12,-44],[-59,-21],[-201,-35],[-31,-25],[-70,-3],[-137,16],[-72,-9],[-38,19],[-79,-13]],[[3030,7562],[21,71],[-10,52],[16,68],[46,59],[7,88],[32,43],[80,40],[4,58],[-92,24],[-31,45],[9,68],[32,28],[3,56],[-33,77],[6,49],[-58,11],[-140,-58],[-33,5],[-66,-75],[-88,15],[-38,21],[37,152],[-17,43],[-86,81],[17,17]],[[2648,8600],[20,7],[57,132],[29,7],[45,61],[45,-14],[43,21],[51,-23]],[[2938,8791],[114,0],[90,-93],[-7,68],[34,55],[31,97],[111,16],[103,34],[33,-2],[-16,74],[53,41],[-77,54],[-8,61],[10,145],[-38,60],[-5,51],[38,63],[14,82],[59,16],[29,110],[56,13],[-6,34],[65,29],[-20,42],[-60,65],[61,32],[-13,84],[63,53],[38,66],[13,60],[44,73],[90,77],[39,68],[41,21],[-9,43],[-62,24],[-41,40],[65,95],[111,35],[15,74],[55,63],[72,54],[73,37],[-2,40],[-46,44],[-39,101],[-66,-18],[-58,23],[-65,153],[20,46]],[[3940,11294],[16,61],[71,-5],[3,72],[38,13],[61,-23],[78,2],[85,32],[100,15],[54,-34],[38,9],[50,77],[61,72],[71,8],[64,28],[29,53],[56,-10],[29,-28],[42,50],[105,-48],[-2,-125],[34,-78],[21,2],[72,-62],[9,-38],[137,13],[24,-34],[52,9],[37,-42],[33,11],[41,-47]],[[6095,13977],[38,-31],[38,-78],[146,-41],[95,-14]],[[6412,13813],[69,-26],[87,14],[78,-12],[48,-23],[75,-11]],[[6769,13755],[-12,-62],[38,-79],[63,-12],[48,-35]],[[6906,13567],[13,-33],[-41,-39],[62,-67],[72,60],[34,-115]],[[7046,13373],[-116,-56],[-75,-80],[-50,-175],[38,-19],[-32,-108],[-9,-88],[-38,-72],[-31,-27],[31,-80],[63,85],[126,-15],[37,-38],[-5,-50],[-118,4],[-64,-31],[-6,-143],[20,-132],[-43,-77]],[[6774,12271],[-68,30],[-163,8],[-139,21],[-44,43],[-64,-12],[-47,13],[-32,43],[-68,-14],[-79,12],[-91,73],[-78,23],[-143,77],[-110,87],[18,42],[-49,52],[-138,65],[-28,-10],[-68,48],[-42,3],[6,56],[-30,16],[-19,53],[-77,74],[-45,15],[-93,58],[-32,35],[-60,-18],[-55,11],[-28,-29],[-84,0]],[[4824,13146],[10,79],[-24,34],[65,44]],[[4875,13303],[70,17],[136,-10],[83,-32],[38,-61],[30,-8],[105,53],[24,-20],[95,20],[22,18],[66,-9],[86,23],[57,-22],[44,37],[92,-24],[123,36],[-47,81],[-52,40],[26,55],[33,-1],[80,-38],[34,33],[2,79],[37,116],[-142,18],[-70,-1],[-7,55],[47,73],[-9,25],[33,81],[-26,104]],[[5885,14041],[79,-17],[17,-22],[114,-25]],[[7037,13285],[-53,-1],[-47,-46],[135,-62],[-41,-49],[-57,-102],[-133,46],[23,151],[94,77],[63,31],[16,-45]],[[8265,7942],[-26,-29],[-78,-21],[-10,-53],[28,-56],[-40,-63],[-3,-44],[-58,1],[-81,-55],[-28,-88],[12,-25],[-2,-106],[14,-78],[28,-27]],[[8021,7298],[-59,-68],[-67,13],[-87,-63],[-29,-4],[-13,-127],[-55,-139],[-68,-15]],[[7643,6895],[-76,28],[-82,5],[-57,45],[-39,-35],[-90,-12],[-78,-25],[-9,84],[-42,23],[-70,10],[-55,-46],[-76,28],[-159,18],[-28,21]],[[6782,7039],[-9,171],[23,26],[-13,60],[-92,85],[92,83],[14,78],[66,43],[-17,61]],[[6846,7646],[1,39],[140,140],[31,19],[-36,47],[-68,-25],[-42,36],[31,56],[-81,32],[1,53],[74,42],[-26,32],[-36,-39],[-59,65],[26,82],[75,24],[-14,45]],[[6863,8294],[47,20],[18,-7],[2,87],[-76,63],[-53,18],[14,97],[96,59],[-20,54],[29,41],[10,61]],[[6930,8787],[55,-83],[184,-73],[51,-44],[50,-15],[137,-12],[173,-114],[40,-17],[54,-58],[52,-17],[37,-57],[67,-59],[99,-49],[100,3],[0,0],[62,-27],[39,4],[74,14],[61,-122],[0,-119]],[[5978,9500],[-60,-127],[0,0],[0,0],[-7,3],[-29,-35],[-1,0],[-55,-31],[-18,-83],[61,11],[1,0],[0,0],[49,5],[52,-32],[53,55],[85,-47],[72,22],[45,-44],[82,-33],[135,-17]],[[6443,9147],[13,-66],[55,-21],[-9,-117],[-23,-16],[2,-83],[70,-29],[2,-72],[-61,-10],[-23,-70],[-1,-52],[-82,-152],[-8,-70],[-69,-46]],[[6309,8343],[-85,-3],[-117,-24],[-86,-83],[-58,-15],[-19,-38],[-65,-27],[-100,-9],[-73,14],[-91,-61],[-66,7],[-23,80],[-58,-8],[-37,-65],[-61,-15],[13,-52],[100,-14],[11,-33],[-103,-58],[-75,18],[-80,-11],[-60,19],[-34,-33],[-46,-80],[-52,20],[-68,51],[-40,-42],[-56,-29],[-104,-24],[6,-57],[91,-34],[-18,-60],[-4,-82],[37,-107],[-48,-24],[-62,-88],[-22,-140]],[[4756,7236],[-79,-16],[-59,-46],[-110,-50],[-10,-41],[-167,51],[-131,-34],[-68,3],[-55,30],[-40,-39],[-102,32],[-114,12],[-71,-30],[-66,25],[-80,-8],[-23,-49],[-66,-88],[-50,-115],[42,-16],[20,-66],[61,-64],[-101,-39],[-31,-65],[-44,-34],[-81,-10],[-225,-64],[-63,20],[-23,-25],[-84,-23],[-77,-57],[22,-58],[-21,-85],[-26,-35],[-71,-5],[-57,24],[-67,-37],[-19,-80],[-145,26],[-75,-12],[-28,13]],[[2372,6181],[-63,96],[-59,10],[-52,29],[-59,72],[-3,64],[-46,77],[17,26],[-27,81],[-41,28],[10,63],[-50,115],[-68,71],[-76,30],[-2,52],[51,43],[13,78],[60,38],[58,68],[7,71],[-21,61],[62,67],[132,5],[58,74],[114,24],[111,-41],[62,8],[58,74],[174,-36],[86,53],[152,-20]],[[6362,15192],[23,-38],[45,8],[33,-62],[-11,-38],[66,-94],[26,-99],[75,-36],[53,39],[81,-28],[53,1],[1,93],[-13,65],[14,31],[80,-49],[51,-124],[53,-84],[16,-77],[27,11],[31,-62],[162,-44],[53,-63],[109,-140]],[[7390,14402],[25,-84],[20,-150],[46,-124],[8,-69],[73,-120],[75,-144],[77,57],[29,-52],[-46,-34]],[[7697,13682],[-87,-37],[-45,-52],[-61,-21],[-143,-13],[-89,-33]],[[7272,13526],[-77,115],[-87,72]],[[7108,13713],[-54,81],[-124,-5],[5,-43],[-92,-11],[-74,20]],[[6412,13813],[31,97],[47,36],[9,118],[-62,129],[84,-14],[63,111],[-131,68],[-27,62],[-2,63],[-61,29]],[[6363,14512],[-28,76],[-64,52],[-9,67],[-63,76],[-17,52],[17,108],[20,21],[-23,78],[20,49],[74,34],[72,67]],[[5449,11247],[41,81],[-38,38],[29,70],[-5,54],[-51,101],[-18,65],[25,19],[11,76],[28,36],[15,73],[34,38],[-17,57],[-41,50],[44,27],[9,87],[-35,64],[23,95],[-122,47],[-159,-18],[-102,26],[-71,99],[-51,18],[-43,49],[8,89],[-39,12],[-70,141],[-116,47],[-34,-11],[-51,28]],[[4653,12805],[33,117],[35,63],[109,121],[-6,40]],[[6774,12271],[-30,-33],[-32,-88],[7,-35],[-37,-82],[-56,-85],[-76,-132],[-6,-38],[-96,-112],[-128,-186],[-163,-210]],[[2648,8600],[-35,46],[-18,73],[-77,-41],[-60,36],[-180,-133],[-43,0],[-20,91],[-37,11],[-68,-4],[-135,36],[-8,29],[-95,58],[-47,-7],[-47,25],[4,58],[-95,55],[-28,51],[36,18],[12,64],[-47,78],[32,57],[47,43],[57,102],[55,25],[5,65],[35,58],[-20,67],[-28,35],[-26,80],[-57,13],[-67,-6],[-82,72],[26,11],[177,-86],[52,60],[62,11],[0,39],[36,28],[2,49],[30,68]],[[1996,9935],[129,-27],[36,-51],[84,44],[11,109],[29,46],[57,-50],[49,-13],[-92,-84],[28,-64],[34,35],[122,-11],[13,-73],[45,-23],[5,-74],[30,3],[-9,-91],[170,-128],[62,-66],[-27,-114],[47,-48],[-21,-32],[17,-142],[37,-11],[23,-111],[-10,-33],[32,-40],[41,-95]],[[3290,3791],[-67,-9],[-101,-72],[-131,-21],[1,-51],[51,-28],[28,-41],[50,-23],[84,21],[150,-12],[50,-23],[24,-3],[-79,-44],[0,-1],[10,-17],[0,-1],[-4,-8],[2,-4],[0,-1],[1,0],[-1,0],[0,0],[1,-8],[1,-4],[6,-88],[-8,-66],[91,-22],[24,-40],[69,-9],[129,-93],[-33,-41],[-118,-84],[-45,16],[-41,-57],[88,-30],[16,30],[50,-10],[-28,-49],[-22,-82],[38,-40],[-1,-66],[21,-109],[-106,-47],[-62,-8],[-21,49],[-105,-28],[-21,54],[1,58],[36,30],[92,-30],[-20,55],[-182,35],[-113,129],[-13,-60],[22,-129],[-9,-4],[-7,-4],[-54,-58],[-41,-57],[-60,20],[-17,-30],[50,-58],[43,1],[88,52],[60,8],[-5,-3],[38,-35],[5,-101],[25,-28],[5,-61],[26,-10]],[[3251,2341],[-55,2],[-108,84],[-46,-36],[-64,25],[-75,-5],[-70,52],[-18,57],[-40,19],[-60,-39],[-15,-60],[-99,15],[-44,-8],[-39,45],[-65,41],[-26,83],[2,96],[-23,25],[-11,111],[39,36],[-2,84],[77,24],[47,35],[6,70],[-31,53],[-40,13],[-163,14],[-63,-43],[-103,-5],[-35,26]],[[2127,3155],[30,12],[-57,186],[-48,35],[41,97],[-27,96],[23,129],[-28,40],[24,36],[62,-25],[109,-23],[-28,51],[-89,98],[47,74],[-31,29],[2,86]],[[2157,4076],[112,40],[98,-9],[33,19],[110,13],[29,-44],[88,-68],[46,-12],[25,-67],[4,-102],[45,-20],[66,29],[87,-22],[71,17],[62,-21],[75,28],[92,-10],[90,-56]],[[3856,3916],[-35,-87],[-40,-18],[-8,83],[-40,-28],[-69,3],[10,-55],[-61,-61],[-36,40],[-5,45],[-38,60],[69,30],[-53,29],[-69,-49],[16,-83],[-54,-20]],[[3443,3805],[7,116],[28,39],[149,70],[37,37],[90,-62],[75,-38],[27,-51]],[[3444,3526],[-1,1],[1,0],[0,-1]],[[3446,3529],[0,0],[-1,-2],[1,2]],[[3940,11294],[-123,42],[-35,21],[-131,-26],[-56,52],[48,67],[-7,73],[14,63],[63,28],[35,35],[-60,164],[-44,29],[51,113]],[[3695,11955],[46,-8],[69,34],[15,27],[53,-2],[68,57],[3,66],[50,27],[62,-10],[38,40],[75,31],[57,-7],[36,44],[61,16],[24,37],[51,10],[-8,80],[22,96],[53,19],[-18,113],[30,55],[-23,25],[129,113],[65,-13]],[[8265,7942],[38,-7],[45,34],[27,52],[-37,128],[58,12],[26,-26],[4,-126],[23,-28],[67,-13],[18,-74],[91,-27],[74,33],[10,-58],[34,-17],[6,-175],[58,-62],[43,-16],[10,-65],[65,39],[1,46],[35,22],[94,-23],[60,8],[37,-73],[43,-10],[-14,-45],[-2,-94],[-31,-47],[41,-56],[6,-94],[-1,0],[-17,6],[-45,-48],[12,-24],[-54,-49],[-27,-49],[7,-62],[39,-37],[-44,14],[-19,-30],[41,-36],[6,-60],[-46,-5],[-78,32],[10,86],[-54,25],[-34,-42],[-45,44],[-18,-87],[-70,31],[-28,32]],[[8730,6921],[-43,75],[-39,29],[66,37],[-38,51],[-74,-5],[-16,28],[-57,-1],[-19,-48],[-78,-41],[-39,56],[-82,41],[-119,90],[-37,49],[-134,16]],[[8740,8323],[38,79],[50,5],[82,49],[83,32],[12,-68],[-1,-97],[-68,14],[-70,-73],[-71,-15],[-28,-45],[-59,5],[-81,-51],[-76,25],[-11,32],[91,64],[77,-4],[32,48]],[[9021,8129],[47,-36],[-43,-95],[-61,-30],[-16,-39],[-105,-22],[-88,21],[-7,31],[53,79],[103,18],[72,28],[45,45]],[[8639,8000],[34,-56],[-59,-29],[-48,50],[73,35]],[[9692,8515],[-42,58],[29,51],[60,-11],[-47,-98]],[[3251,2341],[-71,-16],[-61,5],[29,-56],[-85,-104],[-19,37],[29,27],[-67,69],[-73,-18],[-36,-27],[-86,-19],[74,-42],[81,-13],[-34,-51],[28,-58],[-40,-52],[-25,19],[-48,-43],[-75,-25],[-55,10],[-9,121],[-84,66],[-73,0],[-27,-49],[64,-62],[-31,-23],[1,-60],[-58,-7],[-48,-42],[22,-38],[71,-38],[-9,-19],[-6,-11],[-22,-20],[-85,36],[28,-82],[-23,-36],[-65,-14],[-7,73],[-24,39],[-54,17],[-39,-106],[-63,12],[-50,-48],[-128,-166],[-79,-124],[-92,-179]],[[1827,1224],[-17,57],[30,79],[-77,52],[-45,48],[-66,1],[-89,143],[23,19],[0,65],[-32,29],[7,51],[-55,-7],[-91,9],[-76,-12],[-9,-23],[-151,14],[-30,-37],[-49,32],[-56,-35],[-61,-76],[25,-120],[-33,-74],[-39,-30],[-5,-120],[-22,-19],[-58,24],[-114,-17],[-27,-98],[34,-46],[59,-42]],[[803,1091],[13,-76],[-33,-49],[-84,-45],[-10,-39],[-58,-51],[47,-119],[-30,-34],[-73,27],[-39,-33],[-123,-69]],[[413,603],[-39,63],[12,33],[-30,79],[-33,42],[-90,13],[-71,63],[-66,16],[-55,59],[-19,43],[27,103],[-28,68],[11,61],[31,67],[-61,92],[-2,47],[48,64],[-8,49],[36,35],[1,-144],[42,-29],[66,17],[29,32],[-3,70],[74,7],[38,-38],[58,14],[32,163],[-71,85],[-17,-131],[-59,58],[32,102],[-61,63],[-1,73],[12,-16],[101,-17],[34,67],[-36,77],[38,17],[94,-33],[58,15],[55,-61],[88,29],[2,61],[-77,-30],[-55,55],[14,69],[25,27],[52,5],[14,69],[63,-23],[63,4],[115,-53],[59,-64],[45,17],[50,119],[21,105],[-24,95],[21,66],[67,17],[52,-37],[48,-85],[37,4],[24,60],[53,27],[25,38],[1,52],[-45,51],[-35,69],[-1,63],[-59,62],[84,101],[-28,25],[32,103],[65,51],[18,93],[51,31],[75,-48],[35,75],[28,-27],[102,-32],[40,18],[58,-30],[89,16],[81,-65],[29,12],[93,-66],[40,35]],[[4824,15575],[135,122],[31,-93],[53,-39],[85,77],[27,57],[104,82],[27,-43],[45,42],[52,-25],[22,50],[65,-30],[34,11],[55,-30],[45,0],[41,39],[24,121],[121,74],[50,-22],[24,-54],[44,-47],[-14,-49],[36,-61],[54,-34],[-29,-99],[24,-33],[61,15],[42,-158],[110,-40],[24,-51],[68,-24],[-5,-61],[61,-31],[22,-49]],[[6363,14512],[-46,-13],[-20,-78],[-34,-23],[-36,-82],[-57,-83],[-83,-71],[35,-54],[-7,-98],[-20,-33]],[[5885,14041],[-95,62],[12,78],[-28,25],[-105,36],[-51,-19],[-100,37],[-167,14],[-154,-74],[-85,-7],[-58,15]],[[5054,14208],[-28,103],[28,54],[-10,64],[15,33],[-22,60],[39,25],[30,50],[-106,71],[20,61],[42,27],[2,63],[25,49],[37,-4],[40,31],[-3,94],[-18,46],[-35,10],[-40,51],[-35,-2],[-35,52],[-96,83],[-43,-19],[-93,47],[35,51],[-1,40],[30,100],[6,92],[-14,35]],[[8730,6921],[53,-138],[-48,-42],[-79,-27],[-31,-37],[-51,77],[-79,6],[9,-43],[-52,-8],[-29,-53],[-58,36],[-40,-3],[-25,-74],[56,-54],[93,33],[32,52],[-7,45],[101,36],[7,-55],[-17,-65],[89,48],[55,-29],[7,-47],[-22,-35],[-5,-63],[37,-3],[4,52],[39,45],[56,36],[0,0],[91,86],[23,-41],[73,11],[-22,-75],[-56,-30],[-71,-68],[0,0],[-31,-8],[-36,-104],[9,-106],[30,-31],[0,0],[40,-57],[0,1],[45,-42],[-54,-78],[13,-41],[-4,-46],[66,-61],[27,-49],[-2,-54],[31,-35],[-103,-18],[-14,-6],[-34,-2],[-82,-24],[-47,-14],[24,-56],[-11,-40],[-46,5],[-102,-14],[-40,-50],[-8,-73],[-59,24],[-181,-17],[-114,40],[-48,6],[-148,51],[-59,11],[-13,-28],[-58,29],[-77,87],[-48,-3],[-11,5],[0,0],[-8,0],[5,30],[84,11],[43,51],[0,0],[28,3],[1,0],[0,0],[70,-7],[12,-15],[111,12],[177,-78],[69,31],[57,-62],[56,-28],[62,-1],[59,88],[40,-8],[10,79],[-72,-39],[-60,-56],[-61,18],[-11,37],[16,86],[47,67],[42,1],[42,-35],[129,-16],[-31,43],[-98,13],[-42,38],[-111,29],[-7,56],[59,6],[125,39],[-45,35],[-1,42],[-63,-33],[-1,-38],[-70,1],[-92,47],[-45,-22],[-71,-8],[-24,59],[-42,-80],[58,-20],[36,-42],[4,-40],[-46,-23],[-46,-51],[-79,-16],[-75,17],[-3,36],[4,13],[-1,1],[0,0],[0,10],[0,0],[-2,-1],[-2,1],[-22,12],[0,0],[-3,-11],[0,0],[-32,-8],[16,101],[-26,34],[32,68],[-113,-23],[25,-68],[-93,-80],[94,-53],[-7,-27],[-72,41],[-46,-22],[-106,88],[-85,8],[-12,3],[0,1],[-33,16],[-68,-21]],[[7404,6036],[-31,42],[-88,-3],[22,71],[37,19],[73,1],[58,17],[67,44],[83,19],[36,30],[0,72],[89,94],[-21,64],[-49,48],[63,126],[-10,43],[-92,113],[2,59]],[[8301,6132],[52,-46],[-34,-22],[-68,-2],[16,62],[34,8]],[[8792,6683],[-32,-68],[-63,72],[36,29],[59,-33]],[[9062,6697],[0,0],[0,-1],[0,1]],[[1996,9935],[-31,27],[-28,113],[-33,82],[-130,21],[-43,33],[-6,34],[104,38],[41,50],[-26,96],[-42,27],[-5,44],[-61,82],[-48,21],[-19,38],[-72,54],[-10,71],[-68,-3],[-7,93],[34,73],[2,79],[-94,30],[-23,42],[20,55],[53,-10],[53,38],[33,-4],[23,47],[89,7],[31,31],[74,-5],[79,27],[22,38],[54,-1],[76,47],[1,38],[38,34],[-66,118],[65,101],[80,4],[26,49],[8,79],[43,34],[35,-2],[77,64],[-31,45],[26,38],[-32,29],[-76,-36],[-123,13],[-102,60],[22,64],[-29,69],[74,-14],[30,18],[30,69],[38,41],[52,19],[34,-101],[36,-8],[95,-86],[42,53],[66,-30],[38,-35],[43,27],[115,34],[119,-22],[-22,-33],[34,-46],[56,-6],[9,-38],[71,-43],[95,-18],[25,-22],[136,-52],[65,5],[131,-39],[148,70],[8,36],[101,54],[26,-29]],[[7390,14402],[51,-18],[97,-64],[91,-118],[66,-54],[21,-94],[-3,-103],[15,-92],[64,-160],[101,-138],[-18,-31],[-64,0],[-114,152]],[[4875,13303],[-36,121],[11,71],[26,33],[22,89],[-43,1],[-20,77],[12,127],[37,20],[22,58],[54,24],[91,78],[-54,164],[57,42]],[[7108,13713],[-3,-52],[-55,-57],[-65,12],[-57,-18],[-22,-31]],[[7272,13526],[-28,-54],[25,-90],[-118,-33],[-34,53],[-9,-16],[-45,16],[-17,-29]],[[6309,8343],[29,-62],[-1,-55],[-31,-41],[105,-28]],[[6411,8157],[3,-77],[-24,-3],[-85,-67],[-47,-65],[-17,-71],[2,-90],[30,-34],[-50,-103],[6,-54]],[[6229,7593],[-110,7],[-113,-20]],[[6006,7580],[-52,32],[9,64],[-187,-56],[-58,11],[-132,-81],[-74,-25],[2,-52],[-84,-37],[-97,-22],[-47,13],[-38,-29],[17,-54],[-64,-28],[-56,-49],[-131,-25],[-40,-27],[-117,40],[-13,-23],[-88,4]],[[6863,8294],[-15,11],[-9,8],[1,2],[-27,-22],[12,-21],[-5,-9],[-30,34],[-56,-23],[-201,7],[-5,-78],[-53,-55],[-64,9]],[[6443,9147],[129,-15],[65,-27],[38,-27],[83,-19],[57,-37],[26,-58],[45,-109],[44,-68]],[[6006,7580],[1,-54],[-43,-29],[-27,-47],[-103,6],[-52,-33]],[[5782,7423],[-100,-57],[-42,31],[-95,16],[-40,-37],[9,-96],[-115,-30],[-30,7],[-72,-66],[-48,-85],[-48,-36],[-33,-69],[-74,-14],[15,-81],[-33,-69],[52,-25],[-38,-95],[-67,38],[-20,39],[-58,40],[-9,34],[56,44],[-30,106],[-50,34],[-88,-59],[-83,-38],[64,-63],[49,-26],[-30,-57],[16,-127],[-51,-102],[-67,-14],[-79,-62],[-54,-7],[-128,-72],[-24,-64],[-120,-96],[-16,-52],[-57,-24],[-107,-11],[-52,32],[-37,-1],[-9,-48],[-40,-55],[-16,-69],[-57,-21],[-45,-37],[-83,-1],[-85,-26],[-40,-60],[-91,7],[-55,-91],[49,-64]],[[3576,5744],[-104,-103],[-65,5],[-61,-35],[-40,-60],[18,-82],[-197,-25],[5,-67],[-37,-69],[-50,-20],[-19,-40],[19,-39],[-25,-47],[-81,17],[-34,-35],[-26,-74],[11,-102],[22,-62],[-51,-30],[-41,2],[-76,-30],[-94,-18],[-37,-19],[-36,17],[-63,-96],[8,-68],[-130,-61],[-33,49],[-86,-27],[-51,7]],[[2222,4632],[-56,43],[28,95],[0,46],[-108,27],[-31,27],[7,56],[36,70],[84,51],[20,41],[49,-5],[28,49],[-12,79],[-66,12],[9,53],[44,3],[14,45],[62,77],[48,16],[-7,65],[21,29],[-35,50],[-84,41],[11,53],[-50,136],[-69,44],[-65,61],[-25,132],[46,42],[97,-5],[29,39],[63,17],[62,60]],[[6846,7646],[-138,-41],[-89,-8],[-59,66],[-46,-1],[-5,-40],[-56,-10],[-4,-43],[-69,3],[-92,28],[-59,-7]],[[6782,7039],[-31,-9],[-65,-98],[48,-14],[-2,-96],[-51,-42],[-115,-39],[-29,-37],[-43,-116],[12,-49],[-56,-82],[26,-104],[-24,-39],[-91,8],[-34,-40],[-17,-79],[-132,48],[-149,-40],[-86,11],[-40,50],[-69,-6],[-37,40],[-8,52],[-67,11],[-64,40]],[[5658,6409],[27,77],[-11,47],[50,109],[-20,26],[14,54],[-22,69],[89,50],[-51,112],[-2,37],[50,62],[4,49],[62,101],[-9,61],[-31,57],[-2,83],[-24,20]],[[5658,6409],[-51,-6],[-26,-72],[-30,-34],[-66,-19],[-70,19],[-61,-4],[-53,17],[-61,-22],[-55,-67],[-3,-88],[13,-25],[-42,-79],[12,-60],[-15,-51],[-61,-7],[-90,-39],[-19,-25],[-85,28],[-36,-34],[45,-97],[35,-46],[-58,-42],[-28,-46],[-10,-67],[17,-70],[-23,-109],[35,-57],[11,-62],[74,-67]],[[4957,5178],[-19,-59],[-60,5],[-23,-27],[-44,-13],[-40,-44],[-76,-17],[-54,64],[46,76],[-105,-20],[-12,-89],[-57,-47],[1,0],[-39,-63]],[[4475,4944],[-35,73],[32,66],[-22,56],[11,66],[-56,68],[-37,18],[-44,97],[-85,17],[-35,28],[-38,-40],[-102,30],[-125,-9],[-52,71],[-51,22],[-37,57],[33,58],[-26,48],[-72,48],[-158,26]],[[4531,4836],[0,2],[0,0],[0,1],[3,0],[-1,-2],[-2,-1]],[[7404,6036],[-11,-63],[0,0],[-68,-20],[-17,-39],[-125,-31],[-37,32],[45,40],[-13,117],[58,148],[40,-11],[80,24],[-51,78],[52,20],[42,-27],[26,24],[0,22],[28,0],[3,61],[-28,42],[-53,-7],[-25,-52],[-44,58],[12,68],[-57,-28],[-38,-107],[-39,-30],[-38,-79],[-32,-9],[-5,1],[4,11],[10,79],[1,0],[-20,21],[-12,3],[0,0],[-8,18],[18,18],[24,0],[11,63],[-1,-1],[-70,-65],[-41,31],[-18,23],[0,0],[-69,18],[-39,-65],[86,3],[35,-27],[1,0],[-5,-54],[21,-56],[-30,-25],[-65,21],[-28,-15],[-47,-26],[0,0],[-2,6],[-1,3],[-2,1],[-26,-72],[-105,-38],[26,-47],[97,50],[13,39],[79,-57],[19,50],[59,6],[-2,-63],[0,0],[-44,-34],[0,-1],[-12,-45],[-3,-15],[-19,-1],[-1,0],[-48,-17],[-31,-60],[38,-24],[11,-29],[-23,-3],[-20,-18],[-48,-1],[-12,-4],[-3,-1],[0,-2],[-1,-1],[0,0],[-1,0],[0,1],[-1,1],[0,1],[-13,-4],[-9,-5],[-7,0],[-31,0],[-25,-60],[5,-24],[-5,-9],[-5,-2],[-2,-3],[0,-1],[-3,-1],[-17,-13],[-41,-16],[-58,11],[-71,-47],[-66,-113],[-80,-14],[-87,2],[-26,90],[-29,30],[10,88],[-81,7],[41,63],[24,-47],[90,56],[40,-6],[28,68],[-36,16],[-75,-34],[-29,10],[-61,-36],[-28,23],[-56,-36],[-44,-2],[-46,-47],[14,-110],[22,-23],[-39,-82],[-42,-9],[21,-67],[-21,-20],[-79,68],[-10,35],[43,56],[-18,119],[-99,-45],[-39,-65],[-104,30],[21,33],[-9,55],[-72,6],[-14,-28],[25,-61],[-10,-63],[27,-60],[-4,-64],[66,-116],[-52,12],[5,41],[-51,44],[-19,45],[-74,35],[-2,-83],[56,14],[17,-93],[-41,15],[-97,-28],[38,-40],[105,4],[40,-55],[-90,-34],[-36,-45],[-92,-55],[8,84],[-53,7],[-73,40],[-68,70],[31,83],[40,27],[9,67],[-30,9],[-63,-64],[13,-35],[-98,22],[-72,-18],[5,-28],[107,-2],[14,-113],[-12,-8],[15,-123],[-111,-18],[-41,11],[0,0],[-6,-2],[-55,-9]],[[6724,5761],[1,-2],[-1,0],[0,0],[0,0],[0,0],[0,2]],[[2157,4076],[-41,65],[74,67],[-55,151],[37,26],[-5,91],[44,23],[33,63],[-22,70]],[[4475,4944],[-103,-52],[-56,67],[-55,4],[-5,58],[-39,23],[-47,-25],[-18,-69],[-74,15],[-28,-26],[46,-38],[23,36],[41,5],[7,-46],[-56,-54],[25,-44],[-28,-33],[-55,57],[-38,4],[-61,-73],[-94,6],[-63,-90],[20,-45],[-64,-13],[-27,-65],[-37,40],[-45,-22],[10,-74],[49,-61],[-70,-89],[31,-89],[76,-18],[25,-22],[-74,-48],[7,-46],[74,-58],[53,60],[124,-8],[-47,-43],[-46,-152]],[[3443,3805],[-31,53],[1,63],[-22,40],[87,40],[71,60],[23,64],[39,27],[-49,80],[-22,-50],[-66,-47],[-47,-84],[-97,-38],[17,-23],[-108,-35],[-26,-40],[81,-98],[-4,-26]],[[4400,4413],[0,0],[0,1],[4,2],[-1,-1],[-3,-2]],[[4411,4416],[-1,0],[1,0],[0,0]],[[1827,1224],[-77,-150],[-44,-126],[-52,-87],[-67,-206],[-57,-141]],[[1530,514],[-113,64],[-107,-13],[12,54],[-6,92],[-74,65],[-5,84],[-61,108],[-49,31],[-111,-25],[-59,6],[-41,55],[-113,56]],[[1530,514],[-62,-176],[-50,-257],[-56,-78],[-33,39],[-94,36],[-119,61],[-88,-9],[-11,-39],[46,-72],[-33,-19],[-83,14],[-151,80],[-52,69],[-9,184],[-35,10],[-55,-34],[-68,50],[-10,55],[-30,31],[-57,-5],[-30,20],[-37,129]]],"transform":{"scale":[0.00011648526542766061,0.00009596873045653532],"translate":[135.85325,33.72299]},"objects":{"japan":{"type":"GeometryCollection","geometries":[{"arcs":[[0,1,2,3,4,5,6]],"type":"Polygon","properties":{"pref":"三重県","city":"津市","code5":"24201","code6":"242012"}},{"arcs":[[[7,8,9,10,11,12,13,14,15]],[[16]]],"type":"MultiPolygon","properties":{"pref":"三重県","city":"四日市市","code5":"24202","code6":"242021"}},{"arcs":[[17,18,19,20,21,22,23]],"type":"Polygon","properties":{"pref":"三重県","city":"伊勢市","code5":"24203","code6":"242039"}},{"arcs":[[-3,24,25,26,27,28]],"type":"Polygon","properties":{"pref":"三重県","city":"松阪市","code5":"24204","code6":"242047"}},{"arcs":[[29,30,31,32,33,-9,34,35]],"type":"Polygon","properties":{"pref":"三重県","city":"桑名市","code5":"24205","code6":"242055"}},{"arcs":[[-1,36,37,-13,38]],"type":"Polygon","properties":{"pref":"三重県","city":"鈴鹿市","code5":"24207","code6":"242071"}},{"arcs":[[-5,39,40]],"type":"Polygon","properties":{"pref":"三重県","city":"名張市","code5":"24208","code6":"242080"}},{"arcs":[[[41,42,43,44]],[[45,46]],[[47]]],"type":"MultiPolygon","properties":{"pref":"三重県","city":"尾鷲市","code5":"24209","code6":"242098"}},{"arcs":[[-7,49,50,-37]],"type":"Polygon","properties":{"pref":"三重県","city":"亀山市","code5":"24210","code6":"242101"}},{"arcs":[[[-18,51,52]],[[53]],[[54]],[[55]],[[56]]],"type":"MultiPolygon","properties":{"pref":"三重県","city":"鳥羽市","code5":"24211","code6":"242110"}},{"arcs":[[-43,57,58,59,60]],"type":"Polygon","properties":{"pref":"三重県","city":"熊野市","code5":"24212","code6":"242128"}},{"arcs":[[61,-36,62,-16,63,64]],"type":"Polygon","properties":{"pref":"三重県","city":"いなべ市","code5":"24214","code6":"242144"}},{"arcs":[[[-19,-53,65,66]],[[67]],[[68]]],"type":"MultiPolygon","properties":{"pref":"三重県","city":"志摩市","code5":"24215","code6":"242152"}},{"arcs":[[-6,-41,70,-50]],"type":"Polygon","properties":{"pref":"三重県","city":"伊賀市","code5":"24216","code6":"242161"}},{"arcs":[[71,-31]],"type":"Polygon","properties":{"pref":"三重県","county":"桑名郡","city":"木曽岬町","code5":"24303","code6":"243035"}},{"arcs":[[-8,-63,-35]],"type":"Polygon","properties":{"pref":"三重県","county":"員弁郡","city":"東員町","code5":"24324","code6":"243248"}},{"arcs":[[-15,72,-64]],"type":"Polygon","properties":{"pref":"三重県","county":"三重郡","city":"菰野町","code5":"24341","code6":"243418"}},{"arcs":[[-10,-34,73]],"type":"Polygon","properties":{"pref":"三重県","county":"三重郡","city":"朝日町","code5":"24343","code6":"243434"}},{"arcs":[[-11,-74,-33,74]],"type":"Polygon","properties":{"pref":"三重県","county":"三重郡","city":"川越町","code5":"24344","code6":"243442"}},{"arcs":[[-27,75,76,77,78]],"type":"Polygon","properties":{"pref":"三重県","county":"多気郡","city":"多気町","code5":"24441","code6":"244414"}},{"arcs":[[-23,79,-76,-26,80]],"type":"Polygon","properties":{"pref":"三重県","county":"多気郡","city":"明和町","code5":"24442","code6":"244422"}},{"arcs":[[-28,-79,81,82,83,84]],"type":"Polygon","properties":{"pref":"三重県","county":"多気郡","city":"大台町","code5":"24443","code6":"244431"}},{"arcs":[[-22,85,-77,-80]],"type":"Polygon","properties":{"pref":"三重県","county":"度会郡","city":"玉城町","code5":"24461","code6":"244619"}},{"arcs":[[-21,86,87,-82,-78,-86]],"type":"Polygon","properties":{"pref":"三重県","county":"度会郡","city":"度会町","code5":"24470","code6":"244708"}},{"arcs":[[[-83,-88,88,89,90]],[[91]]],"type":"MultiPolygon","properties":{"pref":"三重県","county":"度会郡","city":"大紀町","code5":"24471","code6":"244716"}},{"arcs":[[[-20,-67,92,-89,-87]],[[93]]],"type":"MultiPolygon","properties":{"pref":"三重県","county":"度会郡","city":"南伊勢町","code5":"24472","code6":"244724"}},{"arcs":[[[-45,94,-84,-91,95,-47,96]],[[97]]],"type":"MultiPolygon","properties":{"pref":"三重県","county":"北牟婁郡","city":"紀北町","code5":"24543","code6":"245437"}},{"arcs":[[-59,99,100]],"type":"Polygon","properties":{"pref":"三重県","county":"南牟婁郡","city":"御浜町","code5":"24561","code6":"245615"}},{"arcs":[[-60,-101,101]],"type":"Polygon","properties":{"pref":"三重県","county":"南牟婁郡","city":"紀宝町","code5":"24562","code6":"245623"}}]}}}