{"type":"Topology","arcs":[[[1322,2799],[-29,-40],[-79,-221]],[[1214,2538],[-70,-22],[-52,-36],[-69,-215]],[[1023,2265],[-100,-61],[-24,-140],[-22,-39],[-43,-135]],[[834,1890],[-45,-55],[-17,-62],[-101,-160],[-22,-59],[70,-209],[8,-64],[84,26],[110,-25],[54,-129],[80,23],[8,47],[57,-20],[61,0]],[[1181,1203],[109,-28],[19,-83],[-20,-51],[36,-68],[68,-26],[58,35]],[[1451,982],[-41,-45],[48,-49],[-3,-44],[-158,-21],[-64,-69],[-35,-4],[-30,-71],[3,-49],[-67,-9],[-38,18],[-17,-71],[-110,-12]],[[939,556],[-38,85],[-63,-42],[-60,-9],[-16,-42],[-52,-35],[-57,26],[0,37],[-116,69],[-18,73],[42,40],[-2,102],[48,54],[-20,55],[12,27],[-16,40],[-63,40],[-58,72],[24,55],[-76,63],[-78,7],[48,65],[-21,52],[-65,22],[80,-4],[-5,62],[-52,86],[-48,42],[3,33],[99,52],[5,43],[-21,58],[34,48],[8,45],[-25,33],[41,71],[2,47],[34,68],[13,87],[-19,48],[21,28],[18,84],[-48,19],[-33,112],[7,62],[-57,131],[-1,78],[34,21],[1,73],[37,151],[41,49],[44,89]],[[507,3128],[27,-18],[89,28],[121,-60],[22,-70],[92,-37],[48,14],[61,87],[41,22],[107,-34],[35,0],[53,-50],[119,-211]],[[3078,3072],[-67,-65],[-93,24],[-70,-64],[-37,-3],[-19,-51],[-46,-49],[-71,-7],[-25,-49],[-64,-27]],[[2586,2781],[-39,-15],[2,-57],[-49,4],[-19,-31]],[[2481,2682],[-62,36],[-24,-73],[-40,-63],[13,-22]],[[2368,2560],[-56,35],[-53,-4],[-19,-53]],[[2240,2538],[-56,21],[-73,70],[-143,17],[-19,27],[-77,9],[-48,23],[-141,225]],[[1683,2930],[-8,45]],[[1675,2975],[201,-19],[161,81],[-37,516],[14,39]],[[2014,3592],[321,-110]],[[2335,3482],[19,-41],[14,-182],[147,-51],[68,31],[18,-38],[49,14],[162,15],[68,-38],[27,-77],[50,68],[93,-34],[28,-77]],[[1790,4690],[19,103],[-20,66],[24,24],[-6,51],[19,39],[47,18],[90,-4],[64,-17],[102,-12],[-21,74],[58,78],[-56,150],[-36,42],[-1,62],[-43,85],[-19,90],[-55,16],[-15,31],[82,135],[1,42],[86,28],[97,10],[41,-19],[28,-71],[50,-12],[20,-33],[40,12],[43,-25],[35,13],[54,-55],[30,15],[37,-31],[62,-16],[60,-65],[-22,-45],[34,-49],[-20,-45],[43,-55],[6,-47],[50,-20],[44,30],[47,8],[43,-44],[-24,-81],[14,-35],[5,-180],[-34,-89],[31,-74],[40,42],[39,-4],[19,-82],[26,-8]],[[3048,4736],[10,-80],[-24,-48],[-2,-81],[-28,-43],[-14,-88],[19,-36],[-28,-52],[50,-47],[41,-64],[-4,-28],[48,-81],[-9,-61],[29,-51],[-31,-100],[-83,12],[-46,-19],[28,-130],[-17,-73],[-40,-54],[-8,-77],[-73,-28],[-28,60],[-49,16],[-99,-24],[-142,12],[-39,-19],[-90,-11],[-84,-59]],[[2014,3592],[-18,10],[-245,224],[-19,109],[114,144],[8,34],[-11,105],[-113,43],[10,108],[26,76],[-13,62],[34,95],[3,88]],[[1322,2799],[55,51],[232,129],[66,-4]],[[1683,2930],[27,-192],[48,-76],[33,-132],[34,-24],[58,12],[33,-24],[4,-72],[50,-71],[4,-36],[56,-13],[88,-56],[39,-87],[38,-31],[-69,-47],[0,-47],[-52,-26],[-52,23],[-54,-4],[-74,-46],[0,-43],[80,-67],[26,-55]],[[2000,1816],[-62,4],[4,42],[-63,50],[-43,-26],[-59,9],[-22,51],[-62,1],[-48,-32]],[[1645,1915],[-70,82],[-165,60],[-43,136],[-89,32],[-23,87],[-13,201],[-28,25]],[[834,1890],[92,-46],[49,-123],[41,-9],[25,-60]],[[1041,1652],[12,-51],[-21,-32],[60,-40],[-21,-60],[10,-40],[63,-43],[40,-5],[48,-71],[-51,-107]],[[1023,2265],[43,-104],[110,-67],[59,-70],[21,-52],[-11,-68],[37,-33],[5,-59],[-67,-82],[57,-23],[43,-55]],[[1320,1652],[-66,-19],[-45,-69],[-99,58],[-69,30]],[[1320,1652],[58,-104],[62,-52]],[[1440,1496],[-14,-90],[33,-156],[98,-148]],[[1557,1102],[-65,-37],[-14,-75],[-27,-8]],[[3443,1328],[-32,-96],[4,-24],[-67,-74],[-41,-110],[-40,8],[-78,-69],[6,-117],[-32,-12],[-9,-108],[-140,-60],[-68,-44],[-69,-10],[-1,-41],[-42,-34],[-83,-36],[-28,5],[-16,17],[-67,-54],[-91,-43],[-80,24],[-39,-3],[-156,56],[-91,101],[-72,14],[-97,-38],[-63,40],[-26,-33],[-80,58],[-21,62],[-55,-37],[-63,-87],[-14,-39],[62,-36],[75,-8],[47,21],[22,-68],[-94,-58],[-21,-78],[-49,-3],[-39,-61],[40,-72],[-24,-44],[-92,-51],[-113,-33],[-54,-4],[-67,-49],[-32,6],[-63,50],[44,84],[51,41],[-68,47],[-53,0],[-16,39],[16,66],[-177,-29],[3,48],[-78,55],[-58,-19],[-27,76],[12,92]],[[1557,1102],[79,-11],[64,-52],[75,-15],[56,-27],[96,100],[-21,97],[-2,66],[-26,42],[87,46],[-11,68],[27,73]],[[1981,1489],[59,-37],[53,73]],[[2093,1525],[42,-68],[48,-23]],[[2183,1434],[11,-76],[32,-44],[64,-33],[35,-44],[40,1],[20,-33],[4,-74],[43,11],[51,-71],[75,-16],[67,44],[24,-15],[108,79],[57,63],[77,-7],[25,-27],[75,30],[31,40],[24,123],[-15,50]],[[3031,1435],[65,44],[47,-42],[102,10],[24,26],[87,-56],[71,28]],[[3427,1445],[-6,-44],[22,-73]],[[1645,1915],[3,-191],[-29,-62]],[[1619,1662],[-88,28],[-2,-76],[-26,-78],[-63,-40]],[[1619,1662],[57,-83],[14,-59],[75,-53],[62,38],[57,-17],[-21,66],[52,1],[66,-66]],[[1375,4694],[114,32],[65,-17],[45,-36],[41,28],[32,63],[54,-20],[64,-54]],[[507,3128],[-137,-57],[-27,17],[-50,91],[7,37],[-33,28],[-20,78],[-84,49],[-50,60],[-25,63],[-88,25],[25,73],[47,63],[7,48],[67,48],[-5,35],[87,-8],[17,153],[12,23],[71,10],[139,-19],[6,-69],[53,-40],[137,55],[12,106],[51,61],[60,17],[-9,106],[17,47],[2,92],[30,35],[3,62],[39,39],[43,122],[9,59],[39,0],[25,-59],[56,-63],[53,-8],[43,-85],[45,38],[90,-5],[26,36],[23,94],[67,70],[-12,39]],[[3377,2519],[57,-28],[26,11],[102,-81],[56,-66],[2,-57],[-47,-16],[-16,-69],[-38,-53],[64,-43],[-42,-46],[14,-37],[-20,-92],[17,-62],[-35,-26],[33,-100],[-89,-62],[-36,-48],[-7,-77],[39,-48],[-30,-74]],[[3031,1435],[-41,83],[-37,42],[-53,16],[-53,41],[-63,78],[-150,2],[-93,68],[-76,3],[-72,-32],[-28,-78],[10,-82],[-32,-37],[-64,-38],[-12,-28],[-66,16],[-18,-55]],[[2093,1525],[-37,-14],[-34,107],[16,54],[-37,51],[19,30],[-20,63]],[[2240,2538],[23,-35],[3,-88],[35,-75],[5,-69],[66,-2],[53,-27],[51,96],[53,-49],[88,36],[95,-26],[114,33],[95,-75],[20,-56],[54,37]],[[2995,2238],[26,-44],[74,-31],[128,58],[39,28],[18,68],[-51,43],[-31,94],[26,80],[44,9],[7,37],[76,-59],[26,-2]],[[3346,3239],[-61,-65],[4,-20]],[[3289,3154],[-74,1],[-137,-83]],[[3048,4736],[57,24],[30,118],[58,6],[35,-85],[21,-82],[85,-19],[10,-107],[-76,-104],[-5,-54],[58,-48],[20,-69],[98,-24],[5,-67],[25,-48],[-16,-53],[-39,-40],[17,-36],[-37,-59],[44,-36],[40,-77],[68,-44],[18,-28],[-39,-65],[-56,-37],[-56,1],[-19,-23],[9,-63],[41,-38],[5,-36],[-59,-130],[6,-78],[-50,-96]],[[2368,2560],[45,-43],[3,-50],[50,-17],[-25,102],[33,3],[105,-28]],[[2579,2527],[96,-33],[13,-22],[70,18]],[[2758,2490],[26,-64],[67,-71],[14,-33],[84,-10],[46,-74]],[[2481,2682],[39,-23],[-10,-74],[69,-17],[0,-41]],[[2586,2781],[81,-83],[29,-61],[44,-39],[18,-108]],[[3289,3154],[21,-39],[-12,-121],[18,-25],[-41,-52],[-53,-15],[4,-41],[61,-42],[40,-53],[48,-15],[36,-38],[5,-78],[-18,-85],[-21,-31]]],"transform":{"scale":[0.00019086342266408924,0.00015739457318289052],"translate":[135.7640727500575,34.790680278672085]},"objects":{"japan":{"type":"GeometryCollection","geometries":[{"arcs":[[0,1,2,3,4,5,6,7]],"type":"Polygon","properties":{"pref":"滋賀県","city":"大津市","code5":"25201","code6":"252018"}},{"arcs":[[8,9,10,11,12,13,14,15,16]],"type":"Polygon","properties":{"pref":"滋賀県","city":"彦根市","code5":"25202","code6":"252026"}},{"arcs":[[17,18,-16,19]],"type":"Polygon","properties":{"pref":"滋賀県","city":"長浜市","code5":"25203","code6":"252034"}},{"arcs":[[-1,20,-14,21,22,23]],"type":"Polygon","properties":{"pref":"滋賀県","city":"近江八幡市","code5":"25204","code6":"252042"}},{"arcs":[[-4,24,25]],"type":"Polygon","properties":{"pref":"滋賀県","city":"草津市","code5":"25206","code6":"252069"}},{"arcs":[[-3,26,27,-25]],"type":"Polygon","properties":{"pref":"滋賀県","city":"守山市","code5":"25207","code6":"252077"}},{"arcs":[[-5,-26,-28,28,29,30]],"type":"Polygon","properties":{"pref":"滋賀県","city":"栗東市","code5":"25208","code6":"252085"}},{"arcs":[[31,-6,-31,32,33,34,35,36,37]],"type":"Polygon","properties":{"pref":"滋賀県","city":"甲賀市","code5":"25209","code6":"252093"}},{"arcs":[[-2,-24,38,39,-29,-27]],"type":"Polygon","properties":{"pref":"滋賀県","city":"野洲市","code5":"25210","code6":"252107"}},{"arcs":[[-30,-40,40,-33]],"type":"Polygon","properties":{"pref":"滋賀県","city":"湖南市","code5":"25211","code6":"252115"}},{"arcs":[[41,-20,-15,-21,-8,42]],"type":"Polygon","properties":{"pref":"滋賀県","city":"高島市","code5":"25212","code6":"252123"}},{"arcs":[[43,-37,44,-35,45,-22,-13,46,47]],"type":"Polygon","properties":{"pref":"滋賀県","city":"東近江市","code5":"25213","code6":"252131"}},{"arcs":[[48,49,-17,-19,50]],"type":"Polygon","properties":{"pref":"滋賀県","city":"米原市","code5":"25214","code6":"252140"}},{"arcs":[[-36,-45]],"type":"Polygon","properties":{"pref":"滋賀県","county":"蒲生郡","city":"日野町","code5":"25383","code6":"253839"}},{"arcs":[[-23,-46,-34,-41,-39]],"type":"Polygon","properties":{"pref":"滋賀県","county":"蒲生郡","city":"竜王町","code5":"25384","code6":"253847"}},{"arcs":[[-12,51,52,53,-47]],"type":"Polygon","properties":{"pref":"滋賀県","county":"愛知郡","city":"愛荘町","code5":"25425","code6":"254258"}},{"arcs":[[-11,54,-52]],"type":"Polygon","properties":{"pref":"滋賀県","county":"犬上郡","city":"豊郷町","code5":"25441","code6":"254410"}},{"arcs":[[-10,55,-53,-55]],"type":"Polygon","properties":{"pref":"滋賀県","county":"犬上郡","city":"甲良町","code5":"25442","code6":"254428"}},{"arcs":[[56,-48,-54,-56,-9,-50]],"type":"Polygon","properties":{"pref":"滋賀県","county":"犬上郡","city":"多賀町","code5":"25443","code6":"254436"}}]}}}