{"type":"Topology","arcs":[[[2622,7808],[113,-68],[-50,-72],[36,-52],[-18,-68],[48,-23],[85,34],[96,-20],[78,-52],[-10,-105],[95,-18],[54,-69],[9,-46],[62,-56]],[[3220,7193],[-9,-41],[-74,-4],[-25,30],[-71,-20],[-44,-101],[7,-108],[-52,-18],[-50,23],[-29,-28],[-122,25],[-6,-38],[97,-78],[25,-7],[-15,-68],[-56,-19],[-59,-80],[41,-9],[56,-52],[44,-4],[12,-112],[24,-72],[-70,-105],[59,-7],[46,-24],[-3,-44],[31,-32],[-2,-130],[17,-44],[121,-77],[33,6],[155,-131],[70,-11],[99,51],[120,30],[72,-42],[97,-23],[55,29],[113,13],[61,46]],[[3988,5917],[26,-107],[28,-40],[-13,-51],[-48,-17],[-63,-51],[0,-30],[-63,-24],[-38,-81],[-85,-8],[91,-147],[-54,-14],[31,-74],[-24,-143],[-63,22],[-21,-106],[25,-30],[2,-141],[18,-15]],[[3737,4860],[-40,-13],[-91,63],[-57,-15],[-119,7],[-30,17],[-108,-18],[-47,12],[-30,-122],[-31,-21],[-157,-33],[-29,45],[-85,75],[-52,-2],[24,117],[-29,74],[53,40],[62,15],[-26,78],[-71,40],[-6,33],[-52,62],[-60,-14],[-35,59],[-68,-2],[-72,69],[61,47],[45,120],[-50,114],[-5,49],[-29,30],[-88,28],[-43,-17],[-62,28],[-50,-45],[-83,20],[-85,38],[-78,-68],[-48,3],[-44,-58],[-36,-13],[-21,-71],[-70,-33],[-16,-38],[-43,-23],[-29,47],[-2,47],[-54,89],[-9,99],[-64,-26],[-63,22],[-55,-15],[-141,55],[-76,19],[12,112],[-39,53],[-91,43],[-33,-7],[-55,37],[-86,26],[-141,30],[-111,63],[-9,33],[-73,5],[-110,42],[-29,60],[39,45],[-10,45],[28,44],[-21,67],[-72,36],[15,104],[39,43],[-39,106],[68,136],[-3,86],[-30,55],[40,89],[33,19],[24,63],[102,61],[75,-50],[34,6],[104,-105],[84,-6],[67,-58],[-13,-41],[30,-33],[98,14],[29,37],[119,36],[38,72],[52,48],[3,47],[72,-4],[88,-25],[13,66],[-7,69],[-20,38],[0,62],[20,107],[21,24],[-17,86]],[[1681,7760],[80,14],[17,-35],[80,-41],[85,-13],[120,3],[61,52],[47,20],[-10,74],[38,61],[126,63]],[[2325,7958],[42,0],[128,-43],[42,-69],[36,2],[49,-40]],[[5430,8877],[-169,-63],[-55,-36],[-7,-52],[-47,-68],[3,-29],[-40,-72],[1,-67],[143,-118],[82,-41],[-31,-45],[32,-120],[-48,-4],[-10,-47],[-61,-62],[-34,-104],[37,-69],[57,-42],[8,-39]],[[5291,7799],[-40,-36],[-25,-62],[-42,-46],[-36,-10],[-81,-82],[-85,-30],[-38,43],[-34,-5],[-52,-69],[-96,21],[-22,-126],[-21,-53],[24,-28],[23,-89],[-9,-54],[-41,5],[-23,-50],[-77,-77],[-67,-28],[-52,146],[-83,-17],[-82,46],[-71,-43],[-26,-63],[-60,62],[-62,-22],[-50,-43],[-34,14],[-111,-49],[-115,70],[-13,73],[-39,-3],[-60,27],[-113,-27],[-36,34],[-95,-13],[-43,-30],[-52,1],[-89,28],[-43,-21]],[[2622,7808],[129,17],[88,57],[10,78],[69,43],[65,79],[-4,86],[72,35],[79,-4],[11,59],[35,55],[88,77],[64,-40],[107,33],[54,-44],[46,-84],[51,-22],[39,-50],[65,-16],[33,102],[8,174]],[[3731,8443],[63,-6],[125,-36],[57,84],[6,30],[48,26],[67,-92],[3,-72],[26,-44],[-22,-110],[-35,-47],[-32,-5],[-4,-79],[-37,-92],[-14,-108],[-60,-55],[21,-59],[72,0],[-11,41],[61,37],[-5,41],[89,95],[61,22],[44,118],[43,21],[81,-3],[94,37],[40,-14],[21,-47],[-74,-93],[103,18],[55,44],[19,-55],[36,14],[-29,58],[11,54],[37,52],[-55,53],[-26,94],[41,40],[-15,48],[-44,-8],[-37,-50],[-9,-80],[-95,24],[-77,-23],[-31,15],[-42,-33],[-87,42],[21,36],[-29,57],[48,27],[-90,60],[-24,88],[2,58],[33,128],[31,-57],[68,-2],[47,54],[78,20],[95,79],[63,18],[45,-43],[118,54],[82,87],[115,-38],[-14,40],[16,50],[65,61],[5,77],[128,68],[-3,32],[59,24],[41,-17],[-37,-70],[-39,-5],[31,-69],[-60,-61],[4,-24],[-1,-46],[34,-50],[34,31],[65,8],[80,-149],[59,22],[46,-11]],[[4903,10226],[22,-62],[-55,-13],[33,75]],[[5291,7799],[90,-66],[45,5],[42,-105],[58,-10],[24,-52],[-44,-64],[88,-58],[38,37],[50,-26],[42,10],[53,-47],[26,-104],[-41,-55],[55,-107],[-25,-22],[-10,-110],[60,-29]],[[5842,6996],[-1,-64],[-53,-21],[-56,5],[-46,-52],[-140,-51],[46,-112],[-47,-14],[-16,-58]],[[5529,6629],[-102,36],[-93,-19],[-67,23],[-94,-2],[-91,-18],[-41,-26],[-36,19],[-73,-12],[-50,-56],[-51,-23],[-6,-44],[-38,-35],[-91,-23],[-73,-73],[-68,-31],[-46,-126],[-81,-64],[-22,-49],[-73,1],[-64,-29],[-52,-76],[-57,-22],[-53,-91],[-47,22],[-72,6]],[[8794,2516],[-20,-44],[33,-91],[-79,-88],[-14,-61],[18,-107],[-69,-65],[36,-71],[-6,-49]],[[8693,1940],[-34,-7],[-40,-82],[-81,-20],[-34,-52],[-14,-63],[-116,-60]],[[8374,1656],[1,-52]],[[8375,1604],[-41,-21],[-110,32],[-90,65],[-35,-16],[-74,4],[-70,38],[-40,-13],[-139,1]],[[7776,1694],[-2,61],[64,0],[-11,123],[-51,0],[2,75],[54,31],[-11,63],[-36,59]],[[7785,2106],[131,84],[118,9],[20,139],[47,43],[84,32],[29,-11],[30,-76],[33,-27],[96,8],[7,83],[125,2],[44,40],[-24,95],[42,88],[64,2],[28,-66],[135,-35]],[[2325,7958],[-12,57],[120,66],[6,85],[58,75],[53,43],[3,89],[95,24],[43,72],[-21,79],[8,53],[-90,-11],[-57,55],[-38,85],[-42,7],[-5,80],[78,72],[87,-47],[29,35],[8,56],[77,44],[45,2],[-8,63],[-41,42],[51,158],[29,49],[7,91]],[[2808,9382],[17,80],[-41,4],[-56,59],[13,19],[-83,65],[-42,59],[-3,100],[44,111],[96,13],[38,45],[-9,38],[16,74],[57,-31],[52,22],[36,-52],[72,-3],[-19,53],[-41,51],[49,50],[28,70],[54,35]],[[3086,10244],[64,-23],[49,23],[104,-44],[53,38],[63,1],[96,37],[32,27],[87,-53],[-9,-73],[-63,-35],[-6,-55],[53,-71]],[[3609,10016],[-59,-4],[-36,-65],[-98,-138],[-14,-75],[-39,-101],[-7,-74],[-32,-58],[-49,-14],[-16,-49],[-49,-40],[-22,-48],[-95,-53],[-19,-53],[-43,-55],[-11,-46],[-52,-52],[-86,-123],[-26,-99],[14,-40],[-7,-62],[43,-75],[80,-27],[60,54],[17,54],[-19,59],[-40,17],[2,45],[29,34],[41,-3],[32,38],[93,37],[27,70],[-19,92],[85,-39],[113,130],[4,43],[41,4],[-11,-108],[-62,-6],[-5,-61],[46,-50],[-21,-32],[35,-61],[72,0],[106,-82],[-83,-35],[-34,-32],[-60,21],[-26,52],[-74,-5],[-36,-50],[-15,-56],[33,-108],[44,-45],[204,-21],[33,-49],[-12,-38],[98,-48],[47,-43]],[[3388,9161],[0,-1],[0,1],[0,0]],[[6386,4047],[3,-20],[-54,-87],[-16,-73],[52,-61],[29,-6],[26,-81],[50,38],[89,17],[28,-37],[-39,-95],[1,-140],[36,-42],[38,16],[76,-90],[41,-78],[-29,-45],[56,-63],[32,-58],[-5,-64],[-61,-36],[-11,-91],[4,-88],[26,-53],[-148,-13],[-92,-33]],[[6518,2764],[-49,-20],[-37,19],[-120,-41],[-40,83],[-65,-13],[-53,-43],[3,-61],[61,-36],[2,-48],[-133,-23],[-16,-73],[5,-93],[25,-49],[62,63],[78,-21],[2,-152],[-70,-59],[-89,10],[-81,-23],[-77,20],[-28,-23],[-43,59],[8,48],[-100,34],[-35,47],[-54,37],[-2,71],[-92,27],[-37,-52],[-80,5],[-18,48],[-32,11],[-32,30],[34,44],[-25,111],[56,14],[-45,160],[30,35],[55,25],[-96,78],[-92,-4],[-97,71],[-68,2],[-44,38],[-91,31],[-115,-65],[-41,11],[-71,87],[-56,-51],[-50,42],[-28,-20],[-44,28],[-64,-11],[-34,107],[35,58],[3,49]],[[4533,3386],[35,-30],[60,15],[42,-50],[135,17],[104,22],[74,-40],[72,127],[104,52],[31,53],[38,18],[96,125],[-18,62],[40,60],[62,-34],[43,7],[71,-19],[71,13],[-1,-60],[79,-24],[78,3],[23,-42],[107,43],[16,55],[63,-53],[72,28],[5,62],[-32,46],[-14,105],[28,4],[52,54],[13,59],[62,53],[83,-34],[62,14],[34,-35],[63,-15]],[[8375,1604],[31,-16]],[[8406,1588],[18,-109],[50,-15],[5,-63],[56,-44],[-20,-28],[15,-91]],[[8530,1238],[-131,16],[-72,-15],[-82,6],[-58,-35],[-146,-5]],[[8041,1205],[-43,71],[-71,46],[-104,8],[-30,22],[-77,139]],[[7716,1491],[-10,48],[6,123],[-25,29]],[[7687,1691],[89,3]],[[7388,2325],[-123,1],[7,34],[-18,93],[-35,55]],[[7219,2508],[-102,183],[84,43],[105,-51],[42,-10],[-4,-71],[68,-53],[8,-88],[-39,-68],[7,-68]],[[7388,2325],[-4,-136],[-66,-83]],[[7318,2106],[-83,26],[-18,-31],[-48,20],[-13,33],[-78,1],[-74,-39],[-24,-50]],[[6980,2066],[-44,-6],[-68,59],[-48,2],[9,75],[24,4],[-32,93],[-47,38]],[[6774,2331],[94,46],[45,-12],[131,133],[46,-13],[129,23]],[[7290,2008],[20,-42],[55,-15],[0,-62],[30,-47],[71,-25],[75,-57]],[[7541,1760],[39,-22],[94,-16],[13,-31]],[[7716,1491],[-63,20],[-61,-6],[-29,37],[-53,-37],[-10,-51],[-62,-61],[17,-36],[-32,-46]],[[7423,1311],[-26,63],[-30,23],[-17,69],[-68,53],[-57,-37],[-34,53],[-5,158],[-73,39],[8,57],[-31,38],[24,68]],[[7114,1895],[32,33],[61,11],[83,69]],[[7529,1216],[-58,6],[-9,31]],[[7462,1253],[19,27],[49,-32],[-1,-32]],[[8041,1205],[65,-64],[31,-50],[1,-52],[-35,-98],[22,-65]],[[8125,876],[-121,-12],[1,-46],[-40,-46],[-61,-6],[-27,18],[-100,-18],[-51,-105],[15,-57],[-55,-70],[-67,-6],[-41,-50]],[[7578,478],[-29,31],[-28,135],[-13,107],[32,49],[72,59],[50,134],[-84,140],[-14,54],[-35,29]],[[7462,1253],[-39,58]],[[2808,9382],[-102,-6],[-63,-114],[17,-28],[-71,-61],[-82,-21],[-44,-108],[-30,-11],[-51,-151],[-27,-11],[-85,-108],[-32,25],[-181,-7],[-55,-48],[-113,-75],[-48,6],[-68,-48],[-58,-13],[-62,16],[-28,32],[-53,11]],[[1572,8662],[-14,26],[-72,3],[-83,-22],[-81,-45],[-125,7],[-45,-50],[-53,-11],[-24,-47],[-45,12],[-75,-55],[-16,-55],[-45,-16],[-47,16],[-91,-4],[-103,-26],[-58,48],[-2,56],[-69,63],[18,19],[18,90],[-38,71],[-101,46],[-19,70],[-108,42],[-62,41],[1,35],[-47,68],[-83,74],[-28,61],[-57,-4],[-18,29],[99,105],[16,94],[-8,53],[36,14],[27,66],[-30,109],[-27,49],[-12,90],[16,49],[-30,22],[29,67],[74,8],[22,20],[60,-44],[-10,-22],[-7,-83],[73,23],[25,-35],[41,32],[79,-34],[122,12],[170,64],[171,101],[31,44],[-22,45],[22,51],[52,7],[17,74],[60,13],[41,77],[110,-12],[31,30],[71,-12],[33,-26],[42,22],[49,-29],[36,24],[19,74],[41,35],[45,-28],[36,30],[112,51],[60,66],[14,45],[53,1],[96,80],[22,63],[-29,69],[14,15],[58,-18],[16,50],[49,-18],[90,43],[13,-13],[103,16],[78,55],[-5,37],[49,33],[24,-63],[69,6],[107,17],[42,39],[57,6],[16,39],[70,-13],[24,44],[111,4],[67,-14],[113,68],[8,88],[82,-65],[21,-34]],[[3254,11080],[-13,-44],[-64,-106],[-37,-93],[-33,-29],[-70,-25],[-9,-52],[-81,-43],[18,-66],[-56,-81],[5,-58],[-40,-27],[31,-52],[23,-84],[32,10],[70,-36],[58,-8],[-2,-42]],[[5842,6996],[21,-8],[187,-2],[61,9],[50,-32],[68,7],[73,-69],[49,23],[114,11],[140,-17],[113,-65],[50,32],[86,-71],[76,-37],[59,7],[77,-75],[205,-64],[83,45],[18,53],[53,23],[52,-37],[98,-6],[66,81],[95,-47],[79,21],[38,-5],[-41,-119],[144,-42],[42,-102],[37,-26],[7,-46],[38,-27]],[[8080,6411],[-46,-79],[-19,-59],[-87,-30],[1,-111],[33,-46],[-58,-62],[-24,40],[-50,17],[-153,-30],[-105,11],[-59,-43],[20,-59],[-50,-65],[14,-41],[-20,-23],[-64,-3],[-48,-44],[-41,3],[-31,-41],[-37,5],[-84,-28],[-73,16],[-225,67],[-24,-33],[-103,-21],[-95,-132],[7,-97],[-82,-30],[-8,-80],[-91,30],[-82,-34],[-32,-41],[-37,-7],[-10,-42],[58,-45],[-1,-100],[-46,-77],[-59,-57],[-11,-46],[-82,-145],[4,-24],[-106,-130],[-10,-62],[17,-25],[-29,-118],[21,-45],[55,-52],[64,51],[20,-50],[52,-5],[102,18],[-40,-50],[11,-77],[44,-70],[56,23],[70,-76],[38,-11],[-16,-68],[-81,-49],[-62,18]],[[4533,3386],[-17,85],[-35,53],[-41,12],[-22,100],[23,38],[50,24],[-5,54],[90,68],[57,6],[50,31],[5,102],[36,32],[-31,50],[-78,44]],[[4615,4085],[58,40],[12,29],[103,28],[76,-29],[61,103],[-14,46],[96,9],[35,52],[43,22],[-29,61],[46,8],[-5,52],[59,77],[-32,82],[59,28],[-1,60],[19,40],[45,23],[-8,51],[-29,34],[12,89],[-61,19],[-26,49],[-52,16],[20,80],[29,43],[19,80],[27,40],[-7,84],[-39,62],[16,157],[97,41],[-26,71],[-49,51],[3,64],[39,179],[100,64],[49,71],[-36,62],[42,59],[10,43],[69,48],[63,23],[52,41],[-9,58],[-29,37],[7,97]],[[8702,1007],[-29,-44],[14,-35],[54,-9],[-29,-66],[60,-47],[45,-98],[44,-10],[43,-42],[38,41],[31,67],[35,-62],[-38,-40],[11,-34],[111,-15]],[[9092,613],[33,-112],[44,7]],[[9169,508],[-51,-11],[-38,-102],[-28,-26],[-47,-88],[-48,-22],[-62,-223],[-43,44],[-78,2],[-70,-35],[-40,-44],[-31,9],[-91,-12],[-86,61],[-106,19],[-59,-20],[-64,58],[-56,7],[-19,41],[-100,29],[-119,-16]],[[7933,179],[2,56],[100,43],[35,53],[-48,11],[-114,-3],[8,54],[86,53],[80,22],[83,2],[23,101],[-36,106],[-3,156],[-24,43]],[[8125,876],[29,16],[79,0],[105,34],[24,39],[74,21],[104,-6],[162,27]],[[7318,2106],[-8,-81],[-20,-17]],[[7114,1895],[-30,26],[-39,103],[-65,42]],[[7541,1760],[2,35],[-34,72],[-53,29],[-9,14],[-12,37],[-36,67],[31,-12],[107,66],[71,4],[64,68],[46,-75],[67,41]],[[8374,1656],[32,-68]],[[8530,1238],[41,11],[63,-46],[11,-81]],[[8645,1122],[-6,-29],[57,-32],[6,-54]],[[8693,1940],[127,-88],[62,-25],[0,-61],[94,-42],[85,57],[27,69],[97,14],[104,71],[44,-72],[-10,-47],[28,-22],[3,-56],[-23,-94],[52,-107],[-7,-18]],[[9376,1519],[-95,-56],[-47,-82],[-50,-58],[-105,16],[-63,-42],[29,-26],[-86,-56],[-66,32],[-27,-63],[-71,-33],[-79,-3],[-71,-26]],[[9092,613],[61,5],[-12,49],[79,48],[103,-23],[92,208],[7,59]],[[9422,959],[73,-37],[59,10],[18,-80],[-32,-34],[42,-31],[70,1],[-14,-80],[3,-120],[-45,-13],[-19,-102],[21,-29],[-20,-84]],[[9578,360],[-32,28],[-67,-24],[-28,77],[-119,-96],[-43,10],[-31,-25],[-73,40],[-7,32],[50,85],[0,43],[-59,-22]],[[9376,1519],[94,32],[48,-46],[80,-45],[-5,-79],[54,-1],[146,40],[51,30],[39,-21],[-25,-108],[26,-64],[58,-15],[29,15],[105,-50],[6,-28]],[[10082,1179],[-80,33],[-61,-3],[-107,22],[-42,19],[-190,-124],[-38,-53],[-70,20],[-55,-34],[5,-61],[-22,-39]],[[7933,179],[-41,16],[-153,30],[13,87],[-81,76],[-11,38],[-61,15],[-21,37]],[[10029,892],[-20,-54],[23,-43],[94,-29],[-2,-80],[-34,-73],[7,-93],[68,4],[10,-72],[72,-54],[19,-38],[48,-20],[-91,-14],[-26,-31],[-21,-148],[-86,-66],[-22,-80],[-64,26],[-47,-8],[-10,65],[-64,34],[-47,-45],[-117,24],[-1,115],[-44,113],[-24,-1],[-46,52],[-26,-16]],[[10082,1179],[-9,-44],[-75,-23],[-31,-37],[-41,-100],[9,-39],[94,-44]],[[4615,4085],[-34,12],[13,95],[36,23],[-53,62],[-10,45],[44,60],[-12,23],[-65,11],[-81,-9],[-39,23],[-71,11],[-45,47],[-99,-11],[-29,23],[-20,65],[30,58],[-121,-5],[-24,-27],[-75,-3],[-102,-37],[-40,9],[-43,-21],[-53,12],[-66,44],[-12,43],[61,16],[21,60],[36,30],[-25,116]],[[3254,11080],[90,-95],[58,-14],[20,-92],[39,-59],[80,3],[62,-51],[-6,-77],[94,-41],[39,-43],[9,-60],[-27,-80],[9,-32],[61,-29],[37,-46],[65,-15],[19,-57],[-36,-18],[0,-53],[-48,-82],[-3,-57],[42,-109],[-88,-27],[-12,38],[23,67],[-57,52],[-39,-52],[-76,-35]],[[1681,7760],[-38,45],[-14,114],[-24,76],[-50,39],[43,48],[17,130],[-84,36],[76,64],[34,52],[-20,28],[1,90],[-31,88],[-27,22],[8,70]],[[8080,6411],[72,-42],[44,-4],[21,-34],[-5,-55],[32,-12],[5,-61],[56,-46],[-12,-60],[82,-150],[43,-28],[62,43],[67,22],[18,59],[58,12],[19,-43],[-53,-79],[-18,-67],[-42,-24],[-25,-56],[13,-43],[-33,-41],[-41,-163],[-2,-121],[-55,-33],[-9,-69],[11,-60],[38,-39],[-3,-46],[40,-113],[18,-16],[-11,-102],[53,-184],[80,-31],[-31,-138],[-33,-45],[31,-79],[-23,-77],[1,-66],[-21,-66],[-35,-45],[-3,-77],[-43,-53],[-24,-64],[41,-54],[-13,-73],[-55,-80],[34,-95],[-9,-71],[-28,-30],[-40,13],[-95,-68],[-4,-54],[54,-64],[25,-4],[30,-76],[-14,-49],[69,-16],[8,-102],[-130,7],[33,-43],[73,6],[34,-86],[-35,-22],[-43,-83],[127,-12],[60,19],[-1,-73],[50,0],[15,-50],[-38,-90],[95,-118],[13,-30],[90,-36],[26,-65]],[[6774,2331],[-87,51],[-42,-9],[-37,12],[-74,-75],[-121,21],[21,64],[63,41],[6,43],[62,156],[-27,41],[-20,88]]],"transform":{"scale":[0.00011648535970525655,0.00009597280615439645],"translate":[134.85404,34.70597]},"objects":{"japan":{"type":"GeometryCollection","geometries":[{"arcs":[[0,1,2,3,4,5]],"type":"Polygon","properties":{"pref":"京都府","city":"福知山市","code5":"26201","code6":"262013"}},{"arcs":[[[6,7,-1,8,9]],[[10]]],"type":"MultiPolygon","properties":{"pref":"京都府","city":"舞鶴市","code5":"26202","code6":"262021"}},{"arcs":[[11,12,13,-2,-8]],"type":"Polygon","properties":{"pref":"京都府","city":"綾部市","code5":"26203","code6":"262030"}},{"arcs":[[14,15,16,17,18,19]],"type":"Polygon","properties":{"pref":"京都府","city":"宇治市","code5":"26204","code6":"262048"}},{"arcs":[[-6,20,21,22,23,-9]],"type":"Polygon","properties":{"pref":"京都府","city":"宮津市","code5":"26205","code6":"262056"}},{"arcs":[[25,26,27]],"type":"Polygon","properties":{"pref":"京都府","city":"亀岡市","code5":"26206","code6":"262064"}},{"arcs":[[-18,28,29,30,31,32,33]],"type":"Polygon","properties":{"pref":"京都府","city":"城陽市","code5":"26207","code6":"262072"}},{"arcs":[[34,35]],"type":"Polygon","properties":{"pref":"京都府","city":"向日市","code5":"26208","code6":"262081"}},{"arcs":[[36,37,38,39,-35]],"type":"Polygon","properties":{"pref":"京都府","city":"長岡京市","code5":"26209","code6":"262099"}},{"arcs":[[[40,41,-33,42,43,44]],[[45,46]]],"type":"MultiPolygon","properties":{"pref":"京都府","city":"八幡市","code5":"26210","code6":"262102"}},{"arcs":[[-32,47,48,49,-47,50,-43]],"type":"Polygon","properties":{"pref":"京都府","city":"京田辺市","code5":"26211","code6":"262111"}},{"arcs":[[-22,51,52,53]],"type":"Polygon","properties":{"pref":"京都府","city":"京丹後市","code5":"26212","code6":"262129"}},{"arcs":[[54,55,-28,56,57,-13]],"type":"Polygon","properties":{"pref":"京都府","city":"南丹市","code5":"26213","code6":"262137"}},{"arcs":[[58,59,60,61,62]],"type":"Polygon","properties":{"pref":"京都府","city":"木津川市","code5":"26214","code6":"262145"}},{"arcs":[[63,-45,64,-38]],"type":"Polygon","properties":{"pref":"京都府","county":"乙訓郡","city":"大山崎町","code5":"26303","code6":"263036"}},{"arcs":[[[65,-19,-34,-42]],[[-17,66,-29]]],"type":"MultiPolygon","properties":{"pref":"京都府","county":"久世郡","city":"久御山町","code5":"26322","code6":"263222"}},{"arcs":[[-31,67,68,-63,-48]],"type":"Polygon","properties":{"pref":"京都府","county":"綴喜郡","city":"井手町","code5":"26343","code6":"263435"}},{"arcs":[[69,70,-68,-30,-67,-16]],"type":"Polygon","properties":{"pref":"京都府","county":"綴喜郡","city":"宇治田原町","code5":"26344","code6":"263443"}},{"arcs":[[-60,71,72,73]],"type":"Polygon","properties":{"pref":"京都府","county":"相楽郡","city":"笠置町","code5":"26364","code6":"263648"}},{"arcs":[[74,75,-72,-59,-69,-71]],"type":"Polygon","properties":{"pref":"京都府","county":"相楽郡","city":"和束町","code5":"26365","code6":"263656"}},{"arcs":[[-49,-62,76]],"type":"Polygon","properties":{"pref":"京都府","county":"相楽郡","city":"精華町","code5":"26366","code6":"263664"}},{"arcs":[[77,-73,-76,78]],"type":"Polygon","properties":{"pref":"京都府","county":"相楽郡","city":"南山城村","code5":"26367","code6":"263672"}},{"arcs":[[-3,-14,-58,79]],"type":"Polygon","properties":{"pref":"京都府","county":"船井郡","city":"京丹波町","code5":"26407","code6":"264075"}},{"arcs":[[-23,-54,80]],"type":"Polygon","properties":{"pref":"京都府","county":"与謝郡","city":"伊根町","code5":"26463","code6":"264636"}},{"arcs":[[-5,81,-52,-21]],"type":"Polygon","properties":{"pref":"京都府","county":"与謝郡","city":"与謝野町","code5":"26465","code6":"264652"}},{"arcs":[[82,-20,-66,-41,-64,-37,-36,-40,83,-26,-56]],"type":"Polygon","properties":{"pref":"京都府","city":"京都市","code5":"26100","code6":"261009"}}]}}}