{"type":"Topology","arcs":[[[2767,2096],[78,-75],[46,42],[93,-84],[16,-70],[0,-140],[56,-102],[-3,-50],[27,-40],[-1,-67],[25,-176],[-37,-100],[33,-7],[20,-46],[53,-37],[11,-60],[-33,-17],[-47,-167],[19,-47],[-30,-45]],[[3093,808],[-77,-23],[-84,6]],[[2932,791],[-29,56],[-1,74],[-17,91],[-27,67],[-78,35],[-5,41],[-44,49],[-14,99],[-35,78],[42,74],[-89,4],[-64,79],[-31,-23],[-31,35],[-47,110],[-15,67],[29,76],[-73,65],[-26,-4],[-88,89]],[[2289,1953],[-47,32],[70,58],[69,-7],[-55,103],[21,32],[70,-50],[22,28],[4,82],[-61,39],[19,43],[-14,63]],[[2387,2376],[205,-120],[175,-160]],[[2249,2254],[1,-62],[-17,-27],[57,-67],[-40,-65],[-50,6],[13,81],[21,36],[-7,1],[22,35],[0,62]],[[3392,4975],[-59,-122],[-48,-21],[-73,-56],[-57,25]],[[3155,4801],[-12,22],[11,132],[-7,43],[-80,84],[3,65],[-49,23],[13,71],[-32,94],[-12,78]],[[2990,5413],[24,79],[23,4],[13,90]],[[3050,5586],[46,-13],[192,145],[66,-42],[80,4],[4,45],[38,32]],[[3476,5757],[91,-148],[-39,-41],[10,-67],[-80,-48],[-25,-70],[-5,-78],[67,-51],[-30,-55],[-41,-4],[-27,-40],[-14,-167],[9,-13]],[[2990,5413],[-22,2],[-81,99],[-46,5],[-66,163],[1,29],[66,99],[3,86],[-48,117],[110,73],[-12,48],[64,168]],[[2959,6302],[71,-53],[30,-52],[60,-25],[27,-36],[-4,-159],[-44,-33],[-1,-90],[-29,-98],[9,-76],[-30,-16],[12,-52],[-6,-12],[-4,-14]],[[3915,5169],[-40,0],[-43,-76],[-58,-18],[-29,-50],[22,-24],[-56,-46],[-80,19],[-78,-52],[-98,69],[-63,-16]],[[3476,5757],[69,62],[57,-43],[27,15],[73,-20]],[[3702,5771],[51,-103],[200,-78],[15,-94],[-26,-65]],[[3942,5431],[-130,-73],[120,-178],[-17,-11]],[[2799,2575],[69,-70],[56,13]],[[2924,2518],[4,-55],[-85,-84],[45,-66],[-40,-51],[-29,4],[-50,-86]],[[2769,2180],[-34,6],[-51,68],[-26,68],[-109,39],[-102,93]],[[2447,2454],[-92,96],[96,154],[21,-18],[32,-118],[26,-46],[82,-56],[2,51],[32,30],[47,2],[33,62],[73,-36]],[[2647,2658],[-6,-85],[-46,-20],[-58,69],[47,78]],[[2584,2700],[40,-56],[23,14]],[[4468,7282],[21,-88],[27,-41],[-63,-156],[-6,-43],[-63,-41],[-20,-63],[121,-22],[73,76],[38,-13]],[[4596,6891],[14,-144],[4,-136],[54,34],[-3,-62],[-21,-20],[8,-103],[58,-22],[31,-83],[45,-14],[59,-90],[32,30],[102,-53]],[[4979,6228],[-9,-43],[-56,-109],[-115,-65],[-38,-77],[-9,-125],[-27,-40],[-24,-103],[-43,-35],[-56,-13],[-76,-60],[-40,-68],[-9,-80]],[[4477,5410],[-33,-61],[-70,-54]],[[4374,5295],[-36,55],[-4,134]],[[4334,5484],[7,143],[67,45],[-169,72],[-4,86],[-27,40],[23,60],[-29,55],[-87,20],[-46,84],[22,29],[-6,96],[-51,33],[22,51],[49,42],[-41,73],[36,37],[-35,97],[62,45],[25,83],[-28,40]],[[4124,6715],[70,59],[-2,152],[-79,21],[-62,-63],[-24,49],[-5,93],[16,73],[133,23],[-2,48],[-62,36],[-2,61],[52,43],[66,13],[39,-83],[121,41],[37,-19],[48,20]],[[2932,791],[-48,-28],[-34,-58],[-78,-1],[-56,21]],[[2716,725],[-14,54],[-131,2],[-34,85]],[[2537,866],[-6,64],[-36,74],[32,14],[-17,58],[17,94],[-61,77],[-28,118],[-87,86],[-23,53],[-58,16]],[[2270,1520],[-65,35],[-16,37],[-68,40],[-21,34],[-72,22]],[[2028,1688],[30,6],[40,113],[54,45],[86,13],[51,88]],[[2114,2052],[70,-110],[-44,-82],[-78,-64],[-42,53],[109,178],[-15,25]],[[4016,5019],[107,37],[64,44],[56,60]],[[4243,5160],[65,-45],[19,-62],[41,-22],[40,-52]],[[4408,4979],[-13,-49],[-48,-4],[-155,28],[-18,-46],[-61,-60],[84,-92],[22,-67]],[[4219,4689],[-12,-52],[-67,0],[-6,-88],[-38,0],[-20,92],[-17,51],[-49,37],[-41,-14],[-15,86],[59,39],[7,35],[-40,61],[4,49],[32,34]],[[5041,6346],[30,-39],[-8,-57],[73,-38],[5,-159],[35,-53],[56,37],[68,-53],[17,-69],[31,-23],[26,-62],[39,-59],[8,-31],[59,-6],[34,-29],[15,-54],[84,-140],[-51,-134],[-72,-59],[-31,-49],[-72,-35],[-71,69]],[[5316,5303],[29,21],[11,58],[-18,51],[-48,39],[-114,32],[-74,-12],[-65,31],[-116,-52],[25,-59],[25,-136],[-105,-39]],[[4866,5237],[-56,-19],[-38,107],[-60,26],[-84,-5],[-16,52],[-61,-5],[-74,17]],[[4979,6228],[62,118]],[[3714,6840],[99,-34],[-8,-48],[43,-59],[28,23],[78,-20],[81,23],[89,-10]],[[4334,5484],[-68,-48],[-64,-78],[-39,-22],[-62,-82],[-23,12],[4,82],[-38,11],[-16,50],[-86,22]],[[3702,5771],[19,48],[-63,88],[52,17],[-18,116],[-72,84],[12,42],[-35,39],[0,68],[-39,0],[-34,-45],[-32,78]],[[3492,6306],[-31,38],[40,70],[19,84],[72,42],[44,74],[6,44],[68,93],[4,89]],[[4155,3342],[27,10],[0,71],[64,40],[-4,46],[-92,49],[-60,0],[-62,33],[34,45],[79,-32],[13,86],[-17,59]],[[4137,3749],[122,3],[-32,72],[92,25],[-12,92],[267,-3],[-1,-59],[333,-14]],[[4906,3865],[-14,-31],[5,-112],[-37,-67],[-1,-87],[-17,-32],[-50,-18],[7,-33]],[[4799,3485],[-11,-47],[-82,-28],[-48,13],[-87,-11],[-54,-72],[-70,1],[-20,-44]],[[4427,3297],[-27,-55],[-36,0],[-141,52]],[[4223,3294],[-68,48]],[[2716,725],[-32,-84],[-94,-32],[-54,17],[-12,-34],[-56,-8],[-53,27],[-106,-17],[-24,38],[-110,-26],[-34,48],[-28,-2]],[[2113,652],[2,64],[-90,8],[-18,91],[-40,50],[14,62],[-40,93],[-79,102],[-35,21],[-137,-32],[-1,46]],[[1689,1157],[93,69],[-50,95],[-49,47]],[[1683,1368],[35,36],[4,72],[75,19],[37,38],[27,-25],[86,58],[-50,41],[60,30],[0,-1],[2,-1],[1,-1],[1,-1],[1,-1],[1,0],[1,-1],[3,-2],[0,-1],[1,-1],[1,-1],[1,0],[1,-1],[1,-1],[-1,40],[-1,1],[-1,1],[-1,1],[-1,0],[-1,1],[0,1],[-1,1],[-1,0],[-2,2],[30,43],[36,-27]],[[2270,1520],[-35,-121],[-68,11],[-54,-24],[-30,-66],[65,-128],[57,-69],[47,-17],[4,-60],[126,-86],[78,-4],[17,-84],[60,-6]],[[1263,1731],[-91,79]],[[1172,1810],[105,95],[93,-86],[-107,-88]],[[1367,1641],[-90,78]],[[1277,1719],[88,71],[66,-7],[48,-59],[-74,-42],[-38,-41]],[[4067,2513],[51,-22],[83,-8],[1,85],[43,135]],[[4245,2703],[94,-33],[106,7],[14,-32],[128,-8]],[[4587,2637],[-46,-28],[-11,-83]],[[4530,2526],[-24,-80],[37,-73],[49,-22],[1,-81],[-54,14],[-73,-12],[-2,-85],[39,-47],[-4,-36]],[[4499,2104],[-17,-42],[26,-83],[-16,-109],[-45,-66],[-31,2],[-40,-67]],[[4376,1739],[-69,27],[-61,68],[-28,3],[-53,64],[14,106],[26,34],[-49,70],[-90,19],[-57,28]],[[4009,2158],[-12,107],[37,33],[-27,46],[7,149],[53,20]],[[4866,5237],[21,-86],[-35,-93],[16,-81]],[[4868,4977],[-65,-11],[-187,7],[-33,-46],[-12,-115],[58,-21]],[[4629,4791],[14,-41],[-110,9]],[[4533,4759],[22,75],[-41,83],[-55,0],[-51,62]],[[4243,5160],[131,135]],[[3664,1655],[-10,19],[31,74],[100,89],[23,46],[78,96],[-29,44]],[[3857,2023],[95,57],[8,51],[49,27]],[[4376,1739],[19,-47],[49,-46],[45,2],[88,-92],[117,-38],[103,-179],[67,-55],[35,10]],[[4899,1294],[-75,-132],[-31,-7],[-164,-2],[-104,15],[-57,-82],[-78,8],[-24,29],[-46,-10],[-9,-39],[-153,7],[-40,-44],[-78,-26],[-77,-104],[-56,-28],[-55,10],[-57,-55],[-49,-10],[-147,-137],[-73,-18],[12,49],[-27,93],[-112,64],[-29,68]],[[3370,943],[35,29],[12,76],[85,41],[29,52],[66,-3],[68,71],[5,108],[19,12],[25,89],[10,171],[-17,44],[-43,22]],[[3685,3355],[4,3],[77,38],[103,12],[1,-44],[202,4],[83,-26]],[[4223,3294],[-30,-67]],[[4193,3227],[-40,-48],[-80,-8],[22,-122],[-22,-52]],[[4073,2997],[-120,-63],[-36,62],[-9,63],[-92,-4],[-15,63],[-32,53],[-81,0],[-3,184]],[[4311,4492],[38,117]],[[4349,4609],[60,35],[26,42],[35,-19],[89,14],[-26,78]],[[4629,4791],[127,-6],[86,-39],[1,-56],[34,-26],[96,-38],[22,-43],[-13,-109]],[[4982,4474],[0,-17]],[[4982,4457],[-84,-13],[-29,26],[-61,13],[-300,-17],[8,-52],[-94,23],[-21,33],[-74,-8],[-16,30]],[[3106,2530],[52,-32],[38,-129],[12,-38],[-2,-136],[32,3],[12,-59],[59,-70],[2,-63],[51,-40],[45,-7],[65,-92],[17,-104],[-9,-40],[23,-42],[47,3],[43,-26],[71,-3]],[[3370,943],[-52,-49],[-13,-48],[-66,-32],[-107,-33],[-39,27]],[[2767,2096],[31,46],[-29,38]],[[2924,2518],[123,-28],[59,40]],[[2959,6302],[30,139],[36,51]],[[3025,6492],[66,-6],[43,24],[4,35],[48,30],[15,64],[67,10],[19,-72],[88,-81],[-71,-61],[25,-60],[12,-98],[45,-10],[57,59],[49,-20]],[[4799,3485],[4,-30],[77,-21],[71,11],[47,-13],[58,-177],[-95,-89],[21,-57],[-74,-32],[-57,-66],[-18,-126],[-22,-23]],[[4811,2862],[-64,6],[-79,33],[-12,69],[-52,-46],[-60,8],[-4,110]],[[4540,3042],[3,53],[48,86],[-164,116]],[[4245,2703],[-126,174],[-44,3],[12,88],[-14,29]],[[4193,3227],[31,-5],[21,-54],[-3,-55],[41,-73],[26,-9],[8,-75],[47,-26],[45,77],[-18,52],[62,-1],[29,-27],[58,11]],[[4811,2862],[4,-59],[56,-3]],[[4871,2800],[-87,-83],[-60,-30],[-30,8],[-41,-40],[-66,-18]],[[4349,4609],[-82,-10],[-48,90]],[[4016,5019],[-20,30],[-64,3],[3,98],[-20,19]],[[2961,2800],[72,-44],[18,-77],[-18,-37],[74,-19],[41,-44],[-42,-49]],[[2799,2575],[113,129],[49,96]],[[2863,2863],[86,-47]],[[2949,2816],[-48,-90],[-79,-95],[-33,-6],[-112,61],[24,51],[-71,15],[52,112]],[[2682,2864],[60,-38]],[[2742,2826],[69,-58],[52,95]],[[2584,2700],[32,1],[31,-43]],[[4982,4457],[0,-104],[45,-72],[3,-57],[-66,-113],[1,-56],[-59,-120],[0,-70]],[[4137,3749],[-52,23],[-2,40],[-62,56],[-22,128],[28,25],[-6,45],[-35,18],[44,38],[10,105],[19,101],[93,4],[27,16],[45,94],[87,50]],[[2113,652],[2,-57],[-41,-40],[-55,-17],[21,-76],[-54,25],[-94,-52],[-79,-4],[-12,-92],[-43,-43],[-51,-13],[-40,75],[-3,61],[-35,55]],[[1629,474],[-31,85],[-79,113],[-39,104],[-42,64],[-5,42],[-61,36],[-26,40],[9,132]],[[1355,1090],[55,49],[58,-6],[137,149]],[[1605,1282],[13,-60],[34,-61],[37,-4]],[[1266,1569],[-108,-98],[-74,91],[98,79]],[[1182,1641],[84,-72]],[[1168,1652],[-25,-19],[-37,46],[-133,-108],[-43,52],[145,108]],[[1075,1731],[93,-79]],[[4868,4977],[50,-38],[164,-44],[40,27],[64,-9]],[[5186,4913],[51,-195],[-9,-36],[-106,-83],[-54,-25],[-86,-100]],[[5316,5303],[-46,-93],[17,-38],[13,-133],[-29,-76],[-39,22],[-38,-14],[-8,-58]],[[3857,2023],[-30,29],[-28,110],[-3,136],[31,25],[10,60],[-46,72],[-15,69],[69,-36],[49,72],[58,0],[16,103],[68,-28],[5,-82],[26,-40]],[[1629,474],[-99,-56],[-68,7],[-76,27],[-66,-25],[-95,-101],[-90,-29],[-28,31],[-118,46]],[[989,374],[-50,40],[-60,-13],[-31,17],[-7,59],[23,31],[-6,81],[-40,31],[43,65]],[[861,685],[83,47],[122,16],[74,56],[81,121],[134,165]],[[4596,6891],[41,10],[88,-51],[46,-39],[33,-93],[-24,-3],[-9,-76],[48,-2],[68,-58],[44,5],[64,-42],[39,-103],[30,-26],[-23,-67]],[[3364,7034],[32,-11],[18,-48],[79,-4],[37,51],[92,-26],[3,-71],[53,-38],[36,-47]],[[3025,6492],[-49,6],[-77,-26],[5,39],[-46,99],[-57,32],[96,68],[37,5],[41,39],[104,-7],[45,-20],[75,17],[14,96]],[[3213,6840],[70,19],[14,86],[26,63],[41,26]],[[2483,7904],[-3,-49],[-34,-58],[33,-107],[64,11],[44,-28],[29,20],[49,-41],[56,50],[72,-87],[40,-11],[115,66],[91,-31],[44,-39],[68,-1],[98,-71],[91,3],[96,-78],[-55,-24],[-30,-36],[46,-159],[-56,-14],[24,-112],[-33,-44],[32,-30]],[[3213,6840],[-52,-26],[-70,36],[-97,100],[-26,-25],[-113,-5],[-59,-27],[-23,72],[-46,-9],[-27,39],[-97,8],[-31,-32],[-45,55],[3,45],[-48,55],[-57,-12],[-97,12],[-28,-19],[-56,85],[-78,45],[31,53],[-2,40],[32,39],[63,31],[-60,82],[18,169],[-8,68],[17,35],[-8,84],[-71,22],[-58,-8],[-53,96],[1,47],[36,31],[96,37],[4,49],[85,-8],[70,-64],[31,14],[41,-12],[35,-53],[17,-85]],[[2387,2376],[25,72],[35,6]],[[1263,1731],[14,-12]],[[1367,1641],[-101,-72]],[[1182,1641],[-14,11]],[[1075,1731],[97,79]],[[1605,1282],[26,33],[47,-6],[5,59]],[[989,374],[4,-57],[-27,-23],[-8,-104],[-15,-31],[-95,-12],[-17,-38],[-77,-30],[-78,7],[-122,-37],[-22,40],[-71,29],[-61,-45],[-24,-61],[-39,-12],[-52,53],[-43,-37],[-92,-1],[-25,49],[14,44],[-89,66],[10,38],[-25,46],[82,91],[-32,53],[-49,-31],[-36,42],[55,34],[19,42],[75,27],[175,45],[-4,-59],[96,-24],[59,53],[41,82],[53,2],[41,1],[42,41],[68,26],[51,-17],[90,19]],[[4871,2800],[23,-119],[40,13],[81,-56],[5,-165],[-19,-41]],[[5001,2432],[-57,-5],[-57,-31],[-57,-52],[-117,69],[-106,112],[-77,1]],[[5001,2432],[-20,-30],[46,-35],[6,-67],[49,-99],[-30,-35],[18,-43],[-10,-113]],[[5060,2010],[-60,43],[-74,-4],[-74,-24],[-30,-112],[-52,-4],[-48,41],[-62,83],[-66,0],[-7,92],[-88,-21]],[[5060,2010],[0,-4],[2,-92],[39,-48],[-45,-84],[-2,-57],[-25,-58],[-114,-84],[35,-110],[53,0],[38,-56],[-34,-29],[-4,-64],[-104,-30]],[[2700,4426],[48,51],[100,40],[43,57],[140,71],[19,37],[-22,77],[30,52],[97,-10]],[[3685,3355],[-139,-81],[-26,-4],[-23,11],[-42,74],[-71,17],[-76,23],[-75,38],[-196,68],[-77,-2]],[[2960,3499],[-40,51],[-14,91],[86,46],[14,-84],[40,-3],[8,90],[43,29],[-8,59],[-38,-1],[-9,67],[28,49],[-54,-16],[-137,70],[-16,48],[-70,39],[-13,143],[-72,-15],[5,39],[115,43],[-16,33],[-23,55],[-51,29],[-38,65]],[[2462,4049],[173,-42],[41,-33],[-101,-124],[-119,14],[-51,93],[57,92]],[[2660,4177],[58,-46],[13,-33],[-10,-69],[-197,38],[11,54],[125,56]],[[2238,3750],[45,-47],[-112,-109],[-15,57],[82,99]],[[2783,3879],[62,-21],[70,15],[60,-30],[20,-125],[-85,-50],[-82,-26],[-14,41],[-87,1],[-26,37],[63,56],[-21,25],[-67,-59],[-52,-2],[0,71],[159,67]],[[2548,3709],[85,-79],[163,-12],[17,-69],[-153,-9],[-28,89],[-84,80]],[[2961,2800],[38,71],[23,97],[-123,37],[-171,0],[-73,406],[118,-62],[43,-251],[74,11],[-28,197],[65,-31],[6,-42],[61,3],[32,-162],[69,-9],[-33,16],[20,95],[-21,102],[-47,26],[-61,-4],[-96,45],[-18,120],[84,-43],[91,-32],[23,43],[-82,30],[5,36]],[[2863,2863],[38,70],[88,4],[-1,-52],[-39,-69]],[[2682,2864],[36,75],[56,-46],[-32,-67]]],"transform":{"scale":[0.00011647247461250765,0.00009597140039447736],"translate":[135.09283,34.27235]},"objects":{"japan":{"type":"GeometryCollection","geometries":[{"arcs":[[[0,1,2,3,4]],[[5]]],"type":"MultiPolygon","properties":{"pref":"大阪府","city":"岸和田市","code5":"27202","code6":"272027"}},{"arcs":[[6,7,8,9,10]],"type":"Polygon","properties":{"pref":"大阪府","city":"豊中市","code5":"27203","code6":"272035"}},{"arcs":[[-9,11,12]],"type":"Polygon","properties":{"pref":"大阪府","city":"池田市","code5":"27204","code6":"272043"}},{"arcs":[[13,-11,14,15,16]],"type":"Polygon","properties":{"pref":"大阪府","city":"吹田市","code5":"27205","code6":"272051"}},{"arcs":[[[17,18,19,20]],[[21,22]]],"type":"MultiPolygon","properties":{"pref":"大阪府","city":"泉大津市","code5":"27206","code6":"272060"}},{"arcs":[[23,24,25,26,27,28,29]],"type":"Polygon","properties":{"pref":"大阪府","city":"高槻市","code5":"27207","code6":"272078"}},{"arcs":[[[-3,30,31,32,33,34]],[[35]]],"type":"MultiPolygon","properties":{"pref":"大阪府","city":"貝塚市","code5":"27208","code6":"272086"}},{"arcs":[[36,37,38,39]],"type":"Polygon","properties":{"pref":"大阪府","city":"守口市","code5":"27209","code6":"272094"}},{"arcs":[[40,41,42,-26,43]],"type":"Polygon","properties":{"pref":"大阪府","city":"枚方市","code5":"27210","code6":"272108"}},{"arcs":[[44,-29,45,-16,46,47]],"type":"Polygon","properties":{"pref":"大阪府","city":"茨木市","code5":"27211","code6":"272116"}},{"arcs":[[48,49,50,51,52,53]],"type":"Polygon","properties":{"pref":"大阪府","city":"八尾市","code5":"27212","code6":"272124"}},{"arcs":[[[-32,54,55,56,57,-34,58]],[[59,60]],[[61,62]]],"type":"MultiPolygon","properties":{"pref":"大阪府","city":"泉佐野市","code5":"27213","code6":"272132"}},{"arcs":[[63,64,65,66,67,68,69]],"type":"Polygon","properties":{"pref":"大阪府","city":"富田林市","code5":"27214","code6":"272141"}},{"arcs":[[-27,-43,70,71,72,73,-38,74]],"type":"Polygon","properties":{"pref":"大阪府","city":"寝屋川市","code5":"27215","code6":"272159"}},{"arcs":[[75,76,-69,77,78,79]],"type":"Polygon","properties":{"pref":"大阪府","city":"河内長野市","code5":"27216","code6":"272167"}},{"arcs":[[80,-54,81,82,83]],"type":"Polygon","properties":{"pref":"大阪府","city":"松原市","code5":"27217","code6":"272175"}},{"arcs":[[84,85,-73,86,87,88]],"type":"Polygon","properties":{"pref":"大阪府","city":"大東市","code5":"27218","code6":"272183"}},{"arcs":[[89,-80,90,-1,91,-19,92]],"type":"Polygon","properties":{"pref":"大阪府","city":"和泉市","code5":"27219","code6":"272191"}},{"arcs":[[-10,-13,93,94,-47,-15]],"type":"Polygon","properties":{"pref":"大阪府","city":"箕面市","code5":"27220","code6":"272205"}},{"arcs":[[-52,95,96,97]],"type":"Polygon","properties":{"pref":"大阪府","city":"柏原市","code5":"27221","code6":"272213"}},{"arcs":[[98,-83,99,-97,100,101,-65]],"type":"Polygon","properties":{"pref":"大阪府","city":"羽曳野市","code5":"27222","code6":"272221"}},{"arcs":[[102,-39,-74,-86]],"type":"Polygon","properties":{"pref":"大阪府","city":"門真市","code5":"27223","code6":"272230"}},{"arcs":[[103,-17,-46,-28,-75,-37]],"type":"Polygon","properties":{"pref":"大阪府","city":"摂津市","code5":"27224","code6":"272248"}},{"arcs":[[[104,-93,-18,105]],[[106,107,108,109]],[[-23,110]]],"type":"MultiPolygon","properties":{"pref":"大阪府","city":"高石市","code5":"27225","code6":"272256"}},{"arcs":[[-53,-98,-100,-82]],"type":"Polygon","properties":{"pref":"大阪府","city":"藤井寺市","code5":"27226","code6":"272264"}},{"arcs":[[-89,111,-50,112]],"type":"Polygon","properties":{"pref":"大阪府","city":"東大阪市","code5":"27227","code6":"272272"}},{"arcs":[[[-56,113,114,115,116]],[[117,118]],[[119,120]]],"type":"MultiPolygon","properties":{"pref":"大阪府","city":"泉南市","code5":"27228","code6":"272281"}},{"arcs":[[-72,121,122,-87]],"type":"Polygon","properties":{"pref":"大阪府","city":"四條畷市","code5":"27229","code6":"272299"}},{"arcs":[[-42,123,-122,-71]],"type":"Polygon","properties":{"pref":"大阪府","city":"交野市","code5":"27230","code6":"272302"}},{"arcs":[[-70,-77,124]],"type":"Polygon","properties":{"pref":"大阪府","city":"大阪狭山市","code5":"27231","code6":"272311"}},{"arcs":[[-115,125,126,127]],"type":"Polygon","properties":{"pref":"大阪府","city":"阪南市","code5":"27232","code6":"272329"}},{"arcs":[[128,-44,-25]],"type":"Polygon","properties":{"pref":"大阪府","county":"三島郡","city":"島本町","code5":"27301","code6":"273015"}},{"arcs":[[129,-48,-95,130,131]],"type":"Polygon","properties":{"pref":"大阪府","county":"豊能郡","city":"豊能町","code5":"27321","code6":"273210"}},{"arcs":[[132,-132,133]],"type":"Polygon","properties":{"pref":"大阪府","county":"豊能郡","city":"能勢町","code5":"27322","code6":"273228"}},{"arcs":[[-5,134,-20,-92]],"type":"Polygon","properties":{"pref":"大阪府","county":"泉北郡","city":"忠岡町","code5":"27341","code6":"273414"}},{"arcs":[[-33,-59]],"type":"Polygon","properties":{"pref":"大阪府","county":"泉南郡","city":"熊取町","code5":"27361","code6":"273619"}},{"arcs":[[[-60,135,-62,136,-119,137,-121,138]],[[-57,-117,139]]],"type":"MultiPolygon","properties":{"pref":"大阪府","county":"泉南郡","city":"田尻町","code5":"27362","code6":"273627"}},{"arcs":[[-127,140]],"type":"Polygon","properties":{"pref":"大阪府","county":"泉南郡","city":"岬町","code5":"27366","code6":"273660"}},{"arcs":[[-66,-102,141,142]],"type":"Polygon","properties":{"pref":"大阪府","county":"南河内郡","city":"太子町","code5":"27381","code6":"273813"}},{"arcs":[[-67,-143,143,144]],"type":"Polygon","properties":{"pref":"大阪府","county":"南河内郡","city":"河南町","code5":"27382","code6":"273821"}},{"arcs":[[-68,-145,145,-78]],"type":"Polygon","properties":{"pref":"大阪府","county":"南河内郡","city":"千早赤阪村","code5":"27383","code6":"273830"}},{"arcs":[[[146,-7,-14,-104,-40,-103,-85,-113,-49,-81,147,148]],[[149]],[[150]],[[151]],[[152]],[[153]]],"type":"MultiPolygon","properties":{"pref":"大阪府","city":"大阪市","code5":"27100","code6":"271004"}},{"arcs":[[[-84,-99,-64,-125,-76,-90,-105,154,-148]],[[-107,155]],[[-109,156]]],"type":"MultiPolygon","properties":{"pref":"大阪府","city":"堺市","code5":"27140","code6":"271403"}}]}}}