{"type":"Topology","arcs":[[[2444,5694],[-10,-60],[12,-52],[-54,-25],[-23,-74]],[[2369,5483],[-40,-15],[13,-103],[61,-48],[-31,-126],[33,-7],[29,-67],[-17,-32],[53,-61],[20,-61],[93,-3],[98,-18],[24,-67],[47,-7],[30,-35],[47,2]],[[2829,4835],[16,-78],[-14,-64],[-42,-52],[17,-40],[78,-40],[49,-49]],[[2933,4512],[-64,-76],[-13,-97],[-73,-20],[-42,17],[-11,-99],[19,-51]],[[2749,4186],[-81,-115],[-50,-16],[-44,-47],[16,-39],[44,27],[56,-25],[2,-32],[-33,-94]],[[2659,3845],[-78,43],[-110,15],[-73,34],[-63,-3],[-34,-38],[-101,41],[-30,-38],[-43,21],[55,39],[-49,24],[-43,-84],[-36,-21],[-65,0],[-7,65],[-107,-62],[-15,46],[-125,-40],[8,-43],[-87,-25]],[[1656,3819],[4,93],[17,42],[-21,109],[-65,82]],[[1591,4145],[41,-16],[64,14],[31,90],[64,29],[46,-9],[-7,-40],[86,-14],[41,19],[14,49],[-8,57],[-27,35],[-124,60],[-16,38],[-62,11]],[[1734,4468],[-1,24],[64,122],[7,75],[-24,22],[-84,-20],[-33,7],[-41,44],[45,52],[-21,102],[28,47],[-15,123]],[[1659,5066],[16,87],[-47,26],[12,63],[45,40],[49,75],[-9,35],[34,39],[26,69],[-16,132],[73,118],[5,47],[62,100],[36,-19],[63,38],[69,-4],[52,-39],[20,54],[42,22]],[[2191,5949],[60,-4],[12,-67],[78,-42],[-11,-44],[16,-64],[45,-30],[53,-4]],[[1224,3270],[27,-22],[44,-144],[-44,-2],[-61,30],[-69,-60],[-39,66],[36,69],[70,-17],[30,15],[6,65]],[[1477,3365],[13,-49],[38,-30],[1,-61],[-19,-40],[-87,54],[-62,26],[-16,38],[31,31],[40,-2],[61,33]],[[1675,3302],[89,-54],[-26,-65],[-76,-35],[-45,72],[-1,36],[59,46]],[[1372,3194],[18,-33],[-23,-114],[-65,44],[1,38],[60,33],[9,32]],[[6044,3432],[-81,-108],[-14,75],[-88,11]],[[5861,3410],[62,175],[-24,62],[2,57],[-35,111],[0,152]],[[5866,3967],[29,-16],[27,-64],[76,-49],[38,18],[54,-9],[29,34],[113,31],[8,-26]],[[6240,3886],[28,-54],[48,-51],[5,-120],[-59,6],[-18,-32],[2,-70],[-86,-42],[-26,-35],[-61,-25],[-29,-31]],[[4008,3090],[-162,-10],[-80,14],[-80,52],[-66,62],[-79,59],[-115,34],[-63,80],[-131,88]],[[3232,3469],[52,47],[25,55],[28,14]],[[3337,3585],[49,28]],[[3386,3613],[65,-27]],[[3451,3586],[34,-79],[61,-62],[65,86],[115,-6],[1,-166],[33,-51],[-7,-39],[35,-81],[102,2],[137,-10],[45,14],[-64,-104]],[[3192,3387],[19,40],[9,18],[7,15],[75,-61],[-33,-47],[-77,35]],[[5311,3965],[18,69],[-6,64],[-100,40],[-21,-27],[-70,56],[-19,76],[19,131],[56,18],[87,-39],[26,40],[77,-5],[71,87]],[[5449,4475],[95,-22],[70,-180],[65,-89],[-85,-51],[-31,2],[-71,-43],[26,-56],[101,-72],[76,-2],[9,-33],[56,-14],[86,20],[15,52]],[[5861,3987],[5,-20]],[[5861,3410],[-48,-33],[-49,53],[37,58],[-56,59],[-60,45],[-76,23]],[[5609,3615],[-65,179],[-64,75],[-26,61],[-53,33],[-90,2]],[[5640,3591],[57,-40],[-12,-31],[-73,-4],[0,43],[28,32]],[[5710,3548],[50,-51],[-43,-16],[-7,67]],[[3358,1538],[18,-189],[-23,-101],[52,-77],[59,-29],[17,-122],[54,-77],[81,-52],[27,-65],[-1,-80],[14,-49],[-144,-54],[-134,-37],[-99,-63],[-42,-15]],[[3237,528],[-18,28],[-93,89],[-20,49],[-63,23],[40,109],[-4,85],[-32,55],[46,70],[-19,47],[39,35],[-115,38],[-54,106],[-78,-44],[-111,2],[-40,17],[-70,-20],[-5,31],[-89,-5]],[[2551,1243],[75,205],[46,14],[62,155],[40,35],[25,66]],[[2799,1718],[170,-43],[68,11],[51,-12],[-8,-50],[34,-56],[53,1],[30,62],[55,-10],[35,-53],[-3,-59],[74,29]],[[5500,3572],[-67,124],[-55,85],[2,42],[-72,138],[3,4]],[[5609,3615],[-2,-49],[-94,-23],[-13,29]],[[5597,3527],[-6,-46],[-47,5],[-30,49],[83,20],[0,-28]],[[6221,4034],[26,-105],[-7,-43]],[[5861,3987],[57,74],[-42,93],[73,26],[29,-58],[31,17]],[[6009,4139],[18,-50],[103,10]],[[6130,4099],[28,-3],[63,-62]],[[1155,3801],[-19,67],[-5,118],[-65,10],[-2,-44],[39,-93],[-71,-67]],[[1032,3792],[45,95],[-51,36],[-47,5],[9,99],[-86,-8],[-19,53],[17,70],[-86,99],[23,38],[-26,50],[19,84]],[[830,4413],[19,80],[45,96],[-23,50],[32,47],[37,15],[81,77]],[[1021,4778],[167,14],[57,-41],[-10,-32],[12,-97],[-37,-30],[-19,-65],[-90,-51],[39,-77],[51,-65],[-9,-24],[43,-61],[56,29],[6,-71],[22,-36],[-8,-74],[-23,-26],[28,-78],[-24,-30],[-83,-31],[-31,-27],[6,-41],[-19,-63]],[[4171,8220],[-15,-171],[17,-65],[-8,-40],[-98,18],[-1,-29],[-55,-73],[-73,-22],[-18,-23],[-60,-8],[-10,45],[-41,35],[-51,4],[-63,64],[-67,27],[-62,-37]],[[3566,7945],[-76,87],[-23,4],[-65,-52],[-6,-59],[-120,-5],[-86,41],[-30,-15]],[[3160,7946],[-40,8],[-40,52],[-10,53],[-30,39],[-74,42],[-13,53],[-46,34],[-95,-27],[-31,-34],[-65,34],[-47,-26],[-75,-1],[-19,-44],[32,-38],[-21,-39],[-46,-21],[-177,30],[-44,23],[-89,-20],[-101,41],[-81,-30]],[[2048,8075],[-45,27],[-27,93],[24,121],[45,77],[-37,68],[-2,35],[-95,49],[-6,140],[35,-10],[69,29],[16,95],[27,0],[29,52],[15,93],[42,46],[137,20],[48,79],[68,83],[-2,62],[36,58],[-17,97],[41,65],[51,47],[12,38]],[[2512,9539],[62,22],[151,-19],[55,49],[58,20],[48,-37],[52,-2],[62,-52],[68,-79],[68,89],[80,8],[-18,-41],[16,-98],[35,-97],[-34,-80],[-10,-58],[-60,-64],[46,-15],[68,-82],[28,-63],[104,-51],[11,-42],[61,-29],[24,-43],[-22,-66],[42,-38],[36,-64],[64,16],[111,2],[10,34],[147,92],[77,-5],[100,41],[52,-18],[-5,-42],[36,-67],[-9,-103],[-46,-40],[51,-22],[-11,-79],[28,-169],[23,-27]],[[2933,4512],[18,-17],[-5,-72],[66,28],[123,-33],[29,12],[79,-89],[52,-3]],[[3295,4338],[39,-70],[56,-24],[79,8],[61,-100]],[[3530,4152],[-9,-93],[49,-106]],[[3570,3953],[-16,-67],[-69,48],[-60,-24],[-56,33],[-22,-78],[-45,-9],[-20,-51],[43,-69],[6,-78],[55,-45]],[[3337,3585],[-57,58],[-30,-21],[-48,7],[-82,-44],[-10,-37]],[[3110,3548],[-56,-51],[-53,-6],[-93,77],[22,78],[-23,8]],[[2907,3654],[10,89],[-12,65],[7,60],[59,54],[-45,44],[-76,128],[-1,52],[-36,32],[-64,8]],[[1032,3792],[-6,25],[31,60],[-30,11],[-87,-17],[-37,-70],[10,-62],[-61,-90],[-123,-14],[-40,-18],[-50,34],[-38,84],[-24,-25],[-99,-34],[-28,22],[-57,-52],[-37,-56],[-4,85],[-41,20],[19,36],[25,112],[61,25],[-18,54],[-34,0],[-39,43],[18,46],[-15,91],[-47,53],[-62,46]],[[219,4201],[16,31],[124,25],[-8,75],[13,46],[76,42],[34,-45],[42,12],[69,-33],[2,90],[39,-5],[50,-93],[84,31],[50,53],[20,-17]],[[4413,5706],[25,-41],[-32,-51],[-51,-24],[-98,-97],[-36,-80]],[[4221,5413],[-75,-78],[1,-61],[27,-10],[5,-54],[-54,-53],[-49,-21],[-88,5],[-57,-9],[-44,-37],[-61,5],[-57,-43],[-73,39],[-72,9],[-81,-16]],[[3543,5089],[-186,42],[-13,106]],[[3344,5237],[121,15],[28,-11],[38,68],[1,95],[32,59],[71,45],[-10,32],[49,52],[88,8],[-2,49],[-38,59],[65,41],[11,53]],[[3798,5802],[67,-9],[106,20],[71,-1],[6,-88],[61,-34],[75,-6],[42,14],[15,-44],[172,52]],[[5449,4475],[-37,61],[-6,51],[-27,44]],[[5379,4631],[-31,56],[17,71],[-13,73],[62,54],[39,15],[47,-43],[28,67],[-3,92],[-29,34],[13,67]],[[5509,5117],[48,-17],[34,-99],[30,-18],[21,-57],[17,-99],[43,-34],[-18,-52],[-46,-32],[40,-68],[9,-74],[23,-6],[36,-67],[54,-3]],[[5800,4491],[67,-40],[73,-87],[62,13],[57,-21],[6,-30],[-59,-87],[3,-100]],[[4787,4652],[-65,-45],[17,-196],[-15,-49],[-80,-57],[-91,20],[-39,51],[-49,-13],[-26,-58],[-45,-14],[-39,-51],[-52,-118],[36,-27],[20,-50],[44,-24],[3,-71],[-63,-1],[-34,-47],[-74,-45],[-43,7],[-33,41],[-115,-47],[-186,63],[-92,-71],[-59,1]],[[3707,3851],[-10,41],[19,49],[-146,12]],[[3530,4152],[47,-1],[24,-29],[58,55],[85,10],[35,45],[66,5],[74,50],[4,41],[-30,25],[68,78],[79,-8]],[[4040,4423],[58,20],[28,35],[62,10],[50,53],[-2,81],[33,17],[91,-4],[93,141],[41,98],[36,31]],[[4530,4905],[32,27],[84,38],[39,-5],[26,-90],[-4,-74],[24,-21],[15,-99],[41,-29]],[[2907,3654],[-60,3],[-50,48],[-98,65],[-61,10],[21,65]],[[6202,4576],[-39,-102],[7,-30],[-67,-44],[29,-71],[-2,-53],[-41,-78],[41,-99]],[[5800,4491],[23,65],[26,-9],[71,31],[-23,53],[8,33],[84,94],[28,54],[44,44],[-18,44],[59,36]],[[6102,4936],[121,35],[59,-61],[43,-22],[32,16],[-9,-58],[-45,-11],[-92,16],[-105,-68],[34,-19],[28,-60],[74,-12],[-22,-31],[-18,-85]],[[3295,4338],[26,4],[-1,103],[13,49],[63,66],[17,56],[-37,46],[29,28],[17,87]],[[3422,4777],[77,31],[82,-68],[-5,-75],[31,-37],[115,-9],[47,84],[127,23],[28,-51],[109,-86],[18,-87],[-11,-79]],[[5379,4631],[-91,-6],[-78,-45],[-33,4],[-69,-37],[-98,37],[-46,-15],[-98,80],[-79,3]],[[4530,4905],[-57,6],[-29,94],[-50,77],[1,49]],[[4395,5131],[40,-40],[82,41],[38,-62],[34,21],[46,63],[6,138],[112,-5],[16,28],[57,19],[4,81],[39,10],[49,44],[23,61],[32,-12],[59,14],[32,49],[35,-44],[95,23],[43,-66],[8,-64],[71,20],[87,7],[14,-27]],[[5417,5430],[-7,-90],[63,-3],[63,-78],[-46,-15],[-19,-51],[38,-76]],[[2829,4835],[3,71],[32,45],[-23,110],[42,51],[7,51]],[[2890,5163],[19,7],[23,88],[78,41],[31,43],[-8,49],[74,83]],[[3107,5474],[24,-52],[48,-29],[8,-134],[157,-22]],[[3543,5089],[21,-52],[-2,-103],[-80,-32],[-69,35],[-16,-28],[38,-64],[-13,-68]],[[5088,6397],[37,87],[95,3],[91,-14],[35,9],[56,-38],[24,8],[15,-71],[-65,-91],[73,-34],[51,7],[122,41],[56,-32],[30,-54],[60,7],[27,-29],[68,-20],[49,5],[47,-21],[-26,-37],[37,-65],[-21,-13],[13,-66],[47,-27],[-6,-112],[-65,-23],[-55,-41],[3,-33],[-44,-38],[13,-61],[-62,31],[-113,-48],[-23,-47],[33,-59]],[[5690,5521],[-89,-8],[-7,-67],[-73,-27],[-69,24],[-35,-13]],[[4395,5131],[11,107],[-5,61],[-62,-15],[-16,44],[-102,85]],[[4413,5706],[85,31],[77,-62],[9,107],[-37,39],[18,40],[-58,70],[8,36],[-33,104],[34,11],[52,68],[83,-16],[49,53],[113,-31],[74,20],[117,-1],[104,137],[-20,85]],[[3160,7946],[32,-87],[-1,-42],[-66,-77],[-86,4],[-100,-38],[-23,-51],[-65,-28],[-16,-44],[14,-55],[37,-34],[-47,-66],[-69,-12],[-50,-35],[13,-55],[105,-78],[-2,-93],[-28,-48],[-159,-61],[-43,69],[-125,27],[-38,-33],[-65,20],[-38,47],[-52,-75],[40,-80],[9,-53],[-28,-31]],[[2309,6937],[-65,-45],[-61,53],[-88,22],[-12,53],[-90,107],[-75,-5],[-33,-54],[-68,-18],[-101,96],[-11,93],[-35,10],[-59,60],[-59,13],[-25,41],[-86,43],[-115,101]],[[1326,7507],[18,78],[-39,96]],[[1305,7681],[26,83],[58,61],[54,37],[41,1],[24,-33],[72,24],[55,-8],[55,21],[53,-35],[76,-9],[90,117],[59,23],[52,-19],[29,23],[23,58],[-24,50]],[[3583,7311],[118,-62],[138,-34],[109,-44],[24,-33],[-7,-68],[132,-46],[72,-3],[39,16],[6,-61],[51,-112],[79,58],[13,43],[49,43],[29,-2],[48,42],[102,-35],[31,27],[118,-24],[51,-118],[-27,-73],[-38,-28],[44,-42],[42,1],[21,-36],[37,8],[35,-58],[43,-24],[16,-48],[-70,-33],[18,-45],[-15,-71],[32,1],[69,-73],[96,20]],[[3798,5802],[-55,7],[-42,-18],[-58,6],[-30,115],[14,39],[-82,92],[12,50],[55,51],[-4,54],[99,93],[-17,42],[-48,1],[9,81],[-21,57],[56,94],[-46,38],[18,43],[-25,73],[-60,9],[-89,-25]],[[3484,6704],[-72,70],[22,73],[-28,25],[-12,59],[29,80],[43,39],[2,40],[38,29],[11,73],[69,73],[-3,46]],[[3237,528],[-132,-57],[-90,-59],[-74,-86],[-77,-52],[-132,3],[-215,-74],[-18,113],[-62,53],[-81,12],[-19,34],[54,106],[56,39],[-14,75],[-94,-79],[-27,22],[-121,13],[21,40],[-22,79],[-53,54],[3,126],[62,131],[102,44],[105,-14],[91,78],[51,114]],[[2974,144],[49,-47],[-1,-48],[-48,-49],[-53,2],[2,51],[39,16],[12,75]],[[3566,7945],[-60,-104],[20,-87],[-41,-82],[24,-65],[-24,-26],[-9,-64],[44,-22],[13,-41],[-35,-81],[17,-37],[68,-25]],[[3484,6704],[-16,-42],[-74,-70]],[[3394,6592],[-52,-2],[-45,-56],[-20,-66],[-66,-43],[-117,-38],[1,-82],[-47,-59],[-54,-35],[-61,48],[-44,-13],[-81,15],[-84,-105],[-51,120],[-46,-52],[-104,29],[-30,39],[-32,81],[25,38],[-56,86],[17,44]],[[2447,6541],[-3,100],[-52,63],[-66,15],[-1,92],[-37,38],[35,42],[-14,46]],[[2799,1718],[43,116],[41,31],[76,114],[91,-10],[58,64],[117,231],[52,70],[45,39],[47,-9],[87,45],[66,79],[48,6],[132,167],[30,67],[94,110],[95,36],[43,-47],[35,-70],[30,-13],[15,-77],[-42,-77],[-116,-120],[-15,-147],[-68,-120],[-37,-42],[-74,-52],[-70,-111],[-56,-105],[-174,-230],[-34,-125]],[[1659,5066],[-113,9],[-2,80],[-67,-2],[-26,26],[-61,13],[-57,97],[16,74],[-98,-3],[-41,43]],[[1210,5403],[10,37],[-35,43],[-18,56],[-58,48],[-83,-17],[-73,36],[21,62],[-25,146],[29,63],[6,51],[-20,36],[42,50],[-49,50],[-41,65],[-43,-13],[-40,25],[-8,52],[25,44],[-38,59]],[[812,6296],[23,68],[-36,46],[34,75],[-9,59],[-59,4],[-88,44],[-9,75],[7,98],[76,37],[30,86],[66,-13],[104,-63],[67,56],[83,-3],[-11,36],[77,38],[37,71],[166,108],[-31,105],[29,88],[-51,55],[-17,65],[26,76]],[[2447,6541],[-121,-19],[-26,-63],[-58,-33],[-62,0],[8,-97],[-39,-87],[-38,-43],[34,-62],[-37,-80],[49,-34],[-8,-40],[42,-34]],[[1656,3819],[-60,40],[6,33],[-61,24],[-43,-14],[-88,52],[-20,-41],[-55,-45],[-74,38],[-69,-37],[0,-38],[-37,-30]],[[1021,4778],[16,71],[-26,47],[-11,73],[-79,40]],[[921,5009],[-15,32],[29,63],[89,62],[70,-9],[24,55],[46,10],[-12,58],[58,123]],[[1734,4468],[-43,-96],[-84,-42],[-24,-121],[8,-64]],[[5690,5521],[78,-8],[6,-52],[-17,-166],[36,-50],[-38,-19],[-37,-80],[98,-68],[95,0],[27,-61],[106,-18],[44,-19],[14,-44]],[[3107,5474],[7,37],[-53,84],[53,62],[-62,81]],[[3052,5738],[33,64],[13,88],[59,33],[-32,91],[20,62],[69,47],[43,120],[57,42],[91,93],[-32,68],[52,110],[-31,36]],[[3707,3851],[27,-67],[-94,-126],[-158,-42],[-31,-30]],[[3232,3469],[-22,29],[-100,50]],[[3153,3516],[34,-18],[-46,-85],[-69,17],[31,73],[50,13]],[[2444,5694],[50,5],[43,-29],[13,-54],[41,-10],[68,29],[115,-40],[56,4],[48,29],[53,84],[121,26]],[[2890,5163],[-89,18],[-98,-29],[-35,64],[-83,14],[-21,33],[-57,10],[1,42],[-60,98],[-4,30],[-75,40]],[[219,4201],[-40,22],[-24,52],[-89,-26],[-24,35],[15,39],[-19,61],[-34,15],[-3,49],[69,117],[12,87],[44,38],[60,16],[30,63]],[[216,4769],[26,41],[-10,43],[114,74],[43,1],[38,-45],[89,53],[41,55],[64,-14],[26,12],[51,-32],[145,6],[78,46]],[[216,4769],[-106,106],[7,35],[-69,50],[-48,9],[2,44],[31,40],[89,70],[0,80],[-31,51],[35,21],[24,60],[-18,28],[-69,25],[-7,74],[57,42],[33,66],[85,60],[52,15],[45,-14],[-9,112],[34,42],[-11,101],[92,34],[68,10],[29,58],[-15,74],[45,59],[-23,28],[36,68],[22,73],[82,35],[75,-2],[59,-27]],[[1305,7681],[-85,21],[-62,35],[-18,34],[53,193],[-25,26],[17,66],[-13,26]],[[1172,8082],[40,23],[30,101],[-16,18],[10,69],[-24,33],[39,121],[130,135],[61,-18],[106,36],[1,78],[-34,77],[17,28],[-19,47],[3,61],[39,49],[98,26],[36,44],[41,14],[-4,57],[18,41],[-38,25],[-41,141],[-74,11],[-47,33],[-71,-7],[-64,83],[8,69],[20,25],[-26,63],[-30,24]],[[1381,9589],[64,-3],[49,28],[62,-76],[66,-18],[115,23],[39,-25],[42,19],[72,-112],[79,10],[1,49],[61,1],[30,64],[89,43],[14,-26],[72,-48],[61,29],[23,-36],[67,24],[11,49],[71,10],[43,-55]],[[1172,8082],[-77,49],[-55,-2],[-64,40],[-10,117],[-19,61],[18,22],[-55,142],[18,37],[-93,97],[40,69],[23,149],[-19,69],[-61,0],[-25,50],[17,105],[-35,49],[-75,56],[-83,30],[-8,39],[91,-6],[42,38],[38,-19],[117,31],[47,-4],[5,79],[95,-28],[51,70],[48,-8],[94,91],[82,53],[36,-21],[26,52]],[[5500,3572],[-48,2],[-37,-31],[4,-67],[-177,-23],[-101,-12],[17,-33],[-75,-10],[-40,15],[10,-26],[-56,-36],[-90,-19],[-5,-57],[-33,-14],[-17,-49],[18,-82],[-84,-10],[-103,-14],[-42,-20],[-88,-2],[-86,-15],[-69,-33],[-99,-25],[-74,-33],[-76,-5],[-141,117]],[[5384,3433],[36,-4],[12,-95],[-189,-25],[-12,99],[63,29],[90,-4]],[[5502,3514],[-54,-35],[1,83],[50,-4],[3,-44]],[[5378,3142],[-30,89],[31,4],[-1,-93]],[[5062,3341],[63,-59],[69,-144],[-146,-5],[-78,59],[-5,91],[97,58]],[[5149,3075],[11,-54],[-154,-14],[22,62],[121,6]]],"transform":{"scale":[0.00019087104381266602,0.00015741329456621486],"translate":[134.25372722383247,34.156830054363695]},"objects":{"japan":{"type":"GeometryCollection","geometries":[{"arcs":[[[0,1,2,3,4,5,6,7,8,9,10]],[[11]],[[12]],[[13]],[[14]]],"type":"MultiPolygon","properties":{"pref":"兵庫県","city":"姫路市","code5":"28201","code6":"282014"}},{"arcs":[[15,16,17,18]],"type":"Polygon","properties":{"pref":"兵庫県","city":"尼崎市","code5":"28202","code6":"282022"}},{"arcs":[[[19,20,21,22,23]],[[24]]],"type":"MultiPolygon","properties":{"pref":"兵庫県","city":"明石市","code5":"28203","code6":"282031"}},{"arcs":[[[25,26,27,-17,28,29]],[[30]],[[31]]],"type":"MultiPolygon","properties":{"pref":"兵庫県","city":"西宮市","code5":"28204","code6":"282049"}},{"arcs":[[32,33,34,35]],"type":"Polygon","properties":{"pref":"兵庫県","city":"洲本市","code5":"28205","code6":"282057"}},{"arcs":[[[36,-30,37]],[[38]]],"type":"MultiPolygon","properties":{"pref":"兵庫県","city":"芦屋市","code5":"28206","code6":"282065"}},{"arcs":[[39,-18,-28,40,41,42]],"type":"Polygon","properties":{"pref":"兵庫県","city":"伊丹市","code5":"28207","code6":"282073"}},{"arcs":[[43,44,45,46]],"type":"Polygon","properties":{"pref":"兵庫県","city":"相生市","code5":"28208","code6":"282081"}},{"arcs":[[47,48,49,50,51]],"type":"Polygon","properties":{"pref":"兵庫県","city":"豊岡市","code5":"28209","code6":"282090"}},{"arcs":[[-4,52,53,54,55,-22,56,57,58]],"type":"Polygon","properties":{"pref":"兵庫県","city":"加古川市","code5":"28210","code6":"282103"}},{"arcs":[[-45,59,60]],"type":"Polygon","properties":{"pref":"兵庫県","city":"赤穂市","code5":"28212","code6":"282120"}},{"arcs":[[61,62,63,64,65]],"type":"Polygon","properties":{"pref":"兵庫県","city":"西脇市","code5":"28213","code6":"282138"}},{"arcs":[[66,67,68,69,-41,-27]],"type":"Polygon","properties":{"pref":"兵庫県","city":"宝塚市","code5":"28214","code6":"282146"}},{"arcs":[[70,71,-55,72,73,74]],"type":"Polygon","properties":{"pref":"兵庫県","city":"三木市","code5":"28215","code6":"282154"}},{"arcs":[[-5,-59,75]],"type":"Polygon","properties":{"pref":"兵庫県","city":"高砂市","code5":"28216","code6":"282162"}},{"arcs":[[76,-42,-70,77,78]],"type":"Polygon","properties":{"pref":"兵庫県","city":"川西市","code5":"28217","code6":"282171"}},{"arcs":[[-54,79,80,-73]],"type":"Polygon","properties":{"pref":"兵庫県","city":"小野市","code5":"28218","code6":"282189"}},{"arcs":[[81,-75,82,83,84,-68]],"type":"Polygon","properties":{"pref":"兵庫県","city":"三田市","code5":"28219","code6":"282197"}},{"arcs":[[-3,85,86,87,-64,88,-80,-53]],"type":"Polygon","properties":{"pref":"兵庫県","city":"加西市","code5":"28220","code6":"282201"}},{"arcs":[[89,90,-84,91,-62,92]],"type":"Polygon","properties":{"pref":"兵庫県","city":"丹波篠山市","code5":"28221","code6":"282219"}},{"arcs":[[-50,93,94,95,96]],"type":"Polygon","properties":{"pref":"兵庫県","city":"養父市","code5":"28222","code6":"282227"}},{"arcs":[[97,-93,-66,98,99]],"type":"Polygon","properties":{"pref":"兵庫県","city":"丹波市","code5":"28223","code6":"282235"}},{"arcs":[[[-34,100]],[[101]]],"type":"MultiPolygon","properties":{"pref":"兵庫県","city":"南あわじ市","code5":"28224","code6":"282243"}},{"arcs":[[102,-100,103,104,105,-94,-49]],"type":"Polygon","properties":{"pref":"兵庫県","city":"朝来市","code5":"28225","code6":"282251"}},{"arcs":[[-36,106]],"type":"Polygon","properties":{"pref":"兵庫県","city":"淡路市","code5":"28226","code6":"282260"}},{"arcs":[[-10,107,108,109,-95,-106,110]],"type":"Polygon","properties":{"pref":"兵庫県","city":"宍粟市","code5":"28227","code6":"282278"}},{"arcs":[[-63,-92,-83,-74,-81,-89]],"type":"Polygon","properties":{"pref":"兵庫県","city":"加東市","code5":"28228","code6":"282286"}},{"arcs":[[-7,111,-47,112,113,-108,-9,114]],"type":"Polygon","properties":{"pref":"兵庫県","city":"たつの市","code5":"28229","code6":"282294"}},{"arcs":[[115,-78,-69,-85,-91]],"type":"Polygon","properties":{"pref":"兵庫県","county":"川辺郡","city":"猪名川町","code5":"28301","code6":"283011"}},{"arcs":[[-65,-88,116,117,-104,-99]],"type":"Polygon","properties":{"pref":"兵庫県","county":"多可郡","city":"多可町","code5":"28365","code6":"283657"}},{"arcs":[[118,-23,-56,-72]],"type":"Polygon","properties":{"pref":"兵庫県","county":"加古郡","city":"稲美町","code5":"28381","code6":"283819"}},{"arcs":[[[-21,119,-57]],[[120]]],"type":"MultiPolygon","properties":{"pref":"兵庫県","county":"加古郡","city":"播磨町","code5":"28382","code6":"283827"}},{"arcs":[[-1,121,-117,-87,122]],"type":"Polygon","properties":{"pref":"兵庫県","county":"神崎郡","city":"市川町","code5":"28442","code6":"284424"}},{"arcs":[[-2,-123,-86]],"type":"Polygon","properties":{"pref":"兵庫県","county":"神崎郡","city":"福崎町","code5":"28443","code6":"284432"}},{"arcs":[[-11,-111,-105,-118,-122]],"type":"Polygon","properties":{"pref":"兵庫県","county":"神崎郡","city":"神河町","code5":"28446","code6":"284467"}},{"arcs":[[-8,-115]],"type":"Polygon","properties":{"pref":"兵庫県","county":"揖保郡","city":"太子町","code5":"28464","code6":"284645"}},{"arcs":[[-46,-61,123,124,-113]],"type":"Polygon","properties":{"pref":"兵庫県","county":"赤穂郡","city":"上郡町","code5":"28481","code6":"284815"}},{"arcs":[[-109,-114,-125,125]],"type":"Polygon","properties":{"pref":"兵庫県","county":"佐用郡","city":"佐用町","code5":"28501","code6":"285013"}},{"arcs":[[-51,-97,126,127,128]],"type":"Polygon","properties":{"pref":"兵庫県","county":"美方郡","city":"香美町","code5":"28585","code6":"285854"}},{"arcs":[[-128,129]],"type":"Polygon","properties":{"pref":"兵庫県","county":"美方郡","city":"新温泉町","code5":"28586","code6":"285862"}},{"arcs":[[[130,-24,-119,-71,-82,-67,-26,-37]],[[131]],[[132]],[[133]],[[134]],[[135]]],"type":"MultiPolygon","properties":{"pref":"兵庫県","city":"神戸市","code5":"28100","code6":"281000"}}]}}}