{"type":"Topology","arcs":[[[2703,5571],[65,-93],[16,-58],[-85,-75]],[[2699,5345],[-50,-33],[-14,33],[-111,-50],[-19,-61],[-45,-13],[-102,20],[-18,80],[-35,-51],[-59,-36],[-41,7],[-40,-37],[37,-64],[-4,-110],[103,16],[11,57],[66,16],[-24,-71],[58,-96],[-33,-36],[-5,-46]],[[2374,4870],[36,-61],[-108,-103],[5,-44],[-54,-42],[44,-52],[-20,-52],[12,-45],[-24,-44],[-135,12]],[[2130,4439],[-9,42],[-87,143],[-16,6]],[[2018,4630],[75,56],[-4,89],[41,51],[7,61],[-42,70],[-47,0],[-22,-63],[-59,-19],[-108,26],[4,-62],[-17,-87],[-69,22],[-30,-21],[-31,71],[-65,-8],[-48,119],[-84,-20],[-31,12]],[[1488,4927],[-37,-1],[-2,67],[-101,34],[-14,53],[-123,1],[-32,-25],[-53,-2],[-65,21],[-45,36],[-34,-6]],[[982,5105],[-52,158],[-8,47],[19,57],[52,22],[35,70],[32,30],[71,12]],[[1131,5501],[118,-27],[73,9],[61,-18],[85,-64],[36,12],[64,-12],[53,-37],[75,2],[67,48],[47,-1],[26,-27],[38,136],[30,13],[45,70],[24,62],[31,7],[35,-13],[-30,-51],[49,-45],[45,9],[73,59],[17,-47],[60,-2],[59,-22],[27,-68],[0,-70],[72,-15],[28,27],[39,-21],[7,-39],[67,-11],[14,49],[53,40],[12,90],[72,27]],[[1178,4243],[-1,-53],[-24,-65],[-10,-84],[17,-90],[-38,-43]],[[1122,3908],[-17,31]],[[1105,3939],[-45,0],[25,64],[-61,-1],[-23,42],[-3,77],[-61,0],[-21,57]],[[916,4178],[30,73],[44,3]],[[990,4254],[9,-17],[154,24],[25,-18]],[[1488,4927],[1,-76],[-55,-14],[18,-60],[-22,-20],[-92,12],[1,-68],[-46,-36]],[[1293,4665],[-99,8]],[[1194,4673],[0,27],[-56,110]],[[1138,4810],[-41,33],[-120,72],[21,30],[-45,43]],[[953,4988],[24,11],[18,64],[-13,42]],[[2018,4630],[-58,-6],[-93,-131],[-53,-15],[-22,-48],[-104,-67],[-93,4],[-65,22],[-29,-25]],[[1501,4364],[-63,76],[-47,150],[-78,-40]],[[1313,4550],[-19,14]],[[1294,4564],[41,44],[-42,57]],[[1178,4243],[28,37]],[[1206,4280],[68,1],[2,-35],[65,5],[0,39],[120,-12]],[[1461,4278],[2,-151],[39,0],[2,-86],[22,-57],[-23,-15]],[[1503,3969],[-8,19],[-76,2],[-16,-46],[4,-74],[-104,-22]],[[1303,3848],[-73,25],[-57,-37]],[[1173,3836],[-50,16],[-1,56]],[[2130,4439],[2,-38],[-33,-25],[13,-63],[-72,-63],[1,-34],[-90,-42],[3,-66],[-44,-60],[-29,-70],[-62,-70],[32,-89],[-29,-59]],[[1822,3760],[-42,-14],[-64,-51]],[[1716,3695],[-58,113],[-150,128],[-5,33]],[[1461,4278],[2,60],[38,26]],[[584,3314],[19,4],[45,80],[64,19],[23,56]],[[735,3473],[88,-63],[69,5],[63,-57],[46,-25],[63,20]],[[1064,3353],[74,-26],[12,-52],[66,18]],[[1216,3293],[7,-82],[-27,-41],[21,-48],[-16,-118],[7,-51],[50,-9],[0,-110],[-20,-34],[-10,-79],[99,-42],[73,12],[80,-34]],[[1480,2657],[22,-35],[52,1],[36,-29]],[[1590,2594],[10,-30],[-138,-97],[-12,-61],[-39,-2],[-30,-36],[-60,-16],[-29,43],[-67,17],[-131,-57],[18,-65],[-41,-105],[10,-64],[68,-22],[35,-44],[104,-11],[53,-49],[99,59],[60,-23],[93,60],[92,-2],[-25,-45],[10,-44],[80,15],[80,39],[38,-65],[38,-29]],[[1906,1960],[38,-92],[-30,-72]],[[1914,1796],[-56,-1],[-61,41],[-100,-9],[-83,-65],[-97,24],[-29,-17],[-85,-9],[-98,-29],[-92,104],[-76,18],[-140,-210],[-29,-64],[-56,-69],[-11,-61],[-74,-14],[-45,-26],[-125,6]],[[657,1415],[15,37],[82,32],[63,57],[24,102],[40,60],[114,58],[-19,61],[22,46],[-12,33],[-92,33],[-16,52],[-90,67],[42,38],[-1,33],[50,24],[11,58]],[[890,2206],[94,76],[13,69],[-34,53],[-26,148],[-137,95],[-16,-42],[-43,0],[-44,62],[13,43],[-31,56],[-15,74],[14,43],[-5,66],[-41,7],[17,181],[-40,69],[-25,108]],[[735,3473],[-55,34],[-22,67],[70,52],[16,70],[28,51],[-24,29],[-1,57]],[[747,3833],[106,3],[64,30],[48,-9],[16,31],[74,-19],[45,19],[5,51]],[[1173,3836],[0,-66],[31,-35],[-53,-129],[32,-56]],[[1183,3550],[-19,-6],[-70,-83],[-47,-24],[17,-84]],[[990,5822],[25,-148],[17,-19],[107,-101],[-8,-53]],[[953,4988],[-7,-2]],[[946,4986],[-70,9],[-94,45],[-16,34],[-77,8]],[[689,5082],[-1,34],[40,69],[-29,79],[0,63],[0,11],[52,60],[98,66],[5,22],[-31,119],[53,30],[17,46],[-18,105],[28,57],[43,-43],[44,22]],[[595,4354],[24,91],[80,60]],[[699,4505],[41,27],[68,-19],[58,11]],[[866,4524],[6,-162],[72,21]],[[944,4383],[42,-47],[4,-82]],[[916,4178],[-44,38],[-48,-2],[-7,68],[-89,-13],[-7,34],[-59,-24],[8,-27]],[[670,4252],[-39,65],[-36,37]],[[711,4092],[11,25],[-3,101],[-49,34]],[[747,3833],[0,2],[13,117],[-30,60],[-19,80]],[[2739,4818],[-83,-123],[29,-48],[-12,-81],[57,-34],[-2,-35],[58,-11],[63,-53],[82,-22],[42,2]],[[2973,4413],[-49,-100],[24,-26],[-1,-50],[-64,-16],[17,-59],[-37,-46],[-32,-100],[-47,-12],[-15,-38],[24,-56]],[[2793,3910],[-99,12],[-80,-7],[60,-49],[-42,-45],[-89,-51],[-63,-9],[-31,-64],[-54,2],[-111,-46]],[[2284,3653],[-83,-2],[-25,-35],[-52,-23],[-60,20],[-76,93],[-65,19],[-49,-32],[-52,67]],[[2374,4870],[64,-16],[106,61],[63,-53],[71,-37],[61,-7]],[[2861,5177],[-42,-113],[-37,-6],[-32,-37],[47,-113],[-24,-75],[-34,-15]],[[2699,5345],[27,-20],[79,-13],[37,-119],[19,-16]],[[624,4785],[1,53],[22,41],[6,87],[0,43],[36,73]],[[946,4986],[-21,-41],[13,-123],[-46,-69]],[[892,4753],[-64,39],[-70,-10],[-81,-38],[-53,41]],[[587,4734],[37,51]],[[892,4753],[-3,-69]],[[889,4684],[-52,13],[-17,-54],[-76,-49]],[[744,4594],[-36,108],[-72,1],[-49,31]],[[1138,4810],[-27,-72],[-55,-41],[2,-49]],[[1058,4648],[-77,-16],[-59,26]],[[922,4658],[-33,26]],[[1194,4673],[-36,-35],[-48,2]],[[1110,4640],[-52,8]],[[1294,4564],[-130,-5],[-45,9]],[[1119,4568],[-9,72]],[[1313,4550],[17,-69],[-54,2],[-104,-36]],[[1172,4447],[-4,71],[-53,35]],[[1115,4553],[4,15]],[[1206,4280],[-39,111],[5,56]],[[3259,4363],[53,-86],[-23,-93]],[[3289,4184],[-52,-42],[-53,-108],[-64,-18],[-95,-1],[-51,-25],[-45,-85],[-88,-19]],[[2841,3886],[-48,24]],[[2973,4413],[34,-62],[26,0],[110,81],[37,-22],[47,25],[32,-72]],[[3289,4184],[77,-22],[60,43],[86,35],[51,-83],[-26,-93],[19,-27],[56,-15],[-3,-36],[-68,-50],[-4,-54],[-28,-36],[-16,-116],[-93,12],[-53,-32],[-106,22],[-36,-46],[-37,-5],[-68,26],[-70,-15],[-35,-45],[-81,-3]],[[2914,3644],[-5,40],[-36,64],[-32,138]],[[1303,3848],[79,-101],[2,-44],[50,-16],[68,19],[107,-102]],[[1609,3604],[-24,-27],[-62,12],[-66,-88],[-28,61],[-91,-23],[-38,16],[-31,-21],[-86,16]],[[1716,3695],[-33,-5],[-74,-86]],[[866,4524],[37,55]],[[903,4579],[79,-35],[11,-69],[-17,-67]],[[976,4408],[-32,-25]],[[699,4505],[-13,35],[58,54]],[[922,4658],[-32,-39],[13,-40]],[[976,4408],[65,17],[-12,65],[12,52],[74,11]],[[2284,3653],[20,-49],[-58,-59],[-34,-9],[-38,-82],[-83,-53],[16,-69],[-27,-71]],[[2080,3261],[-21,-36],[-49,-4],[-58,-34],[-12,-34],[-73,-53],[-40,-62]],[[1827,3038],[-53,-44],[-14,57],[-40,25]],[[1720,3076],[-15,56],[-114,31],[-42,42],[-72,46],[-19,89]],[[1458,3340],[133,37],[10,47],[41,-10],[26,44],[2,61],[-61,85]],[[1458,3340],[-102,-11],[-61,-40],[-40,26],[-39,-22]],[[1720,3076],[-40,-21],[-41,-79],[-65,15],[-97,-60],[-35,-70],[47,-48],[-18,-80],[9,-76]],[[1827,3038],[21,-31],[57,-26],[50,-106],[1,-96],[19,-58],[-11,-34]],[[1964,2687],[-67,51],[-48,-25],[-97,-7],[-20,-23],[-72,-3],[-30,-58],[-40,-28]],[[1964,2687],[63,-38],[85,-24],[58,17],[46,-37],[14,-77],[39,-13],[-51,-139],[0,-49]],[[2218,2327],[-38,-15],[-23,-96],[-32,-36],[4,-96],[-11,-49],[-66,-23],[-88,10],[-58,-62]],[[657,1415],[-28,-26],[-97,-28],[-26,-42],[-68,-25],[-157,87],[-99,-3],[-121,-64]],[[61,1314],[-16,-2],[-45,46],[53,61],[-19,83],[64,34],[-6,30],[113,53],[30,100],[3,54],[30,53],[72,34],[91,26],[-7,48],[42,69],[70,40],[-3,53],[-38,48],[2,35],[71,91],[38,-17],[65,51],[52,-5],[85,-41],[20,-33],[62,-19]],[[1756,0],[-66,7],[-23,66],[-30,57],[17,37],[-47,56],[-50,-8],[-108,65],[-67,-17],[-9,-46],[-48,-7],[-78,-41],[-61,16],[-53,-35],[-79,38],[-88,77],[-203,3],[-35,-36],[-40,15],[-54,-18],[8,-54],[-75,-78],[-65,1],[-34,-25],[-58,-7],[46,81],[-38,93],[-70,-2],[-32,58],[54,30],[20,78],[-24,44],[38,30],[7,113],[38,-28],[61,2],[-7,54],[24,53],[-19,143],[-30,7],[-39,71],[-9,48],[-70,25],[-66,-13],[-23,49],[43,81],[-26,76],[-35,17],[-39,60],[-71,8],[-18,37],[-64,33]],[[1914,1796],[41,-65],[13,-48]],[[1968,1683],[-72,-82],[26,-93],[-44,-82],[15,-50],[-53,-71],[31,-56],[-24,-40],[24,-63],[74,-78],[-6,-34],[-42,-29],[36,-132],[-28,-30],[-25,-73],[90,-65]],[[1970,705],[2,-30],[-72,-89],[-44,-24],[-4,-69],[28,-79],[59,-26],[-3,-27],[-58,20],[-1,-57],[-21,-41],[-69,21],[6,33],[-68,-1],[-53,-84],[14,-90],[53,10],[58,-62],[-41,-38],[0,-72]],[[2703,1103],[-24,-11],[-63,19],[-38,-29],[-46,29],[-31,-19],[-11,-56],[-40,-31],[-19,-63],[-74,-48],[-26,-68],[-52,-36],[-72,-9],[-36,-27],[-144,7],[-57,-56]],[[1968,1683],[43,8],[67,-36],[42,-68],[49,-2],[70,-59],[12,-51],[-3,-171],[15,-25],[57,0],[75,42],[44,40],[24,-51],[106,-80],[51,18],[83,-145]],[[2959,1605],[18,-71],[-29,-45],[72,-90],[-105,29],[-11,-126],[17,-58],[-26,-59],[29,-21],[35,-113],[-18,-8],[-24,-21],[-124,72],[-54,-10],[-36,19]],[[2218,2327],[50,-21],[59,21],[66,5],[38,30],[112,9],[-1,-65],[53,-104],[120,-7],[27,-44],[125,-8],[35,-20]],[[2902,2123],[14,-51],[66,-17],[-17,-85],[34,-26],[14,-43],[-47,-53],[-20,-71],[34,-92],[-46,-41],[25,-39]],[[2888,3182],[24,-17],[7,-65],[29,-86],[36,-44],[68,-23],[38,-59],[-93,-71],[-59,3],[-29,-26],[16,-80],[81,-64],[31,-83],[-6,-32],[72,-55],[-8,-58],[-30,-10],[-73,-76],[35,-39],[-10,-78],[-94,-53],[-21,-43]],[[2080,3261],[97,-4],[75,44],[28,-28],[33,-85],[2,-57],[87,-29],[102,40],[50,-27],[19,-39],[81,-13],[92,18],[25,55],[1,57],[116,-11]],[[2914,3644],[-37,-41],[8,-81],[-72,-64],[-38,-105],[46,-19],[42,-43],[31,-70],[-6,-39]]],"transform":{"scale":[0.00019084663773721576,0.00015740810515989167],"translate":[135.5396980536225,33.86159638716373]},"objects":{"japan":{"type":"GeometryCollection","geometries":[{"arcs":[[0,1,2,3,4,5,6,7]],"type":"Polygon","properties":{"pref":"奈良県","city":"奈良市","code5":"29201","code6":"292010"}},{"arcs":[[8,9,10,11,12]],"type":"Polygon","properties":{"pref":"奈良県","city":"大和高田市","code5":"29202","code6":"292028"}},{"arcs":[[-6,13,14,15,16,17]],"type":"Polygon","properties":{"pref":"奈良県","city":"大和郡山市","code5":"29203","code6":"292036"}},{"arcs":[[-5,18,19,20,21,-14]],"type":"Polygon","properties":{"pref":"奈良県","city":"天理市","code5":"29204","code6":"292044"}},{"arcs":[[-9,22,23,24,25,26,27]],"type":"Polygon","properties":{"pref":"奈良県","city":"橿原市","code5":"29205","code6":"292052"}},{"arcs":[[-4,28,29,30,-25,31,-19]],"type":"Polygon","properties":{"pref":"奈良県","city":"桜井市","code5":"29206","code6":"292061"}},{"arcs":[[32,33,34,35,36,37,38,39,40,41]],"type":"Polygon","properties":{"pref":"奈良県","city":"五條市","code5":"29207","code6":"292079"}},{"arcs":[[42,43,-10,-28,44,45,-34]],"type":"Polygon","properties":{"pref":"奈良県","city":"御所市","code5":"29208","code6":"292087"}},{"arcs":[[46,-7,-18,47,48,49]],"type":"Polygon","properties":{"pref":"奈良県","city":"生駒市","code5":"29209","code6":"292095"}},{"arcs":[[50,51,52,53,-12,54,55]],"type":"Polygon","properties":{"pref":"奈良県","city":"香芝市","code5":"29210","code6":"292109"}},{"arcs":[[56,-55,-11,-44,57]],"type":"Polygon","properties":{"pref":"奈良県","city":"葛城市","code5":"29211","code6":"292117"}},{"arcs":[[58,59,60,61,-29,-3,62]],"type":"Polygon","properties":{"pref":"奈良県","city":"宇陀市","code5":"29212","code6":"292125"}},{"arcs":[[63,-63,-2,64]],"type":"Polygon","properties":{"pref":"奈良県","county":"山辺郡","city":"山添村","code5":"29322","code6":"293229"}},{"arcs":[[65,-49,66,67]],"type":"Polygon","properties":{"pref":"奈良県","county":"生駒郡","city":"平群町","code5":"29342","code6":"293423"}},{"arcs":[[68,-68,69,70,71]],"type":"Polygon","properties":{"pref":"奈良県","county":"生駒郡","city":"三郷町","code5":"29343","code6":"293431"}},{"arcs":[[-17,72,73,74,-70,-67,-48]],"type":"Polygon","properties":{"pref":"奈良県","county":"生駒郡","city":"斑鳩町","code5":"29344","code6":"293440"}},{"arcs":[[-16,75,76,-73]],"type":"Polygon","properties":{"pref":"奈良県","county":"生駒郡","city":"安堵町","code5":"29345","code6":"293458"}},{"arcs":[[-15,-22,77,78,-76]],"type":"Polygon","properties":{"pref":"奈良県","county":"磯城郡","city":"川西町","code5":"29361","code6":"293610"}},{"arcs":[[-21,79,80,81,-78]],"type":"Polygon","properties":{"pref":"奈良県","county":"磯城郡","city":"三宅町","code5":"29362","code6":"293628"}},{"arcs":[[-20,-32,-24,82,-80]],"type":"Polygon","properties":{"pref":"奈良県","county":"磯城郡","city":"田原本町","code5":"29363","code6":"293636"}},{"arcs":[[83,84,85,-60,86]],"type":"Polygon","properties":{"pref":"奈良県","county":"宇陀郡","city":"曽爾村","code5":"29385","code6":"293857"}},{"arcs":[[87,88,-85]],"type":"Polygon","properties":{"pref":"奈良県","county":"宇陀郡","city":"御杖村","code5":"29386","code6":"293865"}},{"arcs":[[-27,89,90,-45]],"type":"Polygon","properties":{"pref":"奈良県","county":"高市郡","city":"高取町","code5":"29401","code6":"294012"}},{"arcs":[[-26,-31,91,-90]],"type":"Polygon","properties":{"pref":"奈良県","county":"高市郡","city":"明日香村","code5":"29402","code6":"294021"}},{"arcs":[[-53,92,93,94]],"type":"Polygon","properties":{"pref":"奈良県","county":"北葛城郡","city":"上牧町","code5":"29424","code6":"294241"}},{"arcs":[[95,-71,-75,96,-93,-52]],"type":"Polygon","properties":{"pref":"奈良県","county":"北葛城郡","city":"王寺町","code5":"29425","code6":"294250"}},{"arcs":[[-13,-54,-95,97,-81,-83,-23]],"type":"Polygon","properties":{"pref":"奈良県","county":"北葛城郡","city":"広陵町","code5":"29426","code6":"294268"}},{"arcs":[[-74,-77,-79,-82,-98,-94,-97]],"type":"Polygon","properties":{"pref":"奈良県","county":"北葛城郡","city":"河合町","code5":"29427","code6":"294276"}},{"arcs":[[-30,-62,98,99,100,101,102,-92]],"type":"Polygon","properties":{"pref":"奈良県","county":"吉野郡","city":"吉野町","code5":"29441","code6":"294411"}},{"arcs":[[-35,-46,-91,-103,103]],"type":"Polygon","properties":{"pref":"奈良県","county":"吉野郡","city":"大淀町","code5":"29442","code6":"294420"}},{"arcs":[[-36,-104,-102,104]],"type":"Polygon","properties":{"pref":"奈良県","county":"吉野郡","city":"下市町","code5":"29443","code6":"294438"}},{"arcs":[[-37,-105,-101,105,106]],"type":"Polygon","properties":{"pref":"奈良県","county":"吉野郡","city":"黒滝村","code5":"29444","code6":"294446"}},{"arcs":[[-38,-107,107,108]],"type":"Polygon","properties":{"pref":"奈良県","county":"吉野郡","city":"天川村","code5":"29446","code6":"294462"}},{"arcs":[[-41,109,110]],"type":"Polygon","properties":{"pref":"奈良県","county":"吉野郡","city":"野迫川村","code5":"29447","code6":"294471"}},{"arcs":[[111,-110,-40,112,113,114]],"type":"Polygon","properties":{"pref":"奈良県","county":"吉野郡","city":"十津川村","code5":"29449","code6":"294497"}},{"arcs":[[115,-114,116]],"type":"Polygon","properties":{"pref":"奈良県","county":"吉野郡","city":"下北山村","code5":"29450","code6":"294501"}},{"arcs":[[117,-117,-113,-39,-109,118,119]],"type":"Polygon","properties":{"pref":"奈良県","county":"吉野郡","city":"上北山村","code5":"29451","code6":"294519"}},{"arcs":[[120,-119,-108,-106,-100,121]],"type":"Polygon","properties":{"pref":"奈良県","county":"吉野郡","city":"川上村","code5":"29452","code6":"294527"}},{"arcs":[[122,-122,-99,-61,-86,-89]],"type":"Polygon","properties":{"pref":"奈良県","county":"吉野郡","city":"東吉野村","code5":"29453","code6":"294535"}}]}}}