{"type":"Topology","arcs":[[[1065,5545],[89,-46],[55,17],[58,62],[41,15],[88,-21]],[[1396,5572],[1,-130],[29,-132],[-21,-112],[130,11],[52,-19],[37,-85]],[[1624,5105],[-39,-7],[-58,-43],[-60,-20],[-53,-38],[34,-54],[18,-66]],[[1466,4877],[-1,-38],[-34,-64],[37,-27],[-43,-44],[-113,12],[-76,28],[-124,-43],[-71,-12],[2,-39],[-60,-29],[-2,-24]],[[981,4597],[-39,-12],[-13,95],[-22,45],[-78,56],[-32,-20],[-84,49],[-18,55],[32,11],[-19,59],[26,17],[-27,67],[-95,-3],[-75,23],[-18,54],[77,-14],[51,-47],[24,16],[-51,74],[-63,23],[-79,49],[-34,51],[-90,-2],[-50,11],[13,69],[48,49],[-33,63],[33,92],[69,14],[28,29],[71,-40],[-50,-55],[10,-51],[54,-41],[6,-56],[115,-9],[75,71],[57,-41],[74,22],[48,-5],[57,42],[58,8],[28,130]],[[84,5449],[-2,-41],[-46,-64],[-36,5],[84,100]],[[1466,4877],[84,-37],[92,-23]],[[1642,4817],[-29,-97],[-67,-18],[-26,-88],[35,-28],[7,-45],[-30,-90]],[[1532,4451],[-26,-63],[-40,-36],[-114,-30],[-72,44],[-51,-3],[-42,-94],[-49,18],[-88,-64],[-92,-13]],[[958,4210],[-47,19],[-63,-45],[-139,3],[-8,42],[-34,37],[-72,44],[-33,-5]],[[562,4305],[57,12],[115,-21],[-4,28],[-55,19],[5,45],[-66,28],[55,50],[121,4],[59,-29],[60,41],[44,95],[28,20]],[[2748,5820],[64,39],[68,12],[47,63],[72,42],[94,-4],[5,25],[91,-17],[34,50],[164,-8],[25,-108],[40,-68],[-17,-182],[41,-7],[5,-66],[-14,-43],[15,-74],[31,-56],[-13,-42],[45,-63]],[[3545,5313],[-54,-55],[18,-31],[-68,-85],[-37,-22],[-55,49],[-60,-1]],[[3289,5168],[27,58],[-12,87],[-49,81],[-46,-19],[-54,10],[-82,-31],[-26,44],[-64,-4],[-17,100],[-50,-40],[-60,29],[-40,37]],[[2816,5520],[3,43],[-26,64],[-57,52],[12,141]],[[958,4210],[-4,-24],[33,-108],[-13,-71],[-22,-29]],[[952,3978],[-69,-39],[-37,49],[-41,-3],[-101,-36]],[[704,3949],[-17,49],[-165,42],[-69,-16],[-7,44],[31,24],[5,75],[59,45],[21,93]],[[1021,2838],[8,-56],[73,-6],[-27,-52],[-67,28],[-57,-19],[-11,-45],[86,-30],[10,-74],[31,-26],[-34,-51],[6,-40],[-19,-67]],[[1020,2400],[-70,40],[-6,49],[-54,35],[1,45],[-33,22],[-15,57],[-32,39],[-3,57],[-34,52]],[[774,2796],[10,31],[-36,97],[-31,116]],[[717,3040],[94,56],[-14,123],[24,49],[65,19]],[[886,3287],[20,-113],[-33,-40],[8,-94],[95,-65],[42,-71],[3,-66]],[[2848,4020],[16,2],[64,-33],[19,-37],[71,-8],[38,-60],[35,-17],[26,-76],[-42,-81],[22,-49],[66,13],[70,-25],[10,-48],[38,-71],[31,-7],[18,-143],[-24,-53],[7,-54],[-61,-2],[-38,28],[-7,-113],[-38,-30],[24,-44],[-20,-78],[-54,-30],[33,-58],[69,2],[38,-93],[-46,-81],[58,7],[34,24],[66,0],[74,78],[-8,53],[54,18],[41,-14],[35,36],[202,-3],[88,-77],[79,-38],[53,35],[61,-16],[78,41],[49,7]],[[4177,2925],[25,-67],[-46,-77],[-35,-122],[12,-54],[45,-67],[41,-23],[19,-45],[87,-79],[-2,-41],[-33,-30],[-8,-49],[-66,-82],[-55,-21],[-2,-44],[-87,-17],[-45,33],[-31,-47],[-51,-17],[-19,-32],[6,-49],[-46,-28],[-17,-62],[-47,16],[-61,-63]],[[3761,1858],[-45,-6],[15,-45],[-32,-53],[-36,28],[-66,-30],[-11,-49],[-60,-72],[-118,-20],[-19,-75],[-7,-87],[39,-43]],[[3421,1406],[-35,-49],[-39,2],[-65,-28],[-27,43],[-71,-13],[-38,-33],[-87,45],[-14,35],[-50,20],[-65,-24],[-43,37],[4,102],[-55,83],[-114,-4],[-16,89],[-48,-25]],[[2658,1686],[-25,24],[-60,-20],[-41,28],[-30,48],[2,69],[-30,31],[25,43],[29,98],[-64,93],[-30,13],[-24,-75],[4,-51],[-63,-9],[-68,-36],[-33,-106],[-93,-63],[-69,-72],[-33,-102]],[[2055,1599],[-51,-5],[-24,31]],[[1980,1625],[-28,25],[93,47],[-30,83],[-57,37],[-28,52],[-52,20],[-34,-37],[-25,50],[29,33],[-33,43],[-78,-7]],[[1737,1971],[47,116],[0,69],[21,17],[5,111],[-17,91],[49,-1],[45,34],[23,49],[62,66],[51,33],[58,2],[64,-25],[56,28],[96,16],[61,-17],[30,28],[24,66],[-74,9],[-34,52],[-91,50],[10,60],[-68,-4],[-47,13],[-32,41]],[[2076,2875],[3,42],[-44,7],[20,54],[-19,81]],[[2036,3059],[6,36],[41,51],[57,-4],[61,103],[40,-39],[58,39],[76,-7],[27,-48],[49,1],[20,29],[47,-12],[161,80],[31,-7],[101,65],[33,75],[-55,129],[-39,31],[44,83],[-49,65],[-106,11],[-1,78],[-16,36]],[[2622,3854],[74,39],[86,18],[15,43],[51,66]],[[4471,2781],[5,-29],[-29,-68],[38,-56],[-26,-78],[17,-42],[-16,-62],[44,-63],[41,-9],[43,-39],[55,-8],[55,-132],[23,-79],[53,-9],[24,-52],[42,-31],[55,15],[5,-113],[32,-41],[92,-49],[71,3],[-22,67],[54,6],[130,-59],[20,-24],[-72,-92],[-31,-57],[-20,-97],[-49,-29],[-31,-63]],[[5074,1491],[-90,15],[-53,77],[-52,0],[-29,39],[-71,-71],[-57,15],[3,35],[-30,52],[-86,36],[-13,52],[-90,28],[-16,54],[-61,-24],[-27,-50],[-61,-36],[33,-54],[-86,-31],[-67,53],[-50,9],[-35,29],[-31,-37],[-51,16]],[[4054,1698],[-66,-16],[-77,54],[-21,46],[-46,43],[-83,33]],[[4177,2925],[8,46],[68,17],[107,-65],[50,8],[47,-57],[-17,-36],[31,-57]],[[4590,3011],[1,-44],[37,-39],[-20,-62],[36,-35],[11,80],[43,-52],[-19,-99],[-104,10],[-16,-62],[0,72],[41,38],[-58,62],[-53,-10],[-14,89],[53,85],[68,1],[-6,-34]],[[2251,5800],[52,-4]],[[2303,5796],[15,-79],[41,-2],[31,-84],[44,-54],[-83,-113],[-30,-65],[3,-38],[35,-45],[56,-33],[9,-89],[89,-71],[19,-59],[-33,-87],[-7,-107]],[[2492,4870],[-75,-35],[3,-27],[-81,-75],[-99,-25],[-57,39],[-115,42],[-28,-26],[-92,9],[-71,-21],[-37,8],[-56,75],[-53,-14],[-40,-36],[-49,33]],[[1624,5105],[53,19],[48,39],[22,137],[-26,75],[18,142],[-49,63],[17,19]],[[1707,5599],[-13,47],[58,34],[-1,35],[38,-28],[67,16],[15,-23],[65,10],[32,-16],[132,34],[20,52],[81,-13],[50,53]],[[1456,5607],[47,-117],[58,34],[7,56],[48,3],[58,32],[33,-16]],[[1396,5572],[60,35]],[[2492,4870],[26,-65],[50,-36],[71,-80],[-86,-55],[-16,-63]],[[2537,4571],[-156,-117],[-52,-69],[-110,-64],[-128,39],[-154,-6],[1,-48],[-96,2],[-53,19],[-42,-18],[-15,-52],[-93,-6],[-28,35],[-18,73],[-61,92]],[[2303,5796],[47,14],[23,-16],[106,39],[40,59],[17,-41],[68,-39],[17,-57],[37,-18],[90,83]],[[2816,5520],[-34,-47],[33,-53],[-51,-67],[-9,-97],[-24,-46],[37,-103]],[[2768,5107],[-59,-9],[-16,-181],[52,-36],[-39,-34],[-4,-46],[-41,-38],[11,-89],[44,-62],[83,-29],[81,37],[41,78],[-6,112],[58,-86],[-11,-30],[40,-47],[22,-57],[102,5],[17,-27]],[[3143,4568],[-72,-34],[-29,-53],[-3,-54],[-31,-100],[-113,-53],[6,-30],[-63,-34]],[[2838,4210],[-68,21],[-3,85],[-54,30],[-84,153],[-45,52],[-47,20]],[[3289,5168],[-39,-22],[-55,-74],[-57,25],[-18,39],[-57,10],[-24,51],[-18,113],[-44,-2],[-9,-87],[16,-44],[-27,-24],[-39,16],[-43,-14],[-11,-42],[-96,-6]],[[3545,5313],[43,1],[16,41],[136,-95],[26,-147],[34,-54],[-13,-69],[-93,-76],[-62,19],[-21,33],[-85,41],[-52,5],[-65,-51],[-38,18],[-71,-92],[-2,-35],[38,-48],[3,-53],[-70,-40],[-42,-69],[7,-48],[-91,-26]],[[952,3978],[66,-172],[59,16],[33,-39],[79,1],[44,-90]],[[1233,3694],[-6,-48],[-84,-14],[-61,19],[-51,83],[-100,20],[-61,35]],[[870,3789],[-68,99],[-61,-13],[1,69],[-38,5]],[[1233,3694],[19,-16],[92,-4],[95,-60]],[[1439,3614],[-31,-41],[-75,-51],[-23,-159],[-98,-39],[-16,-70],[-57,33],[-128,6],[-69,25],[-34,-10]],[[908,3308],[-18,57],[4,121]],[[894,3486],[-2,67],[-56,9],[-108,-42],[-48,67]],[[680,3587],[89,49],[-44,50],[80,65],[65,38]],[[2838,4210],[18,-83],[-53,-61],[45,-46]],[[2622,3854],[-123,-60],[-74,-6],[-83,59],[-76,-64],[-183,-75],[-55,-56],[-106,22],[-74,-56],[-61,-2],[-109,27],[-120,-33],[-40,22],[-79,-18]],[[774,2796],[-55,59],[-54,27],[-103,28],[-60,-28],[-86,-12],[-21,24],[-53,-47],[-64,-23]],[[278,2824],[75,108],[80,37],[84,-9],[30,16],[76,-8],[51,30],[1,54],[42,-12]],[[278,2824],[-4,56],[38,19],[-28,84],[42,8],[49,-20],[29,23],[6,69],[-46,65],[8,45],[49,3],[-9,40],[30,48],[37,-8],[35,41]],[[514,3297],[28,-62],[75,9],[85,73],[13,40],[69,76],[110,53]],[[908,3308],[-22,-21]],[[514,3297],[61,16],[-19,38],[-47,10],[-16,-30],[-98,-24],[31,73],[-66,59],[77,16],[28,89],[60,-1],[80,39],[75,5]],[[1021,2838],[88,-25],[105,-1],[57,-34],[95,-2],[49,65],[75,62],[64,25],[72,54],[55,-4],[51,52],[78,3],[94,24],[132,2]],[[2076,2875],[-36,-21],[-130,7],[-68,13],[-28,-47],[-82,-4],[-71,-37],[0,-33],[-63,-73],[22,-25],[-30,-47],[5,-64],[-47,-35],[-19,-69],[-96,-8],[-40,-21],[-58,-100],[34,-103]],[[1369,2208],[-146,-15],[-25,23],[19,44],[-6,43],[-191,97]],[[1737,1971],[-30,-9],[-30,99],[-67,62],[-57,-18],[-103,72],[-81,31]],[[3421,1406],[48,-22],[-55,-91],[-75,-22],[9,-79]],[[3348,1192],[-73,-1],[-41,-19],[-83,85],[-48,-38],[-60,25],[-39,-7],[-54,36],[-80,-14],[-42,15],[-27,-60],[-49,-12],[8,-56],[-18,-46],[-125,26],[-57,-48],[-37,-51],[25,-66],[-34,-44],[-16,-53],[-67,-126],[-40,-23]],[[2391,715],[0,0],[0,0],[0,0],[-2,-1],[-1,-1],[-3,-3],[0,-1],[-6,-6],[-65,18],[15,48],[-28,43],[-103,52],[-39,59],[-35,-32],[-37,46],[-55,36],[-7,58],[-27,15],[38,90],[-16,20],[30,58],[-24,105],[-50,52],[-151,23],[-54,25],[-56,48],[2,48],[55,26],[8,69],[26,36],[33,-15],[24,-53],[117,47]],[[2055,1599],[50,-62],[51,59],[69,-46],[87,-41],[72,16],[43,-47],[34,-8],[128,3],[-13,100],[57,43],[25,70]],[[3348,1192],[19,-12],[68,-148],[10,-50],[-8,-89],[-75,2],[-47,25],[-28,-48]],[[3287,872],[-23,-28],[8,-91],[62,-3],[-23,-70],[-53,-62],[63,-67],[-16,-99]],[[3305,452],[-38,11],[-46,-32],[-68,41],[-50,-17],[-94,1],[-21,54],[-80,-9],[-66,12],[-12,26],[-74,-5],[-97,39],[9,40],[-67,21],[-9,37],[-60,55],[-47,-23],[-94,12]],[[5074,1491],[36,-119],[-99,20],[-16,-28],[-49,-4],[-51,-26],[-13,-32],[44,-79],[1,-55],[-44,-13]],[[4883,1155],[-31,10],[-15,-59]],[[4837,1106],[-12,-18],[21,-14],[-2,-30]],[[4844,1044],[-32,-48],[84,-51],[4,-38]],[[4900,907],[-29,-30],[-35,24],[-84,-50],[-15,-47],[37,-58],[-87,-43]],[[4687,703],[-25,40],[-38,1],[-37,53],[23,18],[-22,96],[-102,31],[-40,25],[-72,-39]],[[4374,928],[-90,37],[13,46],[-37,93],[32,15],[-18,58],[-81,95],[-2,41],[-38,105],[-3,102],[-92,53],[16,74],[-20,51]],[[4844,1044],[77,26],[34,-90],[54,25],[-35,-99],[-74,1]],[[4883,1155],[-5,-13],[-41,-37],[0,0],[0,1]],[[4374,928],[2,-46],[-25,-66],[-31,-29],[35,-107],[-6,-42],[-47,-1],[6,-42],[-24,-41],[-64,85],[-71,-54],[-140,-41],[-87,7],[-40,-34],[-45,25],[-31,57],[-53,9],[-27,-42],[-58,20],[-21,-51],[-79,8],[-99,84],[-24,92],[1,45],[-39,22],[-18,42],[-48,7],[-54,37]],[[5234,3650],[17,-16],[-51,-61],[36,-38],[1,-39],[48,-72],[0,-32],[-85,-79],[-61,74],[-41,-10],[-13,-40],[15,-58],[-43,-136],[-28,-11],[-36,39],[-70,32],[-77,12],[-9,-42],[-46,-19],[-9,-43],[-43,-42],[3,27],[-59,25],[-28,80],[4,69],[44,24],[72,89],[-2,30],[57,56],[144,-7],[36,27],[72,9],[52,36],[26,68],[74,48]],[[4687,703],[-90,-66],[-122,-60],[-11,-21],[-77,-36],[2,-28],[-90,11],[-74,-81],[-27,7],[-46,-39],[-15,-68],[-63,-102],[55,-111],[3,-30],[-52,-51],[-25,40],[-40,7],[-33,-75],[-57,7],[11,50],[-31,32],[62,43],[71,29],[-6,67],[-36,63],[-42,20],[-63,-12],[-47,-36],[-26,39],[-33,-35],[-58,29],[-32,39],[-57,14],[-43,-15],[-45,14],[-36,-15],[-64,19],[-48,62],[-55,8],[-42,30]],[[4229,292],[12,-32],[75,8],[90,-18],[55,-26],[-11,-57],[-130,-35],[-44,39],[-110,46],[63,75]]],"transform":{"scale":[0.00019085661770561424,0.00015739568815600669],"translate":[135.00468666675647,33.435386494990894]},"objects":{"japan":{"type":"GeometryCollection","geometries":[{"arcs":[[[0,1,2,3,4]],[[5]]],"type":"MultiPolygon","properties":{"pref":"和歌山県","city":"和歌山市","code5":"30201","code6":"302015"}},{"arcs":[[-4,6,7,8,9,10]],"type":"Polygon","properties":{"pref":"和歌山県","city":"海南市","code5":"30202","code6":"302023"}},{"arcs":[[11,12,13,14]],"type":"Polygon","properties":{"pref":"和歌山県","city":"橋本市","code5":"30203","code6":"302031"}},{"arcs":[[-10,15,16,17]],"type":"Polygon","properties":{"pref":"和歌山県","city":"有田市","code5":"30204","code6":"302040"}},{"arcs":[[18,19,20,21,22]],"type":"Polygon","properties":{"pref":"和歌山県","city":"御坊市","code5":"30205","code6":"302058"}},{"arcs":[[23,24,25,26,27,28,29,30,31,32,33]],"type":"Polygon","properties":{"pref":"和歌山県","city":"田辺市","code5":"30206","code6":"302066"}},{"arcs":[[[34,35,36,-25,37]],[[38]]],"type":"MultiPolygon","properties":{"pref":"和歌山県","city":"新宮市","code5":"30207","code6":"302074"}},{"arcs":[[39,40,41,-7,-3,42,43]],"type":"Polygon","properties":{"pref":"和歌山県","city":"紀の川市","code5":"30208","code6":"302082"}},{"arcs":[[44,-43,-2,45]],"type":"Polygon","properties":{"pref":"和歌山県","city":"岩出市","code5":"30209","code6":"302091"}},{"arcs":[[-8,-42,46,47]],"type":"Polygon","properties":{"pref":"和歌山県","county":"海草郡","city":"紀美野町","code5":"30304","code6":"303046"}},{"arcs":[[48,-15,49,50,51,52,-47,-41]],"type":"Polygon","properties":{"pref":"和歌山県","county":"伊都郡","city":"かつらぎ町","code5":"30341","code6":"303411"}},{"arcs":[[-14,53,-50]],"type":"Polygon","properties":{"pref":"和歌山県","county":"伊都郡","city":"九度山町","code5":"30343","code6":"303437"}},{"arcs":[[54,-51,-54,-13]],"type":"Polygon","properties":{"pref":"和歌山県","county":"伊都郡","city":"高野町","code5":"30344","code6":"303445"}},{"arcs":[[-17,55,56,57]],"type":"Polygon","properties":{"pref":"和歌山県","county":"有田郡","city":"湯浅町","code5":"30361","code6":"303615"}},{"arcs":[[-57,58,59,60,61,62]],"type":"Polygon","properties":{"pref":"和歌山県","county":"有田郡","city":"広川町","code5":"30362","code6":"303623"}},{"arcs":[[63,-34,64,-59,-56,-16,-9,-48,-53]],"type":"Polygon","properties":{"pref":"和歌山県","county":"有田郡","city":"有田川町","code5":"30366","code6":"303666"}},{"arcs":[[-21,65,66]],"type":"Polygon","properties":{"pref":"和歌山県","county":"日高郡","city":"美浜町","code5":"30381","code6":"303810"}},{"arcs":[[-22,-67,67,68,-61,69]],"type":"Polygon","properties":{"pref":"和歌山県","county":"日高郡","city":"日高町","code5":"30382","code6":"303828"}},{"arcs":[[-62,-69,70]],"type":"Polygon","properties":{"pref":"和歌山県","county":"日高郡","city":"由良町","code5":"30383","code6":"303836"}},{"arcs":[[-19,71,-32,72,73]],"type":"Polygon","properties":{"pref":"和歌山県","county":"日高郡","city":"印南町","code5":"30390","code6":"303909"}},{"arcs":[[-31,74,-73]],"type":"Polygon","properties":{"pref":"和歌山県","county":"日高郡","city":"みなべ町","code5":"30391","code6":"303917"}},{"arcs":[[-23,-70,-60,-65,-33,-72]],"type":"Polygon","properties":{"pref":"和歌山県","county":"日高郡","city":"日高川町","code5":"30392","code6":"303925"}},{"arcs":[[-27,75,76,77,-29,78]],"type":"Polygon","properties":{"pref":"和歌山県","county":"西牟婁郡","city":"白浜町","code5":"30401","code6":"304018"}},{"arcs":[[-28,-79]],"type":"Polygon","properties":{"pref":"和歌山県","county":"西牟婁郡","city":"上富田町","code5":"30404","code6":"304042"}},{"arcs":[[-77,79,80,81]],"type":"Polygon","properties":{"pref":"和歌山県","county":"西牟婁郡","city":"すさみ町","code5":"30406","code6":"304069"}},{"arcs":[[-36,82,83,84,85,86,87,88]],"type":"Polygon","properties":{"pref":"和歌山県","county":"東牟婁郡","city":"那智勝浦町","code5":"30421","code6":"304212"}},{"arcs":[[[-86,89]],[[-84,90]]],"type":"MultiPolygon","properties":{"pref":"和歌山県","county":"東牟婁郡","city":"太地町","code5":"30422","code6":"304221"}},{"arcs":[[-26,-37,-89,91,-80,-76]],"type":"Polygon","properties":{"pref":"和歌山県","county":"東牟婁郡","city":"古座川町","code5":"30424","code6":"304247"}},{"arcs":[[92]],"type":"Polygon","properties":{"pref":"和歌山県","county":"東牟婁郡","city":"北山村","code5":"30427","code6":"304271"}},{"arcs":[[[-81,-92,-88,93]],[[94]]],"type":"MultiPolygon","properties":{"pref":"和歌山県","county":"東牟婁郡","city":"串本町","code5":"30428","code6":"304280"}}]}}}