{"type":"Topology","arcs":[[[6801,2625],[19,-61],[10,-117]],[[6830,2447],[4,-19]],[[6834,2428],[-67,-31],[-65,-7],[-57,36],[-131,-13],[-13,-38],[-73,-33],[-78,-6],[-40,31],[-55,-14],[-175,108],[-42,-20],[-46,16],[-78,-27],[-16,-56],[-72,-16],[-112,-93],[-60,-15],[2,-54],[50,-64],[54,-45],[-26,-92],[18,-69],[37,-32],[-11,-94],[30,-82],[48,-4],[17,-77],[69,-40]],[[5942,1597],[-69,-39],[-26,-44],[-42,14],[-45,-12],[-63,7],[-21,25],[-63,-74],[-45,-16],[-7,-41],[-216,-57],[-45,39],[-46,7]],[[5254,1406],[-89,13],[-102,98],[-25,43],[-61,26],[-25,-32],[-57,-19],[-45,24],[-39,-31],[-55,29],[-74,17],[-116,19],[-44,40],[24,67],[59,55],[-24,41],[21,64]],[[4602,1860],[16,68],[72,33],[52,64],[-52,18],[-78,49],[-133,42],[19,60],[31,21],[-93,119],[-64,-19],[-32,29],[-70,10]],[[4270,2354],[-21,82],[33,62],[-40,70],[51,153],[8,84],[37,25],[34,57],[-30,68]],[[4342,2955],[127,1],[59,20],[41,73],[70,-114],[63,-7],[121,2],[103,13],[31,28],[83,-6],[282,41],[91,17],[144,47],[56,5],[123,30],[138,52],[78,38],[28,77]],[[5980,3272],[89,-68],[24,-85],[35,-9],[17,-57],[92,-28],[10,-36],[-30,-96],[19,-17],[-12,-81],[-26,-67],[48,-14],[38,-43],[77,-1],[55,38],[94,106],[74,0],[39,-67],[68,-2],[71,-23],[39,-97]],[[1245,2532],[-34,-139],[89,-11],[37,135]],[[1337,2517],[57,-4],[106,33],[35,73]],[[1535,2619],[27,-7],[-2,-58],[98,15],[33,-66],[63,-74],[47,-18],[-3,-46],[-49,-44],[-24,-45],[-77,4],[-48,-13],[20,-106]],[[1620,2161],[-27,-47],[-55,8],[-79,-13],[-62,52],[-72,-6],[-14,-67],[-72,-48]],[[1239,2040],[-68,14],[-22,34],[-86,-7],[-55,-67],[-23,-3]],[[985,2011],[-57,83],[39,52],[-2,94],[-62,131],[-42,34],[-151,62],[-236,198]],[[474,2665],[86,96],[102,55]],[[662,2816],[90,-92],[71,-55],[156,-73],[131,-36],[135,-28]],[[3721,2673],[64,-3],[36,-40],[-28,-179],[54,-52],[55,-17],[33,-58]],[[3935,2324],[-84,-26],[-23,15],[-38,-74],[-49,-15],[-46,-101],[-33,-44],[-20,-86],[-7,-91],[-54,-54],[-63,-7],[-56,-64],[-55,-20],[-19,-41],[-40,-8],[-57,-61],[-12,-37]],[[3279,1610],[-28,-18],[-43,56],[-113,0],[-95,51],[-68,12],[-22,-39],[-76,-10],[-61,30],[-87,78],[-92,20],[-49,-17],[-135,52]],[[2410,1825],[-14,35],[-44,10],[-46,50]],[[2306,1920],[-2,38],[130,30],[75,43],[57,11],[66,49],[30,90],[112,113],[25,9]],[[2799,2303],[59,4],[89,37],[56,39],[41,6],[168,135],[-13,35],[74,68],[81,-11],[41,-39],[63,42],[39,-58],[77,-18],[36,38],[11,111],[59,-26],[41,7]],[[474,2665],[-26,27],[-31,90],[-91,193],[12,59],[92,70],[48,17],[89,1],[73,-47],[-43,-29],[-21,-60],[49,4],[25,-54],[-37,-44],[49,-76]],[[6463,3538],[8,-38],[83,-31],[75,-55],[34,-49],[-16,-106],[25,-49],[61,0],[19,-69],[-23,-149],[-40,-70],[93,-96],[-18,-38],[55,-141],[-18,-22]],[[5980,3272],[50,5],[50,105],[99,25],[43,-22],[68,18],[3,44],[115,1],[60,36],[-5,54]],[[7159,1959],[39,-97],[-18,-78],[-26,-76],[17,-65],[51,-55],[-29,-88],[31,-105],[-166,-108],[-37,-71],[-77,-38],[11,-36],[-83,3],[-67,-56],[-105,64],[-65,12],[-48,68],[-64,-18]],[[6523,1215],[30,43],[2,148],[-63,109],[-33,-8],[-79,79]],[[6380,1586],[55,192],[56,32],[-8,91],[71,41],[55,105],[51,50],[90,21],[48,33],[23,77],[28,24],[19,126],[-34,50]],[[6830,2447],[64,-41],[55,3],[77,-50],[13,-26],[-17,-66],[25,-26],[-53,-193],[18,-34],[62,-35],[85,-20]],[[5942,1597],[23,-37],[45,-8],[34,41],[88,33],[69,3],[57,-34],[122,-9]],[[6523,1215],[-43,-19],[8,-55],[-31,-35],[-97,-57],[-72,-21],[-10,-42],[-63,-64],[-46,-14],[-78,8],[-92,-33],[-108,88],[-35,-14],[-23,-49],[-116,-22],[-58,-49],[-124,-6],[-15,-80],[-65,-43],[-53,17],[7,53],[-20,50],[-58,42],[2,69],[41,70],[11,73],[-31,42],[-73,-21],[-36,50],[41,23],[-14,42],[41,54],[-68,74],[9,60]],[[4602,1860],[-90,16],[-93,-61],[-54,28],[-81,-45],[-46,-51],[-72,3],[-20,-70],[22,-27],[-35,-70],[-97,-1],[-133,-81],[-101,-10],[16,-41],[4,-87],[-54,-26],[-62,-93],[-61,-30],[-73,25],[-16,77],[-39,35],[8,42],[-41,50],[-8,50],[-33,1],[-94,43],[-70,73]],[[3935,2324],[45,-9],[68,40],[65,-11],[122,32],[35,-22]],[[3721,2673],[46,130],[1,36]],[[3768,2839],[107,16],[110,3],[27,17],[92,-6],[71,18],[79,43],[23,-11],[65,36]],[[2306,1920],[-92,24]],[[2214,1944],[10,110],[82,8],[33,43],[-11,45],[15,79],[-42,130],[54,10],[18,60],[39,36],[16,84],[-12,99],[18,93],[4,107],[-10,39],[44,64]],[[2472,2951],[131,-17],[202,-83],[91,7],[148,-22]],[[3044,2836],[24,-55],[-20,-114],[37,-72],[-7,-27],[-68,-75],[-55,-30],[-45,-61],[-111,-99]],[[3044,2836],[198,-21],[234,1],[292,23]],[[1245,2532],[92,-15]],[[1535,2619],[20,77],[50,34],[19,43],[73,29],[64,2],[120,85],[102,32],[26,22],[55,-9],[138,31],[59,38],[118,10],[23,-35],[70,-27]],[[2214,1944],[-43,-75],[-43,-15],[-79,65]],[[2049,1919],[-33,65],[13,107],[-53,66],[-118,19],[-77,-17],[-28,10],[-111,-17],[-22,9]],[[1239,2040],[49,-42],[101,-37],[14,-59],[56,-33],[38,12],[26,-59],[-54,-61],[-45,-18],[20,-51],[-33,-16],[-115,7],[1,-51],[-23,-52],[28,-76],[-16,-27],[22,-59],[-10,-60],[-43,-10],[-94,-56]],[[1161,1292],[-21,-28],[33,-60],[-44,-69]],[[1129,1135],[-45,-25],[-35,13],[-34,65],[11,81],[-26,34],[-88,36]],[[912,1339],[-17,85],[-41,66],[39,72],[-75,109],[16,52],[2,130],[66,109],[39,-6],[44,55]],[[2049,1919],[-42,-49],[-3,-32],[-54,-79],[-18,-47],[-88,-21],[-45,-24],[-21,-41],[-62,-27],[-25,-42],[-46,-12],[-34,-63],[29,-72],[-25,-57]],[[1615,1353],[-77,-34],[-32,-47],[-60,-20],[-107,-117],[-62,-9],[-53,112],[-42,11],[-21,43]],[[1129,1135],[9,-112],[-43,-33],[-57,9],[-19,-38],[-119,-40],[-9,58],[-40,-13],[-26,-80],[32,-47],[152,-83],[30,-69],[47,-20],[51,30],[30,-34],[55,-8],[27,94],[61,-8],[43,19]],[[1353,760],[-7,-52],[27,-35],[35,-131],[32,-27],[3,-112],[-44,-43],[-86,-8],[-43,10],[-64,-29],[-61,-59],[-40,30],[-48,7],[-53,-74],[-45,-7],[-107,63],[-56,-50],[13,-159],[-73,-30],[-41,-54],[-43,37],[-37,74],[-73,25],[-66,-69],[-65,36],[-81,-9],[-104,-33],[-58,1],[-38,43],[-101,-60],[-29,60],[26,55],[-25,37],[17,72],[30,34],[-28,76],[34,40],[-7,51],[16,52],[47,58],[140,50],[40,37],[16,46],[-32,97],[-34,18],[13,47],[-20,46],[-48,39],[-99,-32],[-6,79],[157,116],[129,48],[30,-2],[71,50],[14,-18],[80,24],[44,56],[122,-10],[37,30],[50,-11],[56,15],[42,34]],[[1615,1353],[1,-27],[54,-76],[30,20],[45,-78],[-20,-15],[24,-84],[92,30],[39,34],[67,-43]],[[1947,1114],[-13,-31],[52,-48],[32,-64],[-5,-29],[44,-121],[-15,-26],[-37,1],[-14,48],[-44,16],[-50,-31],[-68,-11],[-56,-28],[-41,-44],[-102,-24],[-50,11],[-117,74],[-43,7],[-67,-54]],[[2410,1825],[-37,-45],[16,-45],[-82,-104],[4,-109],[-37,-65],[-8,-61],[16,-31],[-27,-43],[-1,-65],[-61,-87],[-47,12],[-59,-45],[-92,26],[-48,-49]]],"transform":{"scale":[0.00019086671039615375,0.00015740712193677774],"translate":[133.13641944230358,35.05767833268908]},"objects":{"japan":{"type":"GeometryCollection","geometries":[{"arcs":[[0,1,2,3,4,5,6,7,8]],"type":"Polygon","properties":{"pref":"鳥取県","city":"鳥取市","code5":"31201","code6":"312011"}},{"arcs":[[9,10,11,12,13,14,15,16]],"type":"Polygon","properties":{"pref":"鳥取県","city":"米子市","code5":"31202","code6":"312029"}},{"arcs":[[17,18,19,20,21,22]],"type":"Polygon","properties":{"pref":"鳥取県","city":"倉吉市","code5":"31203","code6":"312037"}},{"arcs":[[-16,23]],"type":"Polygon","properties":{"pref":"鳥取県","city":"境港市","code5":"31204","code6":"312045"}},{"arcs":[[24,-9,25]],"type":"Polygon","properties":{"pref":"鳥取県","county":"岩美郡","city":"岩美町","code5":"31302","code6":"313025"}},{"arcs":[[26,27,28,-2,29]],"type":"Polygon","properties":{"pref":"鳥取県","county":"八頭郡","city":"若桜町","code5":"31325","code6":"313254"}},{"arcs":[[-4,30,-28,31]],"type":"Polygon","properties":{"pref":"鳥取県","county":"八頭郡","city":"智頭町","code5":"31328","code6":"313289"}},{"arcs":[[-3,-29,-31]],"type":"Polygon","properties":{"pref":"鳥取県","county":"八頭郡","city":"八頭町","code5":"31329","code6":"313297"}},{"arcs":[[-6,32,-19,33]],"type":"Polygon","properties":{"pref":"鳥取県","county":"東伯郡","city":"三朝町","code5":"31364","code6":"313645"}},{"arcs":[[-7,-34,-18,34,35]],"type":"Polygon","properties":{"pref":"鳥取県","county":"東伯郡","city":"湯梨浜町","code5":"31370","code6":"313700"}},{"arcs":[[-22,36,37,38,39]],"type":"Polygon","properties":{"pref":"鳥取県","county":"東伯郡","city":"琴浦町","code5":"31371","code6":"313718"}},{"arcs":[[-23,-40,40,-35]],"type":"Polygon","properties":{"pref":"鳥取県","county":"東伯郡","city":"北栄町","code5":"31372","code6":"313726"}},{"arcs":[[-10,41]],"type":"Polygon","properties":{"pref":"鳥取県","county":"西伯郡","city":"日吉津村","code5":"31384","code6":"313840"}},{"arcs":[[-12,42,-38,43,44]],"type":"Polygon","properties":{"pref":"鳥取県","county":"西伯郡","city":"大山町","code5":"31386","code6":"313866"}},{"arcs":[[-14,45,46,47,48]],"type":"Polygon","properties":{"pref":"鳥取県","county":"西伯郡","city":"南部町","code5":"31389","code6":"313891"}},{"arcs":[[-13,-45,49,50,-46]],"type":"Polygon","properties":{"pref":"鳥取県","county":"西伯郡","city":"伯耆町","code5":"31390","code6":"313904"}},{"arcs":[[-48,51,52]],"type":"Polygon","properties":{"pref":"鳥取県","county":"日野郡","city":"日南町","code5":"31401","code6":"314013"}},{"arcs":[[-47,-51,53,54,-52]],"type":"Polygon","properties":{"pref":"鳥取県","county":"日野郡","city":"日野町","code5":"31402","code6":"314021"}},{"arcs":[[-21,55,-54,-50,-44,-37]],"type":"Polygon","properties":{"pref":"鳥取県","county":"日野郡","city":"江府町","code5":"31403","code6":"314030"}}]}}}