{"type":"Topology","arcs":[[[8260,7918],[-89,-1],[-48,-16],[-92,-71],[-12,-58],[91,-194],[31,-90]],[[8141,7488],[-114,-95],[-79,-35],[12,-104],[20,-76],[-49,-81],[-19,-132],[-51,-58],[-93,-39],[-63,-40],[-7,-34],[-90,-75],[-63,-5],[-92,-63],[-41,-63],[-93,-63]],[[7319,6525],[-61,63],[-44,86],[0,48],[25,41],[-9,46],[-69,3],[-69,25],[-55,-3],[-27,-72],[-44,16],[-111,14],[-18,-12],[-110,19],[-53,27],[-73,-17],[-13,-47],[-90,62],[-26,-34],[-105,20]],[[6367,6810],[8,36],[-44,43],[1,80],[58,20],[41,58],[182,144],[21,68],[-114,125],[-37,154],[7,65],[-19,79]],[[6471,7682],[47,9],[44,32],[25,-15],[112,0],[42,14],[53,-22],[50,30],[0,52],[-31,9],[17,99],[40,-25],[21,36],[78,-17],[60,-38],[107,21],[-7,58],[26,36],[56,-14],[85,86],[-13,75],[55,31],[85,-25],[40,28],[21,94],[94,-33],[4,-42],[36,-57],[41,-7],[45,-60],[14,-44],[50,-8],[48,21],[163,14],[-21,80],[29,15],[31,-66],[65,-16],[25,18],[10,65],[42,-30],[100,-33],[38,33],[56,-4],[26,24],[103,-27],[32,15],[117,-45],[17,-45],[-66,-26],[-47,2],[-170,-20],[-106,-42]],[[3354,3770],[10,-59],[84,-57],[68,-104],[62,-23],[77,28],[79,-30],[17,-58],[48,-80],[-14,-22],[0,-83],[-37,-54],[-2,-101]],[[3746,3127],[-52,40],[-109,-20],[-29,-29],[-68,-22],[-47,16],[-47,57],[-52,-52],[-38,-103],[-48,8],[-52,38],[-5,84],[-99,59],[-89,-1],[1,-146],[-85,-121],[-22,-95],[-66,-30],[-34,25],[-40,-28],[4,-38],[-62,-30],[-36,18],[-34,-44],[-148,-87],[-8,-38],[-57,-13]],[[2424,2575],[-50,44],[-35,-19],[-39,44],[-76,-40],[-46,-47],[-74,8],[-125,72],[-55,-8],[15,-65],[-44,-3],[-47,-32],[-61,83],[-108,11],[-75,-2],[-38,32],[-48,0],[-52,23],[-15,82],[-55,-5],[-29,81],[-82,34],[-83,18],[-18,35]],[[1184,2921],[17,84],[90,-10],[12,60],[45,-7],[37,32],[76,35],[50,130],[85,62],[18,-13],[69,42],[24,84],[75,40],[38,75],[-39,40],[31,31],[88,30],[28,45],[44,-63],[65,6],[-13,63],[17,38],[41,21],[-10,76],[107,154],[49,39],[33,-12],[47,46],[-18,35],[30,32],[89,31],[86,55]],[[2495,4202],[-5,-38],[30,-72],[42,30],[37,-30],[77,8],[44,42],[37,-42],[-19,-120],[128,-68],[67,2],[7,49],[65,64],[36,-38],[13,-71],[39,-4],[25,-48],[-26,-48],[31,-24],[52,3],[15,49],[59,1],[67,-68],[38,-9]],[[6367,6810],[-95,-128],[19,-44],[-30,-48],[45,-54],[-44,-61],[-120,-19],[-18,-32],[29,-98],[-96,7],[-61,-13],[11,-53],[-49,-7],[-54,-58],[-13,-65],[-30,-40],[35,-54],[-6,-47],[-41,-18],[-43,-85],[-65,-30],[-6,-55],[20,-33],[-17,-84],[-34,-11],[-38,-89],[-42,-1],[-38,-89],[-88,18],[-40,-62],[-48,0]],[[5410,5457],[-55,3],[-11,54],[-71,25],[-43,-26]],[[5230,5513],[0,97],[-35,88],[-69,70],[-41,-51],[-41,-2],[-117,96],[-42,-1],[-55,68],[-53,40],[25,76],[-19,26],[-9,89],[-20,49]],[[4754,6158],[118,27],[92,30],[68,44],[77,89],[67,108],[34,77],[47,152],[17,110],[0,96],[-16,84],[-141,99],[-115,15],[5,42],[56,42],[57,7],[2,31],[67,44],[51,-1],[87,46],[87,-20],[40,-46],[69,35],[163,4],[20,54],[-134,85],[83,18],[33,28],[136,14],[108,31],[32,59],[33,25],[69,3],[27,48],[57,-11],[75,44],[179,4],[67,7]],[[2424,2575],[7,-36],[66,-53],[68,-8],[18,-29],[-29,-71],[-80,-144],[-30,-58],[-41,-38],[22,-35],[-72,-141],[18,-69],[48,-33],[-22,-78],[-40,-31],[6,-36],[-28,-63],[-71,-48],[-85,-112],[-41,-4],[-122,-42],[-26,-56],[-4,-57],[-56,-71],[83,-15],[39,-42],[-12,-36],[59,-120],[-71,0]],[[2028,1049],[-28,42],[-49,6],[-127,-51],[-45,-48],[-7,-38],[-55,-21],[-25,53],[21,32],[1,58],[-58,12],[-55,-22],[-34,41]],[[1567,1113],[18,37],[-26,48],[3,90],[-47,70],[-32,0],[-44,-51],[-112,25],[-8,27],[-77,52],[16,68],[-18,37],[40,85],[36,7],[35,50],[-61,73],[39,28],[-51,40],[-46,-11],[-5,98],[-42,10],[-48,-34],[-31,17],[-45,-29],[-25,-58],[-14,-80],[-52,18],[-49,-8],[-65,29],[-29,33],[-57,-25],[-42,43],[-97,-3],[-113,-53],[-44,-57],[-51,3],[-57,-50],[-70,69]],[[296,1711],[-19,64],[-21,152],[8,47],[-61,-3],[-62,50],[18,70],[3,109],[-47,90],[-29,26],[33,88],[1,-25],[74,-28],[182,12],[119,28],[110,44],[143,39],[94,47],[107,75],[37,58],[44,28],[35,59],[-10,72],[-25,63],[59,28],[54,-20],[41,37]],[[5230,5513],[-66,-62],[-25,-73],[-58,-16],[-32,-33],[8,-42],[97,-72],[22,-37],[84,-2],[-44,-66],[25,-29],[-51,-78]],[[5190,5003],[-89,19],[-58,32],[-43,-48],[-65,15],[28,84],[-51,62],[-54,-17],[-34,42],[-58,-15],[-99,4],[-59,28],[-121,-103],[0,-21],[-127,-53],[-44,27],[-92,-153],[58,-72],[-9,-34]],[[4273,4800],[-46,-59],[-11,-85],[-78,-62],[-3,-58],[-60,43],[-48,-35],[-75,12],[-69,-8],[-38,-45],[-71,-17],[-25,-66]],[[3749,4420],[-25,42],[-55,13],[-39,95],[15,71],[-31,16],[-8,52],[-64,44],[-26,-12],[-45,34],[-36,-16],[-50,79]],[[3385,4838],[20,55],[44,14],[-5,93],[60,75],[87,31],[64,53],[-10,32],[134,76],[4,91],[16,56],[59,33],[-7,61],[100,87],[-4,36],[58,11],[96,53],[76,64],[13,52],[80,21],[80,44],[51,57],[102,35],[0,44],[86,66],[150,65],[13,17],[0,0],[2,-1],[0,-1],[0,0]],[[8166,7461],[237,-198],[150,-61],[42,-35],[62,-131],[3,-93],[-39,-52],[57,-83],[-45,-56],[-38,6],[-66,-108],[-3,-131],[-15,-51],[75,-110],[-39,-71],[41,-66],[16,-86],[-41,-33],[-56,-15],[-50,10],[-37,-29],[-122,9],[-45,-56],[-80,-23],[-13,17],[-71,-49],[-30,2],[-129,-49],[-157,-116]],[[7773,5803],[-42,-30],[-108,-13],[-83,32],[-23,54],[31,84],[-45,26],[-43,63],[-98,-2]],[[7362,6017],[-14,36],[13,53],[-41,94],[7,77],[-20,10],[12,238]],[[8141,7488],[25,-27]],[[2495,4202],[55,79],[74,37],[106,76],[33,47],[159,149],[55,60],[85,22],[87,8],[181,87],[55,71]],[[3749,4420],[24,-32],[28,-95],[104,-36],[64,25],[15,-48],[48,-27],[82,-3],[44,-48],[18,-52]],[[4176,4104],[-32,9],[-96,-29],[-29,-29],[-34,-86],[-87,4],[-73,58],[-74,-9],[-28,35],[-55,-5],[-16,-46],[-97,-83],[-120,-21],[-70,-52],[-11,-80]],[[7362,6017],[-139,-33],[-80,27],[-20,-20],[-230,25],[-130,-23],[21,-49],[-6,-82],[-56,-76],[1,-48],[-43,-32],[1,-77],[24,-49],[-20,-39],[23,-81],[-14,-36],[-102,-50],[-56,8],[-23,25],[-68,-45],[8,-47],[57,-39],[-10,-36],[-60,-27],[-24,-115]],[[6416,5098],[-48,-1],[-117,-59],[-8,-21]],[[6243,5017],[-94,115],[-45,-38],[-102,2],[-20,164],[-103,0],[-87,-58],[-22,-58],[-62,7],[-21,26],[-44,-29],[-32,55],[-69,27],[-61,-9],[8,46],[-25,21],[1,53],[-43,33],[-12,83]],[[7773,5803],[6,-78],[99,31],[47,-38],[20,-47],[-13,-46],[34,-19],[33,-97],[-16,-45],[-40,-37],[-140,-51],[-48,-58],[-16,-51],[7,-51],[-33,-41],[28,-76],[-30,-34],[-17,-71],[24,-38],[-25,-54],[-52,17],[-23,45],[-57,10],[-24,-21],[-55,20],[-57,-46],[-72,26],[-61,-8],[-40,-69],[-101,-12],[-48,60],[-39,4],[-9,59],[-76,61],[-93,2],[-39,-91],[-144,-48],[-73,52],[-36,-18],[-90,33],[-35,66],[-53,54]],[[6243,5017],[-72,-74],[-35,-65],[-60,-59],[53,-65],[-127,-66],[-25,-76],[-83,-56],[-32,-41],[5,-54],[-95,-46],[-15,-41],[9,-46],[-66,-42],[-33,-108],[-48,5],[-68,-30],[-38,-53],[-73,43],[-112,-27]],[[5328,4116],[-17,58],[8,47],[-70,-18],[-69,29],[1,80],[57,68],[-24,19],[5,86],[54,14],[16,34],[93,82],[29,-28],[68,-14],[17,69],[-24,31],[31,74],[-5,45],[-67,1],[-31,52],[-56,50],[-94,36],[-60,72]],[[4273,4800],[91,-37],[-3,-76],[-34,-42],[61,-32],[-22,-27],[89,-96],[28,-1],[0,-85],[34,-50],[112,53],[66,-18],[0,-51],[29,-33],[11,-79]],[[4735,4226],[-55,-43],[7,-57],[-51,-25],[-6,61],[-58,26],[-68,-8],[-41,-28],[7,-51],[-28,-38],[-66,5],[-45,45],[-76,-27],[-79,18]],[[5328,4116],[-48,-113],[-46,-12],[-33,-48],[-50,-22],[-52,-102],[-38,6]],[[5061,3825],[-6,81],[-44,18],[-44,66],[-54,10],[-70,-33],[0,72],[-47,20],[-61,167]],[[5061,3825],[17,-39],[73,13],[67,-69],[55,30],[37,-65],[96,-13],[11,-15],[45,-191],[-87,-40],[-23,43],[-76,-17],[-40,-97],[-40,0],[-65,49],[-23,-15],[-62,35],[-61,2],[-177,-130],[-29,-45],[-62,-33],[-2,-27],[-73,11],[-84,-84],[-92,55],[-80,-49],[-53,35],[-60,-27],[-61,32],[-32,-4],[-108,74],[-45,49],[-35,-43],[-46,-16],[18,-80],[-53,-12],[-83,-88],[-59,-4],[-32,20],[9,57]],[[1567,1113],[-93,-43],[-48,-53],[-78,38],[-43,50],[-51,-48],[-199,68],[-61,31],[-43,-4],[-8,-59],[-42,6],[-16,-65],[-36,-59],[-57,-2],[-104,-53],[-29,-71]],[[659,849],[-38,-11],[-132,-5],[-49,33],[-74,-66],[-43,26],[-88,-26],[-99,95],[27,51],[-27,90],[32,57],[-21,39],[-66,-15],[-6,61],[-36,82],[-39,20],[55,81],[88,44],[60,59],[-30,114],[26,79],[38,-4],[36,61],[23,-3]],[[2028,1049],[-84,7],[-22,-35],[-61,-14],[-41,-58],[4,-92],[-98,-62],[-40,-88],[40,-43],[15,-63],[69,-97],[-7,-92],[-58,-8],[-34,-29],[-26,-59],[-31,-9],[-43,-86],[-27,-87],[-50,-19],[14,-45],[-25,-46],[-87,120],[-76,59],[-66,6],[-9,-33],[-70,-71],[-49,33],[-34,-19],[12,-49],[-26,-32],[-110,-25],[-138,41],[-14,-54],[-78,48],[-53,14],[-52,41],[-2,49],[-42,14],[-70,56],[25,44],[-8,57],[-37,17],[-25,55],[6,64],[-20,39],[49,40],[10,48],[53,32],[11,79],[33,64],[3,88]],[[7568,11546],[48,-31],[74,-84],[-49,-27],[6,-46],[-45,-58],[95,18],[-30,-69],[-83,36],[1,-81],[-40,-10],[-59,-98],[-48,-20],[-52,-58],[-50,31],[22,62],[-11,48],[45,85],[-77,162],[92,34],[-2,43],[47,4],[19,40],[55,-2],[42,21]],[[7341,11689],[46,0],[67,-54],[-52,-85],[-82,-39],[-120,-24],[-15,-30],[28,-70],[27,6],[36,-82],[-34,-27],[4,-82],[-70,-23],[-82,10],[-56,72],[-31,96],[-76,11],[-9,-44],[-66,-12],[88,-169],[-3,-29],[40,-52],[-55,-6],[-21,38],[-59,23],[-8,30],[-101,21],[-42,27],[24,50],[-17,44],[68,78],[63,102],[72,52],[107,-27],[33,22],[-2,129],[39,-8],[57,20],[64,-22],[21,-31],[44,3],[73,82]],[[6998,10992],[165,-27],[49,-63],[91,-53],[20,-92],[-125,79],[-114,-15],[-57,-26],[-9,108],[-35,52],[15,37]],[[8440,12999],[22,-5],[24,-73],[48,-54],[101,-28],[67,-93],[31,21],[25,-51],[86,-86],[38,-14],[33,-47],[49,-30],[32,-57],[-66,-105],[27,-129],[-30,-51],[-10,-101],[-81,-26],[-13,-33],[-55,19],[41,41],[-23,53],[-53,-79],[-113,10],[8,-32],[109,-14],[18,-175],[-72,-14],[-130,59],[-63,-15],[-63,45],[7,-75],[-225,-4],[19,91],[33,44],[-109,-11],[-81,61],[-5,75],[-117,31],[-9,57],[37,44],[10,94],[-23,25],[-55,2],[-6,40],[51,73],[9,92],[43,100],[75,20],[-2,63],[76,17],[37,37],[-30,25],[40,35],[72,36],[47,-45],[37,4],[87,80],[-5,53]]],"transform":{"scale":[0.0001908887578140556,0.00015741768565113304],"translate":[131.66796972842042,34.30261527877224]},"objects":{"japan":{"type":"GeometryCollection","geometries":[{"arcs":[[0,1,2,3,4]],"type":"Polygon","properties":{"pref":"島根県","city":"松江市","code5":"32201","code6":"322016"}},{"arcs":[[5,6,7,8,9]],"type":"Polygon","properties":{"pref":"島根県","city":"浜田市","code5":"32202","code6":"322024"}},{"arcs":[[-4,10,11,12,13]],"type":"Polygon","properties":{"pref":"島根県","city":"出雲市","code5":"32203","code6":"322032"}},{"arcs":[[-8,14,15,16,17]],"type":"Polygon","properties":{"pref":"島根県","city":"益田市","code5":"32204","code6":"322041"}},{"arcs":[[-13,18,19,20,21,22]],"type":"Polygon","properties":{"pref":"島根県","city":"大田市","code5":"32205","code6":"322059"}},{"arcs":[[23,24,25,-2,26]],"type":"Polygon","properties":{"pref":"島根県","city":"安来市","code5":"32206","code6":"322067"}},{"arcs":[[-10,27,-22,28,29]],"type":"Polygon","properties":{"pref":"島根県","city":"江津市","code5":"32207","code6":"322075"}},{"arcs":[[-3,-26,30,31,32,-11]],"type":"Polygon","properties":{"pref":"島根県","city":"雲南市","code5":"32209","code6":"322091"}},{"arcs":[[33,-31,-25]],"type":"Polygon","properties":{"pref":"島根県","county":"仁多郡","city":"奥出雲町","code5":"32343","code6":"323438"}},{"arcs":[[-12,-33,34,35,-19]],"type":"Polygon","properties":{"pref":"島根県","county":"飯石郡","city":"飯南町","code5":"32386","code6":"323861"}},{"arcs":[[-21,36,37,-29]],"type":"Polygon","properties":{"pref":"島根県","county":"邑智郡","city":"川本町","code5":"32441","code6":"324418"}},{"arcs":[[-20,-36,38,39,-37]],"type":"Polygon","properties":{"pref":"島根県","county":"邑智郡","city":"美郷町","code5":"32448","code6":"324485"}},{"arcs":[[-6,-30,-38,-40,40]],"type":"Polygon","properties":{"pref":"島根県","county":"邑智郡","city":"邑南町","code5":"32449","code6":"324493"}},{"arcs":[[-17,41,42]],"type":"Polygon","properties":{"pref":"島根県","county":"鹿足郡","city":"津和野町","code5":"32501","code6":"325015"}},{"arcs":[[-16,43,-42]],"type":"Polygon","properties":{"pref":"島根県","county":"鹿足郡","city":"吉賀町","code5":"32505","code6":"325058"}},{"arcs":[[44]],"type":"Polygon","properties":{"pref":"島根県","county":"隠岐郡","city":"海士町","code5":"32525","code6":"325252"}},{"arcs":[[45]],"type":"Polygon","properties":{"pref":"島根県","county":"隠岐郡","city":"西ノ島町","code5":"32526","code6":"325261"}},{"arcs":[[46]],"type":"Polygon","properties":{"pref":"島根県","county":"隠岐郡","city":"知夫村","code5":"32527","code6":"325279"}},{"arcs":[[47]],"type":"Polygon","properties":{"pref":"島根県","county":"隠岐郡","city":"隠岐の島町","code5":"32528","code6":"325287"}}]}}}