{"type":"Topology","arcs":[[[4587,3778],[102,54],[101,17],[10,-31],[77,-48],[23,-71],[-51,-39],[49,-165],[-18,-55],[-44,-24]],[[4836,3416],[-104,-70],[-42,-47],[6,-39],[-84,-15],[-20,-25],[31,-89],[32,-27],[50,10],[81,-27],[32,-49],[87,80]],[[4905,3118],[46,-96],[-7,-108],[-84,-117],[-60,-21],[49,-58],[12,-62],[-49,-31],[-70,-13],[77,-168],[87,9],[39,-49],[60,-39],[35,-74],[107,-14]],[[5147,2277],[0,-82],[31,-106],[3,-77],[-47,-8],[-29,-115],[17,-51],[63,1],[48,-33],[-2,-56],[41,-48],[-8,-68]],[[5264,1634],[-111,109],[-75,-5],[-25,28],[-101,6],[-120,26],[-109,-60],[-26,-55],[-47,-28],[22,-140],[28,-77],[33,-20],[-34,-49],[-62,47],[-46,10],[-43,-1],[-43,27],[-56,-34],[-30,43],[-9,54],[-52,77],[-28,26],[35,39],[-20,40],[-48,-4],[-7,103],[-60,-23],[-22,120],[21,44],[-96,37],[-47,123],[5,117],[-59,50],[4,-90],[-17,-20],[0,-85],[-115,24],[-23,-46],[156,-61],[53,-208],[-104,4],[-102,22],[-132,49],[12,471],[-125,-2],[-3,-109],[-56,1],[1,-56],[-119,3],[1,56],[56,22],[0,37],[-60,-7],[-97,27],[-12,-35],[-78,-51],[23,-37],[-31,-50],[-57,13],[-20,-38],[-58,9],[-52,-13],[-51,-94],[-68,36],[-67,-3]],[[2891,2033],[-4,62],[38,52],[53,18],[79,53],[2,62],[52,18],[98,197],[71,60],[-54,30],[44,96],[-70,35],[-26,92],[-117,97],[2,18]],[[3059,2923],[78,33],[91,91],[55,40],[-91,102],[-15,92],[-31,90],[4,148],[-15,43]],[[3135,3562],[28,22],[87,28],[34,-15],[81,50],[66,-6],[17,53],[88,61],[25,-28],[61,57],[37,13],[30,-53],[72,-11],[49,-27],[52,9],[53,-88],[37,-13],[4,-70],[-12,-97],[41,-90],[68,23],[59,-22],[97,95],[-51,30],[57,78],[40,18],[70,-34],[22,30],[62,13],[66,-23],[43,-33],[49,16],[-1,137],[21,93]],[[3584,2128],[-8,-156],[-20,-19],[-105,2],[2,150],[47,22],[84,1]],[[4243,1368],[27,-42],[91,-8],[-4,-49],[-38,-31],[-52,10],[-34,74],[10,46]],[[4892,1307],[-50,-82],[-31,54],[81,28]],[[6552,10476],[120,-27],[34,-45],[56,-3],[65,50],[73,-39],[44,36],[50,-5],[40,53],[100,-42],[42,-72],[97,-82],[-3,-27],[73,-50],[79,-8],[36,21],[30,-35],[18,-42],[-32,-56],[40,-59],[72,-62],[-67,-89],[23,-69],[-69,-37],[60,-83],[119,34],[51,-69],[-17,-26],[-1,-94],[-67,-113],[-3,-114],[59,-29],[35,-40],[34,-82],[-12,-87]],[[7731,9084],[-20,-24],[-127,-24],[-41,-47],[-39,-1],[17,-60],[3,-163],[-39,-116],[-12,-73],[-31,-59],[-21,-149]],[[7421,8368],[-108,-108],[-6,-29],[-78,-65],[-42,-1],[-26,-141],[36,-30],[0,-66],[-26,-107],[-35,-1],[-55,40],[-77,-35],[14,-31],[-1,-84],[-21,-45],[3,-100],[18,-69]],[[7017,7496],[-66,61],[-50,-27],[-85,-19],[-27,40],[-99,16],[-39,-53],[-66,-55],[-10,-27],[65,-114],[-75,-3],[-58,40],[-68,4],[-58,92],[-48,5],[-61,81],[-78,34],[-98,-68],[-53,-90],[-70,4],[-41,-28],[-55,-1],[-32,95],[20,55],[-1,58],[39,66],[20,100],[-35,66],[-38,3],[11,-80],[-123,-24],[-35,-33],[50,-27],[7,-63],[-27,-72],[-50,-58],[12,-30],[-87,-50],[-8,-57],[-78,-58],[-7,-45],[-81,-64],[-36,-43],[-90,100],[-64,-18],[-8,74],[-41,87],[20,45],[45,22],[-5,89],[-17,46],[2,103],[-24,59],[-83,-2],[-31,-27],[-64,10],[-94,-27],[-65,100],[-79,-29]],[[4800,7759],[-29,23],[14,123],[-17,81],[56,115],[56,51],[3,49],[-32,12],[39,109],[78,30]],[[4968,8352],[84,38],[35,-1],[72,-34],[38,-97],[11,-73],[57,-50],[80,4],[55,-13],[74,-53],[71,-77],[75,-44],[136,-1],[21,59],[35,23],[-6,147],[46,28],[16,75],[50,37],[-5,45],[66,42],[15,44],[-20,48],[46,83],[6,142],[54,60],[-8,80],[36,87],[49,21],[28,49],[8,64],[66,66],[19,242],[-12,174],[39,72],[95,62],[-72,103],[15,44],[-38,39],[-10,71],[42,13],[43,76],[58,27],[43,74],[-11,84],[-27,21],[10,62],[58,66],[41,95]],[[5147,2277],[70,36],[5,22],[97,7],[-15,137],[73,52],[33,-1],[44,-61],[150,83],[99,186],[64,142],[108,-62],[42,0],[48,-44],[37,-80],[42,-10],[53,23],[46,75],[-2,54],[42,56],[73,0],[124,-27],[37,29],[74,-26],[50,33],[46,-48]],[[6587,2853],[-42,-99],[-1,-80],[-67,-77],[-16,-53],[-37,17],[-4,51],[-44,0],[-49,-53],[-24,-6],[-50,-121],[5,-52],[-1,-1],[18,-77],[-38,-27],[-52,129],[-85,24],[-65,-30],[-90,-77],[25,-43],[-18,-96],[-33,-36],[72,-115],[-31,-31],[-71,8],[-64,-99],[-63,-22],[10,-59],[-42,-23],[54,-79],[22,-108],[-53,-10],[-29,-29],[-45,48],[-29,-7],[23,-46],[-73,-13],[-101,22],[-77,54],[-158,-3]],[[6498,2155],[-38,-36],[-4,-54],[-60,-21],[-38,20],[36,52],[55,41],[49,-2]],[[2603,2970],[9,-28],[-41,-51],[-7,-48],[-37,-46],[9,-64],[-26,-67],[-70,-62],[-90,6],[29,-56],[-6,-93],[53,-86]],[[2426,2375],[-27,-54],[4,-37],[-24,-80],[-52,-29],[-70,-125],[138,-46],[124,13]],[[2519,2017],[22,-63],[41,-13],[9,-66],[41,-124],[-2,-22]],[[2630,1729],[-111,24],[-58,-40],[-114,-31],[-80,90],[-13,73],[-39,-20],[-57,41],[-31,114],[-55,74],[-72,29],[74,-97],[86,-137],[7,-45],[65,-20],[9,-30],[-28,-106],[24,-44],[-29,-28],[-84,-22],[-62,28],[-53,-1],[-51,-78],[-29,-21],[-22,-13],[-96,25],[-42,43],[26,48],[54,20],[68,62],[-53,50],[-34,-11],[-149,-96],[-55,0],[1,167],[-11,71],[-51,2],[-20,28],[-9,29],[25,58],[57,66],[8,54],[-25,69],[-73,-9],[2,40],[34,36],[-16,65],[27,77],[30,35],[-5,50],[-39,50],[6,32]],[[1567,2530],[60,12],[30,-36],[44,40],[105,28],[41,46],[53,19],[14,35],[129,69],[-8,88],[9,79],[41,33],[0,60],[21,32],[99,14],[48,74]],[[2253,3123],[133,37],[63,-37],[26,-63],[49,-15],[24,-56],[55,-19]],[[2518,730],[-14,-32],[-93,21],[-18,-26],[-84,77],[-32,-6],[-35,55],[-28,3],[-73,54],[24,57],[38,21],[34,-37],[83,82],[4,56],[62,10],[43,-60],[5,-90],[-49,-79],[2,-30],[106,-20],[25,-56]],[[2213,1213],[8,-54],[-18,-55],[18,-74],[-46,-13],[-56,-82],[-42,44],[5,28],[-37,72],[6,32],[110,19],[24,75],[28,8]],[[2654,517],[-28,-18],[-49,33],[65,54],[52,4],[7,55],[45,18],[37,-50],[-55,-5],[-33,-75],[-41,-16]],[[2105,1409],[35,-26],[-39,-69],[-63,-18],[-39,19],[60,75],[46,19]],[[2075,406],[-18,-34],[-80,48],[15,55],[67,-7],[16,-62]],[[2332,98],[13,-14],[-34,-84],[-67,5],[-19,51],[107,42]],[[1567,2530],[-27,87],[-2,55],[-49,30],[-45,67],[-72,35],[7,27],[-38,73],[0,71],[-21,18],[-68,-3],[-60,24],[-75,59],[9,30],[-19,79],[-45,69],[-50,50],[1,89],[60,60],[-41,55],[11,73],[29,62],[40,29],[0,39],[54,117],[-12,73],[-136,36],[8,82],[-32,49],[-73,55],[-10,131],[-21,40],[-13,122],[-65,38],[-6,77],[33,62],[43,43]],[[882,4633],[7,-27],[120,15],[28,-56],[54,-35],[33,9],[54,-24],[1,-46],[49,-30],[26,-129],[51,-40],[36,-94],[31,-47],[58,-2],[39,-59],[31,5],[44,-52],[132,-21],[90,64],[24,-17],[45,43],[79,34],[90,-10],[31,55],[-12,39],[50,46],[77,11],[68,36],[40,52],[-33,58],[-44,30],[-6,74],[56,62],[81,35],[90,-32],[58,11],[47,-23],[-38,-60],[6,-43],[51,-57],[92,-37],[26,18],[59,-21]],[[2703,4368],[11,-47],[36,-49],[60,30],[50,-42],[73,-28]],[[2933,4232],[-135,-82],[10,-119],[-93,-76],[-58,21],[-50,-23],[8,-48],[-17,-51],[-72,-109],[12,-77],[-13,-58],[-62,-34],[-38,41],[-47,15],[-113,-31],[48,-47],[-10,-53],[18,-37],[-32,-26],[-62,26],[-65,-28],[30,-55],[43,-26],[44,-147],[-40,-31],[14,-54]],[[4061,4878],[-1,-69],[82,-142],[58,16],[51,-9],[2,-34],[50,-38],[38,5],[75,-63],[81,-50],[46,-84],[31,-127],[-12,-54],[-126,-69],[30,-36],[39,28],[59,-84],[33,-12],[15,-48],[-25,-58],[-48,-23],[13,-107],[35,-42]],[[3135,3562],[-83,75],[9,95],[-54,47],[-20,215],[69,24],[40,112],[-17,61],[-44,-4],[-15,44],[-87,1]],[[2703,4368],[36,64],[47,4],[74,93],[31,8],[55,71],[101,85],[-13,36],[35,53],[43,27],[58,-28],[88,74],[19,93],[54,63],[55,7]],[[3386,5018],[44,-85],[68,-74],[42,-112],[5,-43],[78,-64],[23,108],[113,66],[67,13],[-2,33],[57,34],[7,59],[80,-13],[-7,-27],[100,-35]],[[882,4633],[-32,103],[-35,11],[46,59],[-22,61],[23,75],[43,60],[-22,101],[67,76],[4,118],[-30,58],[-52,10],[-5,43],[-78,7],[-20,71],[-30,43],[-93,-4],[-52,47],[-30,62],[24,40],[-56,89],[15,30]],[[547,5793],[153,200],[42,24],[42,-29],[134,-4],[163,-46],[54,55],[46,-13],[62,63],[26,-33],[89,101],[22,-34],[84,-19],[37,29],[24,-51],[57,-53],[119,27],[30,27],[8,51],[29,16],[26,-78],[68,-65],[48,31],[53,-9],[115,-51],[45,-35],[63,39],[39,76],[82,-1],[67,52],[83,3],[75,49],[68,115],[-69,163],[30,35],[60,124],[81,24],[38,-15],[34,71],[-47,64],[-4,44],[47,10],[10,35],[88,18]],[[2868,6803],[23,-68],[80,-136],[34,-12],[8,-77],[26,-94],[3,-91],[-17,-71],[113,39],[9,57],[139,60],[4,89],[-17,81],[-30,33],[28,63],[87,-26],[119,50],[35,78],[40,16],[62,-48],[62,16],[65,50],[23,63],[99,-46]],[[3863,6829],[-24,-30],[41,-73],[12,-125],[-55,-92],[-16,-50],[47,-116],[-51,-38],[-39,-64],[-20,-64],[-94,-15],[-60,-47],[-46,-55],[8,-36],[-79,2],[-84,-43],[-6,-58],[17,-41],[-87,-143],[-57,-36],[-29,-80],[-34,-37],[8,-71],[39,-15],[22,-46],[-7,-97],[75,-101],[36,-87],[-14,-29],[29,-70],[-9,-54]],[[19,7895],[30,21],[37,67],[56,-2],[63,52],[-17,37],[16,103],[-21,120],[23,47],[70,35],[32,-44],[47,-1],[96,-58],[74,12],[37,65],[50,55],[78,-10],[65,-50],[30,14],[71,84],[104,47],[71,-16],[140,12],[21,39],[52,32],[7,129],[-12,55],[-53,43],[-5,60],[-36,48],[4,54],[-19,53],[-45,58],[31,35],[-20,51],[13,34],[57,16],[40,39],[70,-12],[45,-39],[12,-51],[51,13],[85,-45],[82,-18],[77,19],[28,48],[61,-27],[53,36],[15,35],[66,5],[25,41],[112,19],[16,43],[66,8],[21,-31],[50,4],[24,-79],[60,0]],[[2225,9200],[31,-59],[43,-8],[6,-62],[49,-26],[3,-49],[-49,-58],[24,-66],[81,-10],[52,11],[23,-29],[97,3]],[[2585,8847],[80,-45],[119,-85],[-43,-93],[-21,-121],[-32,-40],[-37,-2],[-13,-125],[17,-95],[60,-40],[53,-79],[1,-73],[-22,-40],[8,-55],[-23,-89],[48,-70],[-61,-89],[2,-85],[39,-28],[-8,-42],[110,-42],[-5,-55],[-51,-77],[-56,-27],[-26,-93],[54,-37],[36,74],[44,-9],[69,-49],[-8,-66],[-48,-20],[96,-64],[57,-77],[-8,-36],[29,-79],[-51,1],[-71,-27],[-16,-45],[-39,-20]],[[547,5793],[-65,34],[8,54],[-62,29],[-21,59],[-42,12],[-32,84],[-40,25],[-26,51],[-19,153],[15,57],[46,37],[15,90],[-24,75],[65,85],[-12,42],[-85,124],[-8,31],[66,94],[-16,74],[67,27],[21,56],[53,33],[19,49],[-21,108],[17,56],[-14,52],[-33,39],[-92,29],[-17,57],[-53,43],[-9,49],[-41,68],[-50,49],[-92,45],[-9,29],[-56,48],[19,55]],[[8831,5398],[101,-74],[-9,-24],[42,-64],[44,1],[1,-56],[23,-94],[-29,-75],[64,-70],[55,-1],[44,-55],[-15,-33],[-99,-42],[-26,-57],[-16,-126],[-31,-60],[67,-32],[8,-139],[-18,64],[-39,43],[-146,45],[-107,-26],[-18,-40],[-69,45],[7,-66],[-44,-20],[-22,-74],[-145,-8],[-66,-33],[-22,33],[-81,44],[3,37],[-31,54],[-178,-14],[-92,29],[-88,51],[-10,49],[-57,-59],[89,-32],[50,-41],[81,-31],[-4,-42],[-90,-27],[31,-52],[59,20],[23,-79],[56,6],[55,-16],[80,65]],[[8262,4322],[20,-82],[-86,-41],[-82,15],[-77,-28],[-155,-128],[-90,-48],[-107,-5],[-3,80],[-23,98],[19,75],[34,63],[-101,66],[-44,48],[-38,2],[-67,-77],[-68,-13],[-83,-121],[-95,74],[26,59],[5,94],[-76,-7]],[[7171,4446],[34,160],[43,41],[73,17],[24,55]],[[7345,4719],[28,45],[60,17],[82,78],[36,5]],[[7551,4864],[24,-53],[50,-23],[187,10],[43,49],[37,-22],[51,4],[81,39],[-36,93],[-55,29],[52,49],[22,77],[-63,39],[-15,58],[53,110],[4,54],[68,59],[41,88],[17,71],[33,24],[-63,48],[21,57],[-38,69],[-138,31],[-22,25],[-65,-18],[36,138],[32,19],[60,82],[16,88]],[[7984,6158],[23,34],[-40,73],[16,33],[-17,68],[14,41],[49,0],[27,-46],[57,-1],[103,-33],[21,32],[-23,51],[27,19],[-4,68],[30,5],[52,58],[-3,82],[47,8],[43,34],[-17,58],[53,23],[33,-34]],[[8475,6731],[-4,-72],[54,-48],[25,33],[88,-53],[25,-30],[-11,-56],[30,-27],[53,-7],[-4,-42],[29,-43],[66,-56],[-8,-49],[-43,-53],[-97,-27],[-73,-63],[-16,-60],[-44,-14],[41,-68],[-59,-85],[-53,-108],[4,-80],[55,-24],[32,-100],[-25,-65],[39,-57],[147,43],[43,-29],[-4,-56],[66,-37]],[[8854,4483],[109,-31],[63,-116],[40,-21],[75,93],[61,-35],[70,-120],[-36,-18],[-51,50],[-43,-29],[-40,39],[-36,-40],[-14,-54],[-71,4],[-55,89],[-33,-41],[-67,6],[-21,-20],[-92,-1],[-62,70],[49,93],[42,17],[65,59],[47,6]],[[8517,4241],[83,-61],[-49,-42],[-17,-49],[-49,-23],[-49,55],[28,62],[-21,45],[74,13]],[[8566,4314],[38,-41],[-68,-22],[-98,19],[-3,17],[131,27]],[[8771,4130],[-79,68],[89,9],[-10,-77]],[[8122,4438],[52,-33],[-38,-27],[-14,60]],[[7256,3006],[6,128],[-28,51],[-3,116],[24,-9],[37,120],[-78,59],[-51,67],[-129,-73],[-54,-1],[-60,56],[37,128],[-90,-25],[-74,43],[-54,77],[71,114],[106,67],[44,56],[56,177],[-7,75],[82,85],[65,90],[15,39]],[[8262,4322],[54,1],[-1,-42],[84,-102],[-64,-35],[-21,-65],[-78,3],[12,-40],[-93,-43],[44,-18],[-35,-65],[-35,-3],[-62,-56],[-34,-68],[-85,14],[21,-70],[-57,-78],[-103,31],[-39,-43],[22,-162],[38,-24],[-14,-80],[-36,-70],[-56,-45],[-38,35],[-72,-11],[-59,17],[1,-54],[-50,-41],[-59,-1],[34,-86],[-48,-19],[-41,9],[-82,-91],[-54,-14]],[[8001,3305],[25,-14],[-62,-91],[-94,-10],[-135,-41],[-31,18],[31,66],[82,-15],[70,27],[24,35],[90,25]],[[8499,4036],[74,-59],[68,-9],[-91,-60],[-56,48],[-46,-17],[-57,29],[108,68]],[[8372,3942],[17,-63],[-58,10],[-110,-57],[-52,83],[76,5],[13,28],[114,-6]],[[7932,3150],[84,-38],[-45,-22],[-50,10],[11,50]],[[5910,5968],[71,16],[108,64],[28,61],[72,5],[96,40],[46,57],[-28,64],[19,102],[27,1],[44,97],[38,176]],[[6431,6651],[29,33],[49,97],[73,-69],[64,-9],[91,-65],[62,25],[72,-27],[46,46],[50,-4],[66,18],[38,-19],[6,-45],[-28,-74],[91,-62]],[[7140,6496],[15,-50],[-62,-128],[-48,-42],[-21,-59],[34,-19],[50,27],[23,-51],[-39,-74],[95,-46],[-66,-57],[-68,-20],[-31,30],[-33,-21],[-4,-49],[-30,-68],[-148,-95],[-47,35],[-94,4],[15,-92],[-51,-67],[9,-76],[-14,-28],[62,-50],[24,49],[52,0],[52,-82],[40,37],[96,-38],[24,14],[71,-55],[16,-86],[36,-53],[64,-48],[63,-4],[86,-90],[135,-7],[78,-67],[55,-30],[21,-117],[-49,-59]],[[7345,4719],[-27,45],[-41,3],[-48,35],[-19,-46],[-51,47],[-91,18],[23,78],[-44,62],[-7,61],[-51,10],[-142,-32],[-31,-36],[-23,-90],[-50,24],[-30,-37],[20,-53],[-37,-51],[-14,-76],[-84,-51],[-58,-68],[-164,-89],[-4,-32],[-75,0],[-59,-68],[3,71],[-63,73],[-21,62],[-39,22],[-70,82],[10,46],[63,18],[51,60],[-80,83],[35,97],[-89,58],[-74,19],[103,173],[102,46],[13,117],[-17,18],[53,74],[-24,28],[-6,63],[44,57],[10,92],[-60,45],[-44,6],[-37,-82],[-128,39],[48,24],[-62,155],[-49,49]],[[2828,10888],[81,-40],[105,-16],[36,-30],[81,29],[62,-5],[16,-24],[72,-4],[143,-128],[70,-7],[29,-42],[54,-6],[70,22],[37,63],[76,-27],[35,8],[71,-54],[64,-2],[21,-28],[185,1],[17,-59],[54,-34],[46,30],[115,-120],[57,-17],[95,-53],[55,-1],[13,-82],[68,-83],[-14,-69],[65,-56],[25,-59],[0,-69]],[[4732,9926],[21,-109],[-54,-117],[-35,-18],[54,-106],[-72,8],[-69,-56],[-185,84],[24,-101],[-39,-53],[-37,-19],[6,-43],[46,-46],[10,-82],[-20,-92],[16,-46],[-75,-53],[9,-73],[-47,-47],[34,-40],[44,0],[50,-29],[9,-52],[92,-109],[84,-62],[60,-7],[63,14],[40,-52],[44,12],[59,-23],[10,-55],[78,-44],[7,-82],[-15,-28],[24,-48]],[[4800,7759],[-79,-24],[21,-69],[-64,-64],[-58,-34],[-23,-42],[-81,-7],[-71,-21],[42,-103],[-32,-69],[14,-147],[57,-67],[83,-46],[12,-99],[-25,-30],[46,-70],[10,-79],[-71,19],[-12,62],[-69,-2],[-16,-35],[-71,59],[-82,-11],[-82,-81]],[[4249,6799],[-56,-5],[-45,-67],[-68,0],[-72,49],[-85,-16],[-60,69]],[[2585,8847],[73,15],[85,76],[-36,63],[-2,98],[54,27],[5,87],[148,12],[17,100],[-16,112],[-78,94],[22,105],[-62,114],[34,54],[-26,35],[-108,31],[-44,52],[-78,35]],[[2573,9957],[13,15],[-12,92],[44,70],[-26,51],[30,44],[-16,56],[61,106],[-16,37],[9,142],[96,109],[38,62],[-26,73],[44,31],[16,43]],[[9581,9320],[101,-32],[42,-39],[98,-7],[13,-97],[-47,-81],[-8,-43],[40,-30],[20,-44],[-13,-70],[-25,-42],[-97,44],[-79,-9],[-44,13],[-48,-35],[-24,18],[-63,-41],[-42,-71],[7,-48],[-24,-65],[-35,-47],[37,-46],[-63,-63],[-10,-34],[24,-121],[-44,-56],[-3,-40],[-112,-15],[-150,-56],[18,-166],[-34,-19],[-23,-50],[-1,-105],[17,-79],[-74,24],[-21,-56],[-64,31],[-44,-43],[-95,-56],[-55,-107],[-66,-19],[-27,-50],[12,-122],[113,-42],[29,-46],[-39,-98],[-58,-34],[8,-52],[44,-32],[-24,-105],[23,-25],[-83,-61],[-5,-32],[-58,-22],[-50,-66]],[[7984,6158],[-41,-7],[-50,73],[-124,15],[-53,-186],[-43,2],[-59,69],[-130,-5],[-46,26],[-38,-14],[-39,23],[4,89],[18,39],[-13,51],[16,60],[-61,26],[-80,-54],[-72,123]],[[7173,6488],[54,29],[-3,38],[32,37],[72,-13],[12,32],[-71,42],[-51,48],[-56,111],[-65,18],[-17,101],[69,12],[44,61],[-38,30],[10,62],[-15,77],[50,15],[-49,69],[-45,-49],[-9,-50],[-57,8],[-7,72],[36,53],[-19,124]],[[7050,7415],[67,27],[35,31],[94,-27],[96,47],[24,-15],[106,15],[24,27],[-13,168],[-24,98],[10,13],[166,-12],[137,-37],[33,15],[26,93],[-19,87],[67,-3],[-18,61],[-46,5],[1,43],[-63,43],[26,51],[4,70],[24,40]],[[7807,8255],[58,-30],[61,41],[1,48],[74,24],[65,1],[2,-37],[71,35],[62,71],[73,32],[15,35],[-58,33],[-7,63],[47,18],[8,65],[-66,66],[43,125],[0,72],[-60,98],[3,94],[20,31],[-41,44],[-26,84]],[[8152,9268],[44,10],[51,70],[61,22],[82,-8],[47,23],[38,79],[58,23],[61,-21],[4,-47],[86,-74],[24,-2]],[[8708,9343],[-9,-61],[30,-33],[-7,-55],[55,-52],[-17,-43],[25,-101],[30,-53],[68,-12],[80,-51],[55,-6],[25,-39],[122,-32],[41,35],[55,136],[78,41],[48,86],[75,44],[88,94],[31,79]],[[2891,2033],[-82,-42],[-46,-90],[61,-70],[-36,-52],[-111,-2],[-47,-48]],[[2519,2017],[51,15],[13,32],[-41,79],[52,86],[72,35],[-20,80],[74,29],[-24,60],[-70,-35],[-37,61],[-69,20],[1,-68],[-84,-8],[-11,-28]],[[2603,2970],[68,53],[58,-4],[-13,-75],[96,-62],[56,4],[78,-35],[69,63],[44,9]],[[7140,6496],[33,-8]],[[4836,3416],[34,-27],[16,-55],[-15,-88],[34,-128]],[[2225,9200],[25,42],[-19,70],[-53,129],[7,47],[-52,104],[-35,10],[-50,69],[22,51],[55,26],[24,54],[72,-13],[23,-29],[56,0],[57,57],[38,16],[77,-20],[59,74],[4,55],[38,15]],[[6420,10945],[6,-53],[-40,-51],[39,-68],[-29,-42],[-67,-48],[-40,-111],[71,-65],[119,-29],[32,20],[41,-22]],[[4732,9926],[120,-39],[100,48],[73,93],[28,60],[89,43],[-21,50],[14,91],[-37,24],[11,44],[166,17],[218,132],[92,10],[66,-7],[52,81],[7,34],[-36,43],[31,116],[48,24],[71,-30],[73,59],[2,25],[92,62],[41,12],[88,-46],[153,99],[103,-35],[44,9]],[[7421,8368],[44,-49],[25,54],[54,-10],[43,-75],[130,-5],[90,-28]],[[7050,7415],[-33,81]],[[7731,9084],[87,-27],[106,69],[32,89],[-7,44],[47,20],[41,-18],[82,20],[33,-13]],[[9751,9805],[-50,-139],[-124,-62],[-12,-40],[2,-120],[14,-124]],[[8708,9343],[9,13],[143,41],[127,-13],[76,22],[103,106],[16,69],[119,35],[37,38],[122,54],[50,58],[-13,90],[70,31],[72,34],[34,-4],[69,-62],[9,-50]],[[5910,5968],[-73,-20],[-81,1],[-82,39],[91,97],[-68,40],[-36,58],[-49,16],[14,62],[-80,24],[-32,36],[-57,-54],[-38,63],[-34,22],[104,90],[-50,45],[69,42],[9,64],[-28,57],[33,59]],[[5522,6709],[104,76],[34,75],[3,54],[60,28],[12,78],[31,16],[36,-60],[65,-52],[113,-48],[33,20],[63,2],[30,23],[71,-10],[150,13],[-10,-101],[-19,-11],[32,-81],[-10,-38],[42,-58],[69,16]],[[5522,6709],[12,38],[-52,16],[-35,-63],[-45,19],[-69,-8],[-45,45],[-69,-89],[-94,-28],[-28,68],[-57,10],[-32,-107]],[[5008,6610],[-25,26],[-28,84],[-73,1],[-36,68],[-78,15],[-95,-70],[-38,-64],[-72,-8],[-3,-65],[-47,-44],[-151,47],[-23,32],[-50,7],[-1,43],[-39,117]],[[5008,6610],[13,-81],[-39,-47],[26,-64],[72,-37],[35,-56],[39,-18],[60,18],[35,-41],[-56,-30],[-51,-1],[-8,-38],[-72,-13],[-43,-50],[-30,-70],[18,-44],[-60,-107],[33,-54],[-18,-44],[26,-64],[-36,-39],[-3,-55],[-52,-26],[-77,-5],[-93,-74],[-12,-54],[12,-57],[11,-180],[-34,-12],[-62,29],[-7,40],[-64,27],[-89,-12],[-69,-48],[-59,-123],[-10,-112],[-173,-5],[-31,-37],[-79,-148]],[[7256,3006],[-34,12],[-40,-1],[-59,-70],[-46,-20],[-59,2],[-40,56],[-77,-19],[-92,0],[-49,19],[-10,100],[28,61],[44,8],[21,51],[-52,2],[-37,-42],[-45,-7],[0,-1],[-5,-56],[-49,112],[-83,8],[-6,-38],[-70,23],[-1,1],[-36,18],[-45,13],[0,-1],[-154,29],[-3,1],[-108,-61],[-3,-1],[15,-49],[-62,-27],[-56,16],[-22,-24],[-95,-27],[-42,58],[-54,-37],[18,-55],[91,-100],[15,37],[64,52],[51,19],[263,5],[156,42],[52,-14],[73,-59],[30,-47],[0,-71],[38,-23],[-94,-48]],[[6156,3201],[0,3],[4,3],[3,1],[-7,-7]],[[6156,3201],[0,0],[-1,0],[1,0]],[[7185,2773],[1,-1],[9,12],[17,-39],[-33,-33],[-69,20],[44,49],[31,-8]]],"transform":{"scale":[0.00011648678861788647,0.00009597119679154143],"translate":[133.26693,34.3]},"objects":{"japan":{"type":"GeometryCollection","geometries":[{"arcs":[[[0,1,2,3,4,5,6,7]],[[8]],[[9]],[[10]]],"type":"MultiPolygon","properties":{"pref":"岡山県","city":"倉敷市","code5":"33202","code6":"332020"}},{"arcs":[[11,12,13,14,15,16]],"type":"Polygon","properties":{"pref":"岡山県","city":"津山市","code5":"33203","code6":"332038"}},{"arcs":[[[17,18,-4]],[[19]]],"type":"MultiPolygon","properties":{"pref":"岡山県","city":"玉野市","code5":"33204","code6":"332046"}},{"arcs":[[[20,21,22,23,24,25]],[[26]],[[27]],[[28]],[[29]],[[30]],[[31]]],"type":"MultiPolygon","properties":{"pref":"岡山県","city":"笠岡市","code5":"33205","code6":"332054"}},{"arcs":[[-25,32,33,34,35]],"type":"Polygon","properties":{"pref":"岡山県","city":"井原市","code5":"33207","code6":"332071"}},{"arcs":[[36,-8,37,-35,38,39]],"type":"Polygon","properties":{"pref":"岡山県","city":"総社市","code5":"33208","code6":"332089"}},{"arcs":[[-34,40,41,42,43,-39]],"type":"Polygon","properties":{"pref":"岡山県","city":"高梁市","code5":"33209","code6":"332097"}},{"arcs":[[44,45,46,-42,47]],"type":"Polygon","properties":{"pref":"岡山県","city":"新見市","code5":"33210","code6":"332101"}},{"arcs":[[[48,49,50,51,52,53,54]],[[55]],[[56]],[[57]],[[58]],[[59]]],"type":"MultiPolygon","properties":{"pref":"岡山県","city":"備前市","code5":"33211","code6":"332119"}},{"arcs":[[[60,-50,61]],[[62]],[[63]],[[64]],[[65]]],"type":"MultiPolygon","properties":{"pref":"岡山県","city":"瀬戸内市","code5":"33212","code6":"332127"}},{"arcs":[[66,67,68,-52,69]],"type":"Polygon","properties":{"pref":"岡山県","city":"赤磐市","code5":"33213","code6":"332135"}},{"arcs":[[70,71,-16,72,73,-43,-47,74,75]],"type":"Polygon","properties":{"pref":"岡山県","city":"真庭市","code5":"33214","code6":"332143"}},{"arcs":[[76,-54,77,78,79,80,81,82]],"type":"Polygon","properties":{"pref":"岡山県","city":"美作市","code5":"33215","code6":"332151"}},{"arcs":[[-6,83,-23,84,-21,85]],"type":"Polygon","properties":{"pref":"岡山県","city":"浅口市","code5":"33216","code6":"332160"}},{"arcs":[[-53,-69,86,-78]],"type":"Polygon","properties":{"pref":"岡山県","county":"和気郡","city":"和気町","code5":"33346","code6":"333468"}},{"arcs":[[87,-2]],"type":"Polygon","properties":{"pref":"岡山県","county":"都窪郡","city":"早島町","code5":"33423","code6":"334235"}},{"arcs":[[-22,-85]],"type":"Polygon","properties":{"pref":"岡山県","county":"浅口郡","city":"里庄町","code5":"33445","code6":"334456"}},{"arcs":[[-7,-86,-26,-36,-38]],"type":"Polygon","properties":{"pref":"岡山県","county":"小田郡","city":"矢掛町","code5":"33461","code6":"334618"}},{"arcs":[[88,-75,-46]],"type":"Polygon","properties":{"pref":"岡山県","county":"真庭郡","city":"新庄村","code5":"33586","code6":"335860"}},{"arcs":[[89,-17,-72,90]],"type":"Polygon","properties":{"pref":"岡山県","county":"苫田郡","city":"鏡野町","code5":"33606","code6":"336068"}},{"arcs":[[-14,91,-80,92]],"type":"Polygon","properties":{"pref":"岡山県","county":"勝田郡","city":"勝央町","code5":"33622","code6":"336220"}},{"arcs":[[93,-81,-92,-13]],"type":"Polygon","properties":{"pref":"岡山県","county":"勝田郡","city":"奈義町","code5":"33623","code6":"336238"}},{"arcs":[[94,-83,95]],"type":"Polygon","properties":{"pref":"岡山県","county":"英田郡","city":"西粟倉村","code5":"33643","code6":"336432"}},{"arcs":[[96,97,-67]],"type":"Polygon","properties":{"pref":"岡山県","county":"久米郡","city":"久米南町","code5":"33663","code6":"336637"}},{"arcs":[[98,99,-73,-15,-93,-79,-87,-68,-98]],"type":"Polygon","properties":{"pref":"岡山県","county":"久米郡","city":"美咲町","code5":"33666","code6":"336661"}},{"arcs":[[100,-40,-44,-74,-100]],"type":"Polygon","properties":{"pref":"岡山県","county":"加賀郡","city":"吉備中央町","code5":"33681","code6":"336815"}},{"arcs":[[[-1,-37,-101,-99,-97,-70,-51,-61,101,-18,-3,-88]],[[102]],[[104]]],"type":"MultiPolygon","properties":{"pref":"岡山県","city":"岡山市","code5":"33100","code6":"331007"}}]}}}