{"type":"Topology","arcs":[[[2619,1701],[95,-12],[11,63]],[[2725,1752],[42,17],[84,-62],[33,-1],[55,-67],[49,74]],[[2988,1713],[119,-33],[52,23],[54,-24],[75,-146],[72,64],[67,28],[69,66],[56,-33],[65,90],[132,70],[22,-84],[-2,-77],[31,-52],[-13,-23],[59,-58],[55,-5],[22,-58]],[[3923,1461],[-163,32],[-2,-40],[58,-83],[38,-24],[2,-37],[-74,-41],[10,-36],[-142,11],[-67,-10],[-106,-35],[-57,-76],[-15,-60],[-32,-21],[-67,52],[-52,-31],[20,-33],[-55,-27],[-67,-10],[-63,51],[-122,57],[16,40],[-51,17],[-44,-98],[-97,-83],[-82,-39],[-80,8],[30,88],[-65,80],[34,41],[54,-1],[53,62],[-36,27],[-34,-14],[-84,26],[6,48],[-39,41],[-43,-9],[-1,68],[24,91],[-59,94]],[[2469,1587],[60,2],[58,48],[3,56],[29,8]],[[2611,975],[4,-82],[62,13],[44,-71],[-76,-33],[-7,-56],[-46,6],[-50,-50],[44,-28],[14,-39],[81,29],[10,-67],[-50,-168],[104,15],[71,65],[47,-28],[-12,-30],[34,-56],[-25,-16],[-34,58],[-28,0],[-15,-118],[-58,-91],[-37,-20],[-21,115],[-108,-17],[-120,51],[-18,-78],[-69,2],[-68,-21],[-53,-35],[-43,72],[-33,3],[-3,88],[98,55],[155,100],[43,4],[23,70],[-57,19],[-22,43],[1,55],[51,145],[81,45],[45,49],[41,2]],[[3539,996],[47,-43],[101,-6],[21,-18],[80,-8],[-27,-59],[53,-6],[5,-31],[-58,-81],[-55,-1],[-25,58],[-73,-4],[-47,13],[-20,41],[-43,-11],[-97,22],[8,75],[62,60],[68,-1]],[[4257,948],[-10,-20],[84,-76],[24,-45],[-114,-90],[-137,-56],[-86,21],[14,47],[-14,69],[21,31],[85,61],[133,58]],[[3335,993],[9,-46],[51,-53],[-43,-81],[-43,-27],[-60,35],[-33,-36],[-31,13],[22,87],[42,63],[33,4],[53,41]],[[3931,901],[66,-81],[-35,-68],[-56,-29],[-50,3],[-6,96],[52,71],[29,8]],[[2603,173],[28,-37],[-24,-136],[-76,29],[37,41],[35,103]],[[2837,770],[6,-58],[-47,9],[41,49]],[[3860,704],[10,-21],[-79,-39],[-9,24],[78,36]],[[5104,1792],[-85,53],[-59,-40],[-97,37],[-104,-5],[-74,-62],[-102,9],[-92,-8],[-51,-69],[-79,-25],[-3,-42],[-32,-47],[-40,-8]],[[4286,1585],[-17,73],[10,123],[18,33],[-11,146],[-198,87],[-39,31],[-76,-27],[-52,37],[18,38],[78,69],[67,-2],[-24,70],[-121,40],[-31,70],[123,0],[37,25],[49,-38],[145,4],[9,-29],[159,-52],[63,38],[-17,22],[33,79]],[[4509,2422],[36,7],[22,-152],[-18,-42],[43,-44],[100,-63],[44,-53],[-1,-103],[52,-34],[56,30],[128,-64],[90,18],[38,-34],[5,-96]],[[4509,2422],[-18,41],[48,53],[-4,32],[-65,92],[48,18],[31,-36],[59,-12],[25,61],[-46,48],[-94,173],[2,31],[-44,72],[-96,10],[-59,27],[-28,131],[71,34],[41,3],[62,53],[-27,99],[38,3],[50,51]],[[4503,3406],[92,51],[57,-5],[105,-75],[73,-12],[15,-57],[51,16],[43,-57],[108,-68],[60,21],[63,-12],[95,78],[81,-32],[24,-32],[97,-27],[32,-68]],[[5499,3127],[-32,-65],[-61,-3],[2,-34],[-84,-102],[-8,-46],[48,-57],[55,22],[20,-51],[41,-8],[70,31],[16,46],[44,-12],[49,-60],[-11,-95],[34,-2],[25,-76],[41,-19],[3,-51],[85,-16],[30,-50],[-16,-59],[-54,-40],[-26,-53],[41,-19],[17,-57],[40,31],[31,-22],[-45,-51]],[[5854,2209],[-138,-77],[-53,3],[-55,39],[-73,-2],[-48,-148],[-14,-103],[-40,-40],[-72,13],[-42,-18],[-60,-68],[-52,7],[-103,-23]],[[5636,1989],[54,-43],[21,-100],[-9,-42],[-47,-74],[-30,-13],[-57,68],[-2,68],[29,54],[1,64],[40,18]],[[5499,3127],[82,1],[45,34],[81,15],[73,118],[12,47]],[[5792,3342],[100,-73],[24,-65],[54,-27],[6,-41],[119,-5],[44,-22],[57,-1],[11,-29]],[[6207,3079],[-11,-46],[-40,-37],[13,-62],[73,35],[60,-23],[-34,-86],[13,-31],[-42,-56],[5,-43],[-56,-7],[-36,-33],[30,-46],[67,-49],[57,-3],[-15,-50],[38,-151]],[[6329,2391],[-24,-7],[-40,-68],[-61,-16],[-58,10],[-113,-61],[-97,-30],[-82,-10]],[[5851,1977],[105,-3],[21,-27],[-3,-64],[64,-49],[35,0],[80,-138],[-64,-40],[-28,-50],[70,-42],[-55,-46],[16,-41],[-41,-29],[-57,36],[-35,75],[-94,43],[-37,98],[-40,74],[-35,17],[18,94],[54,35],[26,57]],[[5751,1712],[35,-11],[43,-86],[-16,-88],[-110,-55],[-59,-42],[-8,-37],[-156,-66],[-51,25],[-28,49],[33,122],[43,75],[11,61],[49,37],[14,-44],[64,22],[52,0],[84,38]],[[6177,2300],[103,-16],[9,-96],[-95,-70],[-5,-64],[-23,-66],[-32,11],[-91,-27],[-81,57],[11,30],[-34,104],[40,53],[64,6],[50,48],[84,30]],[[6543,2166],[-24,48],[-51,-22],[-58,11],[-40,-36],[-42,20],[8,44],[137,54],[5,44]],[[6478,2329],[85,-11],[39,-85],[-59,-67]],[[5461,1817],[43,-126],[-47,-73],[-47,6],[-33,33],[-5,43],[23,72],[66,45]],[[6414,2144],[64,-39],[27,-37],[-42,-74],[-32,28],[-35,92],[18,30]],[[5898,2187],[54,-75],[-86,-32],[-13,75],[45,32]],[[7403,3150],[23,-80],[-35,-69],[32,-80],[11,-76],[-35,-40],[-10,-53],[-9,-214],[-13,-9],[-148,90],[-33,-13],[142,-90],[28,-43],[-48,-77],[-96,77],[-28,-49],[-59,-10],[-58,-41],[-17,-81],[-9,-102],[22,-48],[-93,-96],[-80,-19],[-24,62],[-64,33],[-105,0],[-47,41],[-70,-30],[-37,33]],[[6478,2329],[-18,75],[4,46],[-67,21],[-81,0],[13,-80]],[[6207,3079],[31,-28],[41,12],[25,45],[35,14],[24,47],[64,14],[35,51],[-37,71],[18,56],[-54,52],[-47,68],[-41,28],[-36,95],[19,63],[-33,46],[33,64]],[[6284,3777],[56,36],[67,10],[29,92],[58,18],[50,-17],[33,-41],[-12,-57],[31,-25],[48,2],[24,-41],[48,14],[6,79],[74,58],[32,49],[-7,65],[73,28],[23,36],[58,4],[-6,63],[-33,51],[53,23]],[[6989,4224],[19,-105],[64,-63],[-4,-50],[83,-22],[7,-45],[-75,-150],[-7,-45],[25,-33],[-36,-37],[-1,-54],[58,-73],[6,-66],[46,-36],[91,-24],[19,-104],[43,-21],[58,-60],[18,-86]],[[6718,2069],[26,-72],[51,46],[47,7],[-39,-93],[-72,-9],[-101,-71],[-31,14],[-38,72],[67,76],[90,30]],[[6550,1974],[-8,-126],[-86,-26],[-27,87],[121,65]],[[7333,1932],[66,-73],[-13,-24],[-83,21],[-14,34],[44,42]],[[7139,2170],[23,-44],[-29,-25],[-39,43],[45,26]],[[5792,3342],[4,33],[-40,41],[60,24],[62,106],[1,149],[-11,21],[-84,32],[-87,10],[-5,42],[-40,16],[-56,59],[-98,36]],[[5498,3911],[0,86],[56,88],[26,21],[-25,65],[27,48],[-20,53],[10,60],[27,38]],[[5599,4370],[67,1],[9,34],[84,97],[72,-10],[55,21],[30,-17]],[[5916,4496],[2,-90],[-31,-75],[22,-52],[149,-91],[43,-74],[-71,-61],[-24,-76],[48,-8],[-21,-61],[94,-47],[37,-42],[45,-14],[45,14],[30,-42]],[[3398,5740],[112,28],[73,-44],[38,54],[68,29],[48,-5],[32,108],[67,42],[-9,46]],[[3827,5998],[89,27],[58,-44],[90,-6],[21,36],[87,73],[41,-4],[11,-58],[-26,-93],[-38,-16],[10,-103],[24,-20],[7,-57],[29,-48],[37,13],[-2,-75],[-32,-24],[31,-45],[72,-3],[50,-55],[16,-59],[0,-71],[78,-10],[-8,-76],[-43,-40],[22,-63],[-11,-39],[55,-58],[99,-85],[31,-44],[63,-45],[15,-41],[43,-15],[86,-70],[52,58],[-4,24],[48,64],[41,-83],[55,-14],[63,-81],[96,-46],[13,-73],[-62,-52],[2,-36],[82,-17],[23,-54],[105,34],[16,45],[-24,51],[29,16],[36,-33],[140,0],[67,-24],[-6,-49],[16,-53],[-28,-44],[7,-43]],[[5498,3911],[-124,-67],[-11,44],[-61,-9],[-88,77],[-58,23],[-12,34],[-174,-10],[-14,-51],[-68,-26],[-13,-49],[-42,13],[-28,-28],[-69,59],[-11,116],[-77,-30],[-143,41],[-29,-4],[-7,-55],[-59,-69],[5,-90],[-35,-21],[-2,-60],[27,-21],[-33,-86],[28,-40]],[[4400,3602],[-66,-22],[-26,20],[-70,-47],[-54,0],[-136,104],[-58,-7]],[[3990,3650],[-5,52],[-76,70],[-4,76],[37,27],[45,82],[9,53],[34,32],[7,56],[-102,39],[-93,22],[-4,45],[23,80],[49,48],[11,70],[-34,67],[-53,-9],[-18,40],[34,92],[34,24],[1,125],[18,81],[-102,11],[-175,39],[-83,25],[-47,-19],[-44,23],[23,57],[68,3],[55,37],[-10,55],[-56,48]],[[3532,5101],[-45,190],[-12,15],[-96,14],[-36,64],[-55,-30],[-67,70],[-73,-14],[-17,40],[38,-7],[51,102],[51,22],[33,48],[46,12],[48,113]],[[5763,6526],[29,-60],[101,59],[38,-42],[58,-1],[104,33],[81,9],[64,-36],[67,69],[73,-25],[36,-75],[44,-36],[-12,-33],[40,-48],[56,-27],[93,-127],[11,-35],[56,-18],[29,-56],[-11,-33],[13,-66],[-57,-85],[-40,-16],[9,-45],[-40,-57],[64,-121],[-40,-51],[15,-46],[-9,-55],[-37,-57],[11,-94],[41,-46],[19,-51],[77,-61],[34,-54],[-9,-18]],[[6771,5121],[-46,-2],[-31,-32],[-76,1],[-55,37],[-60,1],[-2,-42],[-38,-104],[-85,-37],[-54,-71],[-69,67],[26,20],[-55,125],[-44,66],[-32,22],[-60,-56],[-65,-2],[-55,-20],[-70,31],[-30,-53],[-76,-40],[-1,-62],[-38,-34],[53,-89],[-20,-38],[-17,-111],[54,-24],[64,-53],[39,-53],[-12,-72]],[[3827,5998],[15,41],[95,47],[-5,53],[32,41],[82,56],[26,76],[127,66],[-53,65],[60,60],[35,65],[72,73],[8,22],[117,58],[48,1],[53,-54],[35,-66],[90,-32],[36,18],[73,-52],[144,47],[39,91],[93,-2],[76,-61],[9,-58],[39,-5],[48,-60],[101,13],[40,69],[60,7],[73,-26],[57,46],[55,-19],[24,20],[57,-10],[23,-45],[52,-17]],[[1060,1362],[-50,-81],[-10,-84],[61,-53],[45,-77],[-10,-27],[-123,-15],[-41,-30],[-68,26],[-42,-5],[46,102],[-114,44],[-48,-29],[-6,53],[-43,1],[-28,-29],[-34,51],[-28,-6],[14,89],[-72,140],[32,60],[-8,38],[-51,50],[-16,64]],[[466,1644],[11,45],[52,29],[55,-3],[2,78],[88,4],[26,-37],[-14,-126],[-23,-67],[25,-42],[135,-41],[18,49],[105,17],[13,-43],[50,-27],[51,-118]],[[1362,968],[25,-18],[55,12],[41,-54],[-22,-18],[-72,-4],[-48,16],[21,66]],[[3456,3105],[22,4],[23,71],[33,45],[69,-1],[61,19],[98,109],[91,8],[69,47],[-4,88],[42,62],[4,54],[26,39]],[[4400,3602],[56,-102],[35,-18],[12,-76]],[[4286,1585],[-42,-24],[-99,150],[-40,4],[-95,-51],[-27,-29],[-8,-53],[-42,-63],[-10,-58]],[[2988,1713],[-6,34],[40,44],[-26,84],[82,77],[19,-7]],[[3097,1945],[80,1],[7,53],[49,45],[-22,94],[-26,33],[11,46],[-32,20],[21,89],[41,58],[73,34],[-14,63],[-46,38],[-38,-38],[-61,37],[-13,42],[-49,-24],[-45,2],[-39,64],[-39,4],[45,210],[50,3],[51,48],[27,56],[57,-12],[61,115],[49,52],[99,-30],[46,17],[16,40]],[[4032,1489],[27,-36],[-42,-46],[-61,20],[5,31],[71,31]],[[168,2672],[-58,121],[12,36],[-39,42],[-83,15],[56,71],[4,57],[25,56],[123,42],[41,4],[85,112],[71,48],[28,63],[-6,36],[40,31]],[[467,3406],[62,-67],[27,-58],[35,9],[38,-69],[-2,-31],[59,-51],[63,2],[27,-19],[-93,-88],[19,-44],[97,-123]],[[799,2867],[58,-47],[17,-39],[-35,-45],[-16,-62],[14,-94],[-93,-67],[68,-47],[-3,-69],[25,-54],[118,3],[57,94],[35,0],[100,-108],[139,-29],[16,-126],[82,-34],[18,53],[-21,93],[62,76],[9,-58],[59,-27],[-19,-55],[15,-112],[99,-84],[24,-63]],[[1627,1966],[16,-19],[26,-29],[-38,-48],[-58,-23],[-18,41],[-34,0],[-37,-49],[7,-30],[-44,-91],[-37,-21],[-45,-67],[-51,-39],[-27,-73],[-93,-85],[-25,8],[-53,-58],[-56,-21]],[[466,1644],[-8,82],[29,53],[-53,22],[-72,-6],[-23,42],[1,58],[-81,56],[-76,8],[-5,99],[36,116],[-38,18],[24,63],[-30,91],[24,21],[18,115],[21,37],[-50,94],[-15,59]],[[1557,1679],[32,-84],[46,-40],[-2,-59],[-37,-47],[-141,-110],[-53,-83],[-101,-61],[-63,-9],[-30,106],[86,139],[0,37],[35,60],[61,40],[71,12],[96,99]],[[2628,4752],[84,84],[73,-11],[2,27],[62,33],[29,45],[177,130],[61,-2],[62,-35],[23,15],[64,-49],[41,0],[40,97],[76,17],[23,-43],[87,41]],[[3456,3105],[-48,36],[27,31],[-46,122],[56,117],[-6,38],[-72,89],[-75,19],[-57,-47],[-43,16],[-69,-31],[-99,26],[-26,-31],[-3,-66],[-63,-4],[-31,-24],[3,-40],[-66,-71],[-26,-6],[-21,60],[-97,36],[-35,34]],[[2659,3409],[87,53],[25,-3],[46,68],[-24,66],[31,46],[-14,26],[24,67],[29,22],[46,106],[-43,67],[107,127],[-152,77],[27,64],[-15,69],[50,98],[-40,54],[-55,18],[4,123],[-102,99],[3,32],[-65,64]],[[2322,1584],[14,-54],[59,-67],[26,-56],[-16,-101],[-16,-31],[17,-100],[-31,-77],[-1,-112],[-81,-43],[-12,-81],[42,-51],[54,-127],[-43,-64],[-113,-68],[-98,13],[-17,56],[30,41],[-5,37],[31,74],[-29,6],[21,93],[-27,71],[-31,-2],[-22,-115],[-53,24],[-7,102],[-74,46],[-117,144],[26,28],[-5,65],[-24,100],[31,24],[123,-9],[64,-32],[18,-56],[43,-72],[7,-54],[34,-19],[72,37],[19,-55],[63,-72],[26,151],[-55,90],[-89,54],[-3,-44],[-35,-16],[-47,11],[-15,40],[54,48],[12,50],[-44,34],[-8,66],[130,18],[109,-5],[-7,60]],[[1829,829],[64,-43],[75,-27],[26,-50],[-18,-51],[-72,-17],[-60,13],[-26,42],[-9,94],[20,39]],[[2112,721],[13,-54],[-57,-27],[-19,20],[63,61]],[[2427,2175],[-20,38],[43,57],[54,15],[15,43],[73,51],[50,-24],[-27,-46],[-38,-108],[-70,-98],[6,-19],[-77,6],[-9,85]],[[2841,2080],[-16,-105],[-75,-91],[-37,4]],[[2713,1888],[-28,80],[-109,21],[-47,-22]],[[2529,1967],[-1,8]],[[2528,1975],[-4,24]],[[2524,1999],[0,3],[48,40],[19,48],[79,64],[62,-6],[47,-22],[-4,-35],[66,-11]],[[2841,2080],[13,40],[105,-3],[113,-45],[45,-73],[-20,-54]],[[2725,1752],[-25,56],[13,80]],[[2529,1967],[20,-94],[37,-52],[19,-109],[14,-11]],[[2469,1587],[-59,86],[-11,37],[56,114],[-32,23],[-14,66],[60,5],[14,29]],[[2483,1947],[46,20]],[[467,3406],[21,78],[-47,33],[-19,69],[73,141],[-22,36],[40,37],[31,58]],[[544,3858],[48,-87],[137,33],[12,62],[40,42],[17,74],[49,-4],[40,-67],[51,8],[53,104],[111,-9],[15,-45],[76,-53],[138,133],[70,-36],[78,191],[46,40],[68,-39],[23,-47],[60,-49],[-23,-25],[36,-97],[-20,-66],[-53,-50],[47,-61],[-18,-27],[49,-54],[-16,-95],[56,-32],[126,-31],[52,14],[17,-57]],[[1929,3528],[-24,10],[-52,-78],[-15,-54],[18,-77],[-5,-56],[-79,-90],[-77,-63],[19,59],[-58,45],[-51,-17],[-62,22],[-136,-29],[-137,-54],[-155,-80],[-51,-80],[-3,-61],[-125,43],[-49,-28],[-10,-66],[-41,-19],[-37,12]],[[494,4199],[56,13],[9,38],[147,87],[35,44],[36,-18],[62,31],[-5,37],[40,28],[35,-25],[66,30],[22,95],[84,121],[0,146],[88,1],[99,-59],[6,-83],[52,-39],[48,-8],[38,104],[52,51],[47,-56],[47,-16],[68,21],[29,30],[109,20],[52,-41],[-9,-57],[32,-20],[58,4],[84,88],[53,12],[-19,81],[46,15],[35,43],[45,-49],[108,-74],[33,4],[60,-32],[60,27],[53,-35],[81,49],[92,-55]],[[2659,3409],[-29,-2],[-71,147],[-29,4],[-40,-68],[-65,-17],[-6,34],[-93,81],[-84,13],[-41,-67],[-92,-72],[-69,71],[-55,-25],[-56,20]],[[544,3858],[79,144],[30,71],[-19,29],[-68,8],[-65,53],[-7,36]],[[4686,1509],[41,-27],[-2,-48],[-48,-162],[-65,-84],[7,-109],[-21,-34],[-40,18],[-69,-12],[-70,-41],[-126,14],[-73,96],[23,74],[-31,33],[36,26],[52,-26],[40,52],[39,-3],[76,87],[62,-86],[26,13],[23,93],[94,110],[26,16]],[[4606,1608],[12,-61],[38,-32],[-53,-34],[-41,47],[1,46],[43,34]],[[6985,4432],[-46,-64],[3,-47],[40,-23],[7,-74]],[[6771,5121],[34,-54],[-15,-24],[51,-67],[56,2],[31,-69],[47,-4],[54,-68],[-3,-72],[-41,-46],[14,-62],[-41,-82],[7,-80],[20,-63]],[[2524,1999],[-1,3],[-1,11],[-1,8],[-60,-60],[-51,8],[-24,-22],[-70,21],[-49,-25],[-87,0],[-14,-76],[-62,30],[-7,47],[-85,40],[-38,-13],[-82,37],[-102,-14],[-7,-54],[-63,-31],[-23,52],[-70,5]],[[2119,1772],[24,-52],[-17,-98],[-55,-27],[-40,30],[50,76],[-6,34],[44,37]],[[2331,1906],[27,-70],[-31,-30],[-20,93],[24,7]],[[2483,1947],[45,28]]],"transform":{"scale":[0.00019087850841561748,0.00015740287503219087],"translate":[132.03644805373483,34.04701731519708]},"objects":{"japan":{"type":"GeometryCollection","geometries":[{"arcs":[[[0,1,2,3,4]],[[5]],[[6]],[[7]],[[8]],[[9]],[[10]],[[11]],[[12]]],"type":"MultiPolygon","properties":{"pref":"広島県","city":"呉市","code5":"34202","code6":"342025"}},{"arcs":[[13,14,15]],"type":"Polygon","properties":{"pref":"広島県","city":"竹原市","code5":"34203","code6":"342033"}},{"arcs":[[[-16,16,17,18,19]],[[20]]],"type":"MultiPolygon","properties":{"pref":"広島県","city":"三原市","code5":"34204","code6":"342041"}},{"arcs":[[[-19,21,22,23,24]],[[25]],[[26]],[[27]],[[28,29]],[[30]],[[31]],[[32]]],"type":"MultiPolygon","properties":{"pref":"広島県","city":"尾道市","code5":"34205","code6":"342050"}},{"arcs":[[[33,-30,34,-24,35,36,37]],[[38]],[[39]],[[40]],[[41]]],"type":"MultiPolygon","properties":{"pref":"広島県","city":"福山市","code5":"34207","code6":"342076"}},{"arcs":[[-23,42,43,44,45,-36]],"type":"Polygon","properties":{"pref":"広島県","city":"府中市","code5":"34208","code6":"342084"}},{"arcs":[[46,47,-44,48,49,50,51]],"type":"Polygon","properties":{"pref":"広島県","city":"三次市","code5":"34209","code6":"342092"}},{"arcs":[[52,53,-45,-48,54]],"type":"Polygon","properties":{"pref":"広島県","city":"庄原市","code5":"34210","code6":"342106"}},{"arcs":[[[55,56]],[[57]]],"type":"MultiPolygon","properties":{"pref":"広島県","city":"大竹市","code5":"34211","code6":"342114"}},{"arcs":[[[58,-50,59,-17,-15,60,-3,61,62]],[[63]]],"type":"MultiPolygon","properties":{"pref":"広島県","city":"東広島市","code5":"34212","code6":"342122"}},{"arcs":[[[64,65,66,67,-57,68]],[[69]]],"type":"MultiPolygon","properties":{"pref":"広島県","city":"廿日市市","code5":"34213","code6":"342131"}},{"arcs":[[70,-51,-59,71,72]],"type":"Polygon","properties":{"pref":"広島県","city":"安芸高田市","code5":"34214","code6":"342149"}},{"arcs":[[[73]],[[74]],[[75]]],"type":"MultiPolygon","properties":{"pref":"広島県","city":"江田島市","code5":"34215","code6":"342157"}},{"arcs":[[76]],"type":"Polygon","properties":{"pref":"広島県","county":"安芸郡","city":"府中町","code5":"34302","code6":"343021"}},{"arcs":[[77,78,79,80,81]],"type":"Polygon","properties":{"pref":"広島県","county":"安芸郡","city":"海田町","code5":"34304","code6":"343048"}},{"arcs":[[82,-62,-2,83,-78]],"type":"Polygon","properties":{"pref":"広島県","county":"安芸郡","city":"熊野町","code5":"34307","code6":"343072"}},{"arcs":[[84,-5,85,86]],"type":"Polygon","properties":{"pref":"広島県","county":"安芸郡","city":"坂町","code5":"34309","code6":"343099"}},{"arcs":[[87,88,89,-66]],"type":"Polygon","properties":{"pref":"広島県","county":"山県郡","city":"安芸太田町","code5":"34368","code6":"343684"}},{"arcs":[[90,-73,91,-89,92]],"type":"Polygon","properties":{"pref":"広島県","county":"山県郡","city":"北広島町","code5":"34369","code6":"343692"}},{"arcs":[[[93]],[[94]]],"type":"MultiPolygon","properties":{"pref":"広島県","county":"豊田郡","city":"大崎上島町","code5":"34431","code6":"344311"}},{"arcs":[[-18,-60,-49,-43,-22]],"type":"Polygon","properties":{"pref":"広島県","county":"世羅郡","city":"世羅町","code5":"34462","code6":"344621"}},{"arcs":[[95,-37,-46,-54,96]],"type":"Polygon","properties":{"pref":"広島県","county":"神石郡","city":"神石高原町","code5":"34545","code6":"345458"}},{"arcs":[[[-67,-90,-92,-72,-63,-83,-82,97],[-77]],[[98]],[[99]],[[-79,-84,-1,-85]],[[-87,100,-80]]],"type":"MultiPolygon","properties":{"pref":"広島県","city":"広島市","code5":"34100","code6":"341002"}}]}}}