{"type":"Topology","arcs":[[[745,4133],[54,-33],[63,-81],[56,-34],[36,-94],[65,-23],[15,-65],[39,-4],[81,-67],[47,-54],[36,9],[48,-58],[19,-106],[56,-28],[129,14],[63,31],[107,7],[35,-52],[57,7]],[[1751,3502],[-2,-51],[-59,-91],[-4,-68],[-37,13],[-43,-50],[-96,-37],[-25,-41],[-76,-48],[10,-47],[-50,-51],[-1,-27],[45,-50],[50,-109],[-34,-23],[-40,10],[-35,50],[-34,-4],[0,-79],[-37,-67],[6,-76],[153,-148],[-3,-73]],[[1439,2435],[-31,-23],[3,-58],[22,-52],[-52,-26],[-61,25],[-85,-30],[52,-42],[-63,-45],[-21,-113]],[[1203,2071],[-106,21],[1,51],[-57,44],[-45,-73],[11,-42],[-48,-28],[-34,-51],[34,-41],[-50,-67],[-38,31],[-21,-36],[30,-37],[-39,-21],[-19,-68],[-92,-77],[-101,-65],[-23,-33],[-103,-87],[-50,-2],[-75,74],[34,123],[-43,89],[6,54],[33,63],[1,56],[-66,35],[59,132],[-21,100],[-80,57],[-71,24],[-4,65],[-46,38],[1,51],[-57,34],[18,66],[9,143],[71,31],[58,-46],[58,38],[-13,49],[47,68],[34,4],[52,64],[36,131],[-10,123],[-75,35],[30,60],[-2,94],[-111,96],[-23,75],[-78,61],[-75,76],[37,50],[57,19],[-6,45],[41,42],[5,110],[-14,92],[50,42],[3,63],[31,10],[31,-51],[38,-5],[64,-69],[19,58],[76,5],[163,69]],[[388,1533],[24,-38],[-11,-63],[40,-7],[31,-69],[-25,-76],[-53,-19],[-57,21],[-16,85],[-59,64],[-56,40],[34,53],[59,-55],[89,64]],[[153,4198],[69,-64],[-16,-64],[-105,-6],[-52,-71],[-49,61],[98,23],[46,30],[25,42],[-16,49]],[[2784,2699],[35,-37],[16,-68],[-18,-40],[-81,-62],[-43,28],[-37,-14],[35,-55],[8,-71],[-39,-29],[20,-37],[-15,-43],[-40,-19],[-17,-82],[-34,-40],[-58,-9],[-8,-44],[-50,-91],[-13,-67],[-54,-31],[-14,-57],[25,-32],[88,-11],[60,36],[45,-15],[75,24],[80,-28]],[[2750,1805],[-14,-39],[-44,-29],[-18,-128],[-80,-81],[-86,7],[-55,-32],[-72,-96],[-137,-73],[-69,14],[-35,40],[-74,-27],[8,59],[47,14],[6,36],[-52,20],[-16,-61],[-46,-26],[-30,39],[55,31],[-83,67],[-5,-69],[-58,-10]],[[1892,1461],[-34,95],[-30,24],[10,106],[-16,67],[31,50],[47,32],[16,37],[69,36],[27,37],[9,71],[-90,56],[-40,-10],[-82,94],[42,58],[75,60],[49,19],[-23,55],[30,72],[7,94],[-40,30]],[[1949,2544],[24,43],[83,20],[33,46],[23,68],[77,23],[36,-30],[56,7],[59,127],[46,35],[52,-7],[38,-28],[39,32],[36,-35],[-16,-56],[95,-48],[38,-45],[80,21],[36,-18]],[[4347,5027],[39,-20],[36,-82],[6,-61],[66,15],[21,-39],[-32,-57],[27,-91],[-27,-50],[99,-96],[88,27],[43,-26],[74,66],[49,-34],[132,5],[38,11],[-3,-88],[-33,-63],[-11,-80],[-53,-32],[-11,-48],[-48,-40],[20,-38],[-6,-64],[25,-55]],[[4886,4087],[-78,-64],[4,-93],[-58,-22],[-10,-89],[33,-82],[-31,-27],[-2,-48],[73,-92],[-23,-75],[-41,-15],[-33,-82],[62,-148],[1,-71],[45,-60],[22,-58],[-55,-38],[-80,16],[-32,-62],[38,-58],[-14,-36],[-47,-17],[-26,-36],[17,-54],[-3,-55],[-63,-53],[-78,58],[-31,1],[-34,-61],[-171,27]],[[4271,2693],[36,96],[-24,37],[-105,13],[-25,-30],[-21,-79],[-74,5],[-28,25],[-45,-5],[-41,24],[-54,0],[18,-48],[-58,-49],[0,-62],[-47,-19],[-36,-52],[6,-46],[-37,-63],[-97,-24],[-73,-44],[-56,80],[-43,1],[-49,-33],[-52,-120],[-75,-29],[-59,-53],[11,-75],[19,-37],[48,-2],[30,-42]],[[3340,2062],[-47,-28],[16,-92],[50,-33],[-90,-62],[-40,-8],[47,-57],[-45,-32],[-29,45],[-70,-48],[-64,22],[42,97],[-24,49],[-95,-58],[-13,55],[30,41],[-53,36],[-41,1],[1,58],[21,48],[-22,51],[-43,-26],[-11,-64],[12,-30],[-77,-22],[61,-42],[-27,-86],[-39,-52],[-40,-20]],[[2784,2699],[23,35],[25,89],[0,59],[98,100],[4,42],[38,52],[-2,75],[23,14]],[[2993,3165],[32,-4],[28,45],[62,30],[71,0],[91,100],[93,43],[36,-29],[57,1],[6,48],[35,20],[-16,47],[64,96],[-12,27],[65,25],[-25,38],[63,49],[37,58],[46,-36],[44,58],[12,61],[33,53],[-44,61],[12,68],[-36,99],[-76,23],[-26,22],[-4,55],[71,62],[-2,43],[-42,40],[-5,58],[73,-7],[94,31],[37,-35],[82,15],[52,-16],[21,54],[59,101],[54,72],[32,6],[4,69],[25,64],[56,29],[16,61],[-37,48],[25,23],[-23,53],[59,35],[55,-2]],[[4466,6151],[-33,-88],[29,-26],[47,-91],[-3,-108],[-19,-71],[62,-49],[62,3],[-8,-47],[21,-152],[19,-64],[-24,2],[-35,-60],[-38,3],[-27,-78],[31,-114],[-60,-59],[-88,-44],[-55,-81]],[[2993,3165],[-65,41],[19,48],[-5,65],[20,35],[-19,71],[28,40],[-20,65],[-64,3],[-17,58],[-25,15],[1,79],[-49,105],[-126,-48],[-63,48],[31,57]],[[2639,3847],[20,72],[-11,73],[19,81],[-32,36],[-68,3],[-61,62],[-57,-32],[-46,2],[-20,96]],[[2383,4240],[61,13],[65,56],[42,9],[14,85],[47,66],[61,5],[22,-38],[47,0],[75,27],[17,42],[64,-30],[63,73],[95,67],[-38,44],[-55,-8],[-49,54],[35,39],[73,-69],[48,33],[69,106],[128,97]],[[3267,4911],[83,41],[26,-27],[104,-32],[44,86],[63,56],[35,-3],[47,71],[43,-13],[-6,-47],[85,-108],[25,-55],[92,6],[56,26],[18,50],[53,39],[30,-24],[43,40],[133,70],[-73,116],[-42,-20],[-66,100],[-66,39],[-49,80],[24,25],[25,100],[-16,30],[-67,30],[-17,66],[-91,25],[-33,-22]],[[3770,5656],[-16,27],[35,70],[94,45],[98,-25],[16,61],[-53,-13],[32,150],[25,48],[54,37],[44,-17],[44,12],[55,-24],[20,-34],[-27,-60],[49,-27],[6,69],[85,20],[35,48],[-18,48],[87,20],[31,40]],[[1532,6898],[20,-36],[61,-30],[3,-54],[82,-50],[-7,-52],[-66,-34],[-56,-1],[-36,69],[-14,110],[13,78]],[[3008,5083],[34,-120],[-59,-31],[-31,39],[8,71],[48,41]],[[2302,5115],[85,-42],[-11,-40],[-59,-19],[-47,18],[32,83]],[[4271,2693],[-42,-16],[-15,-81],[20,-49],[-40,-53],[19,-102],[-41,-15],[6,-62],[45,-20],[57,6],[39,-17],[-3,-70],[60,-111]],[[4376,2103],[-24,7],[-89,-38],[-44,49],[-46,0],[-60,-45],[-28,-73],[-35,-30],[-48,27],[-14,69],[-61,-41],[-13,-42],[-52,-49],[-67,-33],[-4,-35],[-113,-60],[-71,11],[-52,24],[-38,42],[31,28],[-35,56],[-129,33],[-44,59]],[[3918,1973],[80,-57],[-30,-21],[-21,-75],[-133,-79],[-6,41],[-49,11],[65,54],[4,62],[90,64]],[[5743,1879],[-62,-63],[-75,-15],[-88,-114]],[[5518,1687],[-47,17],[-75,71],[2,38],[-48,53],[-114,18]],[[5236,1884],[23,71],[-11,47],[38,10],[22,43],[61,24],[-4,30],[52,58],[-4,90],[-25,33],[-14,70],[-70,29],[26,54],[118,66],[21,34],[57,-49],[-28,-50],[12,-47],[70,1],[84,-24],[-31,-30],[117,-117],[-40,-59],[25,-49],[-28,-105],[37,-65],[-1,-70]],[[5343,1761],[25,-64],[55,-35],[-22,-33],[-58,-36],[14,-26],[-30,-71],[-46,-17],[-55,-76],[-81,-11],[-79,63],[13,64],[22,17],[48,-32],[55,7],[9,34],[90,-5],[-8,77],[33,55],[15,89]],[[6375,4796],[71,-1],[15,-60],[50,-93],[-21,-37],[-19,-116],[-24,-20],[30,-91],[-24,-64],[39,-17],[-37,-116],[5,-99],[76,-9],[81,-55],[0,-58],[22,-42],[72,6],[54,-23],[-30,-52],[8,-82],[16,-65],[51,-49],[8,-38],[-32,-61],[72,-139],[-13,-89],[27,5],[34,-50],[28,29],[43,-1],[6,-53],[48,28],[114,-43],[-46,-102]],[[7099,3139],[-51,-62],[20,-53],[47,-54],[117,8],[38,58],[-19,54],[38,27],[42,-47]],[[7331,3070],[-30,-56],[84,-98],[23,-88],[-24,-156],[-62,-11],[-23,-30],[-148,-11],[-15,-61],[17,-104],[38,-101],[4,-75],[-11,-78],[38,-73],[12,-56],[-16,-171],[-17,-64],[-65,-88],[-7,-47]],[[7129,1702],[-24,12],[0,154],[11,25],[-49,54],[-101,-15],[-33,8],[-48,67],[-51,20],[-19,66],[-44,2],[-53,58],[-38,-13],[-49,18],[-76,-59],[-65,-114],[-52,-26]],[[6438,1959],[-71,-59]],[[6367,1900],[-62,10],[-22,-17],[-55,23],[-25,70]],[[6203,1986],[21,41],[23,97],[-37,142],[-58,-22],[-79,-11],[-10,89],[-70,62],[-79,7],[-13,112],[-26,57],[-13,164],[-24,39],[38,72],[-14,64],[45,45],[-39,32],[-12,108],[-59,15],[-25,44],[-6,56],[17,54],[-42,40],[-79,-53],[-25,39],[-119,38],[-19,40],[33,64],[-68,116],[6,61],[-6,187]],[[5464,3785],[27,31],[-12,49],[34,19],[48,-33],[71,71],[9,33],[66,-5],[76,-59],[87,-121],[25,46],[-14,46],[50,19],[27,87],[42,86],[32,9],[26,58],[33,30],[59,7],[7,93],[-69,97],[-15,62],[-40,44],[40,88],[98,61],[-4,93],[41,58],[61,14],[22,35],[84,-7]],[[8260,2017],[67,-94],[-38,-29],[-84,34],[-8,69],[63,20]],[[5743,1879],[84,17],[54,27],[23,43],[-6,59],[40,2],[58,-47],[134,24],[73,-18]],[[6367,1900],[-2,-64],[57,-32]],[[6422,1804],[-5,-44]],[[6417,1760],[-66,-30],[-78,-11],[-72,27],[-49,-31],[-42,-74],[-40,-19],[-15,-55],[-54,-9],[-19,-44],[21,-66],[99,-74],[46,-47],[22,-46],[59,-11],[-11,-70]],[[6218,1200],[-30,31],[-61,24],[-145,123],[-55,-51],[-34,41],[31,29],[-34,78],[-29,28],[-108,-14],[-39,27],[-8,36],[-46,61],[-108,66],[-34,8]],[[6176,1007],[28,-107],[-83,-11],[54,69],[1,49]],[[745,4133],[107,67],[25,-22],[81,27],[67,-28],[14,54],[-39,67],[-42,11],[-7,37],[-47,31],[-47,-20],[-114,5],[-41,37],[-72,17],[-42,-48],[32,-23],[-7,-49],[-42,-11],[-57,46],[17,62],[34,-7],[70,68],[-12,38],[21,49],[47,4],[54,45],[120,-48],[9,-82],[78,-25],[123,-4],[75,32],[87,58],[97,-24],[84,-45],[15,-27],[90,20],[56,-84],[-12,-42],[86,-125],[80,-1],[100,49],[61,108],[28,-144],[54,-26],[44,51],[5,84],[47,-8],[67,-43],[81,1],[52,37],[101,-36],[10,-26]],[[2639,3847],[-139,29],[-21,-61],[-45,-8],[-51,106],[-51,50],[-106,-79],[-33,-55],[-29,5],[-35,-54],[-5,-46],[-60,-40],[-30,-58],[-84,-28],[-33,29],[-114,-28],[-32,-92],[-20,-15]],[[2138,4609],[42,-12],[37,-64],[-33,-30],[-172,15],[-78,-84],[30,-45],[-87,-36],[-124,65],[-10,112],[52,12],[27,-28],[74,14],[91,0],[92,42],[59,39]],[[7129,1702],[-61,-112],[-44,0],[-138,-44],[-130,6],[-17,-64],[2,-134],[35,-136],[-26,-33],[26,-30],[-17,-42],[43,-57],[61,-29],[-10,-47],[62,-47],[6,-58],[-35,-47]],[[6886,828],[-78,65],[-23,54]],[[6785,947],[0,80],[-123,108],[-35,90],[-45,45],[46,25],[22,37],[-6,182],[-65,48],[-91,-21],[-87,-4]],[[6401,1537],[-14,41],[35,25],[-17,138],[12,19]],[[6422,1804],[36,107],[-20,48]],[[7183,663],[74,-25],[64,-97],[62,-10],[41,-47],[22,-60],[-15,-55],[-79,68],[-44,13],[-92,-12],[-14,35],[-58,37],[-1,43],[-61,26],[-71,-48],[-23,47],[71,44],[11,-20],[113,61]],[[1949,2544],[-10,15],[-143,16],[-39,-44],[-32,-101],[-58,-38],[-46,12],[-89,-36],[-64,16],[-29,51]],[[4886,4087],[37,-18],[8,-56],[-26,-45],[71,-55],[42,-14],[2,-49],[52,-41],[53,-14],[78,-48],[14,54],[138,-42],[109,26]],[[5236,1884],[-60,-47],[-41,-57],[-76,-30],[64,-39],[3,-80],[-34,-12],[-46,52],[-63,-15],[-91,27],[25,47],[55,16],[-24,48],[89,91],[25,41],[39,-1],[50,75],[-16,49],[-73,48],[-87,-92],[-9,38],[41,78],[-12,45],[-139,-1],[-79,-42],[-59,52],[67,65],[-54,1],[-111,-53],[-55,20],[-49,-31],[-12,-56],[-50,5],[-51,44],[-27,-67]],[[4897,2144],[38,-12],[-90,-66],[-92,-96],[-38,-16],[-50,14],[-6,70],[29,24],[84,-6],[19,-24],[52,97],[54,15]],[[4563,2047],[32,-25],[-31,-37],[21,-32],[-13,-127],[47,-63],[48,-19],[-6,-43],[-52,9],[9,46],[-41,14],[-78,114],[42,-9],[-3,122],[25,50]],[[1892,1461],[-76,-25],[-34,-48],[-37,68],[-71,84],[27,97],[-12,100],[-75,58],[23,51],[-85,-1],[-12,-43],[-56,44],[-58,92],[-39,82],[-36,30],[-67,-12],[-81,33]],[[7312,1618],[56,-31],[22,-55],[100,-38],[94,47],[7,-86],[76,-76],[-3,-63],[32,-30],[85,12],[-36,-71],[97,-29],[57,18],[62,42],[12,44],[50,67],[46,-23],[87,7],[56,45],[-21,50],[38,20],[39,57],[39,7],[108,-76],[69,10],[-20,-55],[-111,-53],[-52,-6],[-24,-49],[-69,-15],[-59,13],[-94,-23],[-21,-64],[-48,-38],[21,-38],[-18,-46],[32,-51],[-5,-60],[-38,-42],[-31,40],[-57,-10],[-89,-50],[-13,43],[24,53],[43,34],[-24,52],[-70,45],[-124,21],[-39,35],[-103,-76],[-4,-127],[-50,47],[-86,-21],[-24,20],[-93,-19],[-55,-95],[-51,74],[24,48],[-73,45],[-17,48],[-62,60],[8,108],[-19,27],[78,68],[1,45],[-25,56],[43,30],[59,-40],[47,20],[-4,52],[96,-5],[24,51]],[[7908,1565],[41,-43],[-37,-40],[-58,3],[0,52],[54,28]],[[7969,926],[70,-67],[-37,-8],[-44,43],[11,32]],[[7099,3139],[42,5],[68,-27],[42,31],[122,14],[6,-37],[-48,-55]],[[6460,924],[64,-86],[99,-7],[9,-45],[38,-32],[-38,-44],[-82,7],[-15,-54],[-53,-22],[-15,-68],[-64,-4],[-24,-43],[10,-43],[-45,-28],[-51,74],[77,13],[28,54],[-6,49],[105,82],[14,56],[-58,44],[-12,34],[19,63]],[[6886,828],[-67,-73],[-80,21],[-48,-9],[15,84],[-14,78]],[[6692,929],[93,18]],[[5932,540],[34,-10],[75,-65],[11,-40],[-100,-36],[-54,-36],[-72,26],[-17,52],[62,0],[20,25],[0,65],[41,19]],[[6877,324],[-24,-60],[15,-26],[-17,-65],[37,-81],[-20,-41],[-82,-51],[-36,41],[32,46],[64,27],[-24,49],[12,69],[43,92]],[[6401,1537],[15,-158],[-36,-58]],[[6380,1321],[-16,-32],[-119,-57],[-27,-32]],[[6692,929],[23,103],[-53,34],[-59,13],[-57,49],[-54,16],[-18,79],[-86,30],[-8,68]],[[6414,1089],[39,-86],[-45,-24],[-19,82],[25,28]],[[3267,4911],[28,74],[-46,32],[-35,86],[67,102],[69,11],[79,-16],[59,16],[16,48],[70,80],[97,57],[12,39],[71,68],[6,53],[-26,30],[36,65]]],"transform":{"scale":[0.00019089092855668034,0.00015739791664461455],"translate":[130.83819581118792,33.71292333264586]},"objects":{"japan":{"type":"GeometryCollection","geometries":[{"arcs":[[[0,1,2,3]],[[4]],[[5]]],"type":"MultiPolygon","properties":{"pref":"山口県","city":"下関市","code5":"35201","code6":"352012"}},{"arcs":[[6,7,8,9]],"type":"Polygon","properties":{"pref":"山口県","city":"宇部市","code5":"35202","code6":"352021"}},{"arcs":[[10,11,12,13,-7,14,15]],"type":"Polygon","properties":{"pref":"山口県","city":"山口市","code5":"35203","code6":"352039"}},{"arcs":[[[16,-16,17,18,19,20,21]],[[22]],[[23]],[[24]]],"type":"MultiPolygon","properties":{"pref":"山口県","city":"萩市","code5":"35204","code6":"352047"}},{"arcs":[[[-13,25,26]],[[27]]],"type":"MultiPolygon","properties":{"pref":"山口県","city":"防府市","code5":"35206","code6":"352063"}},{"arcs":[[[28,29,30]],[[31]]],"type":"MultiPolygon","properties":{"pref":"山口県","city":"下松市","code5":"35207","code6":"352071"}},{"arcs":[[[32,33,34,35,36,37,38,39]],[[40]]],"type":"MultiPolygon","properties":{"pref":"山口県","city":"岩国市","code5":"35208","code6":"352080"}},{"arcs":[[[-29,41,-38,42,43,44,45]],[[46]]],"type":"MultiPolygon","properties":{"pref":"山口県","city":"光市","code5":"35210","code6":"352101"}},{"arcs":[[[-1,47,-19,48]],[[49]]],"type":"MultiPolygon","properties":{"pref":"山口県","city":"長門市","code5":"35211","code6":"352110"}},{"arcs":[[[-36,50,51,52,53,-44,54]],[[55]]],"type":"MultiPolygon","properties":{"pref":"山口県","city":"柳井市","code5":"35212","code6":"352128"}},{"arcs":[[-2,-49,-18,-15,-10,56]],"type":"Polygon","properties":{"pref":"山口県","city":"美祢市","code5":"35213","code6":"352136"}},{"arcs":[[[57,-39,-42,-31,58,-26,-12]],[[59]],[[60]]],"type":"MultiPolygon","properties":{"pref":"山口県","city":"周南市","code5":"35215","code6":"352152"}},{"arcs":[[-3,-57,-9,61]],"type":"Polygon","properties":{"pref":"山口県","city":"山陽小野田市","code5":"35216","code6":"352161"}},{"arcs":[[[62]],[[63]],[[64]]],"type":"MultiPolygon","properties":{"pref":"山口県","county":"大島郡","city":"周防大島町","code5":"35305","code6":"353051"}},{"arcs":[[65,-34]],"type":"Polygon","properties":{"pref":"山口県","county":"玖珂郡","city":"和木町","code5":"35321","code6":"353213"}},{"arcs":[[[66]],[[-52,67,68]],[[69]],[[70]]],"type":"MultiPolygon","properties":{"pref":"山口県","county":"熊毛郡","city":"上関町","code5":"35341","code6":"353418"}},{"arcs":[[[-45,-54,71,72]],[[-37,-55,-43]]],"type":"MultiPolygon","properties":{"pref":"山口県","county":"熊毛郡","city":"田布施町","code5":"35343","code6":"353434"}},{"arcs":[[[-53,-69,73,-72]],[[74]]],"type":"MultiPolygon","properties":{"pref":"山口県","county":"熊毛郡","city":"平生町","code5":"35344","code6":"353442"}},{"arcs":[[-21,75]],"type":"Polygon","properties":{"pref":"山口県","county":"阿武郡","city":"阿武町","code5":"35502","code6":"355020"}}]}}}