{"type":"Topology","arcs":[[[4959,3528],[-23,-109],[-32,-100],[-59,-100],[28,-49],[-21,-59],[10,-46],[61,-59]],[[4923,3006],[-63,26],[-171,-15],[7,-69],[-38,-45],[-15,-95],[88,27],[45,-81],[-12,-95],[-17,-12]],[[4747,2647],[-73,-5],[-79,-39],[-28,28],[-73,22],[-43,-7],[-53,48],[-72,-11]],[[4326,2683],[-24,95],[26,40],[54,38],[-13,118],[-27,42],[-38,13],[-78,-42],[-33,-60],[-60,14]],[[4133,2941],[19,38],[-16,40],[-44,-20],[-79,62],[13,79],[-35,53],[20,31]],[[4011,3224],[93,2],[131,56],[-30,101],[-5,55],[-41,12],[-2,67],[26,14],[-3,61]],[[4180,3592],[59,16],[95,-43],[89,15],[7,59],[63,31],[58,9]],[[4551,3679],[22,4],[32,-79],[66,-16],[28,74],[89,53]],[[4788,3715],[58,-20],[55,-78],[27,-78],[31,-11]],[[4921,3321],[34,-40],[-18,-40],[-63,0],[47,80]],[[5019,3784],[-94,47],[-52,-14],[-74,57],[-66,-26],[-24,-47]],[[4709,3801],[-98,-25],[-57,-57]],[[4554,3719],[-103,76],[-59,1],[-65,31]],[[4327,3827],[-13,99],[-30,96],[-84,-8],[-40,63],[-1,33],[-82,-10]],[[4077,4100],[6,108],[69,-15],[97,21],[63,63],[67,36],[111,12],[124,0],[94,-30],[24,20],[35,80],[81,16],[0,-47],[23,-53],[-43,-87],[22,-58],[47,-38],[82,-28],[69,-64],[92,-5],[-64,-129],[-70,-97],[13,-21]],[[5149,4409],[-66,-141],[-19,-60],[-8,-131],[-56,45],[-126,45],[-11,60],[62,0],[72,55],[16,67],[98,23],[38,37]],[[4958,4486],[34,-7],[22,-42],[-2,-62],[-64,-28],[-37,-54],[-54,58],[28,75],[73,60]],[[4923,3006],[-45,-17],[-1,-51],[43,-58],[63,-46],[82,-2],[20,53],[-34,28],[41,42],[43,-28],[58,-130]],[[5193,2797],[-39,-23],[-49,-118],[-52,32],[-52,-33],[-18,-82],[-72,-7],[-121,-33],[-48,-36],[-28,7]],[[4714,2504],[48,33],[-15,110]],[[5193,2797],[68,-132],[30,-25],[81,-24],[51,-36],[51,-163],[-32,-50],[6,-31],[-25,-62],[-39,-16],[-23,-56],[-88,-82],[-90,-54],[-75,-13],[-32,-50],[46,-11],[40,-57],[-17,-45],[249,54],[11,-21],[80,15],[37,-40],[-140,-34],[-44,-54],[97,18],[14,18],[106,-25],[48,40],[61,23],[33,-62],[-58,-19],[-43,-37],[-176,-70],[-33,-45],[-53,-6]],[[5334,1645],[-22,75],[-104,-51],[-208,-84],[-26,-37],[-72,2],[-43,-23],[-57,2],[-35,44],[-46,2],[-69,80],[-108,-13]],[[4544,1642],[-31,25],[-55,-10],[-20,42],[11,63],[71,71],[8,52],[76,64],[87,13],[-9,95],[-73,25],[-102,6],[-125,-54],[-97,33],[-57,-7]],[[4228,2060],[30,75],[-26,69],[126,117],[60,-19],[56,38],[84,26],[5,38],[61,46],[76,14],[14,40]],[[5218,2045],[25,-27],[-37,-61],[-46,33],[58,55]],[[3859,3441],[28,-135],[7,-86]],[[3894,3220],[-51,3],[-48,-52],[-66,-35],[-30,-64],[-64,66],[-61,-51],[-42,-9],[-4,-61],[-22,-45],[-67,-44],[-96,0],[-54,-39],[-31,-57],[-41,10],[-97,-43],[-26,-36]],[[3094,2763],[-139,-10],[-108,24],[-25,37],[-9,69],[-57,46],[13,39],[-34,22],[79,86],[3,65],[-45,78],[7,39],[-26,33]],[[2753,3291],[205,17],[63,20],[263,3],[40,-8],[81,15],[63,-10],[59,31],[-1,63],[222,19],[103,34]],[[3851,3475],[8,-34]],[[2753,3291],[-39,118],[22,51],[43,23],[36,78],[58,59],[10,114],[33,45],[-1,72],[22,20],[-3,58],[-63,68]],[[2871,3997],[62,33],[86,4],[54,-11],[68,30],[69,-15],[19,-30],[79,17],[42,-56],[41,3],[34,41],[72,-26],[30,15],[53,-20],[21,73],[52,5],[92,-81]],[[3745,3979],[-41,-103],[80,-109],[-27,-54],[44,-103],[66,16],[14,-47],[-39,-30],[9,-74]],[[3094,2763],[27,-34],[-50,-50],[-12,-60],[-55,-17],[-38,-34],[19,-104],[-52,-97],[3,-56],[54,-9]],[[2990,2302],[28,-39],[12,-64],[-91,-17],[-81,-52],[-83,29],[-69,-49],[-24,-49],[-42,-27],[-51,0],[-36,23],[-67,-24],[-53,-51],[-77,-31],[-76,15]],[[2280,1966],[-28,66],[-4,56]],[[2248,2088],[106,79],[61,18],[20,70],[0,128],[-94,2],[-39,18],[26,118],[-33,45],[-4,44],[54,63],[-2,85],[21,47],[-14,65],[37,40],[13,84],[-23,11],[-13,76],[-68,46],[-31,46],[12,39],[-38,44],[-72,-39],[-18,-30],[-146,-27],[-114,8],[-30,-32],[-81,-12]],[[1778,3124],[5,133],[-8,105]],[[1775,3362],[14,39],[43,37],[59,-14],[50,82],[46,22],[12,60],[40,45],[60,-40],[50,10],[56,55],[67,-43],[146,27],[89,97],[-21,111],[45,45],[10,37],[51,15],[92,57],[115,-25],[72,18]],[[2280,1966],[-56,-70],[-36,12],[-151,-74],[-51,5],[-37,-42]],[[1949,1797],[-107,-42],[-86,1],[-46,93],[-42,6],[-101,-18],[-46,-38],[9,-84],[-28,-75],[-32,-29],[-86,9],[-64,-58],[-61,19],[-27,50],[-117,23],[-38,84],[-50,56],[-17,42],[-50,23],[-28,44],[-53,-2],[-56,-48],[-153,-6],[-10,29],[-57,9],[-103,-37],[-42,2],[-42,70],[-59,21],[-49,-12],[-63,16],[-30,-12],[-36,41],[-90,14],[-78,75],[-11,73],[6,25],[84,47],[-18,64],[16,40],[54,43],[-12,60],[-52,4],[4,42],[85,70],[-29,72],[28,46],[-63,49],[19,39],[-40,102],[49,71],[-33,57],[47,-1],[62,34],[45,-15],[65,44],[10,90],[31,49],[60,38],[84,58],[36,67],[114,63],[78,-65],[105,28]],[[835,3357],[31,-16],[35,-64],[56,-35],[9,-42],[46,-26],[18,-56],[126,-31],[54,25],[24,-82],[51,-78],[1,-33],[59,-76],[3,-103],[57,-20],[112,3],[26,-21],[20,-63],[69,-5]],[[1632,2634],[25,-91],[-56,-43],[45,-88],[93,-13],[58,-36],[-5,-70],[126,-52],[38,15],[70,-36],[-31,-50],[35,-75],[75,-35],[143,28]],[[1778,3124],[-4,-1]],[[1774,3123],[-104,26],[-54,-25],[-109,37],[-70,36],[-60,8],[2,82],[-62,106],[-46,45],[-23,63],[22,22]],[[1270,3523],[44,27],[56,64],[92,3],[-11,-43],[35,-40],[-3,-47],[66,-40],[14,-36],[52,-8],[41,-35],[119,-6]],[[4228,2060],[-90,-48],[-113,-22]],[[4025,1990],[31,37],[4,50],[66,55],[-23,55],[44,58],[-1,134],[16,37],[-97,16],[-38,41],[11,143]],[[4038,2616],[32,-22],[159,-11],[47,87],[50,13]],[[4025,1990],[-75,8],[-145,-56],[-71,26],[-68,-43],[-51,20],[8,32],[-55,18],[-32,32],[-46,-5],[-4,68],[-21,21],[16,56],[-90,125],[-49,26]],[[3342,2318],[26,99],[55,1],[65,53],[74,-61],[63,48],[67,6],[94,57],[30,-10],[62,29],[-1,38]],[[3877,2578],[161,38]],[[3877,2578],[21,66],[7,75],[27,19],[0,54],[82,73],[55,10],[-2,57],[66,9]],[[4011,3224],[-82,25],[-35,-29]],[[3859,3441],[139,96],[119,21],[62,43]],[[4179,3601],[1,-9]],[[3342,2318],[-43,-23],[-22,53],[-126,16],[-69,-15],[-92,-47]],[[4544,1642],[-8,-20],[-143,-54],[-45,11],[-54,-48],[-28,-55],[-49,10],[-31,-27],[-70,-18],[17,-39],[-61,-25],[-56,-3],[-26,-58],[-49,-71],[-58,-11],[-11,-68],[-28,-30]],[[3844,1136],[-137,13],[-31,28],[-36,-16],[-136,-4],[-49,30],[-78,-1],[-89,-30],[-32,22],[-58,-22],[-40,-44],[-55,-10],[-31,31],[-72,-29],[-17,13],[-100,2],[-11,-22],[-184,-94],[-58,-43],[6,-55]],[[2636,905],[-81,-15],[-116,65],[-138,-8],[-176,-38],[-44,15],[44,117],[-7,64],[18,56],[-65,150],[15,58],[-1,99],[-18,51],[-49,34],[3,57],[-69,65],[18,71],[-21,51]],[[4252,865],[-36,-12],[-155,-100],[-90,8],[-7,-58],[-30,-14],[-38,37],[-76,-59]],[[3820,667],[-52,46],[-36,92],[-57,37],[18,28],[-27,85],[25,53],[107,50],[37,40]],[[3835,1098],[102,8],[78,-28],[113,52],[34,-30],[6,-88],[44,-68],[51,1],[-11,-80]],[[4323,634],[81,-56],[-58,-28],[-34,50],[11,34]],[[5334,1645],[-48,-16],[-114,-82],[-64,-16],[-82,1],[-59,-45],[-19,-43],[-60,-17],[-70,-1],[6,-43],[-61,-10],[26,-53],[-20,-62],[-48,-59],[-43,48],[-63,-48],[8,-90],[-64,-56],[-88,-57],[-50,-20],[-95,-73],[-74,-38]],[[3835,1098],[9,38]],[[3820,667],[-27,-58],[-75,-43],[-31,-66],[123,1],[-27,-65],[-60,-29],[-51,-86],[13,-33],[-52,-47],[5,-32],[-86,-2],[-49,25],[-61,-2],[-47,-63],[-1,-52],[44,-38],[-16,-77],[-42,18],[-12,35],[-86,37],[-71,5],[-19,-36],[-165,-13],[-104,93],[-37,-3],[-83,-39],[-2,50],[-40,45],[4,33],[-51,83],[-43,18],[10,81],[-86,13],[-6,72],[-25,48],[72,31],[35,41],[71,45],[-67,55],[21,25],[-34,58],[34,33],[-3,51],[-57,26]],[[4788,3715],[-52,22],[21,41],[-48,23]],[[5019,3784],[35,-30],[-12,-52],[-74,-22],[-39,-112],[30,-40]],[[4551,3679],[3,40]],[[4179,3601],[-3,26]],[[4176,3627],[69,15],[-4,67],[35,8],[3,59],[48,51]],[[4176,3627],[-85,-14],[-6,35],[-56,45],[-15,106],[-34,21],[-39,64]],[[3941,3884],[34,7],[30,49],[45,24],[-1,59],[-23,29],[51,48]],[[3745,3979],[39,2],[13,-45],[43,-10],[33,27],[60,-40],[8,-29]],[[1632,2634],[63,82],[59,35],[32,76],[1,69],[-20,21],[31,136],[-24,70]],[[835,3357],[11,116],[62,35],[42,-18],[67,59],[43,7],[21,-33],[135,52],[54,-52]]],"transform":{"scale":[0.00019088471940577497,0.00015738658018538015],"translate":[133.66074805417952,33.54561305359971]},"objects":{"japan":{"type":"GeometryCollection","geometries":[{"arcs":[[[0,1,2,3,4,5,6,7,8]],[[9]]],"type":"MultiPolygon","properties":{"pref":"徳島県","city":"徳島市","code5":"36201","code6":"362018"}},{"arcs":[[[10,11,12,13,14]],[[15]],[[16]]],"type":"MultiPolygon","properties":{"pref":"徳島県","city":"鳴門市","code5":"36202","code6":"362026"}},{"arcs":[[-2,17,18,19]],"type":"Polygon","properties":{"pref":"徳島県","city":"小松島市","code5":"36203","code6":"362034"}},{"arcs":[[[-19,20,21,22,23]],[[24]]],"type":"MultiPolygon","properties":{"pref":"徳島県","city":"阿南市","code5":"36204","code6":"362042"}},{"arcs":[[25,26,27,28,29]],"type":"Polygon","properties":{"pref":"徳島県","city":"吉野川市","code5":"36205","code6":"362051"}},{"arcs":[[-29,30,31,32]],"type":"Polygon","properties":{"pref":"徳島県","city":"阿波市","code5":"36206","code6":"362069"}},{"arcs":[[-28,33,34,35,36,37,38,-31]],"type":"Polygon","properties":{"pref":"徳島県","city":"美馬市","code5":"36207","code6":"362077"}},{"arcs":[[[-36,39,40,41,42]],[[-38,43,44,45]]],"type":"MultiPolygon","properties":{"pref":"徳島県","city":"三好市","code5":"36208","code6":"362085"}},{"arcs":[[-3,-20,-24,46,47,48]],"type":"Polygon","properties":{"pref":"徳島県","county":"勝浦郡","city":"勝浦町","code5":"36301","code6":"363014"}},{"arcs":[[-48,49,50,51]],"type":"Polygon","properties":{"pref":"徳島県","county":"勝浦郡","city":"上勝町","code5":"36302","code6":"363022"}},{"arcs":[[-4,-49,-52,52]],"type":"Polygon","properties":{"pref":"徳島県","county":"名東郡","city":"佐那河内村","code5":"36321","code6":"363219"}},{"arcs":[[-6,53,-26,54,55]],"type":"Polygon","properties":{"pref":"徳島県","county":"名西郡","city":"石井町","code5":"36341","code6":"363413"}},{"arcs":[[-5,-53,-51,56,-34,-27,-54]],"type":"Polygon","properties":{"pref":"徳島県","county":"名西郡","city":"神山町","code5":"36342","code6":"363421"}},{"arcs":[[-23,57,58,59,-40,-35,-57,-50,-47]],"type":"Polygon","properties":{"pref":"徳島県","county":"那賀郡","city":"那賀町","code5":"36368","code6":"363685"}},{"arcs":[[[60,61,62]],[[63]]],"type":"MultiPolygon","properties":{"pref":"徳島県","county":"海部郡","city":"牟岐町","code5":"36383","code6":"363839"}},{"arcs":[[-22,64,-63,65,-58]],"type":"Polygon","properties":{"pref":"徳島県","county":"海部郡","city":"美波町","code5":"36387","code6":"363871"}},{"arcs":[[-59,-66,-62,66]],"type":"Polygon","properties":{"pref":"徳島県","county":"海部郡","city":"海陽町","code5":"36388","code6":"363880"}},{"arcs":[[-9,67,-11,68]],"type":"Polygon","properties":{"pref":"徳島県","county":"板野郡","city":"松茂町","code5":"36401","code6":"364011"}},{"arcs":[[-8,69,-12,-68]],"type":"Polygon","properties":{"pref":"徳島県","county":"板野郡","city":"北島町","code5":"36402","code6":"364029"}},{"arcs":[[-7,-56,70,71,-13,-70]],"type":"Polygon","properties":{"pref":"徳島県","county":"板野郡","city":"藍住町","code5":"36403","code6":"364037"}},{"arcs":[[-14,-72,72,73]],"type":"Polygon","properties":{"pref":"徳島県","county":"板野郡","city":"板野町","code5":"36404","code6":"364045"}},{"arcs":[[-30,-33,74,-73,-71,-55]],"type":"Polygon","properties":{"pref":"徳島県","county":"板野郡","city":"上板町","code5":"36405","code6":"364053"}},{"arcs":[[-37,-43,75,-44]],"type":"Polygon","properties":{"pref":"徳島県","county":"美馬郡","city":"つるぎ町","code5":"36468","code6":"364681"}},{"arcs":[[-42,76,-45,-76]],"type":"Polygon","properties":{"pref":"徳島県","county":"三好郡","city":"東みよし町","code5":"36489","code6":"364894"}}]}}}