{"type":"Topology","arcs":[[[5221,1450],[19,-44],[2,-97],[13,-41],[-56,-47],[-13,-44],[-76,-68],[-141,-17],[-25,-23],[-73,-4],[-111,70],[-83,-61],[-9,-29],[-82,-17],[-26,43],[-72,24]],[[4488,1095],[-119,120],[-15,60],[-40,53],[-44,-2]],[[4270,1326],[-31,193],[40,30],[18,113],[-30,26],[-7,61],[17,79],[-71,21],[-35,227],[-35,55],[-39,17],[-89,122],[-9,55],[-33,3],[-34,65],[27,114],[44,76],[-49,18],[-33,43],[-42,-22],[-73,-8],[-40,26],[-188,65],[0,68]],[[3578,2773],[-26,44],[16,55],[-36,69],[0,63],[-56,60],[-57,98],[44,51],[94,16],[7,30],[60,-4],[37,76],[-11,33],[-51,33],[-26,84],[-50,19],[2,52],[-24,22],[15,58],[-10,100],[-27,64],[-31,7],[8,89],[-18,39]],[[3438,3931],[37,-15],[59,-78],[-3,-52],[41,-2],[36,56],[101,-34],[34,-77],[4,-55],[124,78],[21,-57],[90,-65],[15,-43],[227,-38],[50,21],[136,-29],[55,35],[22,-32],[90,-17],[36,147],[54,-5],[-11,-130],[44,-8],[3,110],[39,-27],[-7,-96],[57,32],[46,100],[12,66],[-6,84],[8,73],[72,-53],[61,-72],[64,-137],[46,6],[-36,134],[7,55],[49,15],[17,62],[33,11],[-23,59],[-32,-23],[-23,55],[72,15],[73,42],[55,-28],[76,-59],[66,-30],[36,-67],[-2,-50],[-54,-145],[23,-99],[-17,-39],[-28,-122],[47,-86],[48,-48]],[[5482,3269],[-8,-40],[-80,-121]],[[5394,3108],[-53,30],[-135,9],[-29,30],[-44,-76],[13,-62],[-9,-56],[-30,-12],[2,-59],[-26,-44],[-58,-264],[-17,-183],[35,-67],[-29,-67],[27,-56],[-19,-49],[-56,-75],[-3,-135],[35,-35],[9,-55],[-6,-100],[23,-55],[50,-51],[36,-60],[50,-154],[61,-12]],[[4522,4135],[26,-122],[-24,-74],[-46,-9],[-54,-88],[-37,-18],[-22,40],[73,134],[84,137]],[[4597,4385],[27,-42],[-9,-72],[-82,-53],[-8,73],[29,79],[43,15]],[[4961,4117],[57,-30],[-33,-34],[-59,-8],[35,72]],[[4059,3605],[-60,-3],[13,54],[47,-51]],[[2396,3108],[10,-70],[27,-32],[44,40],[56,-39],[11,-42],[111,-94]],[[2655,2871],[37,-37],[32,-98],[86,56],[87,27],[52,-1],[89,53],[76,20],[43,-166],[77,-24],[-2,-78]],[[3232,2623],[-6,-71],[-44,-81],[-29,-10],[53,-84],[-26,-35],[10,-162],[-27,-84],[44,-47]],[[3207,2049],[-64,-8],[-90,-39],[-121,-20],[-158,23],[7,25],[-77,90],[-83,48],[-58,1],[-33,54]],[[2530,2223],[-32,78],[9,41],[-22,43],[-73,-16],[-108,199],[-80,-46],[-43,48],[-47,-25]],[[2134,2545],[2,68],[-30,44],[2,50],[-73,127]],[[2035,2834],[33,36],[-9,45],[-44,81],[56,41],[60,-76],[29,39],[-57,59],[91,49],[60,-125],[60,32],[2,45],[80,48]],[[1574,4030],[72,-28],[-9,-42],[61,-83],[47,-107],[1,-40],[-68,-82],[-60,20],[-32,-11],[-27,-62],[1,-43],[-86,-13],[-123,96],[36,47],[-4,40],[19,85],[59,10],[18,84],[52,-14],[31,19],[-6,68],[18,56]],[[2151,4050],[43,-38],[67,-22],[-18,-89],[-56,-63],[-38,0],[-47,-36],[-18,-52],[-58,-37],[-47,11],[-4,56],[26,41],[-29,61],[-34,32],[47,33],[80,11],[86,92]],[[1241,4152],[32,-38],[-32,-66],[50,-20],[-5,-64],[-77,-64],[-58,47],[7,69],[-44,60],[16,31],[111,45]],[[2168,3680],[49,-15],[14,-44],[-60,-38],[-37,3],[-6,57],[40,37]],[[1050,3865],[29,-77],[-51,15],[22,62]],[[3578,2773],[-52,-100],[-43,-25],[-21,35],[-61,-46],[-84,2],[-85,-16]],[[2655,2871],[42,57],[-17,67],[35,71],[-54,94],[-67,82]],[[2594,3242],[-14,27]],[[2580,3269],[-16,119],[-42,4]],[[2522,3392],[11,84],[-13,56],[170,97],[2,-48],[-97,-87],[-4,-58],[62,38],[107,109],[8,39],[71,-28],[10,-44],[-12,-76],[-84,-71],[-81,-3],[6,-42],[-74,-14],[33,-88],[104,33],[98,-14],[37,22],[-1,32],[141,134],[31,-6],[111,109],[-34,45],[14,58],[-21,42],[-19,69],[51,76],[41,-11],[15,-39],[60,7],[29,30],[48,-43],[38,7],[49,106],[0,0],[9,18]],[[2518,3991],[35,-54],[-19,-77],[-63,18],[-23,75],[70,38]],[[2382,4324],[39,-68],[-41,-60],[-38,29],[2,42],[-39,35],[77,22]],[[2530,2223],[-37,5],[-30,-37]],[[2463,2191],[-76,-29],[20,-86],[62,-147],[-126,-99]],[[2343,1830],[-35,9],[-62,78],[-33,22],[-61,-24],[-41,30],[-147,-9],[-51,138],[-107,26],[-90,131],[13,66]],[[1729,2297],[59,24],[47,89],[53,-12],[29,-52],[42,31],[-16,59],[95,47],[37,-39],[66,24],[-7,77]],[[1831,394],[-64,-55],[-34,-8],[-51,-80],[-15,-148],[-108,-72],[-73,25],[-101,-56],[-77,1],[-11,60],[-55,26],[-55,66],[-81,21],[-142,-33],[-108,124],[-116,-57],[-79,37],[-49,81],[110,11],[99,49],[42,39],[30,73],[22,105],[-19,21],[1,83],[30,40],[25,86],[-20,28],[10,197],[-60,13],[79,100],[31,252],[-23,54],[46,50],[5,56]],[[1020,1583],[86,-25],[50,38],[47,-53],[-14,-54],[29,-123],[160,-80],[41,19],[75,-31],[64,-54],[34,-87],[-24,-51],[46,-178],[5,-61],[95,-54],[59,-137],[6,-139],[35,-41],[17,-78]],[[0,1295],[127,-81],[-30,-32],[-46,2],[-51,111]],[[5851,1692],[-38,-22],[-51,28],[-28,-36],[-84,25],[-104,16],[-40,-14],[-45,-49],[-67,-31]],[[5394,1609],[6,53],[71,119],[-2,120],[16,36],[-28,57],[9,129],[28,36],[16,86],[-33,52],[38,51],[-14,73],[-41,40],[33,71],[-36,88],[53,155],[-58,-1],[-48,54],[-16,106],[52,97],[-46,77]],[[5482,3269],[71,-19],[40,25],[-3,58],[58,14],[19,123],[-35,17],[7,45],[52,-17],[11,-56],[53,12],[62,-23],[74,69],[-30,84],[-30,25],[-17,67],[60,24],[32,-41],[31,-128],[-4,-30],[52,-34],[17,-49],[54,-29],[70,12],[16,43],[65,74],[63,-66],[8,-90],[66,-2],[4,-36],[-40,-33],[8,-24],[0,0],[22,-89],[-46,-9],[-7,-40],[-68,-30],[-41,-40],[34,-129],[45,-85],[57,-44],[80,66],[38,-27],[-1,0],[33,-74],[71,-43]],[[6533,2740],[-44,-107],[-50,-41],[-24,-47],[5,-48],[52,-92],[-65,-54],[15,-99],[-5,-89],[-23,-45],[-68,52],[-39,-12],[-54,20],[-58,-48],[-49,-10],[-90,-66],[-112,-2],[-2,-59],[-70,-6],[-16,-33],[32,-61],[46,-34],[-31,-61],[6,-73],[-38,-33]],[[7839,2037],[4,-84],[-24,-61],[8,-32],[-82,-78],[37,-48],[2,-97],[-74,-39],[-48,-81],[-57,-11],[-13,48],[-35,11],[-28,47],[-35,7],[-55,-44],[-70,16],[-20,74],[-64,-4],[-60,68],[-92,66],[-85,-8],[-34,-120],[-86,33],[-50,-25],[-119,43],[-55,-68],[-67,-5],[-36,26],[-33,67],[-43,9],[-86,-37],[-32,48],[-113,26],[-32,-27],[-78,-24],[-90,18],[-140,-6],[-40,-36],[-63,-17]],[[6533,2740],[68,-14],[85,47],[61,-40],[90,-95],[146,-109],[54,-27],[86,11],[46,-38],[53,-1],[73,41],[5,71],[108,-59],[32,-39],[41,-100],[117,-69],[-46,-40],[-3,-49],[76,-73],[111,-86],[82,-43],[21,9]],[[2515,642],[-84,-15],[-88,-31],[-36,8],[-91,99],[-63,-10],[-25,-48],[-100,-46],[0,-32],[-59,-78],[-60,-52],[-78,-43]],[[1020,1583],[14,70],[-3,77],[-18,23],[33,53],[-7,63],[-40,-3],[-53,97],[-21,96],[-33,16],[1,0],[-42,24],[-78,75],[-67,28],[-9,72],[-152,78],[-24,28],[-1,0],[-81,66],[9,37],[-49,14],[17,47],[-39,18],[-38,22],[-51,-2],[-22,13],[-1,0],[-1,0],[90,38],[105,-45],[60,6],[33,-63],[151,-30],[70,-85],[-7,-44],[56,-46],[28,26],[66,8],[124,-63],[63,26],[18,36],[83,23],[36,58],[23,-40],[-34,-22],[-19,-79],[37,-63],[24,103],[28,-6],[-36,-146],[0,0],[26,25],[20,83],[72,7],[1,40],[56,-1],[31,-28],[51,51],[40,17]],[[1560,2381],[94,-114],[75,30]],[[2343,1830],[60,-60]],[[2403,1770],[-7,-73],[-30,-55],[10,-69],[-27,-75],[15,-33],[51,44],[65,-132],[20,-169],[-23,-64],[13,-79],[25,-58],[-15,-64],[33,-111]],[[2533,832],[7,-77],[-39,-54],[14,-59]],[[774,2569],[4,69],[48,44],[30,17],[6,69],[-53,30],[18,60],[64,-11],[9,-37],[-28,-43],[32,-40],[58,-18],[44,54],[103,39],[-34,-67],[22,-44],[-36,-29],[-74,40],[-84,-30],[-32,-78],[-34,-6],[-16,-48],[-47,29]],[[1266,2732],[61,-17],[-7,-58],[-92,50],[38,25]],[[6914,5740],[-31,-75],[-52,-30],[-30,-56],[5,-51],[-21,-43],[-48,-166],[-53,2],[-28,-51],[-130,-4],[-69,18],[-39,-42],[-74,-37],[-60,8],[-119,-39],[-39,29],[-68,-37],[-13,-47],[-67,-91],[-187,-68],[-16,-59]],[[5775,4901],[-72,14],[-58,40],[-21,-10],[-93,78],[-51,58],[9,56],[-49,47],[32,19],[5,74],[46,78],[70,-90],[59,-20],[54,52],[96,-7],[93,30],[88,68],[51,-26],[83,33],[20,52],[57,48],[67,36],[5,50],[41,8],[22,47],[60,-58],[205,-10],[81,26],[32,56],[55,47],[123,50],[29,-7]],[[4794,5075],[13,-49],[55,-44],[78,-8],[1,-111],[-78,-64],[-37,-75],[-68,-68],[-48,31],[-88,87],[-118,18],[-69,67],[-21,48],[5,53],[90,-11],[55,8],[92,93],[64,-2],[74,27]],[[5491,5016],[52,-49],[148,-46],[19,-34],[-64,-20],[-29,-40],[-48,11],[-41,-32],[-24,-92],[-47,-25],[-29,13],[-66,-24],[-69,120],[9,62],[101,138],[88,18]],[[5150,4896],[-13,-63],[-66,-34],[-83,22],[20,47],[142,28]],[[6914,5740],[37,-9],[68,23],[12,-71],[67,-3],[-52,-67],[-23,-106],[84,-22],[44,-101],[-40,-51],[8,-136],[-55,-52],[-23,-60],[28,-22],[6,-58],[-73,-50],[2,-35],[42,-56],[49,-16],[-7,-78],[-29,-93],[-79,-107],[-41,-38],[43,-99],[-23,-51],[-38,23],[-30,58],[1,54],[-88,127],[-66,-26],[-65,23],[-104,-114],[-66,58],[-14,70],[59,34],[94,-27],[56,33],[80,-34],[-6,118],[-49,68],[-80,-10],[-39,33],[-32,-41],[-143,-71],[-72,-12],[-22,-78],[-47,-62],[26,-49],[-61,-83],[-36,-28],[-33,-102],[33,-51],[-48,-58],[-55,-35],[-71,2],[-18,57],[-38,41],[72,34],[49,44],[-21,61],[-80,-19],[8,63],[58,14],[37,69],[-6,58],[41,26],[-39,53],[-26,70],[-2,-2],[-1,-1],[1,-4],[-48,28],[34,42],[-44,44],[-56,-22],[-32,-45],[-52,76],[-41,17],[-64,-5]],[[5394,1609],[-83,-24],[-17,-61],[-73,-74]],[[3800,4852],[18,-51],[90,26],[7,-38],[138,-114],[4,-64],[51,-19],[52,12],[-24,-69],[-55,-25],[-156,11],[-69,29],[-26,42],[11,45],[-40,31],[-26,64],[-9,110],[34,10]],[[4124,5061],[38,-20],[60,22],[4,53],[38,36],[3,-27],[-33,-156],[-11,-95],[-32,12],[-37,61],[-4,74],[-26,40]],[[4097,4802],[37,-20],[-37,-97],[-39,5],[-9,79],[48,33]],[[4176,4480],[6,-25],[-61,-45],[-29,47],[84,23]],[[3833,5212],[17,-76],[-43,5],[26,71]],[[2396,3108],[9,29],[68,41],[35,38],[86,26]],[[2580,3269],[-43,-5],[-15,128]],[[4270,1326],[-68,-15],[-47,25],[-9,33],[-101,29],[-39,-21],[-47,35],[-52,73],[-57,21],[-66,0],[-53,20],[-74,-3],[-48,34],[-5,91],[-69,96],[-42,15],[-6,53],[-53,41],[12,26],[-90,43],[-135,79],[-14,48]],[[2463,2191],[52,-94],[0,-61],[64,-19],[9,-59],[64,-153],[-45,-45],[-31,9],[-43,-73],[-59,2],[-51,33],[-20,39]],[[1560,2381],[39,67],[57,61],[134,86],[11,39],[-52,67],[4,74],[132,70],[43,-69],[107,58]],[[1178,3263],[135,-88],[22,-71],[-22,-46],[-82,22],[-52,92],[-24,75],[23,16]],[[808,3564],[17,-49],[73,-112],[-37,-79],[-64,23],[7,88],[-30,94],[34,35]],[[4488,1095],[-66,-74],[-19,-99],[-75,-36],[-49,-57],[19,-47],[-52,-31],[-97,24],[-71,-61],[-22,-64],[-49,-22],[-44,23],[-102,9],[-33,-28],[-34,86],[-86,13],[-22,58],[-108,67],[4,75],[-58,67],[18,70],[-67,12],[-83,-17],[-92,-104],[-73,-45],[-87,84],[-163,-73],[-59,-10],[-35,54],[-70,-13],[-46,-52],[-63,-43],[-69,28],[-102,-57]]],"transform":{"scale":[0.0001164771133494811,0.00009596628432394908],"translate":[133.52717,34.01238]},"objects":{"japan":{"type":"GeometryCollection","geometries":[{"arcs":[[[0,1,2,3,4,5,6]],[[7]],[[8]],[[9]],[[10]]],"type":"MultiPolygon","properties":{"pref":"香川県","city":"高松市","code5":"37201","code6":"372013"}},{"arcs":[[[11,12,13,14,15,16,17]],[[18]],[[19]],[[20]],[[21]],[[22]]],"type":"MultiPolygon","properties":{"pref":"香川県","city":"丸亀市","code5":"37202","code6":"372021"}},{"arcs":[[[-4,23,-13,24,25,26,27]],[[28]],[[29]]],"type":"MultiPolygon","properties":{"pref":"香川県","city":"坂出市","code5":"37203","code6":"372030"}},{"arcs":[[-16,30,31,32,33]],"type":"Polygon","properties":{"pref":"香川県","city":"善通寺市","code5":"37204","code6":"372048"}},{"arcs":[[[34,35]],[[36]]],"type":"MultiPolygon","properties":{"pref":"香川県","city":"観音寺市","code5":"37205","code6":"372056"}},{"arcs":[[37,38,-6,39,40]],"type":"Polygon","properties":{"pref":"香川県","city":"さぬき市","code5":"37206","code6":"372064"}},{"arcs":[[41,-41,42]],"type":"Polygon","properties":{"pref":"香川県","city":"東かがわ市","code5":"37207","code6":"372072"}},{"arcs":[[[43,-36,44,45,-33,46,47,48]],[[49]],[[50]]],"type":"MultiPolygon","properties":{"pref":"香川県","city":"三豊市","code5":"37208","code6":"372081"}},{"arcs":[[[51,52]],[[53]],[[54]],[[55]]],"type":"MultiPolygon","properties":{"pref":"香川県","county":"小豆郡","city":"土庄町","code5":"37322","code6":"373222"}},{"arcs":[[-52,56]],"type":"Polygon","properties":{"pref":"香川県","county":"小豆郡","city":"小豆島町","code5":"37324","code6":"373249"}},{"arcs":[[57,-7,-39]],"type":"Polygon","properties":{"pref":"香川県","county":"木田郡","city":"三木町","code5":"37341","code6":"373419"}},{"arcs":[[[58]],[[59]],[[60]],[[61]],[[62]]],"type":"MultiPolygon","properties":{"pref":"香川県","county":"香川郡","city":"直島町","code5":"37364","code6":"373648"}},{"arcs":[[[-12,63,-25]],[[-27,64]]],"type":"MultiPolygon","properties":{"pref":"香川県","county":"綾歌郡","city":"宇多津町","code5":"37386","code6":"373869"}},{"arcs":[[-3,65,-14,-24]],"type":"Polygon","properties":{"pref":"香川県","county":"綾歌郡","city":"綾川町","code5":"37387","code6":"373877"}},{"arcs":[[-32,66,-47]],"type":"Polygon","properties":{"pref":"香川県","county":"仲多度郡","city":"琴平町","code5":"37403","code6":"374032"}},{"arcs":[[[-17,-34,-46,67]],[[68]],[[69]]],"type":"MultiPolygon","properties":{"pref":"香川県","county":"仲多度郡","city":"多度津町","code5":"37404","code6":"374041"}},{"arcs":[[70,-48,-67,-31,-15,-66,-2]],"type":"Polygon","properties":{"pref":"香川県","county":"仲多度郡","city":"まんのう町","code5":"37406","code6":"374067"}}]}}}