{"type":"Topology","arcs":[[[4717,6374],[-25,-52],[-76,-52],[-28,5],[-83,-55],[-48,-112],[45,-104],[-50,-84],[-45,-131],[-7,-44],[-125,-62],[-46,-4],[-40,-70],[61,-42],[87,-140],[42,-47],[23,-62],[50,-72]],[[4452,5246],[-21,-68],[-77,-84],[-40,-97],[-88,-9]],[[4226,4988],[-42,47],[-13,83],[22,49],[-38,61],[-5,47],[-56,61],[-9,71],[-32,15],[-23,59],[24,134],[-47,3],[-102,58]],[[3905,5676],[-113,62],[-113,-1],[-42,19],[-72,-17],[-104,-4]],[[3461,5735],[37,76],[-4,82],[-25,27],[66,76],[-20,38],[75,13],[11,30],[-26,100],[-40,14],[3,59],[22,20],[31,111],[112,-24],[80,18],[41,36],[8,80],[61,155],[17,104],[-9,73],[22,66],[-18,64],[81,78],[77,10],[40,52]],[[4103,7093],[49,-44],[24,-54],[62,-30],[40,39],[85,-57],[119,2],[48,-48],[-26,-174],[12,-65],[152,-88],[43,-44],[12,-102],[-6,-54]],[[3250,7090],[33,-31],[-58,-65],[-1,-62],[22,-74],[-70,-30],[49,-41],[4,-89],[-45,-17],[-84,24],[-63,-44],[-22,-50],[-54,60],[-21,65],[5,46],[91,91],[29,59],[64,-1],[56,64],[63,45],[2,50]],[[3489,6507],[21,-56],[-24,-28],[16,-49],[-103,-29],[-8,-52],[50,-82],[-15,-27],[-88,-10],[34,141],[-39,45],[-8,44],[73,-6],[35,28],[-5,47],[43,2],[18,32]],[[2811,6937],[-32,-99],[-61,-63],[-52,114],[55,34],[90,14]],[[3335,6808],[56,-24],[3,-77],[-48,-12],[-38,-33],[-37,41],[14,64],[50,41]],[[2553,6913],[55,-6],[-51,-88],[-41,-9],[-49,33],[39,56],[47,14]],[[2748,6582],[-74,-72],[-46,-4],[-5,50],[64,-5],[61,31]],[[3480,6831],[43,-75],[-60,-1],[17,76]],[[4103,7093],[83,51],[33,43],[36,0],[15,42],[79,38],[11,55],[148,25],[69,51],[92,-20],[30,70],[-10,80],[52,8],[7,37],[-28,96],[-121,25],[69,46],[39,-29],[24,47],[34,10],[23,81],[38,1],[35,-89],[104,-55],[23,8],[39,-120],[37,-42],[19,-59],[59,-100],[31,8],[53,-29],[13,-80],[63,-76],[77,-198],[77,-154]],[[5456,6864],[-77,-8],[-56,-24],[-39,-109],[-84,7],[-53,-43],[-88,14],[-64,-55],[-19,-82],[3,-155],[-26,-37],[-56,-16]],[[4897,6356],[-53,34],[-44,-8],[-24,-31],[-59,23]],[[5167,8878],[76,-29],[49,-64],[4,-52],[63,-113],[48,-5],[-29,-117],[3,-80],[32,-42],[-44,-41],[-92,-36],[-64,17],[-104,-12],[-40,-47],[-55,-12],[-68,-40],[-56,-10],[-38,35],[-25,75],[34,74],[62,38],[89,-19],[45,5],[25,141],[-33,35],[19,30],[-30,38],[-80,-34],[-35,39],[29,40],[75,-4],[9,32],[-30,75],[28,29],[48,-13],[85,67]],[[5301,8215],[92,-23],[73,0],[37,-35],[3,-59],[37,-47],[49,26],[78,6],[2,-55],[-34,-43],[-76,-12],[-41,-76],[-56,-54],[-38,-15],[-39,-72],[-42,-17],[-15,-46],[-40,-34],[-118,19],[47,62],[-21,41],[6,78],[29,63],[80,26],[3,41],[-33,77],[-39,4],[-29,36],[35,45],[14,52],[36,12]],[[5672,8509],[16,-49],[-12,-73],[50,-37],[79,-14],[-71,-50],[31,-46],[-10,-33],[-98,3],[-20,52],[-31,11],[-64,-69],[-29,13],[-39,84],[-54,-15],[-30,36],[62,30],[-35,62],[12,38],[39,21],[52,-37],[76,51],[43,-17],[33,39]],[[4442,8228],[48,-40],[62,-4],[-11,-42],[-39,6],[-28,-49],[-80,84],[48,45]],[[4708,8258],[26,-43],[5,-80],[-42,9],[-14,93],[25,21]],[[3309,2733],[59,-59],[-8,-133],[36,-118],[-39,-20],[-33,19],[-30,-55],[-86,4],[-91,18],[-5,-87],[-58,-20],[-34,-61],[57,-100],[12,-105],[-14,-105],[71,-2],[56,61],[116,9]],[[3318,1979],[53,-56],[-61,-65],[-105,-63]],[[3205,1795],[-92,-24],[-24,-74],[91,-127],[-21,-92],[49,-16],[48,-106],[38,-33],[49,-8],[31,-107],[-13,-75],[14,-59],[-62,-90]],[[3313,984],[-31,-1],[-75,42],[-98,-80],[-110,24],[-111,-76],[-69,-17],[-95,20],[-61,-48],[-75,37],[-66,-16],[-67,35],[-66,54],[-58,16],[-98,-25],[-91,4],[-62,49],[-64,2],[-35,-25],[14,-77],[-34,-97],[-32,-40],[-78,2]],[[1851,767],[92,35],[46,120],[-40,63],[145,64],[17,-67],[49,-12],[100,13],[29,36],[54,-15],[61,46],[-10,57],[-64,-2],[-8,86],[60,38],[-47,24],[22,49],[-47,31],[-37,82],[114,-33],[96,4],[-8,73],[13,34],[-94,8],[-46,-18],[-32,35],[-81,-60],[-51,39],[5,69],[-93,42],[46,20],[13,71],[72,14],[34,-22],[38,13],[-34,55],[-55,36],[4,45],[-48,9],[-39,63],[-58,34],[-80,-55],[54,-60],[-74,-36],[-29,16],[17,49],[-19,72],[87,1],[57,29],[149,-55],[33,-35],[4,-79],[63,-51],[49,40],[21,-12],[-33,-70],[50,-34],[52,44],[68,29],[5,61],[-37,109],[44,67],[80,4],[35,23],[62,99],[-39,22],[-40,58],[-40,-3],[2,49],[92,38],[-33,39],[-147,-34],[-15,53],[-109,44],[1,93],[33,32],[120,62],[62,-1],[12,54],[-75,39],[-73,-45],[0,1],[0,0]],[[2478,2603],[17,92],[30,54],[66,18],[83,-60],[95,-25],[152,18],[96,-3],[45,32],[96,-5],[82,-23],[69,32]],[[2580,2153],[45,-17],[42,-68],[-62,-40],[-59,39],[34,86]],[[1833,2029],[40,-63],[-114,-60],[74,123]],[[1248,1795],[71,-86],[67,30],[17,-40],[-141,-8],[-16,32],[2,72]],[[2096,4126],[15,-74],[48,-39],[48,12],[44,-29],[57,24],[23,-57],[47,-16],[-3,-113],[-61,-24],[-27,-85],[61,-31],[74,-14],[-6,-35],[65,-51],[-14,-38],[32,-75]],[[2499,3481],[-73,-48],[-29,-106],[-37,-52],[37,-59],[-46,-5],[-118,-42],[-23,43],[-84,1],[-40,61],[-66,-57],[-7,-61],[-60,-72],[-100,-18]],[[1853,3066],[3,19],[89,59],[-36,47],[23,56],[-41,41],[49,61],[25,-23],[42,70],[3,88],[46,34],[-80,23],[-77,-1],[14,57],[50,-18],[11,35],[-61,38],[-40,-17],[-27,-80],[-29,51]],[[1817,3606],[27,47],[-1,88],[-38,49],[-15,54],[-49,55]],[[1741,3899],[20,-1],[88,66],[67,19],[23,45],[90,52],[30,2],[37,44]],[[7144,6884],[-25,-91],[-23,-8],[-45,-95],[-23,-117],[13,-98],[-23,-123],[-74,-82],[14,-51],[98,-37],[102,26],[40,51],[124,6],[37,18],[80,-23],[7,-60],[28,-60],[-25,-16],[38,-110],[3,-76]],[[7490,5938],[-36,-18],[-82,6],[-39,27],[-68,-1],[-58,-18],[-48,-75],[-119,31],[-69,32],[-54,-61],[-64,-22],[-37,-42],[-84,8],[-86,81],[-86,14]],[[6560,5900],[-24,108],[-32,69],[-70,33],[-39,67],[49,44],[-22,79],[-59,104],[40,56],[-36,122],[-35,-3],[1,91]],[[6333,6670],[79,54],[-3,91],[37,37],[43,-69],[68,69],[47,-3],[127,24],[55,65],[66,-23],[68,-1],[54,-72],[77,10],[93,32]],[[7031,7024],[8,-88],[-96,16],[2,34],[86,38]],[[5456,6864],[7,-46],[89,-114],[6,-58],[41,0],[38,-49],[34,45],[61,-42],[4,-28],[67,-59],[37,3],[255,104],[238,50]],[[6560,5900],[-43,-34],[-44,-92],[9,-40],[-28,-69],[-106,-71],[-90,-15],[-84,91],[-57,-6],[-12,-64],[-43,-78],[7,-21],[-67,-67],[-68,-46]],[[5934,5388],[-125,87],[-89,15],[-41,41],[-34,-22],[-11,-45],[-99,-37],[-44,15],[-91,-19],[-127,48],[-40,-3]],[[5233,5468],[-32,34],[-6,72],[34,22],[-30,101],[-24,30],[0,59],[-63,24],[-78,-30],[-35,88],[-33,27],[-2,52],[-26,52],[35,55],[-31,87],[-35,18],[-27,81],[20,67],[-3,49]],[[2096,4126],[44,51],[-1,56],[46,32],[33,60],[39,35],[5,42],[93,75],[28,64],[25,-8],[122,93],[40,-9],[81,55]],[[2651,4672],[34,-56],[83,-90],[2,-56],[34,-24],[79,100],[29,54],[46,-19],[70,-2]],[[3028,4579],[56,-63],[18,-100],[31,-21],[11,-54],[34,-56],[-40,-32],[45,-27],[9,-70],[24,-22],[-4,-72],[-36,-54],[-4,-83],[68,-36],[-4,-50],[26,-28],[38,22],[36,-19],[34,-72],[47,61],[50,42],[142,15],[78,70],[40,1],[52,57],[83,18],[22,43],[53,3],[39,-64],[88,41],[18,46],[59,11],[22,27],[73,-112],[30,-64]],[[4266,3937],[-30,-17],[-29,-97],[-41,-24],[-30,41],[-48,-16],[-12,-40],[-41,-16],[-29,-46],[-80,-21],[-49,26],[-68,-62],[-4,-70],[-26,-91],[-68,-41],[-24,49],[-69,4],[-14,-33],[7,-87],[-15,-64],[-35,-44],[-78,2],[-46,45],[-37,-46],[-105,26],[-112,100],[-91,-1],[-26,-23],[-51,17],[-55,-26],[-89,122],[-105,-107],[-71,11],[-49,42],[-8,31],[-69,15],[-70,-15]],[[2651,4672],[223,84],[64,17],[108,82],[62,70],[45,14],[58,64],[50,19],[61,69],[20,65],[59,105],[29,98],[68,42],[37,55],[-8,98]],[[3527,5554],[60,-39],[31,48],[155,0],[0,32],[83,20],[50,29]],[[3906,5644],[19,-14],[-11,-67],[-52,-44],[-28,-65],[-80,-20],[26,-58],[-54,-74],[38,-22],[6,-52],[46,3],[75,-146],[45,-20],[17,-45],[-30,-43],[12,-43],[-16,-61],[-40,-54],[-16,-96],[-34,0],[-55,-114]],[[3774,4609],[-43,-25],[-48,7],[-32,-74],[-65,-30],[-175,80],[-80,-31],[-53,44],[19,100],[-14,84],[-67,17],[-39,-31],[-47,4],[-70,-79],[-37,-74],[5,-22]],[[8667,7054],[32,-57],[-48,-70],[40,-103],[-20,-39],[63,-49],[-27,-46],[28,-72],[-84,-70],[-4,-41],[52,-5],[12,-60],[-55,-42],[-16,-41],[18,-64],[-84,-46],[-6,-26],[-87,8],[-46,-18],[-42,-52],[-85,56],[-78,-6],[-69,-78],[-62,17],[-47,32],[-27,44],[-37,-1],[-74,-67],[2,-34],[-52,-26],[0,-53],[-43,-41],[-44,6],[-9,-78],[-44,-43],[-68,3],[-18,21],[-148,25]],[[7144,6884],[23,30],[44,-13],[47,13],[20,-29],[81,5],[123,-17],[69,-60],[100,-14],[25,-20],[134,39],[87,73],[75,13],[26,42],[-56,49],[55,62],[73,1],[75,68],[33,67],[23,-6],[41,64],[30,-49],[48,-22],[71,34],[66,-75],[86,20],[50,-13],[67,-56],[7,-36]],[[2478,2603],[-13,64],[-103,-25],[-47,4],[-33,-54],[-46,-7],[-60,14],[-57,50],[-25,-36],[-9,-59],[-118,32],[-9,46],[-86,30],[-63,-16],[31,117],[82,17],[43,47],[59,-6],[-12,44],[53,7],[-18,49],[-30,13],[25,114],[-130,-107],[-6,43],[-53,82]],[[4266,3937],[36,-63],[102,-51],[-1,-22],[159,-17]],[[4562,3784],[26,-73],[-26,-65],[24,-37]],[[4586,3609],[-86,17],[-16,-13],[-87,9],[-89,44],[-37,-29],[-92,-11],[-21,-41],[-41,-3],[-15,-77],[96,-53],[6,-46],[-23,-54],[9,-44],[47,-17],[-12,-72],[20,-52],[29,-18],[71,3],[-8,-64]],[[4337,3088],[-67,-68],[-77,-29],[-22,-101],[-94,-89],[-65,3],[-34,20],[-20,59],[-37,-33],[-78,-28],[-127,-22],[-39,10],[-37,40],[-32,-37],[-55,19],[-132,13],[-83,-7],[-29,-105]],[[5233,5468],[-18,-25],[-147,-29],[-64,-93],[-73,47],[-70,-37],[0,-49],[-107,-3],[-99,-42],[-94,-17],[-13,-27],[-80,19],[-16,34]],[[5906,8756],[68,-126],[0,-34],[-69,-59],[-97,-32],[-16,98],[9,55],[56,82],[49,16]],[[6307,8828],[40,-93],[-51,-67],[-34,-5],[-63,-53],[29,-86],[-34,-30],[-37,5],[-9,183],[59,48],[35,49],[65,49]],[[6007,8789],[74,-105],[1,-68],[-70,-3],[-6,76],[-30,71],[31,29]],[[6119,8609],[20,-19],[-29,-64],[2,-61],[-47,-16],[9,114],[45,46]],[[5965,8540],[43,-32],[-25,-46],[-80,-6],[8,67],[54,17]],[[6727,8142],[19,-20],[79,-10],[1,-35],[-57,-13],[-42,78]],[[6533,8245],[22,-100],[-56,11],[1,71],[33,18]],[[5934,5388],[17,-119],[-112,-101],[25,-70],[-101,-40],[-32,-62],[12,-93],[-26,-88],[-51,-22],[-84,7],[-82,-45],[-41,-179],[65,-88],[-51,-48],[-65,-30],[-43,-72],[-13,-62],[81,-88],[-11,-47],[13,-55],[-18,-42],[-111,-78],[-20,-93],[-42,-42],[-29,-58],[-38,-35],[10,-61],[-137,-45],[-54,-6],[-101,-42],[-41,2],[-39,34],[-80,-22],[-72,-6],[-77,17]],[[4562,3784],[22,37],[1,69],[49,21],[61,101],[-22,49],[23,88],[25,33],[-58,49],[-23,52],[-29,-3],[-41,68],[-86,30],[-72,-16],[-58,35],[-51,2],[-12,82],[27,6],[40,83],[-31,70],[-74,52]],[[4253,4692],[-33,27],[25,139],[-54,26],[-18,61],[53,43]],[[3905,5676],[1,-32]],[[3527,5554],[-32,116],[-34,65]],[[4253,4692],[-7,-36],[-58,-35],[-62,-8],[-86,-61],[-38,11],[-56,-51],[-64,-33],[-36,86],[-72,44]],[[1817,3606],[-42,64],[-60,26],[3,-65],[-82,10],[-72,-19],[-2,-42],[-32,-56],[-30,34],[-25,68],[-37,11],[-26,-64],[-44,-16],[-30,-95],[-60,-5],[-111,-65],[-50,-62],[-73,-6],[-113,-67],[-107,-18],[-86,-95],[-67,-50],[-6,-85],[-38,-1],[-109,-63],[-114,-20],[8,69],[54,-5],[24,115],[-130,-22],[-54,-45],[-156,-77],[-13,-49],[-137,-105],[35,92],[38,52],[71,54],[140,86],[26,61],[123,66],[40,56],[45,18],[20,-24],[-2,-63],[49,6],[1,76],[55,-22],[31,-56],[61,25],[24,48],[-27,33],[-86,55],[43,33],[69,-68],[38,10],[-25,100],[45,29],[71,-42],[1,55],[28,33],[56,-65],[71,37],[10,46],[78,17],[53,-27],[43,-47],[32,45],[3,67],[123,87],[36,39],[58,-1],[5,33],[57,6],[18,34],[164,76],[20,33]],[[3318,1979],[110,98],[0,63],[151,45],[103,-17],[33,67],[44,48],[38,-17],[58,18],[59,98],[40,-18],[38,-46]],[[3992,2318],[-2,-31],[-48,-68],[-30,-66],[16,-45],[-20,-49],[25,-114],[-87,-42],[-57,11],[-41,-14],[7,-73],[-22,-48],[-63,-89],[-32,-9],[-48,-87],[-62,-42],[-15,-57],[-47,-17],[-69,96],[-59,28],[-14,36],[-68,75],[-64,44],[13,38]],[[4337,3088],[36,-126],[125,-39],[33,-30],[54,-88],[16,-81],[-9,-23],[-17,-80],[-71,-49],[-65,-13],[-78,-75],[-174,-70],[-36,11],[-89,-53],[-39,-5],[-31,-49]],[[3313,984],[71,-71],[36,-50],[-13,-99],[8,-72],[51,-87],[-28,-23],[53,-128],[-43,-67],[6,-86],[-33,-42],[-92,-3],[-43,-21],[16,-89],[-43,19],[-86,-27],[-167,-72],[-68,140],[-74,73],[-125,-8],[9,-77],[-52,22],[-10,70],[-132,19],[-41,-20],[54,-98],[-94,-77],[18,-29],[138,31],[-6,-39],[-56,-66],[-84,14],[-52,-21],[-67,16],[-16,119],[-24,104],[67,-10],[55,11],[40,54],[16,48],[-68,22],[-58,78],[42,10],[-10,46],[43,26],[45,-16],[-28,-43],[62,-49],[74,-18],[79,-4],[68,-47],[11,41],[-79,34],[-25,28],[-108,21],[-13,43],[-47,68],[29,71],[-53,45],[-58,-9],[-3,87],[-15,23],[23,90],[-28,47],[-30,-20],[-46,21],[-31,-22],[-89,12],[-131,63],[-55,-20],[12,-57],[-30,-72],[3,-35],[-58,-58],[-79,19]]],"transform":{"scale":[0.00019088146071376673,0.0001574111479287311],"translate":[132.0252162777092,32.90218005376664]},"objects":{"japan":{"type":"GeometryCollection","geometries":[{"arcs":[[[0,1,2,3,4,5]],[[6]],[[7]],[[8]],[[9]],[[10]],[[11]],[[12]]],"type":"MultiPolygon","properties":{"pref":"愛媛県","city":"松山市","code5":"38201","code6":"382019"}},{"arcs":[[[-6,13,14,15]],[[16]],[[17]],[[18]],[[19]],[[20]]],"type":"MultiPolygon","properties":{"pref":"愛媛県","city":"今治市","code5":"38202","code6":"382027"}},{"arcs":[[[21,22,23,24,25,26]],[[27]],[[28]],[[29]]],"type":"MultiPolygon","properties":{"pref":"愛媛県","city":"宇和島市","code5":"38203","code6":"382035"}},{"arcs":[[30,31,32,33,34]],"type":"Polygon","properties":{"pref":"愛媛県","city":"八幡浜市","code5":"38204","code6":"382043"}},{"arcs":[[[35,36,37,38]],[[39]]],"type":"MultiPolygon","properties":{"pref":"愛媛県","city":"新居浜市","code5":"38205","code6":"382051"}},{"arcs":[[-15,40,-38,41,42,43]],"type":"Polygon","properties":{"pref":"愛媛県","city":"西条市","code5":"38206","code6":"382060"}},{"arcs":[[-31,44,45,46,47]],"type":"Polygon","properties":{"pref":"愛媛県","city":"大洲市","code5":"38207","code6":"382078"}},{"arcs":[[-46,48,49,50,51]],"type":"Polygon","properties":{"pref":"愛媛県","city":"伊予市","code5":"38210","code6":"382108"}},{"arcs":[[52,-36,53]],"type":"Polygon","properties":{"pref":"愛媛県","city":"四国中央市","code5":"38213","code6":"382132"}},{"arcs":[[-27,54,-32,-48,55,56,57,58]],"type":"Polygon","properties":{"pref":"愛媛県","city":"西予市","code5":"38214","code6":"382141"}},{"arcs":[[-1,-16,-44,59]],"type":"Polygon","properties":{"pref":"愛媛県","city":"東温市","code5":"38215","code6":"382159"}},{"arcs":[[[60]],[[61]],[[62]],[[63]],[[64]],[[65]],[[66]]],"type":"MultiPolygon","properties":{"pref":"愛媛県","county":"越智郡","city":"上島町","code5":"38356","code6":"383562"}},{"arcs":[[-2,-60,-43,67,-57,68,69]],"type":"Polygon","properties":{"pref":"愛媛県","county":"上浮穴郡","city":"久万高原町","code5":"38386","code6":"383864"}},{"arcs":[[-4,70,-50,71]],"type":"Polygon","properties":{"pref":"愛媛県","county":"伊予郡","city":"松前町","code5":"38401","code6":"384011"}},{"arcs":[[-3,-70,72,-51,-71]],"type":"Polygon","properties":{"pref":"愛媛県","county":"伊予郡","city":"砥部町","code5":"38402","code6":"384020"}},{"arcs":[[-47,-52,-73,-69,-56]],"type":"Polygon","properties":{"pref":"愛媛県","county":"喜多郡","city":"内子町","code5":"38422","code6":"384224"}},{"arcs":[[-34,73]],"type":"Polygon","properties":{"pref":"愛媛県","county":"西宇和郡","city":"伊方町","code5":"38442","code6":"384429"}},{"arcs":[[-23,74,75]],"type":"Polygon","properties":{"pref":"愛媛県","county":"北宇和郡","city":"松野町","code5":"38484","code6":"384844"}},{"arcs":[[-22,-59,76,-75]],"type":"Polygon","properties":{"pref":"愛媛県","county":"北宇和郡","city":"鬼北町","code5":"38488","code6":"384887"}},{"arcs":[[-25,77]],"type":"Polygon","properties":{"pref":"愛媛県","county":"南宇和郡","city":"愛南町","code5":"38506","code6":"385069"}}]}}}