{"type":"Topology","arcs":[[[9300,10040],[44,-58],[85,-78],[25,-59],[31,-125],[-57,-52],[-38,0],[-16,-53],[47,-105],[-12,-58],[88,-139],[83,-61],[106,6],[15,-24],[-14,-86],[137,-38],[-106,-39],[21,-53],[43,18],[50,-18],[-18,-103],[-63,-60],[7,-44],[-63,-23],[-25,-42],[4,-61],[-37,-36],[-10,-135]],[[9627,8514],[-91,-38],[13,-27],[-36,-47],[-35,43],[-56,-26],[-61,-90],[-53,-7],[-12,33],[1,1],[53,77],[-38,29],[5,172],[13,47],[39,36],[-17,38],[-76,-6],[-13,-35],[-55,21],[1,-3],[2,-23],[-8,-5],[55,-18],[0,0],[16,-2],[6,-60],[-110,-51],[-10,-16],[5,-22],[0,0],[0,-43],[51,-78],[44,-12],[0,-1],[7,-15],[-18,-44],[1,1],[0,0],[4,-18],[25,-26],[52,-3],[88,23],[-22,-45],[-77,-37],[-105,-32],[-137,-55],[-233,-115],[-48,-59],[-52,-13],[-122,-57],[-43,-35]],[[8580,7871],[-75,105],[-84,80],[5,83],[-42,75],[-102,60],[-70,141]],[[8212,8415],[43,36],[64,9],[77,97],[-18,93],[61,31],[15,30],[26,161],[57,91],[-47,35],[-51,75],[-42,8],[-49,-20],[-50,-50],[-34,43],[-79,46],[-37,-12],[-94,15],[-46,58],[2,56],[-96,52],[-5,34],[41,42],[25,58],[58,35],[-56,109],[-26,-13],[-62,23],[-28,98],[-6,112],[39,33],[9,80],[103,103],[129,45],[76,59],[111,18]],[[8322,10105],[54,-62],[77,-49],[75,100],[123,-16],[59,14],[40,-23],[56,10],[82,98],[1,28],[129,-40],[44,-1],[25,-46],[16,-90],[84,-18],[39,33],[74,-3]],[[15068,7707],[-5,-46],[-95,-162],[-101,-225],[-9,-82],[28,-44],[-19,-116],[-55,-98],[-2,-61],[-31,-68],[-25,-127],[-2,-143],[-38,-97],[-14,-138],[-32,-61],[-19,-72],[7,-42],[0,0],[-2,-110],[-18,-113],[6,-60],[-15,-28],[-21,-117],[-59,-48],[-10,11],[-4,5],[-1,0],[0,0],[1,0],[-11,29],[0,0],[-62,179],[-86,112],[-9,61],[-74,43],[-12,40],[-44,25],[-19,42],[-55,19],[-78,1],[-48,-51],[-65,46],[11,31],[3,9],[6,35],[-36,179],[-52,71],[-139,73],[-64,61],[-20,56],[-58,101],[-112,112],[-106,38],[-20,-15],[-45,81]],[[13338,7043],[33,39],[86,42],[42,57],[116,47],[39,89],[-17,30],[63,63],[94,31],[13,62],[-10,51],[73,55],[0,76],[99,32],[10,38]],[[13979,7755],[37,115],[112,85],[52,90],[106,-66],[97,95],[120,21],[54,53],[140,15],[26,19]],[[14723,8182],[59,-36],[42,-53],[18,-78],[96,-91],[56,-21],[22,-58],[-12,-47],[64,-91]],[[13607,10596],[43,-85],[-31,-18],[-25,-98],[-60,-65],[13,-30]],[[13547,10300],[-47,-79],[-47,-40],[44,-70],[91,-11],[51,-38],[15,-48],[-82,-88],[-53,-34],[7,-56],[-40,-22],[-52,13],[-88,-78],[-31,23],[-37,-48],[-66,-156],[-16,-94],[-36,-40],[82,-52],[-23,-60],[12,-64],[-18,-33],[-46,12],[-33,-25],[-6,-79],[-20,-21],[46,-92],[73,20],[57,-73],[26,-82],[-41,-85]],[[13269,8800],[-99,-88],[-107,-218],[-40,-8],[-54,-53],[-27,-78],[18,-66],[-34,-26],[-13,-81],[-48,-49],[25,-50],[-44,-81],[-70,-15],[-72,-121],[-2,-67],[-33,-50]],[[12669,7749],[-53,43],[-69,137],[23,123],[-21,32],[1,2],[-45,74],[-122,66],[-152,48],[-114,26],[-93,37],[-205,34],[-113,3],[-49,19],[-20,47],[-133,29]],[[11504,8469],[43,106],[23,-15],[70,46],[10,-72],[80,65],[41,7],[46,83],[-5,84],[29,140],[80,65],[6,71],[23,19],[-21,63],[2,59],[-45,93]],[[11886,9283],[-70,78],[41,59],[82,14],[45,45],[-29,60],[15,64],[48,40],[-2,65],[-28,77],[36,19],[50,100]],[[12074,9904],[63,13],[38,41],[22,-57],[1,-57],[70,15],[61,-47],[82,38],[53,43],[24,-12],[62,48],[23,50],[133,61],[32,78],[37,3],[-1,55],[49,33],[33,66],[29,-5],[83,56],[34,59],[12,97],[50,42],[111,14],[41,-15],[66,67],[69,-71],[56,22],[93,12],[77,52],[30,-9]],[[9300,10040],[17,38],[-12,97],[17,31],[-52,110],[71,18],[90,56],[41,63]],[[9472,10453],[49,5],[65,-45]],[[9586,10413],[39,-111],[48,-27],[70,-115],[41,-169],[128,35],[41,-11],[28,-71],[69,-21],[121,45],[16,-260],[-32,-51],[17,-59],[-22,-139],[48,-21],[37,-163],[-12,-39],[46,-43],[65,3],[5,-56]],[[10339,9140],[-40,-144],[6,-80],[41,-144],[-38,-30],[9,-78]],[[10317,8664],[-208,-34],[-482,-116]],[[8580,7871],[-106,-44],[-68,-53],[-108,20],[-47,-14],[-33,-103],[-44,-21]],[[8174,7656],[-27,52],[24,63],[-25,66],[19,36],[-14,59],[-58,-4],[-125,49],[-64,-30],[-13,-59],[-56,-32],[-55,4],[-19,-32],[-94,-90],[-68,75],[-43,8],[-47,-28],[1,-47],[-43,-49],[-166,-13],[-54,-69],[-85,-12],[-53,184],[-17,21],[-5,76]],[[7087,7884],[24,114],[96,47],[65,75],[-36,81],[60,90],[52,36]],[[7348,8327],[10,-31],[60,-8],[121,44],[44,31],[147,60],[42,-12],[88,16],[-30,49],[15,31]],[[7845,8507],[122,23],[23,-8],[166,26],[56,-133]],[[8266,7472],[-73,90]],[[8193,7562],[9,54],[34,-2],[19,64],[149,-119],[-17,-84],[-98,14],[-23,-17]],[[8174,7656],[-74,27],[-2,97],[-47,-56],[-67,-4],[-38,44],[-67,-24],[71,-90],[-1,-42],[-48,5],[-29,-36],[-84,-21],[-33,27],[-116,2],[-80,-96],[-43,-10],[-38,-44],[93,-8],[49,-70],[19,31],[-10,81],[82,30],[0,-75],[51,-41],[9,64],[56,1],[55,66],[13,-44],[102,136],[42,70],[42,-30],[25,-75],[40,13],[47,-22]],[[8266,7472],[-34,-60],[-27,19],[-209,-53],[6,-46],[-129,-21],[-32,-23],[-30,43],[-44,-31],[-165,-26],[-57,21],[-43,-27],[-69,10],[-47,-49],[-16,-40],[-61,-24],[-16,-29],[21,-164],[-34,-1],[-1,-64],[-55,34],[25,110],[-36,40],[-38,-47],[-57,16],[-83,-13],[-82,45],[50,25],[40,50],[-17,63],[-37,72],[-51,-8],[64,-98],[-28,-60],[-84,-11],[-29,-29],[19,-63],[-65,-23],[-71,-57],[-35,-6],[-23,-62],[50,-43],[-38,-120],[31,-73]],[[6729,6649],[-84,74],[-39,65],[-50,42],[-23,71],[-84,48],[-28,101],[-24,10],[-94,-16],[-45,38],[-72,-13],[-46,-33],[-99,6],[-56,-20],[16,70],[-33,110],[2,52]],[[5970,7254],[71,13],[101,-22],[66,53],[55,19],[-26,59],[13,81],[0,110],[78,19],[127,-18],[93,40],[72,6],[61,85]],[[6681,7699],[113,-11],[134,66],[58,56],[101,74]],[[7335,7016],[1,0],[-2,-2],[1,2]],[[1525,3694],[40,67],[37,29],[25,52],[-25,96],[29,53],[-6,72],[-29,73],[-23,101]],[[1573,4237],[193,-136],[78,-14],[14,-27],[65,-34],[51,6],[66,-37],[4,-55],[28,-56],[73,-4],[48,-46],[75,-3],[66,-50],[-45,-92],[-9,-53],[-31,-42],[45,-51],[97,-61],[19,40],[64,35],[97,-9],[14,-29],[54,-16],[44,44],[49,6],[77,-88],[-8,-80],[134,-121],[65,-3],[-11,-49],[-40,10],[-52,-90],[39,-51],[-5,-140],[29,-81],[-29,-202],[45,-52],[7,-95],[19,-34]],[[3002,2477],[-44,-39],[-17,-129],[-53,-11],[-87,-52],[-54,-49],[-2,-31],[43,-49],[0,-64],[-68,-7],[-21,25],[-99,24],[-24,44],[-64,-79],[-46,-13],[-10,-43],[52,-71],[70,-123],[-6,-63],[36,-28]],[[2608,1719],[-13,-128],[-28,-48],[51,-118],[-64,-13],[-30,-30],[-43,2],[-53,-53]],[[2428,1331],[-80,38],[-48,55],[-81,-4],[17,78],[-20,82],[-62,-14],[-18,91],[-45,88],[-32,-49],[-32,18],[-53,-43],[-114,109],[70,117],[0,37]],[[1930,1934],[53,-88],[42,0],[20,50],[-42,12],[-19,82],[80,10],[6,72],[-55,-20],[-16,85],[35,11],[-47,99],[-5,61],[-23,20],[-86,-78],[-35,22],[18,83],[-58,-20],[11,-40],[-40,-31],[-21,34],[-44,-33],[-63,-8],[-134,63],[6,75],[-33,71],[71,34],[43,-7],[87,23],[21,-11],[53,69],[-21,66],[12,76],[70,108],[-35,24],[-4,66],[-48,121],[45,37],[-24,70],[-59,73],[-13,118],[27,73],[-6,90],[-58,82],[-43,29],[-44,69],[-29,18]],[[563,549],[40,-30],[21,-54],[48,9],[-1,-56],[81,-23],[21,-43],[-25,-69],[-1,-47],[41,-81],[-15,-38],[-138,-63],[-94,-54],[-25,34],[42,58],[29,1],[18,54],[-31,23],[-74,91],[42,51],[35,148],[-26,35],[12,54]],[[64,1095],[93,-24],[-38,-79],[-112,-12],[-7,35],[49,34],[15,46]],[[1853,2253],[73,-49],[-79,-39],[-51,26],[-11,60],[68,2]],[[84,428],[25,-64],[-54,0],[29,64]],[[2608,1719],[18,101],[73,-27],[44,66],[87,-57],[64,-110],[82,2],[31,-31],[39,9],[89,-39],[33,67],[64,-5],[22,32],[88,-15],[53,60],[69,9],[59,-25],[18,29],[58,16],[30,55],[92,-12],[1,127],[-19,42],[-42,22],[-29,58],[26,44],[58,21],[-33,81],[33,26],[46,76],[-3,84]],[[3759,2425],[99,6],[20,-84],[45,-61],[28,-3],[32,-54],[81,-73],[82,0],[-2,63],[33,21],[54,-7],[75,26],[75,-29],[25,-48],[134,0]],[[4540,2182],[-23,-67],[1,-100],[20,-63],[6,-90],[-63,-15],[-71,-119],[-4,-62],[-57,55],[-41,-32],[-129,14],[-56,-18],[-31,-33],[-49,-10],[-13,-47],[56,-52],[-12,-52],[17,-59],[-26,-37],[43,-45],[8,-45],[-58,-18],[-20,-57],[13,-79],[39,-39],[18,-48],[33,-7],[27,-51],[62,-6],[52,-48],[108,-36],[39,-32],[49,-1],[-2,-47],[54,-91],[23,-69],[62,-60],[-31,-77],[41,-101],[-1,-61],[30,-101],[-17,-47],[-102,-7],[-26,-22],[-126,81],[-25,40],[-186,-42],[0,89],[47,76],[-20,66],[-50,25],[5,43],[-88,-7],[-2,89],[35,62],[69,34],[-57,32],[-36,-64],[-57,-63],[-53,52],[-18,73],[32,55],[-71,39],[-58,-51],[-43,5],[-93,57],[-92,6],[-125,22],[-32,-28],[-36,17],[-38,-22],[45,-46],[-39,-84],[29,-46],[-59,-23],[-56,35],[26,37],[24,16],[1,93],[-86,51],[-14,-37],[-68,-3],[-61,-62],[-50,-1],[-32,-123],[-23,-30],[-52,-10],[-25,-46],[-68,13],[-3,-90],[-104,-18],[-13,-39],[-108,18],[-25,76]],[[2630,567],[-15,122],[15,36],[-46,113],[-66,40],[8,68],[-113,81],[73,140],[5,29],[-56,61],[-7,74]],[[1573,4237],[-80,13],[-63,54],[-19,69],[-52,60],[-7,46],[-66,-1],[-14,26],[35,151],[-40,44],[-24,61],[-47,35],[-39,69],[40,43],[0,78],[139,57],[12,-17],[-23,-62],[37,-54],[69,-18],[111,-124],[23,-58],[96,-46],[59,-61],[56,-97],[77,29],[0,52],[23,39],[103,71],[57,70],[20,72],[54,15],[50,85],[53,60],[-5,43],[40,36],[-30,63],[19,57],[68,23],[94,-18],[73,16],[68,53],[-24,42],[4,58],[-23,32],[2,55],[30,21],[2,59],[-25,74],[49,53],[1,56],[78,111]],[[2634,5832],[68,-109],[44,-43],[3,-39],[38,-84],[152,39],[44,-19],[-39,-157],[-33,3],[-13,-94],[59,-77],[0,-48],[-49,-103],[66,-12],[62,-36],[45,13],[57,-43],[134,-76],[57,28],[84,-4],[21,-131],[-35,-63],[70,-77],[55,-9],[22,-43],[52,-46],[107,-4],[105,-50],[100,-15],[41,81],[52,10],[44,31],[61,-28],[40,15],[21,70],[31,12],[30,52],[53,-8],[49,-29],[81,29],[72,-44],[-18,-50],[26,-40],[64,-12],[52,40],[45,3],[45,-53],[61,-48],[114,-51],[78,-23],[0,-38],[-48,-74]],[[4904,4378],[-66,-125],[-37,10],[-81,-15],[-68,39],[-132,-37],[-83,-117],[-70,-4],[-34,-51],[-14,-58],[-79,-7],[-25,-52],[26,-61],[-30,-38],[-4,-65],[-53,-110],[14,-27],[-34,-72],[-5,-61],[32,-77],[-4,-35],[-93,-110],[28,-49],[44,-116],[63,-6],[56,-38],[37,-112],[-31,-39],[33,-33],[45,-1],[47,-50],[72,34]],[[4458,2895],[39,-41],[-36,-50],[-38,-96],[-19,-105],[14,-37],[45,-28],[-29,-46],[-16,-104],[28,-95],[40,-19],[54,-92]],[[3759,2425],[-46,-2],[-170,103],[-140,-54],[-66,39],[-69,18],[-59,-30],[-2,-25],[-65,-14],[-24,19],[-116,-2]],[[11886,9283],[-44,-28],[-97,-93],[-41,-52],[-120,70],[-21,-31],[-55,-6],[-28,-54],[25,-82],[-60,-102],[-43,-16],[-54,-56],[-67,-8],[-105,-155],[-31,-102],[-68,-69],[-3,-25]],[[11074,8474],[-98,47],[-36,2],[-5,59],[18,56],[-59,48],[-93,21],[-113,2],[-201,-14],[-170,-31]],[[10339,9140],[62,83],[23,68],[80,64],[13,-22],[92,-11],[43,26],[87,-68],[56,12],[33,34],[40,-7],[111,89],[69,3],[10,52],[69,21],[85,42],[36,-60],[32,-105],[102,98],[71,46],[32,78],[82,84],[45,-3],[48,53],[-24,56],[15,51],[60,14],[59,77],[50,44],[72,33],[89,13],[93,-101]],[[11962,11498],[79,-6],[20,-21],[94,-10],[44,-84],[60,9],[41,-40],[56,65],[47,31],[141,-15],[53,48],[46,122],[2,85],[-16,53],[74,62],[166,29],[34,35],[35,-43],[24,-84],[51,-70],[141,-1],[95,30],[29,29],[52,10],[35,-84],[1,-56],[-32,-59],[64,-77],[50,-30],[-6,-94],[38,-46],[43,-10],[30,-83],[1,-164],[-24,-94],[46,-120],[3,-54],[38,-12],[19,-60],[-29,-93]],[[9586,10413],[66,12],[123,78],[24,41],[65,5],[90,68]],[[9954,10617],[58,-47],[25,-40],[37,-6],[30,-58],[73,-61],[76,-40],[45,-49],[52,-85],[46,-6],[93,69],[14,43],[77,25],[84,57],[69,73],[46,27],[9,102],[154,109],[143,12],[41,-84],[72,-10],[18,75],[39,21],[66,94],[101,69],[46,-53],[66,105],[74,14],[-6,72],[95,117],[102,14],[-6,97],[62,26],[70,105],[12,74],[25,20]],[[14729,8944],[56,17],[81,47],[60,6],[86,-68],[30,-56],[54,-29],[41,32],[50,-32],[78,4],[40,33],[61,-17],[32,60],[116,-8],[73,-22],[11,-45],[57,6],[19,-57],[-47,-103],[-33,1],[-20,-9],[-44,-62],[-30,-9],[-16,-100],[53,-10],[-93,-91],[-75,-92],[-21,-74],[-57,-61],[-77,-117],[-88,-154],[-13,-48],[9,-89],[-54,-90]],[[14723,8182],[34,53],[-44,63],[32,33],[65,-56],[42,3],[8,91],[28,11],[13,63],[-25,33],[-68,46],[-32,53],[-1,89],[-69,34],[14,100],[32,52],[-23,94]],[[13338,7043],[30,58],[5,89],[-51,165],[-28,62],[-150,84]],[[13144,7501],[40,62],[121,128]],[[13305,7691],[31,-24],[138,-26],[125,-3],[47,59],[66,6],[19,43],[56,3],[34,23],[60,5],[98,-22]],[[13144,7501],[-156,58]],[[12988,7559],[6,79],[105,19],[18,52],[-19,38],[35,28],[15,74],[23,21],[89,18]],[[13260,7888],[-4,-33],[-53,-71],[33,-36],[71,-3],[-2,-54]],[[13269,8800],[44,-26],[29,-54],[59,-5],[103,-36],[61,-43],[37,0],[40,-46]],[[13642,8590],[-20,-45],[-89,-22],[-92,-91],[-43,10],[-43,-27],[-61,-68],[-18,-75],[0,-98],[-22,-58],[14,-75],[-21,-73],[13,-80]],[[12988,7559],[-68,45],[-19,25],[-83,44],[-125,38],[-24,38]],[[14389,9474],[38,11],[36,-24],[66,-9],[30,-26],[-49,-52],[3,-54],[70,-29],[51,-57],[33,-80],[-7,-55],[41,-18],[24,-55],[-18,-74],[22,-8]],[[13642,8590],[66,51],[9,78],[36,79],[69,46],[-59,102],[8,68],[69,41],[31,132],[-17,66],[70,27],[34,52],[48,1],[82,-24],[44,-31],[100,-36],[69,30],[43,118],[34,15],[11,69]],[[13547,10300],[71,-25],[129,20],[159,43],[52,-11],[52,22],[122,2],[61,-20],[21,-32],[110,-54],[106,12],[25,13],[94,-43],[6,-84],[-56,-54],[55,-95],[-35,-41],[110,-90],[-117,-74],[-56,-68],[-118,-51],[-8,-35],[48,-44],[-24,-50],[35,-67]],[[11504,8469],[-346,18],[-84,-13]],[[8824,11810],[-12,42],[27,87],[72,-10],[71,66],[1,88],[84,42],[-3,56],[69,76],[51,33],[62,2],[44,-71],[30,-3],[46,-50],[103,-27]],[[9469,12141],[-26,-122],[32,-43],[-15,-81],[36,-73],[116,-85],[70,15],[47,-13],[85,-68],[24,-64],[63,-26],[19,-51],[-10,-46],[21,-50],[-31,-79],[-52,-51],[27,-49],[10,-73],[86,-116],[-10,-55],[25,-29],[-43,-125],[39,-49],[-2,-38],[-43,-50],[-4,-48],[21,-55]],[[9472,10453],[5,65],[-60,117],[-40,40],[1,79],[33,34],[-65,110],[-50,1],[-140,113],[-18,36],[40,105],[-29,88],[-60,105],[-38,28],[-12,131],[-33,20],[6,55],[-52,57],[-9,39],[-62,27],[-65,107]],[[10136,12288],[19,-119],[30,-45],[46,-11],[50,-67],[27,10],[56,-31],[65,-3],[59,-67],[50,19],[102,-25],[81,19],[97,-34],[5,-51],[64,-64],[69,-4],[91,41],[55,-5],[21,26],[94,-16],[16,-48],[176,19],[75,-7],[92,77],[88,4],[44,-73],[83,-37],[29,-69],[81,-91],[53,-94],[8,-44]],[[9469,12141],[21,34],[63,46],[29,47],[128,9],[54,-43],[85,-48],[68,86],[76,29],[143,-13]],[[8641,11745],[58,26],[53,-30],[72,69]],[[8322,10105],[1,62],[-32,69],[-91,94],[-74,-27],[-108,-59],[-80,-9],[-74,-42],[40,142],[-37,60],[-117,32],[23,46],[-33,18],[-9,47],[-100,54],[1,76],[-62,19],[-17,61],[31,83],[-34,52],[29,52],[47,32]],[[7626,10967],[176,16],[44,44],[72,15],[29,-11],[95,73],[53,-32],[50,16],[48,-10],[125,27],[74,26],[202,118],[31,72],[56,37],[16,32],[-78,66],[-34,95],[22,161],[34,33]],[[7265,11590],[60,68],[106,36],[87,100],[52,-13],[62,-40],[57,-6],[137,-45],[79,123],[44,1],[52,30],[110,1],[65,-45],[134,-9],[60,30],[80,-25],[53,23],[25,-32],[84,-7],[29,-35]],[[7626,10967],[-39,142],[6,49],[-34,39],[-64,33],[-1,59],[52,38],[-82,89],[-30,-2],[-51,50],[-39,10],[-60,61],[-19,55]],[[6845,11758],[59,9],[82,-32],[73,-58],[68,-76],[77,2],[61,-13]],[[7845,8507],[2,41],[32,46],[13,57],[35,42],[-21,66],[-151,119],[-60,30],[-98,91],[-15,68],[14,51],[-47,23],[-28,-45],[10,-146],[-75,-25],[-11,52],[-47,11],[-76,-70],[-20,12],[-59,117],[-92,32],[-21,52]],[[7130,9131],[-52,80],[-7,56],[-125,-64],[-29,61],[-68,37],[24,71],[-54,59],[-49,10],[-25,45],[-54,6],[-120,-56],[-20,-38],[-45,-24],[-83,30]],[[6423,9404],[-35,84],[5,48],[-15,146],[101,73],[-16,39],[5,69],[-32,91],[-34,42],[34,145],[-32,76],[-51,31],[-69,3],[-45,72],[-63,14],[-58,66],[-53,4],[-106,67],[-21,62],[-47,75],[8,80],[-51,31]],[[5848,10722],[-17,25],[-12,171],[58,63],[54,12],[78,68],[32,43],[-12,35],[70,126],[19,106],[94,10],[102,-95],[37,-54],[101,37],[46,-13],[77,65],[34,-7],[63,58],[45,114],[-15,65],[58,102],[15,50],[70,55]],[[4596,8112],[-17,100],[62,57],[47,95],[70,69],[34,78],[-3,74],[72,40],[111,88],[29,70],[-20,90],[18,77],[-72,94],[-62,50],[21,101],[52,52],[19,67],[107,50],[83,78],[-5,31],[-50,28],[-51,86],[44,165],[23,127],[21,31],[63,14],[51,30],[57,5],[79,-17],[85,37],[43,144],[-18,57],[18,71],[-20,24],[53,101],[76,16],[89,50],[-41,115],[184,165]],[[6423,9404],[-36,-39],[-37,7],[-53,-48],[16,-116],[-25,-121],[13,-45],[-37,-17],[-52,15],[-40,46],[-26,-12],[-12,-73],[-91,-4],[-27,-30],[38,-87],[-34,-34],[-2,-60],[-51,-103],[-111,-61],[-32,-59],[-87,-60],[24,-56],[5,-89],[-41,-42],[34,-51],[-28,-42],[-11,-71],[58,-58],[44,-8],[10,-120]],[[5832,7966],[-70,-62],[-118,-45],[-100,-4],[-78,-64],[-43,2],[-81,-77],[-82,50],[-18,41],[-148,9],[2,32],[-39,37],[-7,68],[-61,34],[-20,112],[-121,-54],[-89,49],[-89,24],[-74,-6]],[[6729,6649],[-33,9],[-19,-50],[-12,-34],[-44,10],[-14,-48],[-4,-21],[-3,31],[-55,27],[-88,-52],[-5,-44],[48,-16],[63,-45],[122,-68],[0,0],[0,0],[-174,-153],[38,-76],[8,-77],[-15,-63],[65,-11],[17,48],[51,9],[23,-36],[-41,-71],[25,-97],[50,-40],[-69,-41],[-6,-38],[-67,-1],[0,-59],[72,-64]],[[6662,5578],[-125,-14],[-59,-17],[-52,9],[-50,50],[-58,105],[-86,36],[-68,-2],[-43,29],[-10,36],[43,109],[-16,27],[-2,139],[31,33],[-28,58],[-42,-6],[-19,81],[-76,64],[27,90],[-33,47],[-56,-6],[-25,-40],[-42,-17],[-11,-64],[-117,-26],[-76,-38],[-74,-2],[-87,36],[-36,71],[-38,39],[-66,14],[9,-68],[-75,-20],[-75,74],[-11,33],[-95,87],[-6,69],[-33,27],[-40,-34],[-82,-14],[-10,98],[53,21],[46,-35],[29,77],[-76,68],[-101,12]],[[4901,6814],[-10,52],[28,82],[33,25],[10,49],[102,77],[11,44],[43,13],[104,-82],[49,-101],[40,37],[1,83],[58,38],[21,48],[-16,40],[31,61],[-6,66],[-22,39],[38,34],[1,58],[40,17],[86,-20],[50,13],[75,-33],[6,-21],[77,-4],[19,37],[52,19],[99,-35],[-7,-99],[56,-97]],[[6667,6574],[0,0],[-1,-1],[1,1]],[[6681,7699],[-55,42],[-5,69],[-154,98],[-107,6],[-54,50],[-82,3],[-22,53],[-49,22]],[[6153,8042],[-19,85],[14,62],[29,47],[9,69],[32,33],[-17,54],[88,-16],[-6,71],[106,-36],[18,-21],[76,-20],[76,-40],[46,20],[-9,122],[104,88],[56,1],[-23,119],[6,53],[-31,69],[6,49],[103,57],[55,5],[186,-42]],[[7058,8871],[73,49],[32,-12],[19,-93],[42,-45],[56,-98],[2,-125],[33,-50],[48,3],[33,-24],[-4,-100],[-44,-49]],[[7130,9131],[-34,22],[-57,-17],[12,-51],[-19,-63],[26,-151]],[[6153,8042],[-63,-36],[-53,18],[-42,-77],[-98,-13],[-65,32]],[[3202,7145],[22,19],[-9,86],[-116,-4],[-48,29],[-33,85],[21,118],[-78,29],[-13,72],[37,88],[-10,76],[-40,31],[-118,55],[-10,72],[35,55],[67,5],[35,67],[36,-6],[114,25],[61,46],[128,-49],[18,-22],[142,-15],[26,22],[84,-6],[58,-22],[125,-28],[118,9],[82,37],[49,-1],[64,-56],[68,-3],[112,36],[53,33],[90,10]],[[4372,8038],[29,-55],[10,-75],[-9,-58],[25,-26],[10,-65],[-27,-43],[-45,-26],[-17,-61],[62,-44],[-39,-46],[-46,-12],[13,-100],[-83,-4],[-42,-26],[-66,7],[-31,-46],[-29,-85],[20,-71],[37,-18],[57,-97],[76,47],[12,38],[50,7],[28,-47],[71,-60],[-23,-75],[-3,-124],[71,-74],[47,-7],[88,-89],[90,-29]],[[4708,6674],[30,-151],[31,-76],[-41,-21],[-22,-102],[-21,-32],[-57,10],[-40,30],[-62,-19],[-59,4],[-54,-111],[-107,-76],[-10,-73],[-80,26],[-29,64],[-74,38],[5,41],[-31,94],[-33,46],[-100,13],[-100,87],[-152,45],[-82,-1]],[[3620,6510],[15,39],[-5,73],[-21,60],[-49,60],[-39,83],[-55,51],[-83,16],[-63,43],[-58,4],[-29,101],[-1,46],[-30,59]],[[4372,8038],[83,19],[141,55]],[[4901,6814],[-73,-44],[-12,-53],[-108,-43]],[[2634,5832],[2,50],[52,82],[63,7],[147,86],[58,-16],[130,58],[88,19],[68,37],[127,122],[107,23],[117,79],[18,62],[-14,40],[23,29]],[[6662,5578],[-57,-51],[49,-38],[8,-43],[-145,-89],[-4,-78],[-32,-41],[7,-73],[-141,-41],[-35,-20],[-41,-90],[54,-88],[41,-14],[-22,-73],[11,-108],[23,-34],[-72,-20],[-79,82],[14,60],[-71,26],[-59,-1],[-62,-40],[-15,-34],[-106,-103],[-27,-47],[-29,-110]],[[5872,4510],[-52,29],[-41,89],[25,57],[86,82],[82,136],[59,50],[6,47],[-52,65],[-34,12],[-75,-15],[-36,-50],[-75,-49],[-46,-72],[-64,-49],[-57,8],[-63,-63],[-89,-32],[-26,49],[-57,-4],[-53,18],[-66,-68],[-13,-45],[39,-32],[13,-71],[-143,40],[-49,-63],[-17,-195],[-53,-12],[-52,-45],[-65,51]],[[2630,567],[-60,-29],[-75,82],[-43,-15],[1,-48],[-70,-30],[-68,80],[-17,68],[-46,64],[-34,-5],[-52,66],[-26,-5],[-24,74],[-30,30],[-39,94],[-38,-31],[-29,44],[-36,-37],[-125,-17],[-8,-58],[-95,-64],[-103,22],[-42,-39],[-73,7],[-46,-40],[-15,-120],[-60,38],[-30,72],[-11,87],[46,-17],[27,47],[-73,16],[-61,115],[22,14],[59,-27],[14,30],[66,-15],[43,63],[-68,79],[-3,57],[56,10],[-2,57],[50,-22],[32,31],[26,91],[-30,39],[79,22],[-5,42],[-55,41],[8,72],[55,91],[48,1],[59,65],[78,37],[1,79],[53,47],[22,-20],[47,32]],[[1282,729],[-35,-54],[-62,-10],[21,53],[76,11]],[[5872,4510],[-79,-103],[-8,-72],[-55,-84],[7,-22],[-86,-149],[-65,-42],[-19,14],[-89,-52],[-62,-112],[-50,-27],[35,-70],[-3,-38],[-82,-47],[-27,-97],[0,-74],[-26,-80],[34,-53],[-22,-57],[-45,28],[-69,15],[-12,41],[-37,16],[-26,45],[-104,-5],[-36,22],[-101,-2],[-82,-26],[-139,-137],[-89,-145],[-23,-83],[11,-63],[-34,-27],[-31,-129]]],"transform":{"scale":[0.0001164878142146227,0.00009596943337940016],"translate":[132.48003,32.70251]},"objects":{"japan":{"type":"GeometryCollection","geometries":[{"arcs":[[0,1,2,3,4]],"type":"Polygon","properties":{"pref":"高知県","city":"高知市","code5":"39201","code6":"392014"}},{"arcs":[[5,6,7,8]],"type":"Polygon","properties":{"pref":"高知県","city":"室戸市","code5":"39202","code6":"392022"}},{"arcs":[[9,10,11,12,13,14,15]],"type":"Polygon","properties":{"pref":"高知県","city":"安芸市","code5":"39203","code6":"392031"}},{"arcs":[[-1,16,17,18,19,20]],"type":"Polygon","properties":{"pref":"高知県","city":"南国市","code5":"39204","code6":"392049"}},{"arcs":[[[-3,21,22,23,24,25]],[[26,27]]],"type":"MultiPolygon","properties":{"pref":"高知県","city":"土佐市","code5":"39205","code6":"392057"}},{"arcs":[[[-23,28,-27,29,30,31,32]],[[33]]],"type":"MultiPolygon","properties":{"pref":"高知県","city":"須崎市","code5":"39206","code6":"392065"}},{"arcs":[[[34,35,36,37,38,39]],[[40]],[[41]],[[42]],[[43]]],"type":"MultiPolygon","properties":{"pref":"高知県","city":"宿毛市","code5":"39208","code6":"392081"}},{"arcs":[[-38,44,45,46,47]],"type":"Polygon","properties":{"pref":"高知県","city":"土佐清水市","code5":"39209","code6":"392090"}},{"arcs":[[48,49,50,51,-46,52,-36]],"type":"Polygon","properties":{"pref":"高知県","city":"四万十市","code5":"39210","code6":"392103"}},{"arcs":[[-15,53,54,-20,55]],"type":"Polygon","properties":{"pref":"高知県","city":"香南市","code5":"39211","code6":"392111"}},{"arcs":[[56,-16,-56,-19,57,58]],"type":"Polygon","properties":{"pref":"高知県","city":"香美市","code5":"39212","code6":"392120"}},{"arcs":[[59,-9,60]],"type":"Polygon","properties":{"pref":"高知県","county":"安芸郡","city":"東洋町","code5":"39301","code6":"393011"}},{"arcs":[[-7,61,62,63]],"type":"Polygon","properties":{"pref":"高知県","county":"安芸郡","city":"奈半利町","code5":"39302","code6":"393029"}},{"arcs":[[-63,64,65,66]],"type":"Polygon","properties":{"pref":"高知県","county":"安芸郡","city":"田野町","code5":"39303","code6":"393037"}},{"arcs":[[-12,67,68,-66,69]],"type":"Polygon","properties":{"pref":"高知県","county":"安芸郡","city":"安田町","code5":"39304","code6":"393045"}},{"arcs":[[70,-61,-8,-64,-67,-69,71]],"type":"Polygon","properties":{"pref":"高知県","county":"安芸郡","city":"北川村","code5":"39305","code6":"393053"}},{"arcs":[[72,-72,-68,-11]],"type":"Polygon","properties":{"pref":"高知県","county":"安芸郡","city":"馬路村","code5":"39306","code6":"393061"}},{"arcs":[[-14,73,-54]],"type":"Polygon","properties":{"pref":"高知県","county":"安芸郡","city":"芸西村","code5":"39307","code6":"393070"}},{"arcs":[[74,75,-58,-18,76]],"type":"Polygon","properties":{"pref":"高知県","county":"長岡郡","city":"本山町","code5":"39341","code6":"393410"}},{"arcs":[[77,-59,-76,78]],"type":"Polygon","properties":{"pref":"高知県","county":"長岡郡","city":"大豊町","code5":"39344","code6":"393444"}},{"arcs":[[79,-77,-17,-5,80,81]],"type":"Polygon","properties":{"pref":"高知県","county":"土佐郡","city":"土佐町","code5":"39363","code6":"393631"}},{"arcs":[[82,-82,83]],"type":"Polygon","properties":{"pref":"高知県","county":"土佐郡","city":"大川村","code5":"39364","code6":"393649"}},{"arcs":[[84,-84,-81,-4,-26,85,86,87,88]],"type":"Polygon","properties":{"pref":"高知県","county":"吾川郡","city":"いの町","code5":"39386","code6":"393860"}},{"arcs":[[89,-88,90,91]],"type":"Polygon","properties":{"pref":"高知県","county":"吾川郡","city":"仁淀川町","code5":"39387","code6":"393878"}},{"arcs":[[-31,92,93,94]],"type":"Polygon","properties":{"pref":"高知県","county":"高岡郡","city":"中土佐町","code5":"39401","code6":"394017"}},{"arcs":[[-24,-33,96,97,98]],"type":"Polygon","properties":{"pref":"高知県","county":"高岡郡","city":"佐川町","code5":"39402","code6":"394025"}},{"arcs":[[-87,99,-98,100,-91]],"type":"Polygon","properties":{"pref":"高知県","county":"高岡郡","city":"越知町","code5":"39403","code6":"394033"}},{"arcs":[[101,102,103,104]],"type":"Polygon","properties":{"pref":"高知県","county":"高岡郡","city":"檮原町","code5":"39405","code6":"394050"}},{"arcs":[[-25,-99,-100,-86]],"type":"Polygon","properties":{"pref":"高知県","county":"高岡郡","city":"日高村","code5":"39410","code6":"394106"}},{"arcs":[[105,-92,-101,-97,-32,-95,106,-103]],"type":"Polygon","properties":{"pref":"高知県","county":"高岡郡","city":"津野町","code5":"39411","code6":"394114"}},{"arcs":[[107,-104,-107,-94,108,109,-50]],"type":"Polygon","properties":{"pref":"高知県","county":"高岡郡","city":"四万十町","code5":"39412","code6":"394122"}},{"arcs":[[[-39,-48,110]],[[111]]],"type":"MultiPolygon","properties":{"pref":"高知県","county":"幡多郡","city":"大月町","code5":"39424","code6":"394246"}},{"arcs":[[-37,-53,-45]],"type":"Polygon","properties":{"pref":"高知県","county":"幡多郡","city":"三原村","code5":"39427","code6":"394271"}},{"arcs":[[-51,-110,112]],"type":"Polygon","properties":{"pref":"高知県","county":"幡多郡","city":"黒潮町","code5":"39428","code6":"394289"}}]}}}