{"type":"Topology","arcs":[[[2637,519],[-37,-23],[-16,-80],[-81,0],[-67,-47],[-47,-60],[50,-75],[5,-68],[28,-19],[26,-71],[-46,-51],[-42,17],[-79,-32],[-250,22],[-60,1],[-56,-18],[-91,-15],[0,30],[66,30],[72,128],[-20,41],[16,96],[15,11],[-39,121]],[[1984,457],[112,25],[30,19],[25,57],[119,7],[56,-25],[125,44],[5,39],[49,-11],[28,-85],[45,6],[41,36],[18,-50]],[[3289,2301],[175,-1],[102,-18],[16,11]],[[3582,2293],[-23,-50],[66,-39],[1,-43],[-38,-15],[-2,-83],[27,-140],[-24,-4]],[[3589,1919],[-98,28],[-83,-3],[-137,-24],[-87,-28],[-49,7],[-50,-45],[-59,-6],[1,-30]],[[3027,1818],[-77,-74],[-78,-37],[-61,50],[-38,-18],[-12,-47],[-105,-39],[-60,16],[-18,-30],[-74,2],[-26,-30]],[[2478,1611],[-36,-57],[-140,-18],[-19,-59],[-58,-53]],[[2225,1424],[-27,36],[-3,45],[-86,47],[-33,-47],[12,-51],[-63,8],[-13,-39],[-56,5]],[[1956,1428],[-3,49],[-55,-18],[-51,56],[-33,13]],[[1814,1528],[26,30],[-7,75],[58,13],[11,-66],[67,25],[24,57],[-10,43],[46,14],[24,63],[-21,61],[61,-5],[-18,-85],[39,-76],[38,7],[-6,85],[23,29],[62,12],[7,34],[-52,22],[-3,45],[58,25],[95,9],[24,62],[-65,64],[15,31],[37,12],[65,-46],[33,35],[5,64],[28,19],[39,-23],[87,16]],[[2604,2179],[75,15],[63,63],[43,0],[34,28],[7,47]],[[2826,2332],[267,-1],[-10,-30],[20,-59],[101,63],[85,-4]],[[4008,4714],[-81,-17],[-34,-76],[-46,-30],[-132,-43],[6,-30],[-29,-60]],[[3692,4458],[-86,31]],[[3606,4489],[-13,66],[13,78],[-68,21]],[[3538,4654],[-38,67],[-120,34]],[[3380,4755],[-21,94],[96,29],[6,56],[-23,51],[62,73]],[[3500,5058],[36,-54],[35,-85],[48,1],[44,-24],[41,9],[60,-16],[56,49],[25,59],[61,-9],[21,-33],[57,-20],[0,-74],[28,-97],[-4,-50]],[[3692,4458],[22,-13],[38,-95],[-21,-69],[28,-62]],[[3759,4219],[21,-62],[-47,-67]],[[3733,4090],[-19,-22],[86,-181],[58,-17],[-15,-91],[-55,-54]],[[3788,3725],[-56,15],[-33,39],[-34,77],[-85,74],[-39,-15],[-45,46],[-30,-53],[-3,-99]],[[3463,3809],[-47,-24],[-46,42],[-78,-34],[-71,-10],[-24,-43],[38,-44],[48,-15],[-26,-80],[28,-93],[36,14],[22,-58],[-41,-67],[15,-36]],[[3317,3361],[-46,-41],[13,-35],[-18,-84]],[[3266,3201],[-49,45],[-57,-34],[-109,3]],[[3051,3215],[-17,63],[-43,23],[11,36],[-74,84],[-12,46],[-60,57]],[[2856,3524],[-60,141],[-24,17],[-27,88]],[[2745,3770],[-25,39]],[[2720,3809],[52,47],[61,-27],[72,39],[19,43],[-29,22],[-31,85],[-56,36]],[[2808,4054],[38,56],[113,42],[27,-19],[96,98],[51,36],[10,75],[106,46],[63,3]],[[3312,4391],[34,-50],[41,19],[116,-19],[103,148]],[[3733,4090],[34,-28],[181,76],[-25,95]],[[3923,4233],[24,26],[79,5],[-19,56],[13,67],[26,26],[85,13]],[[4131,4426],[0,-99],[-16,-74],[26,-51],[38,-6],[-15,-67],[49,-32]],[[4213,4097],[-38,-79],[53,-95],[-72,-76]],[[4156,3847],[-80,74],[-116,37],[-7,-36],[41,-31],[-28,-83],[19,-33],[-9,-75],[-67,-89]],[[3909,3611],[-43,2],[-9,38],[-69,74]],[[2190,1180],[-4,-65],[46,-25],[58,-4]],[[2290,1086],[-4,-24],[-85,4],[16,-82],[-8,-44],[-36,-5],[3,-50],[-35,-31],[-27,-73],[-29,-21],[-32,-76],[-64,-102],[-36,-31]],[[1953,551],[-117,44],[-10,19],[53,71],[-128,75],[20,55],[-20,83],[-34,-15],[-57,9],[0,85],[-20,108]],[[1640,1085],[81,20],[24,78],[44,-3],[61,-42],[50,87],[98,11]],[[1998,1236],[40,13],[37,-98],[115,29]],[[3589,1919],[31,-91],[90,-49],[25,17],[86,-5],[68,-84],[54,8],[7,-40],[59,-7],[108,-58]],[[4117,1610],[7,-106],[35,-16],[103,-13],[37,-19],[-109,-78],[-12,-40],[56,-48],[61,-32],[25,-32],[125,-43],[-9,-63],[-41,-13],[-7,-61],[16,-74],[-44,-35],[-26,-131],[-24,-59],[-44,-54],[-71,-32],[-69,16],[-77,64],[-24,-5],[-95,52],[-96,2],[-64,46],[-25,37],[-86,57],[-15,45],[-61,-10],[-55,22],[-43,-24],[-69,21],[11,32],[-42,58],[-92,-77],[-7,-86],[-31,-161],[-24,-60],[-82,30],[-98,-13],[-31,-17],[-76,39],[-109,8],[-49,-59],[-47,-16]],[[2739,662],[-31,20],[6,81],[-25,32],[8,87],[-21,35],[15,69],[-73,30],[18,123],[-33,33]],[[2603,1172],[-53,52],[-32,148],[7,65],[24,26],[-32,0],[-3,6]],[[2514,1469],[85,17],[52,-23],[175,31],[107,61],[37,-40],[91,-15],[35,12],[1,50],[-57,87],[-13,169]],[[2478,1611],[9,-99],[27,-43]],[[2603,1172],[-54,-19],[-106,6],[-50,-62],[-43,64],[-56,3],[-4,-78]],[[2190,1180],[-29,121],[34,13],[30,110]],[[1956,1428],[58,-27],[-22,-58],[6,-107]],[[1640,1085],[6,61],[-66,51],[-5,105],[16,21],[65,6],[36,38],[74,30],[15,59],[-44,44],[18,52],[59,-24]],[[4481,4664],[42,121],[40,-27]],[[4563,4758],[98,-26],[17,-27],[59,-6],[43,-25],[126,43],[55,-8],[95,55]],[[5056,4764],[22,-38],[58,9],[-24,-67],[33,-24],[50,-162],[46,-85],[34,-19]],[[5275,4378],[-48,-59],[-73,23],[-63,-46]],[[5091,4296],[-34,31],[-5,54],[-42,32],[-128,-22],[-83,-82],[-73,-7],[-36,-32],[-42,1],[21,142],[-8,31],[52,74],[-39,54],[-55,-8],[-36,17],[-41,-45],[-38,49],[-23,79]],[[5905,3919],[-50,-118]],[[5855,3801],[-25,-50],[-109,-70],[-48,-75],[-17,-67],[-47,-89],[-85,-47],[-13,-69],[-76,-45],[-46,-55]],[[5389,3234],[-75,-7],[-92,71],[-108,-64],[-72,20],[-60,-19]],[[4982,3235],[1,52],[23,62],[85,82],[7,86],[62,67],[28,6],[85,140],[17,55],[91,87],[108,159]],[[5489,4031],[39,-42],[31,-62],[47,0],[31,79],[47,-27],[109,-5],[89,-57],[23,2]],[[3560,5302],[54,-24],[5,-34],[68,-34],[2,-25],[-63,-22],[-31,-60],[-45,26],[-68,-38]],[[3482,5091],[-16,33],[-43,2],[-24,37],[-37,-10],[-33,66],[-25,-12]],[[3304,5207],[-6,23],[45,46],[74,23]],[[3417,5299],[61,6],[-6,44],[88,-47]],[[2604,2179],[31,148],[-1,178],[-4,171],[-31,84],[7,29]],[[2606,2789],[69,11],[21,58],[93,-44],[44,-38]],[[2833,2776],[33,-43],[99,-69],[23,-45]],[[2988,2619],[-50,-14],[-35,-48],[-40,-118],[-39,-70],[2,-37]],[[3051,3215],[-60,-64],[1,-20],[-111,-45],[-46,-83],[-72,27],[-22,-21],[-1,-69],[71,-112],[22,-52]],[[2606,2789],[-14,16],[-119,48],[-79,-27],[-25,-32],[-88,-27],[-63,-48],[-5,2]],[[2213,2721],[-19,15],[-5,72],[23,19],[-20,79],[46,57]],[[2238,2963],[84,-11],[41,37]],[[2363,2989],[21,27],[-8,60],[18,78],[38,62],[55,-39],[37,46],[44,-9],[9,-48],[52,-47],[45,98],[-47,39],[9,58],[84,12],[38,47],[35,73]],[[2793,3446],[38,68],[25,10]],[[2252,3417],[43,-14],[9,-49],[-17,-105],[-28,-7],[-104,-73]],[[2155,3169],[-11,62],[-50,36],[-24,55]],[[2070,3322],[9,38],[38,28],[-18,61],[65,38],[59,-83],[29,13]],[[2252,3417],[25,97],[63,45]],[[2340,3559],[69,3],[55,-85],[26,-65]],[[2490,3412],[-77,-39],[-54,-3],[29,-68],[-45,-41],[16,-57],[-26,-30],[-6,-59],[36,-126]],[[2238,2963],[-54,26],[-29,180]],[[2640,5649],[-7,-30],[82,-129],[35,-2],[44,-117],[53,-30],[20,-104],[28,-40],[59,34],[112,-17],[61,-50]],[[3127,5164],[-10,-80],[31,-61]],[[3148,5023],[-33,0],[-6,-66],[-89,9],[-53,-29],[-23,-41],[17,-38],[-103,-31],[-34,-25],[-96,-6],[-24,-28]],[[2704,4768],[-68,85],[15,52],[-51,51],[-97,5],[-114,86],[18,61],[35,35],[-32,56],[6,80],[-55,91],[-52,35]],[[2309,5405],[83,8],[83,31],[52,40],[36,65],[5,92],[72,8]],[[2093,5816],[48,-19],[-80,-105],[-31,-57],[-86,37],[-16,24],[14,89],[50,13],[47,-21],[54,39]],[[2357,5804],[41,-9],[51,-71],[-56,-11],[-36,91]],[[2490,3412],[31,-46],[48,39],[-2,43],[66,42],[40,45],[85,-72],[35,-17]],[[2665,4642],[32,-17],[26,-50],[-55,-16],[-19,-47]],[[2649,4512],[-62,-2],[-59,-52],[-12,-57],[-57,-36]],[[2459,4365],[-44,66],[-44,-32],[-127,21],[6,77],[-49,72],[-63,37]],[[2138,4606],[58,71],[48,112]],[[2244,4789],[70,-12],[45,-29],[126,-42],[145,-18],[35,-46]],[[2704,4768],[-12,-82],[-27,-44]],[[2244,4789],[18,130],[-26,73],[-25,17],[-56,-23],[-25,64],[29,43],[5,58],[72,6],[40,45],[25,58],[20,97],[-12,48]],[[3582,2293],[0,40],[48,38],[40,-66],[103,12],[72,-24],[50,-77],[138,74],[105,-64],[34,-43]],[[4172,2183],[35,-44],[45,0],[22,-48],[8,-67],[35,-86],[17,-82],[-48,-46],[-3,-61],[39,-90],[-45,9],[-53,-32],[-87,0],[-20,-26]],[[3538,4654],[-99,-82],[2,-132],[-80,2],[-49,-51]],[[2808,4054],[-45,54],[46,70],[-24,36],[-45,16]],[[2740,4230],[-56,14],[-8,33],[-53,52],[27,79],[-20,29],[19,75]],[[3148,5023],[58,-118],[5,-135],[38,-70],[45,5],[86,50]],[[3909,3611],[41,-79],[51,-55],[21,-66],[-14,-163],[33,-10]],[[4041,3238],[2,-47],[36,-85]],[[4079,3106],[-49,-35],[-11,-73],[-78,-6]],[[3941,2992],[-21,55],[-113,53],[-82,-9],[-43,10],[-77,-29],[-54,15],[-27,32],[-118,20],[-10,-18],[-76,52],[-21,-9]],[[3299,3164],[-33,37]],[[3317,3361],[26,13],[40,68],[9,57],[37,43],[-7,55],[34,22],[28,78],[6,56],[-27,56]],[[3289,2301],[-69,36],[-6,38],[-64,-3],[30,80],[-107,30],[-41,34],[-8,56]],[[3024,2572],[40,47],[64,-2],[121,185],[-51,70],[-3,57],[55,76],[34,80],[-7,45],[22,34]],[[3941,2992],[-61,-24],[-52,-92],[40,-14],[108,43],[27,-15],[79,15],[56,-63],[-4,-47],[31,-43],[14,-78],[63,-18],[11,-55],[46,-62],[-14,-43],[15,-127]],[[4300,2369],[11,-65],[-139,-121]],[[1984,457],[-31,94]],[[2739,662],[-3,-53],[23,-55],[-122,-35]],[[832,4065],[32,-29],[11,-163],[21,-23],[9,-108],[39,-54],[97,0],[18,-47],[-24,-42],[15,-48],[95,-24],[137,-99],[26,-6],[-7,-79],[23,-84],[-64,-40],[-40,-73],[1,-101]],[[1221,3045],[-76,-20],[-27,-33],[-74,20],[-26,30],[-52,-3],[-93,19],[-89,-42],[-31,-51],[-73,6],[-63,58],[-43,3],[-51,-43],[-48,32],[-139,2],[-25,-38],[-130,-4],[-29,21],[-121,-32],[-31,16],[52,111],[-3,49],[76,18],[41,29],[126,29],[44,30],[85,-26],[39,14],[33,47],[8,72],[45,39],[56,14],[59,114],[-50,32],[-46,-55],[-29,-9],[-48,55],[15,49],[-80,53],[-60,-30],[-40,-40],[-18,67],[-47,23],[20,47],[87,17],[47,23],[54,-11],[109,44],[63,75],[6,26],[-41,54],[14,45],[56,28],[41,-17],[118,63]],[[2213,2721],[-17,-53],[-84,-27],[-27,-69],[7,-27],[-50,-24],[-32,10],[-61,-21],[-18,22],[39,68],[-54,44],[-45,71]],[[1871,2715],[-1,82],[18,54],[-60,38],[0,75],[-35,88],[-15,109],[-38,46],[32,22],[99,-7],[41,72],[66,32],[54,44],[38,-48]],[[2340,3559],[0,1]],[[2340,3560],[13,62],[57,66]],[[2410,3688],[136,-31],[109,21],[13,51],[77,41]],[[2720,3809],[-106,-26],[-35,31],[-77,18],[-89,75]],[[2413,3907],[-9,127]],[[2404,4034],[94,30],[67,-22],[40,43],[61,27],[6,58],[68,60]],[[2113,3854],[82,19],[113,-107],[48,4]],[[2356,3770],[16,-48],[38,-34]],[[2340,3560],[-44,44],[1,66],[-95,122],[-89,61],[0,1]],[[2356,3770],[3,103],[54,34]],[[2251,4317],[-24,21],[-47,-21],[-38,116],[-35,7],[-56,60],[-66,27]],[[1985,4527],[18,37],[57,-14],[78,56]],[[2459,4365],[-104,-81],[-76,11],[-28,22]],[[1700,4873],[48,-14],[-52,-62],[-18,45],[22,31]],[[2385,4032],[-20,94],[-57,28],[-56,84],[-1,79]],[[2404,4034],[-19,-2]],[[2113,3854],[-7,39],[56,39],[13,38],[64,38],[30,40],[72,-66],[44,50]],[[3322,5837],[25,-41],[-13,-35],[53,-60],[-20,-54]],[[3367,5647],[-27,11]],[[3340,5658],[-53,-112],[-89,-12],[-32,-19]],[[3166,5515],[-4,84],[-36,26]],[[3126,5625],[82,43],[62,57],[-5,78],[57,34]],[[3367,5647],[3,-5],[53,-62],[5,-67],[57,-64],[10,-31],[65,-55],[0,-61]],[[3417,5299],[-35,72],[-23,82],[-19,205]],[[2640,5649],[103,6],[37,-62],[112,-16],[79,6],[155,42]],[[3166,5515],[-8,-71],[35,-79],[-36,-103],[13,-53],[-43,-45]],[[3304,5207],[-61,-3],[-47,-60],[-69,20]],[[3482,5091],[18,-33]],[[3024,2572],[-36,47]],[[4079,3106],[132,-22],[26,-39],[-60,-45],[88,-156],[183,19],[64,-9]],[[4512,2854],[-28,-20],[14,-48],[-31,-54],[5,-64],[-16,-30],[-26,-164],[7,-65],[-123,-16],[-14,-24]],[[4102,4582],[26,17],[107,13],[15,46],[67,20],[25,-13]],[[4342,4665],[7,-122],[17,-63],[32,-35],[-16,-69],[37,-44],[38,-81],[-39,-72],[43,-50]],[[4461,4129],[-76,-56],[-106,30]],[[4279,4103],[-66,-6]],[[4131,4426],[18,48],[-47,108]],[[4041,3238],[7,37],[80,34],[26,85],[-9,86],[11,125],[34,17],[-7,54],[-26,24],[20,54]],[[4177,3754],[47,-31],[57,23],[29,-52],[33,20]],[[4343,3714],[33,-83],[79,57],[65,-42],[21,-38],[45,-20],[40,-46]],[[4626,3542],[-10,-36],[68,-123],[-10,-45],[21,-77],[26,-26],[-11,-63],[48,-24],[14,-50]],[[4772,3098],[-39,-13],[-66,-120],[-19,-58],[-55,-18],[-27,-31],[-54,-4]],[[3759,4219],[51,5],[93,42],[20,-33]],[[4156,3847],[48,-44],[-27,-49]],[[4279,4103],[25,-46],[-3,-114],[27,-81],[-8,-27],[39,-78],[-16,-43]],[[4461,4129],[16,-89],[47,24],[30,-19],[-13,-62],[-41,-77],[26,-67],[44,-54],[0,-40],[36,-19],[21,-73],[-1,-111]],[[4008,4714],[8,-47],[86,-85]],[[4563,4758],[18,50],[-17,64],[33,51],[54,32],[36,-26],[103,32],[37,63],[110,126]],[[4937,5150],[20,-2],[139,59],[40,-94],[-53,20],[-45,-39],[-67,-34],[55,-31],[28,-52],[-48,-54],[25,-35],[65,52],[31,-61],[-88,-68],[17,-47]],[[5188,5300],[51,9]],[[5239,5309],[15,-91],[-50,-9],[-16,91]],[[4342,4665],[54,47],[59,5],[26,-53]],[[5091,4296],[-111,-96],[-8,-60],[13,-65],[-52,-72],[-62,-212],[-38,-73],[1,-124],[62,-34],[-44,-111],[3,-105],[29,-66],[54,-52]],[[4938,3226],[-48,-17],[-57,-73],[-61,-38]],[[5905,3919],[66,28],[36,-28],[-40,-76],[2,-51],[-30,-54]],[[5939,3738],[-40,44],[-44,19]],[[5939,3738],[3,-64],[68,-66],[23,-63],[-19,-89],[-53,-61],[-53,-36],[7,-80],[41,-61],[-67,12],[-172,-38],[-59,-2],[-71,36],[-135,-15],[-63,23]],[[5275,4378],[30,-19],[54,-88],[28,-85],[69,-69],[33,-86]],[[4982,3235],[-44,-9]],[[3322,5837],[49,35],[26,65],[75,26],[82,-6],[61,-21],[47,-46],[26,75],[51,2],[-1,38],[85,14],[0,-43],[-45,-6],[0,-36],[79,-43],[12,45],[157,-18],[58,-54],[-22,-132],[-36,-16],[-61,-59],[-54,3],[-9,-31],[-158,-50],[-48,61],[28,-88],[170,52],[0,-25],[14,29],[65,19],[50,-5],[-6,43],[89,76],[-6,46],[17,61],[106,47],[52,10],[13,-32],[-48,-32],[11,-28],[85,35],[13,-19],[-90,-47],[-4,-22],[108,60],[154,-161],[73,32],[88,77],[75,194],[85,59],[3,92],[60,-20],[93,17],[52,52],[94,-48],[20,-29],[-29,-42],[14,-59],[-54,0],[-15,-48],[5,-72],[-36,-85],[13,-36],[-83,-23],[12,-29],[69,-39],[-56,-245],[-84,-42],[-6,-64],[-83,30],[-19,-62],[51,-126],[78,7]],[[4033,6028],[29,-34],[94,41],[67,-68],[-120,-56],[-199,29],[-35,35],[-1,36],[117,0],[48,17]],[[5188,5300],[-24,143],[50,8],[25,-142]],[[1871,2715],[-46,5],[-48,-20],[-15,33],[-62,30],[-40,-11],[-55,75],[-29,-2],[-25,36],[-125,74],[-80,10],[-101,97],[-24,3]],[[832,4065],[46,43],[14,44],[-15,64],[19,24],[60,-51],[49,-25],[33,-42],[-43,-43],[-21,-63],[26,-38],[10,-59],[78,-33],[149,-12],[-23,-87],[-43,43],[-56,-39],[111,-90],[70,4],[33,-19],[101,49],[9,65],[51,2],[103,-17],[70,5],[90,54],[40,-15],[23,-54],[40,20],[-45,65],[28,14],[36,-41],[14,66],[31,97],[10,86],[69,-8],[6,35],[-88,34],[108,54],[47,10],[-47,81],[33,23],[-7,52],[-65,-3],[-76,-33],[8,-41],[-35,-23],[-157,-37],[-43,-44],[-7,-62],[-103,22],[-28,-17],[-47,69],[112,11],[110,47],[103,61],[66,53],[87,99],[9,62]],[[1365,4381],[25,-15],[61,-135],[-43,-43],[-48,7],[-47,69],[2,87],[50,30]],[[2002,4291],[37,-65],[-56,-44],[-18,20],[-83,-37],[-21,42],[113,83],[28,1]],[[1377,4056],[62,-98],[1,-45],[-33,-47],[-51,1],[-15,58],[36,131]],[[995,4412],[46,-30],[-26,-45],[-45,55],[25,20]]],"transform":{"scale":[0.00019087409245947617,0.0001573938612958922],"translate":[130.0390263286024,33.000023440629434]},"objects":{"japan":{"type":"GeometryCollection","geometries":[{"arcs":[[0,1]],"type":"Polygon","properties":{"pref":"福岡県","city":"大牟田市","code5":"40202","code6":"402028"}},{"arcs":[[2,3,4,5,6,7,8,9,10,11]],"type":"Polygon","properties":{"pref":"福岡県","city":"久留米市","code5":"40203","code6":"402036"}},{"arcs":[[12,13,14,15,16,17]],"type":"Polygon","properties":{"pref":"福岡県","city":"直方市","code5":"40204","code6":"402044"}},{"arcs":[[-14,18,19,20,21,22,23,24,25,26,27,28,29,30]],"type":"Polygon","properties":{"pref":"福岡県","city":"飯塚市","code5":"40205","code6":"402052"}},{"arcs":[[-21,31,32,33,34,35,36]],"type":"Polygon","properties":{"pref":"福岡県","city":"田川市","code5":"40206","code6":"402061"}},{"arcs":[[37,38,39,40,41]],"type":"Polygon","properties":{"pref":"福岡県","city":"柳川市","code5":"40207","code6":"402079"}},{"arcs":[[-5,42,43,44,45,46]],"type":"Polygon","properties":{"pref":"福岡県","city":"八女市","code5":"40210","code6":"402109"}},{"arcs":[[-7,47,-46,48,-38,49]],"type":"Polygon","properties":{"pref":"福岡県","city":"筑後市","code5":"40211","code6":"402117"}},{"arcs":[[-9,50,-41,51]],"type":"Polygon","properties":{"pref":"福岡県","city":"大川市","code5":"40212","code6":"402125"}},{"arcs":[[52,53,54,55,56]],"type":"Polygon","properties":{"pref":"福岡県","city":"行橋市","code5":"40213","code6":"402133"}},{"arcs":[[57,58,59,60,61]],"type":"Polygon","properties":{"pref":"福岡県","city":"豊前市","code5":"40214","code6":"402141"}},{"arcs":[[62,63,64,65]],"type":"Polygon","properties":{"pref":"福岡県","city":"中間市","code5":"40215","code6":"402150"}},{"arcs":[[-11,66,67,68,69]],"type":"Polygon","properties":{"pref":"福岡県","city":"小郡市","code5":"40216","code6":"402168"}},{"arcs":[[-26,70,-68,71,72,73,74,75]],"type":"Polygon","properties":{"pref":"福岡県","city":"筑紫野市","code5":"40217","code6":"402176"}},{"arcs":[[76,77,78]],"type":"Polygon","properties":{"pref":"福岡県","city":"春日市","code5":"40218","code6":"402184"}},{"arcs":[[79,80,81,-74,82,-77]],"type":"Polygon","properties":{"pref":"福岡県","city":"大野城市","code5":"40219","code6":"402192"}},{"arcs":[[[83,84,85,86,87]],[[88]],[[89]]],"type":"MultiPolygon","properties":{"pref":"福岡県","city":"宗像市","code5":"40220","code6":"402206"}},{"arcs":[[-75,-82,90]],"type":"Polygon","properties":{"pref":"福岡県","city":"太宰府市","code5":"40221","code6":"402214"}},{"arcs":[[91,92,93,94,95]],"type":"Polygon","properties":{"pref":"福岡県","city":"古賀市","code5":"40223","code6":"402231"}},{"arcs":[[-87,96,-96,97]],"type":"Polygon","properties":{"pref":"福岡県","city":"福津市","code5":"40224","code6":"402249"}},{"arcs":[[-4,98,99,-43]],"type":"Polygon","properties":{"pref":"福岡県","city":"うきは市","code5":"40225","code6":"402257"}},{"arcs":[[-16,100,-30,101,102,-92,-97,-86,103]],"type":"Polygon","properties":{"pref":"福岡県","city":"宮若市","code5":"40226","code6":"402265"}},{"arcs":[[-22,-37,104,105,106,107,108,-24,109]],"type":"Polygon","properties":{"pref":"福岡県","city":"嘉麻市","code5":"40227","code6":"402273"}},{"arcs":[[-3,110,111,-108,112,113,-99]],"type":"Polygon","properties":{"pref":"福岡県","city":"朝倉市","code5":"40228","code6":"402281"}},{"arcs":[[-2,114,-39,-49,-45,115]],"type":"Polygon","properties":{"pref":"福岡県","city":"みやま市","code5":"40229","code6":"402290"}},{"arcs":[[116,117]],"type":"Polygon","properties":{"pref":"福岡県","city":"糸島市","code5":"40230","code6":"402303"}},{"arcs":[[-78,-83,-73,118,119]],"type":"Polygon","properties":{"pref":"福岡県","city":"那珂川市","code5":"40231","code6":"402311"}},{"arcs":[[120,121,122,-27,-76,-91,-81]],"type":"Polygon","properties":{"pref":"福岡県","county":"糟屋郡","city":"宇美町","code5":"40341","code6":"403415"}},{"arcs":[[-29,123,124,125,-102]],"type":"Polygon","properties":{"pref":"福岡県","county":"糟屋郡","city":"篠栗町","code5":"40342","code6":"403423"}},{"arcs":[[126,127,-122,128]],"type":"Polygon","properties":{"pref":"福岡県","county":"糟屋郡","city":"志免町","code5":"40343","code6":"403431"}},{"arcs":[[-28,-123,-128,129,-124]],"type":"Polygon","properties":{"pref":"福岡県","county":"糟屋郡","city":"須恵町","code5":"40344","code6":"403440"}},{"arcs":[[[130,131,-94,132]],[[133]]],"type":"MultiPolygon","properties":{"pref":"福岡県","county":"糟屋郡","city":"新宮町","code5":"40345","code6":"403458"}},{"arcs":[[134,-133,-93,-103,-126,135]],"type":"Polygon","properties":{"pref":"福岡県","county":"糟屋郡","city":"久山町","code5":"40348","code6":"403482"}},{"arcs":[[136,-136,-125,-130,-127]],"type":"Polygon","properties":{"pref":"福岡県","county":"糟屋郡","city":"粕屋町","code5":"40349","code6":"403491"}},{"arcs":[[137,138,139,140,141]],"type":"Polygon","properties":{"pref":"福岡県","county":"遠賀郡","city":"芦屋町","code5":"40381","code6":"403814"}},{"arcs":[[142,-66,143,-139]],"type":"Polygon","properties":{"pref":"福岡県","county":"遠賀郡","city":"水巻町","code5":"40382","code6":"403822"}},{"arcs":[[-84,144,-141,145]],"type":"Polygon","properties":{"pref":"福岡県","county":"遠賀郡","city":"岡垣町","code5":"40383","code6":"403831"}},{"arcs":[[-65,146,-146,-140,-144]],"type":"Polygon","properties":{"pref":"福岡県","county":"遠賀郡","city":"遠賀町","code5":"40384","code6":"403849"}},{"arcs":[[-15,-31,-101]],"type":"Polygon","properties":{"pref":"福岡県","county":"鞍手郡","city":"小竹町","code5":"40401","code6":"404012"}},{"arcs":[[147,-17,-104,-85,-147,-64]],"type":"Polygon","properties":{"pref":"福岡県","county":"鞍手郡","city":"鞍手町","code5":"40402","code6":"404021"}},{"arcs":[[-23,-110]],"type":"Polygon","properties":{"pref":"福岡県","county":"嘉穂郡","city":"桂川町","code5":"40421","code6":"404217"}},{"arcs":[[-25,-109,-112,148,-69,-71]],"type":"Polygon","properties":{"pref":"福岡県","county":"朝倉郡","city":"筑前町","code5":"40447","code6":"404471"}},{"arcs":[[-107,149,150,-113]],"type":"Polygon","properties":{"pref":"福岡県","county":"朝倉郡","city":"東峰村","code5":"40448","code6":"404489"}},{"arcs":[[-12,-70,-149,-111]],"type":"Polygon","properties":{"pref":"福岡県","county":"三井郡","city":"大刀洗町","code5":"40503","code6":"405035"}},{"arcs":[[-8,-50,-42,-51]],"type":"Polygon","properties":{"pref":"福岡県","county":"三潴郡","city":"大木町","code5":"40522","code6":"405221"}},{"arcs":[[-6,-47,-48]],"type":"Polygon","properties":{"pref":"福岡県","county":"八女郡","city":"広川町","code5":"40544","code6":"405442"}},{"arcs":[[151,152,153,154,-34,155]],"type":"Polygon","properties":{"pref":"福岡県","county":"田川郡","city":"香春町","code5":"40601","code6":"406015"}},{"arcs":[[-106,156,157,158,159,160,-150]],"type":"Polygon","properties":{"pref":"福岡県","county":"田川郡","city":"添田町","code5":"40602","code6":"406023"}},{"arcs":[[-20,161,-32]],"type":"Polygon","properties":{"pref":"福岡県","county":"田川郡","city":"糸田町","code5":"40604","code6":"406040"}},{"arcs":[[-36,162,-157,-105]],"type":"Polygon","properties":{"pref":"福岡県","county":"田川郡","city":"川崎町","code5":"40605","code6":"406058"}},{"arcs":[[-35,-155,163,-158,-163]],"type":"Polygon","properties":{"pref":"福岡県","county":"田川郡","city":"大任町","code5":"40608","code6":"406082"}},{"arcs":[[-154,164,-159,-164]],"type":"Polygon","properties":{"pref":"福岡県","county":"田川郡","city":"赤村","code5":"40609","code6":"406091"}},{"arcs":[[165,-156,-33,-162,-19,-13]],"type":"Polygon","properties":{"pref":"福岡県","county":"田川郡","city":"福智町","code5":"40610","code6":"406104"}},{"arcs":[[[166,167,-54]],[[168,169]]],"type":"MultiPolygon","properties":{"pref":"福岡県","county":"京都郡","city":"苅田町","code5":"40621","code6":"406210"}},{"arcs":[[170,-57,171,172,-160,-165,-153]],"type":"Polygon","properties":{"pref":"福岡県","county":"京都郡","city":"みやこ町","code5":"40625","code6":"406252"}},{"arcs":[[-58,173,174]],"type":"Polygon","properties":{"pref":"福岡県","county":"築上郡","city":"吉富町","code5":"40642","code6":"406422"}},{"arcs":[[-59,-175,175]],"type":"Polygon","properties":{"pref":"福岡県","county":"築上郡","city":"上毛町","code5":"40646","code6":"406465"}},{"arcs":[[-56,176,-61,177,-172]],"type":"Polygon","properties":{"pref":"福岡県","county":"築上郡","city":"築上町","code5":"40647","code6":"406473"}},{"arcs":[[[-167,-53,-171,-152,-166,-18,-148,-63,-143,-138,178]],[[179]],[[-169,180]]],"type":"MultiPolygon","properties":{"pref":"福岡県","city":"北九州市","code5":"40100","code6":"401005"}},{"arcs":[[[-131,-135,-137,-129,-121,-80,-79,-120,181,-117,182]],[[183]],[[184]],[[185]],[[186]]],"type":"MultiPolygon","properties":{"pref":"福岡県","city":"福岡市","code5":"40130","code6":"401307"}}]}}}