{"type":"Topology","arcs":[[[4566,5492],[40,-5],[99,-97],[25,-2],[40,-61],[64,-24],[67,8],[23,-41],[51,7],[131,-87],[12,-54],[29,-6]],[[5147,5130],[0,-38],[-49,-7],[-28,-59],[-29,-127],[-62,-20],[-64,-92],[-45,13],[-78,-38],[-34,-61],[-136,-9],[-27,-48],[9,-61],[-23,-55],[19,-46],[50,-29],[48,29],[53,-35],[-4,-75],[-37,-30],[30,-45],[67,-54],[-20,-20],[59,-61],[41,71],[125,17],[61,-39],[56,-241],[-9,-43],[51,-232],[-2,-84],[-57,-13],[23,-73],[19,-127],[1,-98],[25,-96],[-12,-72],[12,-31],[54,1],[2,62],[99,12],[103,1],[3,-134]],[[5441,3043],[-33,-48],[4,-38],[72,-72],[-1,-74],[-23,-23],[-121,-49],[-61,-62],[-106,-10],[-25,-34],[7,-173],[56,-67],[52,-16],[-9,-101],[33,-177],[-1,-140],[-129,11],[-295,48],[-154,7],[-39,97],[15,59],[-59,22],[-2,53],[-160,116],[-74,106],[36,72],[-13,57],[-65,4],[2,-117],[-114,26],[-19,-21]],[[4215,2499],[-12,7]],[[4203,2506],[11,52],[33,3],[-3,63],[-45,-2],[-9,73],[13,42],[-40,104],[-32,45],[17,114],[-41,64],[8,57],[87,48],[44,4],[7,-46],[76,6],[-7,149],[9,56],[-61,227],[-24,19],[-20,131],[-50,50],[-24,71],[15,86],[-34,65],[-99,59],[-132,13],[-109,-10],[-28,-21],[-90,-11],[-58,26],[-161,-15]],[[3456,4028],[-16,79],[42,58],[-10,129],[-45,81],[17,92],[62,82],[48,39],[30,83],[-20,54],[9,37],[72,2],[46,57],[-91,9],[-15,65],[51,14],[36,85],[2,141],[10,66],[-35,23],[5,55],[36,46],[-11,45]],[[3679,5370],[62,-18],[59,7],[50,44],[0,40],[50,15],[30,33],[65,22],[153,-33],[29,-16],[57,23],[42,-51],[51,4],[19,-31],[51,-5],[44,53],[125,35]],[[2565,5394],[51,-27],[49,20],[86,11],[64,22],[47,-35],[132,-5],[81,12],[41,64],[127,-9],[101,5],[78,-53],[83,71],[71,-6],[103,-94]],[[3456,4028],[-131,9],[-66,-68],[-26,-66],[-39,-18],[-124,-112],[-100,-23],[-33,-58],[-71,-72],[-92,-26],[-34,-57],[-44,-35],[-80,-24],[-89,-89],[-59,34]],[[2468,3423],[-19,23]],[[2449,3446],[-42,85],[-46,29],[-49,92],[-11,59],[7,71],[-82,58],[-53,64],[-37,-16],[-59,10],[-26,44],[-33,8],[-64,49],[-43,106],[-58,-1],[-7,-48],[39,-136],[-46,-52],[-36,122],[-27,29],[-25,71],[-71,27],[-50,102],[-36,3],[-94,216],[48,154],[-63,101],[-66,44],[-11,51],[-114,-58],[-78,12],[-13,-113],[29,-62],[-64,-36],[-69,63],[-28,0]],[[1071,4594],[7,56],[25,25],[-40,101],[-35,-43],[-109,-8],[-121,85],[-80,-21],[-15,26],[25,100],[-52,5],[-30,27],[-33,84],[-76,10],[-8,45],[-53,34],[-36,-14],[-70,87],[10,56],[52,31],[112,-42],[42,40],[-19,32],[-66,18],[-41,90],[53,24],[33,47],[23,68],[55,-64],[22,41],[96,-43],[-26,-60],[21,-53],[97,-44],[13,-61],[-34,-79],[58,-15],[14,-46],[71,24]],[[956,5157],[59,10],[37,-24],[-36,-74],[20,-43],[79,6],[16,-45],[61,18],[13,86],[50,1],[10,54],[58,127],[31,32],[-14,62],[71,33],[-25,116],[-41,85],[-68,24],[-63,97],[-40,-1],[-67,77],[-105,28]],[[1002,5826],[-69,44],[-7,69],[26,12],[46,102],[-72,49],[-7,99],[36,63],[57,-21],[3,-80],[56,-20],[7,-27],[64,-32],[38,5],[39,-141],[4,133],[30,60],[42,0],[7,-41],[25,22],[-33,65],[58,33],[29,-40],[112,-32],[45,-2],[78,40],[19,-8],[-10,-86],[141,-90],[59,14],[47,-90],[-10,-37],[29,-30],[76,-33],[-39,-59],[-55,1],[-124,-134],[21,-57],[-19,-39],[-58,-23],[44,-73],[44,-22],[77,39],[26,72],[48,0],[51,-80],[-35,-58],[-61,-12],[52,-80],[4,-47],[34,-17],[69,3],[111,-70],[95,-22],[117,-3],[90,16],[105,60],[21,29],[-42,59],[22,85]],[[176,6568],[68,-6],[42,-70],[-4,-35],[-61,-32],[-26,-55],[-65,2],[-43,53],[-87,41],[63,101],[55,-49],[58,50]],[[1054,6933],[16,-30],[-22,-89],[-24,-30],[24,-68],[39,3],[-17,-95],[-112,73],[-31,45],[36,80],[91,111]],[[1209,6411],[76,-98],[5,-62],[-81,-80],[-65,-2],[20,67],[-16,90],[61,85]],[[2005,6161],[37,-54],[-4,-51],[-31,-50],[-61,-16],[-19,21],[78,150]],[[1399,6748],[-50,-59],[-28,7],[1,2],[-3,18],[-5,7],[5,32],[41,29],[39,-36]],[[2159,5502],[22,-78],[-67,5],[-11,49],[56,24]],[[871,6649],[18,14],[35,-14],[-32,-58],[-77,9],[15,40],[41,9]],[[6832,4070],[-35,17],[-44,-45],[-62,3],[-64,37],[-46,-30],[-10,-106],[-53,-57],[-78,43],[-28,31],[-61,-19]],[[6351,3944],[-13,67],[-48,7],[-33,53],[1,43],[-45,39],[-43,-27],[-26,83],[9,70],[-33,101],[-50,47],[2,35],[-38,33],[-28,91],[16,52],[-29,33]],[[5993,4671],[-11,44],[36,56],[9,57],[38,30],[99,15],[-2,52],[29,34],[9,-3]],[[6200,4956],[46,-7],[88,-36],[51,-39],[37,-69],[37,-39],[79,-42],[50,31],[107,30],[59,-4],[23,-87],[78,5],[27,-94]],[[6882,4605],[1,-291],[-15,-12],[-36,-232]],[[3456,4028],[-40,-57],[12,-81],[-24,-58],[15,-21],[-7,-70],[46,-28],[41,16],[89,-85],[-22,-25],[16,-71],[97,-51],[26,-49],[-54,-55],[44,-98],[90,-128],[15,-61],[-90,-65],[-57,-5]],[[3653,3036],[-47,89],[-135,-60],[-47,3],[-65,-77],[-38,-9],[-13,-44]],[[3308,2938],[-99,31],[-17,20],[-73,-43]],[[3119,2946],[-67,38],[-143,-17],[-39,33],[-44,-7],[-53,44],[-66,-54],[-49,44],[-15,44],[-69,44],[-108,-15],[8,38],[-47,48],[6,106],[35,131]],[[2449,3446],[-28,-22],[-78,11],[-40,-26],[-54,14],[-88,-25],[-21,-23],[-69,-14],[-78,-67],[-14,-74],[-47,-10],[-35,-59],[-71,25],[-69,-112],[-74,-82],[-43,-90],[-54,-1],[-28,-31],[-147,10],[-62,-43]],[[1349,2827],[-52,16],[-103,4],[-19,45],[-38,13],[-22,68],[-75,39],[-58,-28],[-97,-28],[-98,-11],[-51,19],[-102,-4]],[[634,2960],[-4,69],[-30,-4],[-100,111],[-64,42],[-113,133],[-46,106],[-74,100],[-42,10],[22,60],[65,234],[58,112],[6,32],[48,44],[74,35],[30,-33],[85,11],[26,-27],[-38,-39],[89,-157],[41,-21],[116,-192],[0,-29],[55,-58],[39,-16],[15,69],[59,-36],[24,39],[-61,77],[-66,37],[-68,-2],[-24,85],[65,-9],[3,38],[58,44],[-10,41],[45,40],[-52,54],[-61,-40],[-29,76],[149,81],[-33,52],[12,56],[49,56],[-15,59],[40,8],[44,42],[-1,37],[68,27],[-19,96],[37,69],[-35,15]],[[3119,2946],[-28,-68],[-2,-49],[-33,-28],[-24,-68],[55,-78],[-13,-23]],[[3074,2632],[-83,-59],[-39,-158],[-94,0],[-24,-26],[40,-47],[15,-53]],[[2889,2289],[-41,-55],[-58,15],[-48,-9],[-27,-58],[-68,-31],[-56,6],[-74,-17],[2,-41],[-44,-56],[-75,32],[-60,-39],[-76,-30],[5,-63],[-35,-22],[-67,0],[-38,-30],[57,-73],[-9,-99],[-63,-1],[-39,-46],[-51,-26],[-61,52],[-77,-25],[-10,-36],[-64,5]],[[1812,1642],[47,86],[-4,109],[-64,56],[-12,96],[-22,32],[-29,142],[16,45],[-41,12]],[[1703,2220],[-103,91],[-81,-27],[9,115],[-53,38],[3,118],[-45,12],[-58,225],[-26,35]],[[3342,1724],[-16,-148],[38,7],[31,-92],[42,-10],[44,-86],[-24,-70],[28,-28],[32,-100],[78,-69],[22,-59],[70,-41]],[[3687,1028],[-45,-48],[-93,-65],[-92,-32],[-68,-55],[-58,-27],[-61,-53],[-113,-38],[-94,-64],[-13,-135],[-63,-78],[-69,-10],[-35,-56]],[[2883,367],[-127,-18],[-62,61],[-82,129]],[[2612,539],[25,38],[-40,70],[18,96],[-42,20],[-18,42],[22,77],[40,68],[26,203],[-59,80],[10,27],[-25,62],[93,79],[35,5],[71,77],[16,52],[93,-17],[3,54],[43,38],[12,63],[-31,46],[30,78],[3,62]],[[2937,1859],[82,-17],[36,22],[130,-2],[87,-68],[64,-15],[6,-55]],[[4203,2506],[-51,31],[-64,12],[-83,-27],[-54,9],[-84,112]],[[3867,2643],[23,22],[57,-17],[14,41],[-19,38],[-52,3],[-42,77],[-33,-19],[-48,82],[-147,13],[-23,38],[5,50],[51,65]],[[2889,2289],[24,-21],[-2,-66],[43,-96],[34,-25],[-38,-109],[-89,-41],[-9,-68],[47,-21],[38,17]],[[2612,539],[-16,-2],[-40,50],[-85,39],[-6,82],[-106,-29],[-58,24],[-19,50],[-42,11],[-12,63],[-45,56],[-3,113],[-56,35],[-37,57],[-45,7],[-120,72],[-80,17],[-137,85],[7,38],[-38,35],[-18,75],[-92,22],[38,119],[-13,40],[65,56],[68,18],[90,-30]],[[5147,5130],[49,4],[89,-123],[66,17],[61,-17],[40,-32],[25,-54]],[[5477,4925],[-13,-61],[11,-58],[48,-45],[1,-48],[-52,-97],[-64,-5],[-43,-58],[62,-115],[41,-5],[-15,-74],[33,-60],[-15,-29],[43,-135],[27,-142],[-18,-188],[32,3],[83,-364],[39,34]],[[5677,3478],[40,-11],[8,-120],[22,-48],[67,-6]],[[5814,3293],[18,-71],[-40,-93],[-30,-26],[-80,-16],[-18,109],[-69,12],[-25,-32],[18,-81],[-7,-42],[-44,-51],[-56,11],[-40,30]],[[5477,4925],[79,33],[33,-22],[42,14],[74,-116],[89,-72],[-64,-112],[28,-37]],[[5758,4613],[8,-38],[44,-23],[23,-58],[-1,-85],[-47,-124],[-26,-37],[19,-50],[48,-202],[-37,-39],[7,-37],[-17,-139],[-20,-61],[-45,-69],[3,-64]],[[5717,3587],[-6,-65],[-34,-44]],[[6836,5071],[-11,-48],[19,-84],[31,-53],[7,-281]],[[6200,4956],[103,78],[49,7],[95,38],[41,52],[65,23],[52,-33],[13,55],[92,-31],[102,-48],[24,-26]],[[5758,4613],[69,63],[31,-27]],[[5858,4649],[52,-438],[-15,-56],[28,-32],[18,-96],[-54,-17],[-6,-36],[26,-135],[85,-46],[7,-78],[-48,-27],[-8,-73],[-63,-15],[-19,49],[-60,-6],[3,-56],[-87,0]],[[6351,3944],[-26,-50],[52,-57],[39,-9],[16,-39],[-39,-102],[-57,-19],[-99,4],[-75,-15],[-20,-26],[5,-73],[86,-36],[-12,-57],[-102,-20],[-36,-47],[16,-87],[-8,-52],[-62,-11],[-54,60],[-10,63],[30,141],[-41,32],[-59,-24],[26,-41],[9,-59],[-10,-62],[-30,-42],[-47,13],[-29,-36]],[[5858,4649],[53,-17],[82,39]],[[956,5157],[-8,58],[52,60],[5,65],[-78,112],[-45,-47],[-67,11],[-5,41],[85,51],[-66,66],[31,78],[-92,109],[32,23],[-2,46],[-39,59],[18,24],[107,-24],[62,-53],[56,-10]],[[1703,2220],[-42,-22],[-49,8],[-88,-42],[-53,22],[-48,-42],[-62,-2],[-31,19],[-60,-37],[-18,55],[-61,6],[-54,33],[-28,40],[-100,20],[-37,56],[-91,5],[-47,-27],[-82,57],[-91,50],[-2,81],[-24,66],[-36,39],[-26,92],[23,78],[30,27],[-28,95],[36,63]],[[3308,2938],[39,-131],[66,-62],[-31,-21],[7,-53]],[[3389,2671],[-61,-29],[18,-78],[-31,-23],[-132,69],[2,67],[-45,-14],[-7,-54],[-59,23]],[[3867,2643],[-54,-48],[-49,-15],[-76,31],[-30,-30],[10,-82],[-64,-37],[-48,43],[-87,30],[-49,0],[-24,48],[51,29],[-8,32],[-50,27]],[[4215,2499],[9,-93],[-86,-190],[-275,-197],[18,-47],[-201,-124],[-163,-178],[-175,54]],[[3687,1028],[16,-162],[64,-61],[33,-174],[44,-20],[-4,-59],[70,-175],[44,32],[80,-58],[-6,-68],[50,4],[64,-64],[20,-72],[-5,-49],[-91,-30],[-30,-29],[-58,6],[-21,21],[-118,-2],[-123,34],[-98,-10],[-56,23],[-47,-6],[-48,92],[-43,-32],[-70,-3],[-141,43],[-45,-7],[-53,31],[-139,2],[-9,45],[-72,57],[-12,30]],[[4153,61],[-11,-45],[-68,-16],[17,70],[62,-9]]],"transform":{"scale":[0.00011648409123928543,0.00009596134429539808],"translate":[129.7402,32.95237]},"objects":{"japan":{"type":"GeometryCollection","geometries":[{"arcs":[[0,1,2,3,4,5,6]],"type":"Polygon","properties":{"pref":"佐賀県","city":"佐賀市","code5":"41201","code6":"412015"}},{"arcs":[[[7,-6,8,9,10,11,12,13]],[[14]],[[15]],[[16]],[[17]],[[18]],[[19]],[[20]]],"type":"MultiPolygon","properties":{"pref":"佐賀県","city":"唐津市","code5":"41202","code6":"412023"}},{"arcs":[[21,22,23,24,25]],"type":"Polygon","properties":{"pref":"佐賀県","city":"鳥栖市","code5":"41203","code6":"412031"}},{"arcs":[[-9,26,27,28,29]],"type":"Polygon","properties":{"pref":"佐賀県","city":"多久市","code5":"41204","code6":"412040"}},{"arcs":[[-11,30,31,32]],"type":"Polygon","properties":{"pref":"佐賀県","city":"伊万里市","code5":"41205","code6":"412058"}},{"arcs":[[-10,-30,33,34,35,36,37,-31]],"type":"Polygon","properties":{"pref":"佐賀県","city":"武雄市","code5":"41206","code6":"412066"}},{"arcs":[[38,39,40,41,42]],"type":"Polygon","properties":{"pref":"佐賀県","city":"鹿島市","code5":"41207","code6":"412074"}},{"arcs":[[-5,43,44,-27]],"type":"Polygon","properties":{"pref":"佐賀県","city":"小城市","code5":"41208","code6":"412082"}},{"arcs":[[-36,45,-42,46]],"type":"Polygon","properties":{"pref":"佐賀県","city":"嬉野市","code5":"41209","code6":"412091"}},{"arcs":[[47,48,49,50,-2]],"type":"Polygon","properties":{"pref":"佐賀県","city":"神埼市","code5":"41210","code6":"412104"}},{"arcs":[[51,52,53,-49]],"type":"Polygon","properties":{"pref":"佐賀県","county":"神埼郡","city":"吉野ヶ里町","code5":"41327","code6":"413275"}},{"arcs":[[54,-25,55]],"type":"Polygon","properties":{"pref":"佐賀県","county":"三養基郡","city":"基山町","code5":"41341","code6":"413411"}},{"arcs":[[56,57,-53]],"type":"Polygon","properties":{"pref":"佐賀県","county":"三養基郡","city":"上峰町","code5":"41345","code6":"413453"}},{"arcs":[[58,-50,-54,-58,59,-23]],"type":"Polygon","properties":{"pref":"佐賀県","county":"三養基郡","city":"みやき町","code5":"41346","code6":"413461"}},{"arcs":[[-13,60]],"type":"Polygon","properties":{"pref":"佐賀県","county":"東松浦郡","city":"玄海町","code5":"41387","code6":"413879"}},{"arcs":[[-32,-38,61]],"type":"Polygon","properties":{"pref":"佐賀県","county":"西松浦郡","city":"有田町","code5":"41401","code6":"414018"}},{"arcs":[[-29,62,63,-34]],"type":"Polygon","properties":{"pref":"佐賀県","county":"杵島郡","city":"大町町","code5":"41423","code6":"414239"}},{"arcs":[[-28,-45,64,-63]],"type":"Polygon","properties":{"pref":"佐賀県","county":"杵島郡","city":"江北町","code5":"41424","code6":"414247"}},{"arcs":[[-4,65,-43,-46,-35,-64,-65,-44]],"type":"Polygon","properties":{"pref":"佐賀県","county":"杵島郡","city":"白石町","code5":"41425","code6":"414255"}},{"arcs":[[[-40,66]],[[67]]],"type":"MultiPolygon","properties":{"pref":"佐賀県","county":"藤津郡","city":"太良町","code5":"41441","code6":"414417"}}]}}}