{"type":"Topology","arcs":[[[14587,10141],[71,-64],[28,-88],[-24,-57],[9,-53],[6,-36],[-26,-51],[18,-26],[-29,-53],[-52,-46],[-74,58],[-6,46],[29,25],[-11,65],[-36,43],[8,86],[29,41],[-71,7],[-52,-44],[-20,-70],[6,-132],[41,-52],[-11,-88],[-34,-73],[41,-61],[24,48],[130,10],[-21,-67],[13,-81],[36,-45],[-62,-67],[-53,-4],[-44,32],[-22,-145],[42,21],[32,-27]],[[14502,9193],[-29,-89],[5,-54],[50,-37],[15,-109],[54,-68],[44,-11],[9,-48],[53,-53],[-30,-91],[37,-24],[57,29],[62,-19],[38,7],[-8,-68],[67,22]],[[14926,8580],[39,-71],[61,-63],[52,21],[22,75],[29,-29],[91,25],[58,-18],[56,55],[83,-24],[71,17],[48,28],[57,75]],[[15593,8671],[60,-9],[29,-40],[92,33],[44,1],[42,-33],[17,-47],[39,-14],[65,22],[74,52],[20,-67],[52,-45],[53,-1],[5,-32],[-35,-44],[4,-124],[35,-57],[-56,-108],[33,-90],[-27,-40]],[[16139,8028],[-52,38],[-63,-6],[-73,30],[-65,1],[-95,-66],[-2,-37],[12,-2],[-1,4],[23,-46],[19,-20],[29,-70],[-11,-16],[-6,-10],[-3,-1],[-1,0],[-10,-36],[-62,-5],[-44,-42],[21,-62],[-34,-22],[-48,-69],[-56,6],[-12,-100],[-81,12],[-40,-68],[37,-41],[-47,-125],[-72,-74],[-12,-87],[-44,-48],[-5,-49],[-86,-80],[-56,-8],[-54,-32],[-53,-73],[-167,-59],[-43,39],[-55,-93],[1,-75],[25,-44],[-45,-29],[-21,-58],[-44,-29],[-1,0],[-21,-39],[-99,-88],[-42,-55],[-14,-21],[-109,-53],[-63,-31],[-32,5],[-10,-57],[16,-61],[-1,-3],[-3,3],[0,0],[-5,14],[0,0],[-11,4],[-1,-1],[0,0],[1,-1],[-1,-1],[0,0],[-7,42],[-85,59],[-110,-22],[-34,-65],[-9,0],[-50,-3],[-29,-47],[-34,49],[-14,64],[56,29],[33,49],[0,0],[2,3],[12,23],[0,0],[12,11],[3,1],[20,2],[41,-62],[9,75],[82,17],[111,93],[20,37],[-22,41],[92,36],[10,162],[48,47],[45,73],[17,80],[45,67],[38,-23],[27,19],[5,107],[-11,70],[26,137],[-39,16],[-19,-37],[-58,-26],[-93,36],[-9,42],[-25,36],[77,15],[44,-24],[47,18],[40,65],[18,74],[98,9],[-28,-120],[-50,-6],[72,-74],[77,15],[-35,84],[107,-4],[-35,53],[11,37],[41,4],[39,157],[41,14],[7,44],[63,64],[28,52],[-4,79],[-23,40],[-56,-77],[-19,-109],[-79,-53],[-19,-65],[-51,64],[-51,-13],[-57,-82],[-56,34],[-6,29],[54,90],[50,11],[-1,49],[-46,24],[31,43],[-54,20],[-61,-49],[-62,12],[-29,57],[79,85],[-31,26],[-31,-41],[-40,75],[-51,-18],[-5,53],[44,70],[-4,57],[-86,20],[-12,85],[-58,6],[-72,109],[-54,-15],[-15,32],[28,82],[49,95],[-49,39],[-26,-50],[-57,41],[-76,-4],[-46,27],[-48,-149],[-57,1],[-9,61],[-27,42],[-86,57],[-10,106],[-40,20],[-32,-25],[-82,1],[0,1],[3,84],[-71,27],[-4,30],[-63,67],[-4,55],[-59,89],[23,132],[-49,52],[-49,114]],[[13399,9449],[41,18],[33,48],[49,21],[67,-13],[68,11],[62,27],[27,67],[56,-30],[29,17],[91,-2],[32,39],[38,-20],[41,62],[-44,117],[35,68],[-15,24],[10,82],[64,14],[130,68],[85,16],[106,65],[53,62],[92,-38],[38,-31]],[[14443,5969],[-6,-58],[-74,-21],[-58,-39],[0,80],[11,79],[27,29],[90,8],[10,-78]],[[16006,8042],[40,-5],[21,-77],[22,-42],[-78,17],[-43,31],[-13,72],[51,4]],[[14186,7552],[0,11],[128,-51],[43,-45],[-61,-36],[-100,78],[-10,43]],[[14115,7042],[66,-7],[-37,-54],[28,-39],[-35,-46],[-70,118],[48,28]],[[12859,9364],[2,1],[0,0],[1,0],[0,0],[1,0],[-35,-65],[-95,-7],[13,47],[80,63],[33,-39]],[[14382,7387],[-9,-8],[30,-43],[-32,-21],[-47,20],[3,10],[1,1],[-8,28],[-6,8],[-24,40],[70,12],[22,-47]],[[13083,9160],[0,0],[-20,12],[19,-3],[1,-9]],[[14337,13352],[112,-133],[64,-42],[100,-111],[31,4],[4,-69],[-36,-63],[27,-95],[-29,-27],[-24,-78],[27,-92],[35,-39],[25,-66],[1,-80],[92,-51],[82,-57],[47,27],[91,-5],[37,-56],[100,-20],[28,-40]],[[15151,12259],[-40,-71],[-73,-27],[-29,-40],[0,-60],[-49,-27],[1,-95],[-55,-163],[-5,-76],[19,-92]],[[14920,11608],[-26,-31],[36,-96],[-66,-69],[-3,-55],[-73,-45],[-90,28],[-30,-56],[-88,-11],[-24,-29]],[[14556,11244],[15,78],[-89,89],[13,84],[-72,114],[70,87],[5,35],[-27,111],[38,66],[-34,72],[-52,6],[-24,45],[-118,-1],[-89,10],[-43,-27],[-20,34],[-45,-11],[-14,-77],[-59,-44],[-38,43],[-66,-34],[-64,61],[17,75],[-11,83],[67,13],[-1,38],[-42,55],[-41,-32],[-17,56],[-30,2],[-102,-36],[-24,-33],[53,-44],[16,-83],[-5,-69],[26,-31],[-2,-93],[11,-50],[-89,-9],[100,-63],[-120,-49],[-45,45],[-22,-21],[-89,-14],[-48,62],[-19,-14],[20,-74],[-14,-53],[-51,-53],[-14,96],[-31,21],[-29,95],[29,37],[91,28],[65,-17],[-2,43],[112,104],[-61,42],[-60,115],[8,37],[-71,85],[-73,-25],[-6,68],[-82,6],[-13,20],[-95,-43],[0,58],[30,44],[83,19],[-12,49],[19,30],[-71,73],[-8,72],[47,53]],[[13237,12703],[88,46],[90,27],[40,81],[36,-4],[88,59],[16,50],[-56,84],[-36,12],[25,106],[43,32],[-51,117],[-52,-16],[-143,112],[-95,35],[-49,-48],[-17,-55],[-70,34],[-40,-47],[-10,-50],[-45,-79],[18,-100],[54,-32],[25,-96],[50,-29],[-17,-63]],[[13129,12879],[-3,-75],[22,-24],[1,-104],[-43,-97],[-47,-32],[-14,-55],[-76,76],[28,102],[-36,46],[-37,-58],[0,0],[-26,32],[-45,-29],[-38,35],[37,41],[22,110],[-48,-40],[-17,-58],[-147,7],[-29,44],[-25,-10],[-9,-6],[4,-4],[-1,-10],[-3,0],[0,0],[-6,6],[-3,7],[-5,16],[-21,-12],[-36,24],[-92,-25],[-4,90],[92,55],[11,137],[-47,-34],[-56,18],[14,62],[69,11],[-6,84],[33,34],[11,79],[69,-8],[30,49],[64,6],[-25,90],[17,54],[-25,66],[86,60],[43,110],[69,36],[1,34]],[[12882,13819],[-22,12],[7,79],[38,25],[42,-8],[60,42],[-27,41],[30,35],[42,0],[27,63]],[[13079,14108],[54,-38],[28,-54],[36,-13],[93,-102],[6,-33],[66,20],[27,-36],[-6,-70],[83,-36],[25,33],[144,-14],[65,8],[44,-41],[-7,-45],[64,3],[-13,-129],[46,-41],[42,-10],[94,-69],[77,-39],[41,24],[98,-2],[57,-83],[69,-22],[25,33]],[[14056,11245],[0,0],[-14,57],[-35,56],[-8,49],[-39,71],[0,40],[-44,62],[20,35],[68,-12],[64,-39],[53,36],[-11,69],[-57,39],[-9,96],[28,40],[41,-13],[25,-104],[35,2],[-12,60],[12,85],[107,-29],[-50,64],[-64,-3],[0,36],[58,48],[19,37],[59,-19],[56,7],[62,-38],[54,-6],[17,-56],[-29,-56],[19,-84],[-9,-82],[-61,-70],[74,-135],[-15,-90],[-60,7],[-23,-51],[-92,-6],[-56,22],[-32,37],[56,94],[-94,-44],[-4,-81],[60,-65],[62,-16],[-7,-72],[62,3],[20,-51],[-102,-6],[-37,-22],[4,-53],[-84,17],[1,80],[-107,-10],[19,64]],[[8764,13687],[62,-15],[30,-58],[-17,-23],[41,-101],[-19,-49],[84,-92],[-103,-81],[-66,-9],[-13,-53],[37,-36],[-26,-38],[-58,-29],[-116,7],[-17,20],[-64,0],[-49,31],[-16,77],[-41,11],[-25,39],[-60,2],[-70,71],[118,71],[42,72],[39,31],[34,-16],[43,31],[51,9],[53,-26],[96,74],[-14,67],[44,13]],[[12328,12119],[60,-79],[-8,-82],[-87,14],[-31,-70],[-59,11],[-37,45],[-58,-7],[-47,29],[93,74],[102,41],[45,-8],[27,32]],[[12731,12558],[27,-24],[-3,-83],[-15,-37],[16,-51],[-16,-40],[-4,-84],[-70,-27],[7,78],[55,4],[-9,44],[-71,60],[-15,41],[17,104],[81,15]],[[8230,13276],[-35,-38],[38,-53],[50,10],[22,-73],[-54,-38],[-9,43],[-53,-15],[-29,105],[70,59]],[[14363,11339],[20,-6],[27,-84],[-32,-16],[-36,81],[21,25]],[[13454,12030],[48,-22],[-11,-49],[-50,45],[13,26]],[[12903,12600],[18,-90],[-37,4],[19,86]],[[12626,12710],[-16,-8],[0,45],[16,-37]],[[12591,12750],[0,-3],[0,-1],[-5,3],[1,4],[4,-3]],[[19445,7803],[-62,32],[-71,61],[-11,-51],[-45,11],[-18,47],[-227,0],[-15,-9],[-180,7],[-119,36]],[[18697,7937],[17,28],[65,11],[98,-3],[17,57],[-18,31],[-76,-17],[-34,48],[-58,-33],[-120,47],[-1,74],[19,87],[82,19],[3,75],[39,34],[84,245],[30,174],[-19,59],[61,161],[41,79],[59,36]],[[18986,9149],[115,-60],[70,-60],[43,-160],[76,-166],[20,-73],[38,-15],[13,-55],[27,-19],[-2,-50],[60,-118],[38,-36],[11,-105],[-38,-57],[-29,-117],[55,-155],[-6,-75],[-18,-20],[-14,-5]],[[19494,8195],[-1,-1],[-2,-1],[2,-1],[1,-3],[-13,-4],[5,12],[9,-1],[1,0],[-1,0],[-1,-1],[0,0]],[[16990,10276],[139,-2],[52,-31],[46,7],[141,-42],[70,3],[43,32],[48,-93],[46,6],[57,-22],[98,9],[123,-34],[118,2],[21,-20],[-21,-79],[19,-76],[-31,-41],[31,-65],[-13,-31],[-81,-7],[-47,-40],[-1,-110],[-60,1],[-56,22],[-48,-44],[-28,-53],[-70,-15],[13,-36],[-41,-30],[20,-58],[162,-246]],[[17740,9183],[-223,-257],[50,-47],[37,-1],[-17,-158],[-31,-23],[-62,-144],[-70,2],[-15,-19],[72,-124]],[[17481,8412],[-77,-65],[-92,-20],[-101,26],[-70,31],[-180,12],[-47,-48],[-91,-25],[-73,-64],[-37,-14],[-124,-134],[-72,-17],[-17,-41],[-50,-33],[-37,17],[-126,-22],[-12,24],[1,0],[-42,18],[-68,-86],[-27,57]],[[15593,8671],[-71,131],[-25,2],[-62,92],[-56,20],[-52,118],[-26,11],[-9,70],[-31,53],[42,27]],[[15303,9195],[32,-29],[26,102],[58,-2],[13,-60],[60,-62],[48,25],[82,-80],[55,-36],[61,47],[76,-8],[70,-63],[-16,-69],[14,-20],[69,1],[40,30],[77,-64],[12,-32],[114,15],[1,-22],[92,7],[-13,36]],[[16274,8911],[89,67],[10,39],[-20,62],[15,32],[-10,146],[-41,44],[12,72],[29,51],[7,139],[30,203],[1,58],[28,104],[58,19],[75,62],[41,73],[63,-12],[83,23],[52,-43],[113,62],[1,84],[60,30],[20,50]],[[16626,10580],[82,-129],[62,-61],[127,18],[12,-29],[72,-58],[9,-45]],[[16274,8911],[-24,38],[-55,11],[-5,45],[-35,67],[-57,24],[-27,59],[-64,48],[-29,-5],[-53,47],[17,91],[66,13],[-29,56],[-87,-13],[-34,63],[-47,-6],[0,0],[26,40],[11,60],[-161,160],[-42,62],[-12,97],[1,95],[25,127],[-21,25],[23,69],[-32,27],[64,73],[55,-9],[31,82],[35,27],[-6,57]],[[15808,10441],[76,16],[47,-92],[92,32],[91,6],[72,80],[72,4],[70,25],[43,-25],[70,-8],[42,55],[87,18],[40,26]],[[16610,10578],[16,2]],[[15402,9798],[18,1],[91,-104],[24,19],[73,-82],[7,-54],[-72,-45],[-102,130],[6,48],[-56,64],[11,23]],[[12426,14772],[32,-74],[-26,-26],[49,-56],[-28,-36],[38,-64],[-47,-82],[28,-102],[33,-25],[2,-2],[14,-69],[-48,7],[-70,-52],[-57,-19],[6,-74],[-86,-90],[-139,-35],[-37,-44],[53,-51],[29,-67],[51,-40],[-66,-81],[-51,18],[-54,-30],[-30,19],[-34,-31],[15,-73],[54,-35],[-70,-46],[-29,9],[-51,-41],[-53,63],[-27,-42],[44,-66],[58,0],[62,-70],[-24,-49],[-5,-77],[-62,-71],[-53,-13],[-25,-102],[-71,-96],[-36,-22],[-47,-122],[-30,-48],[-57,11],[-108,-118],[-6,-49],[-82,-82],[-95,-33],[-66,-55],[-88,-17],[-64,-61],[-192,-66],[-122,94],[-90,37],[73,113],[-24,65],[-40,38],[48,54],[50,-44],[8,-44],[78,-147],[122,-2],[28,23],[48,-53],[58,34],[-4,56],[35,33],[-3,45],[-49,18],[-62,-25],[-96,102],[-14,178],[44,61],[41,7],[38,78],[41,22],[77,2],[30,-22],[105,-123],[19,21],[-43,58],[-3,18],[76,-13],[18,48],[-76,27],[37,41],[-79,32],[-66,5],[13,120],[-70,51],[35,26],[-31,38],[43,53],[40,-5],[60,24],[19,110],[119,35],[52,-34],[33,82],[-124,182],[37,35],[0,64],[41,3],[16,74],[-43,133],[-10,32],[55,30],[118,-4],[102,47],[74,-28],[52,46],[154,14],[39,97],[-14,48],[24,84],[28,23],[84,-39],[-25,-43],[6,-93],[-39,-69],[23,-42],[51,-2],[23,91],[57,68],[-16,74],[146,4],[42,43],[-16,77],[-45,18],[-67,-21],[-128,-10],[-34,49],[72,8],[-57,92],[33,34],[48,4],[48,-32],[68,73],[107,-24]],[[12882,13819],[-83,-30],[-60,-81],[-39,7],[-54,60],[-33,-34],[-50,84],[-79,98],[-5,61],[18,25],[73,-19],[-4,153],[23,34],[4,66],[22,75],[-72,86],[11,61],[39,10],[29,22],[36,-28],[52,8],[36,33],[39,-20],[-55,-49],[39,-48],[31,42],[58,-57],[55,54],[133,-111],[47,-9]],[[13093,14312],[-21,-14],[16,-69],[-9,-121]],[[11390,15130],[-3,-122],[-47,-25],[-7,-47],[46,-35],[-42,-98],[59,-58],[13,-77],[-48,-116],[-4,-110],[56,-93],[-48,-48],[29,-66],[-129,-37],[-164,78],[-24,32],[52,31],[37,105],[41,171],[-7,70],[79,109],[-1,75],[17,55],[-25,114],[120,92]],[[12527,15759],[68,-50],[46,9],[-14,-88],[-32,-52],[-110,-110],[-68,17],[-4,-56],[-163,55],[1,32],[-64,72],[-27,-25],[-50,14],[0,-125],[-38,8],[-57,18],[-37,-29],[-40,14],[44,77],[51,29],[149,139],[7,34],[131,55],[79,53],[34,-61],[-19,-48],[0,-105],[64,-16],[61,91],[-12,48]],[[12214,15272],[18,-62],[60,-28],[-21,-91],[-42,12],[-162,-74],[2,-51],[-54,-21],[-22,38],[17,78],[125,53],[45,77],[4,54],[30,15]],[[12660,13708],[-1,1],[-27,11],[-2,9],[24,-7],[6,-14]],[[14448,14085],[-74,-35],[-48,-44],[-6,-32],[-58,-112],[-65,-234],[-22,-60],[42,-10],[74,-100],[46,-106]],[[13093,14312],[24,61],[78,-32],[14,70],[62,-12],[32,25],[5,51],[61,35],[23,54],[-35,39],[15,44],[63,51],[46,-95],[59,-13],[2,-40],[-51,-17],[-32,18],[-19,-181],[-42,-21],[49,-40],[-2,-47],[32,-46],[79,16],[-1,72],[88,-2],[-3,-77],[41,-21],[14,-49],[74,6],[90,30],[51,50],[29,59],[53,-6],[15,44],[52,24],[79,-10],[51,-62],[21,-60],[69,1],[-1,44],[35,22],[-7,78],[20,38],[59,10],[45,-14],[25,-43],[-23,-100],[36,-52],[-4,-100],[-16,-29]],[[14879,14343],[-47,-28],[-59,14],[-53,-31],[-22,-55],[-68,-76],[-47,53],[30,29],[-55,63],[63,76],[2,78],[-18,53],[39,9],[-43,61],[-9,48],[51,59],[-40,46],[-98,78],[70,8],[32,-19],[89,9],[90,-41],[30,-72],[-42,-89],[44,-79],[95,22],[53,-1],[62,-46],[3,-61],[-68,-58],[-52,13],[-61,-18],[29,-45]],[[14415,15050],[37,-6],[-15,-77],[-168,40],[-51,2],[-58,-98],[-90,4],[34,-74],[-47,-56],[-120,-13],[-39,37],[-3,46],[-61,-2],[-4,47],[57,43],[48,7],[21,44],[81,7],[11,67],[-43,31],[93,63],[-4,69],[44,45],[-36,131],[25,32],[40,-57],[35,12],[78,-59],[-28,-43],[49,-16],[-41,-66],[19,-57],[50,-40],[16,-51],[70,-12]],[[13558,14946],[-7,-56],[33,-48],[-7,-53],[-37,-21],[-47,48],[55,62],[-32,64],[42,4]],[[13832,15370],[55,-33],[7,-68],[-58,3],[-35,51],[31,47]],[[14334,14720],[61,-51],[-57,-28],[-34,70],[30,9]],[[11560,28257],[4,-43],[79,15],[114,-50],[19,-36],[-42,-44],[29,-80],[73,-21],[7,81],[49,-2],[-75,-107],[9,-65],[43,-20],[44,14],[-114,-81],[-1,-49],[-100,48],[-12,-29],[53,-27],[2,-59],[130,-46],[-71,-150],[-48,9],[-48,-16],[10,-38],[67,-47],[-7,-20],[-189,-19],[-30,106],[-36,0],[16,-93],[-136,27],[11,-68],[32,-7],[69,23],[22,-52],[96,-40],[67,16],[3,-69],[30,-20],[-2,-43],[48,-2],[-68,-75],[39,-27],[-41,-102],[37,-28],[-54,-31],[21,-88],[-18,-36],[17,-46],[-109,-5],[13,-161],[-39,-54],[-52,-22],[8,-60],[-106,-90],[-25,-44],[14,-39],[-100,-90],[-77,-77],[-32,-14],[-116,-138],[-19,-45],[-65,-59],[-24,-90],[-82,-56],[-44,37],[-21,-46],[49,-72],[-8,-22],[58,-47],[1,-50],[33,-47],[-10,-49],[-78,73],[-36,35],[-41,-24],[14,-135],[64,70],[25,-64],[-5,-103],[-11,-30],[-59,-9],[-28,-86],[-72,-32],[52,-34],[34,-1],[75,69],[115,26],[4,41],[44,61],[13,-44],[-34,-91],[7,-57],[-50,-21],[-7,-77],[-53,61],[-45,-33],[45,-62],[31,-81],[41,-23],[-30,-43],[66,-32],[1,-27],[-51,-98],[5,-102],[41,-42],[-67,-64],[-48,52],[-63,20],[-26,-48],[39,-16],[37,-73],[-25,-44],[32,-22],[7,-52],[-120,-20],[1,-50],[-74,-56],[-27,-52],[-29,16],[-32,59],[-91,39],[23,56],[-36,6],[16,30],[-29,33],[85,54],[19,39],[47,31],[-20,69],[63,18],[-50,94],[-9,55],[-66,54],[69,55],[-56,33],[-90,17],[14,45],[42,41],[-19,30],[-72,-100],[-39,-29],[43,-79],[-33,-4],[8,-88],[-87,-26],[-14,-84],[-72,21],[-32,-11],[-18,87],[41,9],[19,52],[-31,39],[3,79],[-37,35],[36,56],[48,30],[37,56],[-36,23],[-32,-40],[-92,-70],[-89,89],[5,-66],[48,-40],[-13,-69],[-36,-73],[65,-15],[26,-59],[-33,-85],[-107,53],[-26,49],[-118,3],[-61,-28],[-96,-6],[-90,16],[-36,43],[-10,63],[38,29],[99,-14],[41,-91],[44,53],[-21,43],[96,13],[68,84],[48,24],[7,67],[-79,22],[35,51],[22,147],[-24,94],[21,56],[-31,74],[37,36],[-24,69],[52,83],[65,-5],[77,-61],[-18,76],[15,19],[28,17],[41,75],[51,-3],[5,86],[-74,-64],[-53,-62],[-67,-21],[-106,74],[39,71],[-45,27],[57,99],[10,54],[55,26],[29,49],[26,96],[22,17],[2,82],[39,68],[22,73],[35,58],[26,-43],[57,78],[64,8],[36,-21],[61,37],[16,69],[-38,-4],[-36,-47],[-36,191],[-44,-38],[-44,37],[14,29],[-79,66],[19,27],[-46,48],[-49,-97],[-30,-24],[-56,1],[-25,68],[9,68],[75,47],[4,5],[24,107],[64,48],[9,82],[-16,66],[67,114],[1,73],[38,48],[11,111],[19,58],[-14,49],[95,43],[26,-13],[15,-120],[38,26],[20,50],[90,47],[42,-5],[40,-34],[27,-81],[77,89],[39,-46],[43,2],[60,-31],[-64,87],[35,52],[64,51],[20,63],[44,-1],[10,78],[30,43],[11,29],[93,-28],[5,41],[-43,30],[36,58],[-25,18],[21,61],[86,-22],[25,-25],[85,55],[8,51],[48,31],[56,-39]],[[9879,24044],[10,-56],[61,149],[107,10],[27,-29],[-34,-59],[61,-25],[-27,-58],[30,-45],[33,94],[-51,34],[-10,84],[-71,44],[-4,42],[-60,89],[62,-13],[60,16],[-6,-71],[70,17],[45,-10],[-9,-57],[75,-15],[22,-55],[-29,-82],[12,-52],[-29,-49],[4,-47],[36,-17],[31,34],[68,5],[-7,70],[22,24],[72,9],[49,41],[79,-37],[56,-6],[34,-44],[-34,-33],[38,-55],[-18,-36],[-72,-7],[-38,-58],[-47,43],[-52,-85],[9,-60],[-15,-62],[-45,-16],[-28,-124],[56,-69],[34,-104],[-35,-4],[-75,-44],[-10,-32],[-54,-23],[-24,69],[-47,-26],[-13,-48],[68,-43],[-26,-37],[1,-64],[-32,-86],[-47,38],[-1,0],[-52,-83],[56,11],[35,-113],[9,-72],[-8,-113],[-48,7],[-37,34],[-38,-24],[19,-36],[-30,-45],[14,-107],[-25,-5],[-15,-38],[27,-72],[-10,-37],[-135,-46],[-20,16],[-63,-26],[74,-36],[-15,-78],[-56,-50],[-38,31],[-42,-31],[6,-42],[-67,-1],[-19,76],[-46,-1],[3,-92],[-12,-96],[-66,29],[-29,-25],[17,-67],[-67,-39],[44,161],[-50,49],[35,74],[-39,2],[-14,-58],[-52,-29],[-59,19],[-5,76],[-116,51],[-1,-43],[-45,-6],[-31,-76],[-60,-21],[36,78],[-6,77],[13,43],[-35,72],[14,171],[45,37],[-16,64],[12,124],[39,4],[-19,82],[28,92],[-12,39],[9,179],[12,54],[-9,89],[18,74],[68,48],[14,42],[-52,111],[10,50],[49,85],[30,100],[-10,55],[30,89],[-25,40],[11,86],[22,74],[-23,122],[16,57],[45,48],[8,61],[108,-26],[45,34],[50,-60],[11,-57],[-53,-97],[2,-142],[72,-38],[23,10],[18,68],[62,-22],[55,82],[82,-52],[-8,-44]],[[10849,24048],[18,61],[120,6],[38,-22],[9,-43],[-43,-39],[-34,-69],[-138,-83],[-75,-81],[-53,76],[-20,56],[19,47],[-18,52],[49,55],[61,-3],[43,47],[24,-60]],[[10213,24470],[48,-65],[56,0],[30,-45],[37,-4],[8,51],[71,55],[18,-70],[-2,-131],[64,-10],[-16,-34],[0,-62],[-106,23],[-35,37],[-10,51],[-39,77],[-21,-39],[-51,1],[-48,79],[-54,-10],[50,96]],[[11061,24707],[69,-80],[29,-146],[-96,-15],[-64,36],[24,143],[38,62]],[[11053,24328],[-16,-70],[-45,39],[61,31]],[[11200,24743],[-9,-100],[-47,-31],[-15,108],[36,-17],[35,40]],[[10473,24153],[17,-25],[-60,-49],[-13,30],[56,44]],[[14224,19145],[-14,-83],[-25,-20],[33,-48],[-53,4],[-19,-58],[71,-34],[2,-26],[60,-49],[50,-6],[82,-81],[106,12],[-24,-97],[-99,68],[-27,-16],[-73,19],[-75,-20],[-46,-57],[-1,-52],[63,-68],[52,11],[0,45],[66,-2],[63,-35],[36,-61],[66,-17],[-42,-61],[-53,-8],[-15,-114],[17,-23],[-54,13],[-27,-29],[-107,-2],[-33,-18],[-43,52],[-37,-33],[-125,-23],[-35,13],[-21,-136],[-91,-92],[-2,-4],[0,0],[-51,-104],[-54,37],[-70,5],[-73,56],[34,60],[-38,22],[-33,-23],[-34,15],[0,0],[0,0],[-2,8],[-61,41],[34,79],[34,26],[-13,47],[-20,43],[-80,77],[-30,-9],[-28,-56],[-2,4],[-3,2],[0,0],[-17,-21],[-72,0],[-55,67],[44,93],[-22,-3],[-2,3],[-41,26],[-13,54],[-2,7],[28,31],[34,2],[113,-66],[87,9],[71,-74],[-15,114],[-45,9],[-5,4],[5,33],[-127,-7],[-38,54],[9,69],[32,6],[-24,64],[4,52],[52,-6],[3,41],[-52,8],[-48,33],[12,65],[65,5],[3,-3],[80,-82],[52,2],[53,-3],[23,18],[0,0],[15,7],[-21,13],[-16,31],[-23,-5],[-50,85],[-14,-14],[-8,16],[-1,5],[22,31],[0,0],[-21,33],[-12,125],[26,58],[0,0],[10,6],[0,0],[0,1],[142,123],[84,50],[82,-60],[44,19],[39,-13],[27,-54],[160,-32],[92,-3],[91,-26],[35,19],[41,-44],[-70,-85],[13,-53],[-15,-31]],[[13060,18183],[11,31],[-19,56],[0,0],[134,-4],[-2,-46],[-51,-30],[-73,-7]],[[13519,19588],[53,-22],[-42,-42],[-11,64]],[[13224,18151],[48,-56],[-57,-76],[9,132]],[[13113,18130],[-4,-27],[-9,-5],[-53,16],[13,36],[53,-20]],[[13324,19227],[6,-37],[-17,1],[11,36]],[[14523,18755],[1,0],[-1,-1],[-1,0],[0,1],[1,0]],[[13411,18552],[1,0],[-1,0],[-1,0],[1,0]],[[5028,6407],[-44,-11],[-86,51],[-37,-14],[-72,24],[-62,-37],[-28,-54],[48,-52],[-33,-39],[-97,41],[-42,-24],[-73,80],[-18,50],[-51,39],[-80,-3],[-39,28],[-103,14],[18,71],[40,62],[36,36],[-13,72],[24,63],[0,0],[39,40],[35,-62],[-35,-87],[35,-5],[177,-217],[40,25],[26,-59],[71,64],[-44,76],[58,62],[74,12],[-10,60],[-99,-36],[-30,-42],[-56,-27],[-52,28],[-9,83],[43,23],[34,70],[2,91],[169,-39],[-17,62],[-80,7],[41,58],[36,-20],[21,95],[72,22],[-28,37],[-79,-7],[-20,45],[-55,17],[-28,33],[39,40],[-5,68],[-44,93],[28,25],[76,11],[-1,74],[-65,43],[-49,52],[-14,47],[25,131],[43,26],[-8,73],[-47,52],[11,61],[-65,40],[51,31],[7,51],[92,122],[0,0],[50,27],[20,-25],[68,-1],[67,-20],[-7,-64],[27,-24],[49,-28],[66,-14],[7,-64],[-14,-67],[16,-61],[-39,-29],[-16,-49],[51,-31],[76,10],[-14,68],[68,23],[51,59],[60,29],[29,-42],[-39,-49],[137,40],[46,68],[48,26],[13,67],[47,25],[31,-122],[53,-39],[7,-48],[-12,-74],[18,-67],[54,2],[14,40],[-24,118],[49,63],[76,30],[42,46],[-112,-17],[-51,-62],[-61,9],[-28,36],[32,44],[11,7],[29,67],[49,64],[57,-32],[56,22],[-12,56],[11,70],[108,35],[24,-17],[15,-175],[30,-46],[55,-31],[45,-104],[-72,17],[-59,-17],[6,-48],[38,-14],[122,36],[-21,25],[76,41],[12,-31],[-83,-84],[-18,-77],[56,16],[-23,56],[37,31],[54,-46],[49,38],[58,-9],[26,-63],[-105,-27],[14,-38],[-11,-72],[-28,-66],[21,-111],[-10,-51],[24,-39],[62,-50],[-31,-43],[57,-50],[32,-59],[130,-83],[116,-148],[-23,-23],[26,-61],[44,7],[42,-26],[6,-34],[-35,-67],[-93,-50],[-92,-4],[-9,47],[-59,-15],[-73,1],[-90,-18],[-51,-34],[-111,-18],[-66,31],[-22,79],[-49,18],[13,58],[-44,21],[-89,-36],[-43,-38],[-40,5],[-41,-44],[-99,1],[-35,-65],[3,-134],[-41,-17],[12,-60],[54,0],[55,-56],[29,5],[84,-79],[34,-74],[4,-76],[-39,-35],[-55,-6],[-81,-135],[-65,12],[-106,40],[-12,118],[-80,92],[-47,77],[-73,5],[-106,-36],[-88,12],[-104,-17]],[[6398,8783],[38,51],[49,-58],[-5,-50],[21,-33],[-27,-43],[36,-111],[-30,-66],[57,6],[60,-50],[6,56],[-33,56],[46,26],[-1,73],[-72,21],[-34,69],[20,40],[-20,20],[-9,127],[48,-27],[29,-41],[80,-42],[22,-93],[85,-2],[42,-33],[-3,-74],[48,-12],[-24,-42],[6,-73],[59,-41],[-55,-22],[-15,-82],[-76,-35],[-29,-68],[-37,-27],[-25,-117],[-146,-13],[-51,32],[-7,42],[-39,17],[-43,70],[-69,22],[-47,-18],[16,111],[-28,65],[27,84],[12,100],[-19,35],[4,133],[-22,58],[24,29],[53,-50],[41,12],[37,-32]],[[7289,8883],[-23,-77],[31,-52],[-20,-2],[-90,42],[-33,-83],[63,-114],[-29,-59],[0,-59],[-42,-29],[-8,104],[-7,138],[-53,-54],[-74,12],[-17,34],[60,20],[-9,85],[-40,28],[-37,86],[-43,-8],[-26,54],[-67,33],[3,52],[-126,75],[11,-70],[-71,-33],[-28,95],[11,59],[73,-23],[-2,65],[-2,35],[57,34],[45,-80],[98,16],[47,-23],[89,-177],[6,-108],[46,35],[26,46],[-37,68],[2,37],[-64,57],[-14,42],[26,33],[82,-121],[5,-68],[59,-63],[8,85],[-13,25],[37,64],[24,72],[-22,59],[16,31],[85,-128],[32,-92],[7,-110],[-58,10],[-21,-44],[27,-54]],[[7645,8317],[77,-175],[-42,-37],[20,-45],[-17,-57],[13,-65],[-97,-2],[-24,52],[-45,-69],[22,-45],[-40,-17],[-30,35],[-54,-8],[-24,25],[-23,-14],[-13,-4],[-28,51],[56,48],[85,52],[64,-29],[22,25],[-9,79],[-21,69],[11,77],[45,101],[52,-47]],[[4560,7054],[-73,-56],[44,-21],[-16,-6],[16,-114],[-113,-95],[-48,92],[-14,90],[23,64],[75,89],[16,71],[52,34],[52,-75],[-57,-35],[43,-38]],[[4230,7804],[10,24],[65,-2],[-6,-70],[-71,-42],[27,-111],[-43,-78],[-66,23],[-2,145],[86,111]],[[2623,641],[6,-32],[-41,-27],[-35,-75],[-24,36],[-17,16],[-72,-34],[-37,12],[47,91],[-3,56],[74,-46],[45,-11],[57,14]],[[7298,8214],[39,-62],[41,-27],[-18,-72],[-83,27],[-18,88],[39,46]],[[6848,6070],[17,-49],[-16,-45],[-80,-14],[-41,67],[55,40],[65,1]],[[2115,0],[-56,41],[21,48],[-55,71],[117,35],[8,-42],[-54,-59],[19,-94]],[[6293,6393],[8,-38],[-31,-34],[-83,21],[-19,34],[44,52],[81,-35]],[[6785,7535],[65,-70],[-63,-75],[-42,82],[12,56],[28,7]],[[6626,7941],[13,-20],[-44,-104],[-63,21],[10,51],[84,52]],[[6947,9463],[17,-26],[-23,-82],[-58,-6],[22,88],[42,26]],[[6964,6332],[65,0],[8,-48],[-62,-3],[-11,51]],[[4916,8562],[19,-66],[-45,-15],[-23,32],[49,49]],[[6482,7739],[0,-107],[-46,63],[46,44]],[[7095,8533],[20,-73],[-65,-4],[45,77]],[[0,2706],[1,0],[-1,0],[0,0],[0,0],[0,0]],[[13399,9449],[-21,85],[-54,75],[9,48],[-50,57],[-23,99],[-76,17],[-20,-116],[-32,21],[-32,67],[5,72],[38,11],[-15,89],[-100,65],[35,37],[-2,106],[-19,55],[1,79],[51,92],[109,39],[4,-45],[48,-1],[12,47],[2,82],[46,47],[-39,14],[-2,64],[-49,62],[-8,40],[14,108],[-18,59],[27,50],[78,-23],[18,75],[-12,39],[32,44],[-11,65],[43,32],[56,11],[-35,23],[-72,16],[-1,23],[98,5],[10,52],[-72,11],[18,33],[45,-4],[28,53],[-25,80],[36,63],[111,-51],[54,-48],[124,-32],[60,-50],[-1,-57],[46,-49],[21,44],[33,-5],[54,-149],[-52,-32],[-23,-75],[36,-56],[32,24],[10,56],[101,70],[17,-43],[87,-40],[13,-61],[-86,-80],[-42,-1],[-27,-94],[-25,-15],[-58,-196],[7,-38],[50,-16],[-43,-49],[0,-40],[45,-33],[74,27],[26,61],[43,-11],[20,51],[-55,6],[-1,36],[44,18],[45,111],[47,-36],[12,-45],[64,8],[33,-65],[43,-14],[30,33],[56,-3],[124,-100],[35,-58],[-23,-34],[32,-56],[46,-15],[-2,-51],[23,-68],[-52,13],[3,-53],[-57,13],[-41,-83]],[[12885,11218],[18,-38],[124,-17],[36,41],[61,-19],[1,-35],[-53,-4],[-3,-52],[37,-26],[-43,-77],[-4,-38],[-35,-71],[-103,12],[-40,-107],[-48,19],[-37,-23],[-39,40],[-57,4],[-7,73],[47,125],[83,44],[27,61],[8,64],[27,24]],[[12834,10020],[-36,-26],[10,-51],[48,-44],[39,7],[25,36],[95,-58],[7,-30],[-17,-100],[-53,-79],[-97,10],[-53,47],[-27,95],[-37,32],[59,135],[37,26]],[[9865,10749],[12,-45],[-21,-68],[-24,-18],[13,-82],[-74,-66],[-115,75],[-43,-3],[-8,40],[36,24],[18,47],[73,83],[68,-59],[44,7],[21,65]],[[12661,10667],[-46,-28],[-50,-3],[-77,-90],[-65,26],[19,57],[89,61],[-64,123],[21,41],[46,-2],[55,-27],[79,0],[59,-60],[-66,-98]],[[10707,10745],[0,-14],[-3,-26],[1,-2],[6,-32],[15,-90],[-51,-13],[-14,-55],[-38,3],[4,53],[-40,45],[27,34],[-15,48],[24,26],[84,23]],[[13083,10950],[48,44],[8,-88],[-81,-80],[-17,49],[42,75]],[[13241,10638],[12,-53],[-24,-40],[34,-104],[-8,-35],[-44,2],[14,175],[16,55]],[[10773,10574],[2,-3],[0,-2],[-2,5]],[[18697,7937],[15,-74],[-105,-127],[-32,-9],[-5,-71],[-166,10],[-32,-43],[10,-92],[-55,-72],[-65,-54],[-72,-37],[-44,-47],[-164,-83],[-91,-97],[-86,-32],[-72,-93],[-90,7],[-81,-32],[-59,-4],[-152,-39]],[[17351,6948],[-4,86],[35,185],[71,-3],[117,17],[32,27],[16,90],[42,-1],[65,91],[120,52],[16,58],[110,74],[-3,22],[64,113],[15,104],[-19,99],[-49,42],[-61,-13],[-65,93],[19,26],[-32,82],[64,58],[-2,26],[-54,64],[-67,57],[-206,-10],[-94,25]],[[17740,9183],[85,-129],[95,-99],[18,29],[70,11],[38,39],[127,48],[91,112],[73,47],[58,-29],[91,-13],[66,29],[58,4],[56,38],[59,-14],[70,46],[62,-20],[57,-56],[3,-38],[69,-39]],[[19445,7803],[-27,-25],[-43,-81],[-114,-137],[-19,-52],[-30,-8],[26,-73],[76,-66],[-9,-58],[-31,-48],[-39,-111],[-105,-40],[-72,-71],[-47,17],[-28,-62],[-128,-68],[-2,-2],[-2,-1],[-86,-5],[-68,-2],[-105,23],[-121,-37],[54,-32],[-54,-55],[1,-82],[-36,-58],[-65,-32],[-25,36],[-57,-27],[-59,-111],[-13,-55],[-31,-2],[-70,-52],[-58,9],[-65,-21],[-16,42],[-99,11],[-6,-44],[50,-10],[5,-47],[-55,-11],[-73,-61],[-36,12],[-76,-28],[-21,72],[72,49],[1,83],[-24,23],[-14,66],[-69,81],[-41,-36],[-68,99],[-51,32],[-40,-6],[-75,54],[-19,99],[13,54]],[[14926,8580],[75,60],[22,60],[48,7],[38,40],[-6,100],[-49,38],[-66,75],[-10,127]],[[14978,9087],[51,-61],[-24,-46],[25,-42],[74,0],[1,44],[49,82],[56,51],[14,62],[-22,51],[3,58],[43,-5],[-6,-50],[53,-3],[8,-33]],[[14502,9193],[24,-75],[38,-8],[64,19],[40,-45],[40,-8],[36,-44],[159,-135],[-26,-16],[26,-56],[29,2],[16,61],[48,32],[-31,65],[13,102]],[[15578,11481],[91,-23],[18,-75],[39,-35],[-7,-38],[137,-85],[79,-17],[121,-72],[45,-7],[37,-57],[56,-34],[3,-113],[45,-56],[12,-64],[42,-11],[18,-50],[58,-24],[107,29],[6,-82],[85,-39],[40,-50]],[[15808,10441],[-8,53],[-32,29],[-5,64],[15,108],[-145,132],[-41,56],[-55,-7],[-54,57],[-61,15],[-41,115],[-56,66],[-25,6],[-113,73]],[[15187,11208],[34,71],[-16,32],[113,34],[153,-50],[50,49],[30,4],[39,92],[-12,41]],[[15602,11639],[13,-40],[-37,-118]],[[15187,11208],[-51,5],[-16,-35],[-51,13],[-73,-3],[-57,-89],[-73,26],[-55,-159],[-47,-46],[-44,-2],[-21,66],[20,69],[-11,35],[115,35],[26,33],[-105,66],[-11,20],[-53,-50],[-55,57],[-69,-5]],[[14920,11608],[73,43],[81,-20],[112,-48],[40,41],[58,-9],[184,65],[73,-8],[61,-33]],[[15717,12261],[41,-12],[-17,-45],[30,-142],[22,-32],[12,-95],[64,-57],[3,-108],[-46,-87],[-91,31],[-67,-19],[-66,-56]],[[15151,12259],[54,-33],[61,-6],[18,-55],[60,37],[31,-19],[62,2],[48,42],[53,-22],[88,42],[48,-8],[43,22]],[[8331,12737],[16,-12],[67,53],[86,4],[-3,-79],[-54,31],[-62,-26],[-35,0],[25,-132],[63,-26],[-11,-74],[-61,43],[-73,-24],[-44,63],[-70,-15],[-19,-62],[-27,-19],[-74,-1],[-10,53],[16,64],[-124,-7],[-34,61],[70,75],[50,16],[48,39],[48,5],[108,-62],[42,40],[62,-8]],[[8838,12501],[-51,-33],[-2,-46],[29,-71],[5,-80],[-28,-80],[-65,43],[-7,105],[-28,43],[6,77],[31,35],[-19,66],[-45,69],[-18,76],[31,42],[61,1],[72,-124],[7,-36],[74,-45],[-16,-53],[-37,11]],[[7843,12621],[-56,10],[-11,-4],[-14,63],[24,53],[92,11],[12,-46],[-25,-81],[-22,-6]],[[7539,12498],[0,-1],[-23,50],[60,6],[26,-53],[-63,-2]],[[7868,12366],[19,-71],[-35,-26],[-47,1],[11,53],[52,43]],[[8233,12914],[35,-24],[11,-47],[-51,-16],[-38,66],[43,21]],[[8813,12912],[55,-50],[-56,-34],[-38,30],[39,54]],[[7850,12407],[-67,9],[30,41],[46,7],[-9,-57]],[[13237,12703],[-41,-4],[-67,180]],[[9209,10235],[-59,-4],[-28,-47],[-70,-44],[-54,-18],[-65,-42],[-4,-35],[-42,-62],[-23,-97],[-33,2],[-48,76],[-21,-56],[-88,-11],[-83,163],[-14,-39],[39,-96],[-18,-152],[-53,13],[-99,-61],[37,-43],[-26,-76],[6,-70],[-77,1],[-16,-102],[45,-4],[37,-52],[-44,-89],[61,-35],[35,-97],[15,-77],[-83,-54],[-110,68],[-69,-2],[-31,12],[-13,-86],[-28,-98],[57,-77],[10,-60],[-40,-48],[16,-30],[-24,-76],[-59,28],[-63,-1],[-52,30],[5,28],[51,106],[-30,52],[-9,92],[0,0],[26,49],[-16,64],[8,88],[-20,26],[-36,26],[15,18],[-1,18],[1,5],[43,-10],[42,26],[-58,52],[92,33],[3,40],[-49,4],[-25,41],[-42,-25],[-25,35],[7,46],[8,20],[-2,36],[46,-35],[52,48],[0,-1],[47,-3],[19,-108],[36,23],[-32,104],[-77,20],[-30,87],[-69,38],[-45,-14],[-43,-26],[-35,38],[71,77],[51,20],[-21,87],[-107,-60],[-42,9],[-34,45],[-16,88],[-71,-78],[-92,10],[62,47],[15,53],[-41,77],[-23,86],[35,29],[73,25],[10,44],[106,-26],[-6,-57],[67,-71],[18,63],[62,98],[72,-22],[-6,-42],[30,-52],[9,140],[-8,55],[-38,-5],[-36,74],[60,50],[-44,29],[-30,52],[10,139],[-1,114],[66,89],[71,47],[66,-9],[37,-214],[50,25],[86,9],[-45,74],[-13,47],[25,89],[-15,79],[-38,27],[10,66],[45,-3],[27,172],[32,33],[105,15],[53,86],[-6,21],[-13,28],[38,59],[-17,42],[-56,4],[-28,35],[53,57],[-87,99],[37,43],[-29,39],[48,40],[11,99],[41,68],[3,95],[28,54],[66,-22],[-3,-50],[-54,-67],[11,-123],[-49,-119],[-33,-22],[74,-101],[39,1],[38,-88],[-24,-121],[-7,-103],[-33,-5],[-8,-77],[-32,-98],[3,-44],[-40,-32],[-51,-86],[14,-62],[-18,-52],[-57,-31],[17,-67],[31,-17],[6,-60],[-70,-72],[35,-105],[-6,-49],[28,-39],[-31,-48],[-11,-59],[30,-29],[26,-62],[88,44],[25,-27],[42,67],[51,-7],[86,32],[43,87],[40,1],[53,39],[50,-32],[61,24],[5,48],[128,6],[63,-57],[-43,-22],[-6,-86],[42,-144],[-17,-70]],[[7902,9521],[39,-77],[-14,-53],[-35,-48],[16,-82],[-28,-32],[29,-47],[-43,-62],[47,-141],[-17,-24],[-20,-24],[-62,26],[10,62],[24,18],[-84,45],[48,23],[-24,40],[-95,-26],[-3,7],[-12,16],[-38,17],[-63,-14],[-40,1],[-45,-83],[-34,14],[38,65],[-4,60],[-120,1],[63,40],[9,27],[-46,50],[-73,168],[5,45],[85,-2],[-9,-58],[29,-21],[50,11],[32,-24],[-2,-58],[29,-93],[11,36],[-18,59],[41,53],[29,-6],[2,-56],[44,11],[-18,46],[-91,56],[-44,50],[16,55],[35,5],[-82,94],[77,15],[24,37],[-35,57],[36,40],[72,-57],[21,-77],[44,16],[45,44],[40,-22],[9,-45],[40,-25],[21,-51],[-3,-89],[42,-13]],[[7097,9719],[13,36],[70,-8],[12,4],[23,-54],[35,-6],[15,-27],[19,-1],[7,10],[1,25],[9,29],[-9,42],[25,49],[77,-13],[-36,-118],[-44,-23],[-22,2],[-2,-18],[-9,14],[-15,1],[7,-68],[16,-17],[63,41],[-19,-77],[-47,30],[-19,25],[-60,-42],[-46,45],[-29,-6],[-48,49],[-24,56],[37,20]],[[7630,10124],[3,-3],[-5,-18],[-14,-32],[0,0],[-53,-28],[1,-5],[-5,-11],[-20,13],[-21,-59],[-38,2],[13,56],[-23,68],[49,14],[99,37],[14,-34]],[[9210,10618],[-38,15],[-16,47],[64,4],[92,44],[34,-39],[-3,-68],[-48,-16],[-44,26],[-41,-13]],[[7933,10693],[-22,-52],[-34,-21],[-76,8],[-41,-55],[-59,-6],[47,75],[47,41],[55,-15],[83,25]],[[7959,9315],[-4,-92],[-41,-10],[13,72],[32,30]],[[9288,9753],[58,-39],[-47,-36],[-57,10],[46,65]]],"transform":{"scale":[0.00011648235535494439,0.00009597045518801229],"translate":[128.10785,31.9887]},"objects":{"japan":{"type":"GeometryCollection","geometries":[{"arcs":[[[0,1,2,3,4,5]],[[6]],[[7]],[[8]],[[9]],[[10]],[[11]],[[12]]],"type":"MultiPolygon","properties":{"pref":"長崎県","city":"長崎市","code5":"42201","code6":"422011"}},{"arcs":[[[13,14,15,16,17,18,19,20]],[[21]],[[22]],[[23]],[[24]],[[25]],[[26]],[[27]],[[28]],[[29]],[[30]]],"type":"MultiPolygon","properties":{"pref":"長崎県","city":"佐世保市","code5":"42202","code6":"422029"}},{"arcs":[[[31,32,33]],[[34]]],"type":"MultiPolygon","properties":{"pref":"長崎県","city":"島原市","code5":"42203","code6":"422037"}},{"arcs":[[35,36,37,-4,38,39,40]],"type":"Polygon","properties":{"pref":"長崎県","city":"諫早市","code5":"42204","code6":"422045"}},{"arcs":[[[41,-41,42,43,44]],[[45]]],"type":"MultiPolygon","properties":{"pref":"長崎県","city":"大村市","code5":"42205","code6":"422053"}},{"arcs":[[[46]],[[-20,47,48]],[[49]],[[50]],[[51]],[[52]]],"type":"MultiPolygon","properties":{"pref":"長崎県","city":"平戸市","code5":"42207","code6":"422070"}},{"arcs":[[[53,-21,-49,54]],[[55]],[[56]],[[57]],[[58]],[[59]]],"type":"MultiPolygon","properties":{"pref":"長崎県","city":"松浦市","code5":"42208","code6":"422088"}},{"arcs":[[[60]],[[61]],[[62]],[[63]],[[64]],[[65]],[[66]],[[67]]],"type":"MultiPolygon","properties":{"pref":"長崎県","city":"対馬市","code5":"42209","code6":"422096"}},{"arcs":[[[68]],[[69]],[[70]],[[71]],[[72]],[[73]],[[74]]],"type":"MultiPolygon","properties":{"pref":"長崎県","city":"壱岐市","code5":"42210","code6":"422100"}},{"arcs":[[[76]],[[77]],[[78]],[[79]],[[80]],[[81]],[[82]],[[83]],[[84]],[[85]],[[86]],[[87]],[[88]],[[89]],[[90]],[[91]],[[92]],[[93]]],"type":"MultiPolygon","properties":{"pref":"長崎県","city":"五島市","code5":"42211","code6":"422118"}},{"arcs":[[[-6,95]],[[96]],[[97]],[[98]],[[99]],[[100]],[[101]],[[102]],[[103]]],"type":"MultiPolygon","properties":{"pref":"長崎県","city":"西海市","code5":"42212","code6":"422126"}},{"arcs":[[-33,104,105,-37,106]],"type":"Polygon","properties":{"pref":"長崎県","city":"雲仙市","code5":"42213","code6":"422134"}},{"arcs":[[-32,107,-105]],"type":"Polygon","properties":{"pref":"長崎県","city":"南島原市","code5":"42214","code6":"422142"}},{"arcs":[[-3,108,109,-39]],"type":"Polygon","properties":{"pref":"長崎県","county":"西彼杵郡","city":"長与町","code5":"42307","code6":"423076"}},{"arcs":[[-2,110,-109]],"type":"Polygon","properties":{"pref":"長崎県","county":"西彼杵郡","city":"時津町","code5":"42308","code6":"423084"}},{"arcs":[[111,-44,112,113]],"type":"Polygon","properties":{"pref":"長崎県","county":"東彼杵郡","city":"東彼杵町","code5":"42321","code6":"423211"}},{"arcs":[[114,-114,115,-16,116]],"type":"Polygon","properties":{"pref":"長崎県","county":"東彼杵郡","city":"川棚町","code5":"42322","code6":"423220"}},{"arcs":[[117,-117,-15,118]],"type":"Polygon","properties":{"pref":"長崎県","county":"東彼杵郡","city":"波佐見町","code5":"42323","code6":"423238"}},{"arcs":[[[119]],[[120]],[[121]],[[122]],[[123]],[[124]],[[125]],[[126]]],"type":"MultiPolygon","properties":{"pref":"長崎県","county":"北松浦郡","city":"小値賀町","code5":"42383","code6":"423831"}},{"arcs":[[-18,127]],"type":"Polygon","properties":{"pref":"長崎県","county":"北松浦郡","city":"佐々町","code5":"42391","code6":"423912"}},{"arcs":[[[128]],[[129]],[[130]],[[131]],[[132]],[[133]],[[134]],[[135]]],"type":"MultiPolygon","properties":{"pref":"長崎県","county":"南松浦郡","city":"新上五島町","code5":"42411","code6":"424111"}}]}}}