{"type":"Topology","arcs":[[[3946,2945],[65,19],[31,-17],[60,31],[30,66],[32,-1],[53,68],[38,68]],[[4255,3179],[31,-6],[23,-101],[56,-65],[59,-9],[31,-39],[36,7],[75,57],[101,22],[48,-13],[69,12],[44,-21],[88,33],[24,56],[45,-34],[6,-31],[143,31]],[[5134,3078],[20,-15],[78,21],[98,-58],[64,-8],[101,-132]],[[5495,2886],[-2,-49],[30,-63],[-1,-72],[-80,-31],[-13,-161],[50,-107],[-11,-66]],[[5468,2337],[-75,-66],[-68,-34],[-48,26],[-99,-5],[-29,-43],[-65,-32]],[[5084,2183],[-65,19],[-85,-5],[-50,12],[-25,58],[16,99],[-60,63],[-49,3],[-21,47],[-72,54],[-54,-37],[-42,28],[-23,43],[-123,-53],[-51,23],[-63,0],[-45,-61],[-146,-40],[-82,-57],[-24,-49],[16,-53],[-98,-26],[37,-134],[-47,-58],[21,-86],[60,-6],[31,-23],[-13,-51]],[[4027,1893],[-41,-5],[-53,-36],[-60,-117],[-42,-33],[-24,-56],[19,-45],[-37,-30]],[[3789,1571],[-52,-23],[-27,26],[-42,-16],[-28,88],[-32,40],[-36,84],[-54,-55]],[[3518,1715],[-58,15],[-30,-17],[-29,60],[-69,13],[-33,-19],[-63,22],[-55,-31],[-89,68],[-40,-12],[-17,-47],[-46,-51],[-54,13],[-15,44],[33,59],[-20,20],[68,123],[-28,28]],[[2973,2003],[49,77],[46,7],[68,69],[20,41],[-42,97],[22,53],[-22,74],[-83,7],[-35,47],[-1,58],[24,41],[83,-9],[13,43],[-65,26],[-113,67],[66,115],[64,30],[34,-32],[70,130],[73,114],[99,107],[38,-30],[88,87]],[[3469,3222],[130,-131],[50,-41],[50,-78],[-32,-11],[-2,-52],[-32,-51],[63,-32],[55,-77],[73,51],[21,51],[35,32],[18,54],[48,8]],[[4279,867],[13,-37],[-42,-66],[-1,-64]],[[4249,700],[17,-75],[63,-19],[41,-51],[52,-20],[1,-118],[35,-52],[-10,-22],[42,-87],[68,40],[53,-80],[94,52],[10,-54],[41,-47]],[[4756,167],[-47,-39],[-37,-84],[-28,-14],[-94,48],[-85,-47],[-11,-31],[-67,28],[-150,1],[-65,13],[-39,-30],[-31,42],[-77,-14],[-28,45],[-31,-41],[-37,-7],[-113,40],[-47,51],[-103,88],[-80,43],[-18,99]],[[3568,358],[20,36],[11,73],[32,38],[8,60],[36,9],[41,71],[3,55],[107,129],[68,31],[26,65],[26,-3],[55,100],[-17,43],[-60,23],[4,63],[-50,56],[32,67]],[[3910,1274],[72,-36],[3,-65],[35,-15],[14,-48],[3,-143],[56,5],[35,-105],[26,-14],[74,25],[51,-11]],[[2324,5764],[56,18],[60,0],[250,-22],[79,31],[42,-17],[46,52]],[[2857,5826],[23,-98],[39,-52]],[[2919,5676],[14,-68],[-43,-90],[-51,-56],[-5,-47],[-67,-41],[-9,-27]],[[2758,5347],[-24,17],[15,73],[-42,-13],[-61,15],[-52,-74],[-38,2],[-22,37],[-55,-1],[-31,-23]],[[2448,5380],[-31,112],[-10,175],[-23,43],[-38,-3],[-22,57]],[[2419,865],[24,-33],[7,-58],[60,-42],[105,-3]],[[2615,729],[67,-66],[86,-25],[22,-41],[60,-41],[28,23],[143,65],[143,-20],[26,8]],[[3190,632],[64,-54]],[[3254,578],[26,-63],[-40,-52],[-33,-82],[-132,-5],[-60,-30],[-31,-76],[-120,-10],[-42,30],[-88,-44],[-53,38],[-28,-4],[-6,-106],[-46,-42],[-136,-11],[-201,40],[3,26],[-59,62],[-28,84],[-35,21],[-101,114],[37,81],[65,68],[-44,59],[78,79],[39,87],[110,34],[39,34],[51,-45]],[[3435,4873],[-22,-110],[-47,-10],[-209,61],[-9,-25]],[[3148,4789],[-34,-43],[-190,57],[-31,15],[2,175],[-125,77],[-24,1],[-96,75]],[[2650,5146],[106,159],[2,42]],[[2919,5676],[161,43],[114,-26]],[[3194,5693],[61,-12],[41,-29],[18,-47],[-33,-24],[-22,-103],[73,17],[47,-66],[57,-53]],[[3436,5376],[-27,-47],[-66,-61],[-13,-42],[47,-17],[12,-115],[-53,-36],[26,-101],[73,-84]],[[3589,6439],[24,61],[32,160],[6,87],[93,77],[41,-58],[-11,-32],[70,-21],[42,23],[56,-22],[60,10],[16,-45],[85,-56],[25,-38],[65,-46],[95,-2],[95,-52],[24,5],[78,-63],[69,-17],[31,-75]],[[4585,6335],[-42,-48],[-8,-84],[-42,9],[-64,-53],[37,-66],[-43,-35],[-37,-87],[3,-127],[-55,-38],[-15,-53],[-51,-14],[-23,-37],[-80,22],[-58,-77],[-60,-57],[-50,-19]],[[3997,5571],[-46,32],[-81,-23],[-43,-87],[-50,0],[-109,-63],[-19,-81],[-81,-30]],[[3568,5319],[-86,72],[-30,7]],[[3452,5398],[13,102],[21,34],[78,-22],[20,59],[-61,27],[25,71],[-33,45],[27,75],[-49,20],[-7,86],[65,22],[25,139],[-19,25],[-74,10],[5,45],[-20,80],[36,42],[59,22],[27,83],[-24,42],[23,34]],[[3977,5289],[-7,106],[8,94],[-9,44],[28,38]],[[4585,6335],[95,18],[16,-28],[51,8],[68,-53],[5,-49],[32,-18],[17,-57],[35,6],[88,-83],[61,21],[61,-15],[54,-36],[11,-63],[58,-86]],[[5237,5900],[-76,-124],[7,-98],[-19,-83],[-56,-76],[70,-64]],[[5163,5455],[-24,-27],[-70,2],[-7,-30],[-65,-66],[-80,6],[-110,-36],[-133,7],[14,-73],[-131,31],[-19,-31],[5,-70],[-32,-44]],[[4511,5124],[-27,38],[-95,35],[-68,8],[-26,-19],[-86,55],[-114,45],[-88,-9],[-30,12]],[[3337,3944],[104,-41],[50,12],[37,39],[81,-70],[49,-24],[12,-44],[99,-29],[105,-17],[35,-46]],[[3909,3724],[-25,-40],[-86,14],[-53,-54],[-33,-67],[-96,60],[-47,-28],[-36,34],[-58,-28],[-56,39],[-42,6],[-43,-64],[-65,-30],[-97,-20],[-47,24],[-69,-9],[-28,-22],[-85,-24],[-114,-12],[-50,8],[-8,41]],[[2771,3552],[56,8],[72,52],[73,9],[79,138],[60,46],[18,34],[108,32],[44,45],[56,28]],[[2009,1971],[41,-23],[24,59],[46,46],[38,123],[-4,51],[-89,-35],[-90,35],[-53,101],[28,61],[4,71],[119,-30],[81,45],[-3,74],[50,34]],[[2201,2583],[21,-10],[54,94],[83,56],[19,-33],[89,65],[29,-37],[67,16],[-39,-113],[-77,-135],[-46,-197],[-58,-38],[-18,-56],[-35,-33],[40,-31],[0,-50],[-64,-111],[-17,-61],[-58,-18],[-48,-60],[-15,39],[-52,3],[-28,-58],[-49,-11],[-2,62],[-23,60],[19,28],[16,17]],[[2542,3140],[-19,-85],[-50,-42],[41,-19],[-10,-56],[20,-33],[-113,-32],[-140,32],[68,183],[-97,10],[-23,43],[94,104],[41,15],[128,111],[66,-94],[-48,-46],[-6,-54],[48,-37]],[[2634,3132],[74,-113],[-59,-89],[-55,-63],[-10,126],[-19,43],[69,96]],[[2328,1933],[42,-33],[5,-78],[-14,-21],[-62,34],[10,82],[19,16]],[[2315,2874],[53,-30],[-24,-30],[-50,36],[21,24]],[[3909,3724],[89,-89],[44,-20],[113,25],[69,-11]],[[4224,3629],[-3,-18]],[[4221,3611],[-11,-75],[22,-73],[7,-79],[-6,-167],[22,-38]],[[3946,2945],[-89,86],[37,40],[-44,40],[-37,-26],[-106,76],[5,33],[-198,104],[-57,55]],[[3457,3353],[55,4],[67,-67],[15,35],[-17,56],[7,52],[-15,45],[-79,-46],[-111,-22],[-92,-43],[-41,5],[-59,-27],[-80,16],[-99,-9],[-19,12],[-165,-82],[-124,7],[-99,-51],[-40,21],[10,59],[-45,60],[46,48],[84,32],[115,94]],[[2739,3270],[82,-16],[1,-98],[-90,-99],[-29,41],[0,60],[-66,71],[102,41]],[[5237,5900],[108,1],[38,28]],[[5383,5929],[49,-57],[288,68],[33,61],[100,21],[34,-72],[143,54],[30,36],[81,-29],[94,1],[24,-14]],[[6259,5998],[-18,-79],[-56,-26],[14,-63],[70,-7],[20,-32],[75,-47],[7,-171],[142,3],[28,-66],[46,-16],[49,15],[47,-9]],[[6683,5500],[11,-81],[-12,-49],[36,-100],[4,-101]],[[6722,5169],[-122,-41],[-8,-19],[-115,-92],[-154,-64],[-36,58],[-47,31],[-100,-36],[-19,12],[-121,14],[-96,-24]],[[5904,5008],[-38,9],[-125,-28],[-28,32],[-154,82],[-61,-6],[-1,32],[-169,48],[4,-45],[-48,-18],[-65,21]],[[5219,5135],[-50,67],[48,67],[-43,110],[33,33],[-44,43]],[[249,2187],[13,-18],[109,-17],[75,35],[114,1],[70,-65],[21,2],[-5,136],[-59,56],[30,73],[48,69],[45,-2],[63,80],[-8,118],[52,123],[-45,72]],[[772,2850],[17,20],[90,-2],[47,20],[122,7],[91,-13],[37,-104],[-10,-45],[25,-130],[-29,-54],[85,-152],[-18,-51],[-43,-36],[32,-30],[-5,-30],[15,-49],[16,-24],[7,-45],[36,-57],[-44,3],[11,-51],[-63,-54],[18,-86],[41,25],[54,-21],[19,-42],[-33,-37],[46,-72],[-37,-26],[-59,-116],[5,-74],[-25,-13],[-93,-120],[-68,-22],[-24,41],[1,58],[46,60],[-12,25],[-84,-97],[-36,-13],[26,-53],[-47,-11],[-30,-39],[31,-25],[81,-2],[15,-36],[-29,-40],[-61,-42],[-82,33],[-57,-63],[-83,-156],[-73,3],[6,-47],[46,14],[-12,-110],[-57,-22],[-39,12],[-51,-34],[43,-41],[-38,-45],[-80,0],[-71,-60],[-23,46],[-56,1],[16,-58],[-51,-72],[-52,5],[-2,61],[-56,-38],[-51,50],[26,21],[15,87],[77,28],[-11,82],[-119,27],[-34,42],[-43,-39],[-24,48],[59,134],[63,90],[56,38],[34,61],[74,18],[5,-91],[47,98],[47,-27],[39,-70],[1,-53],[58,-2],[23,64],[-8,109],[-39,-15],[-21,39],[-84,22],[-7,-51],[-44,26],[-121,1],[-60,-11],[7,46],[-14,54],[-61,12],[1,107],[-33,88],[26,65],[43,60],[31,8],[23,170],[44,156],[60,71]],[[2009,1971],[-17,80],[-47,-73],[-65,-45],[-109,-20],[-158,43],[-19,59],[-68,-10],[-6,-43],[-44,-67],[1,-36],[-48,-20],[-48,19],[62,60],[-11,99],[-64,17],[-35,-19],[-30,69],[-46,53],[-3,35],[-23,33],[-5,60],[63,36],[180,83],[42,56],[119,32],[67,53],[-3,35],[90,80],[24,45],[100,27],[45,-1],[85,36],[52,-18],[-4,-41],[108,-26],[7,-79]],[[2016,1634],[46,-40],[52,-18],[-53,-50],[-20,-57],[-80,-88],[-46,-8],[-28,-31],[-75,33],[28,38],[63,1],[-21,101],[39,26],[39,72],[56,21]],[[1802,1735],[29,-32],[108,-71],[-58,-25],[-43,-48],[-28,52],[-74,14],[-12,54],[60,-9],[18,65]],[[307,609],[56,-64],[-19,-29],[65,-56],[-20,-53],[-66,103],[-43,-33],[-46,11],[38,67],[-7,35],[42,19]],[[894,1161],[38,-20],[-10,-60],[-61,-15],[-7,60],[40,35]],[[1991,1759],[22,-51],[-30,-21],[-41,38],[49,34]],[[1389,1815],[1,-80],[-33,-10],[2,68],[30,22]],[[4076,4846],[-88,-39],[-33,13],[28,53],[-4,166],[-31,-2],[-22,58],[26,132],[25,62]],[[4511,5124],[44,-44],[37,-8]],[[4592,5072],[-59,-9],[-57,-53],[-161,-57],[-135,-89],[-13,31],[-51,-8],[-40,-41]],[[4221,3611],[45,-6],[81,-62],[40,-61],[-4,-26],[68,-81],[91,12],[22,63],[104,56],[28,-2],[36,54],[12,58]],[[4744,3616],[82,-14],[60,19]],[[4886,3621],[92,-51],[96,3],[45,-60],[59,7],[72,-16],[-29,-52],[-72,1],[56,-156],[11,-93],[-44,-28],[-49,-63],[11,-35]],[[3436,5376],[16,22]],[[3568,5319],[-28,-4],[-48,-98],[49,-52],[15,-98],[-24,-48],[-52,-153],[-45,7]],[[2857,5826],[-26,70],[-28,19],[-6,68],[-49,76],[47,59],[67,48],[81,0],[16,79],[37,24],[122,35]],[[3118,6304],[34,-22],[21,-68],[-14,-35],[44,-59],[47,-38],[29,-72],[12,-84],[-23,-74],[-48,-1],[19,-118],[-45,-40]],[[2650,5146],[-29,-29],[-73,32],[-90,98],[18,44],[-28,89]],[[3097,6411],[47,17],[50,58],[109,-7],[76,-40],[30,17],[99,14],[81,-31]],[[3118,6304],[-24,55],[3,52]],[[5219,5135],[-94,-163],[45,-29],[79,16],[64,-50],[-35,-33]],[[5278,4876],[-85,32],[-85,-4],[-102,-36],[-124,-24],[-48,-58],[-37,-22],[-24,-45],[-35,-6]],[[4738,4713],[-3,21]],[[4735,4734],[-56,29],[4,58],[-59,26],[-5,84],[9,86],[-36,55]],[[4491,4640],[1,37],[-39,47],[-68,-7],[-15,94],[-75,7],[-16,31],[-203,-3]],[[4735,4734],[-53,-31],[-94,-21],[-66,-63],[-31,21]],[[5383,5929],[35,73],[37,21],[4,60],[27,71],[-37,39],[20,63],[50,50],[-30,41]],[[5489,6347],[68,13],[25,74],[103,34],[11,-60],[34,13],[36,66],[47,-29],[7,-44],[122,-49],[117,19],[38,-14],[66,56],[93,-22],[44,10]],[[6300,6414],[-5,-95],[12,-42],[60,-58],[38,24],[18,-42]],[[6423,6201],[-135,-124],[-29,-79]],[[5489,6347],[-49,92],[-78,69],[-13,66],[-69,79],[30,64],[7,102],[46,98],[60,-38],[57,1],[61,54],[40,12],[15,37],[113,6],[37,-23],[76,-17],[71,-23],[21,17],[61,-29],[23,-19],[15,-64],[55,-21],[26,-44],[73,-32],[1,-33],[69,-57],[30,-77],[-17,-78],[50,-75]],[[6423,6201],[101,-127],[28,-134],[23,-40],[-11,-41],[62,-55],[65,-85],[-3,-81],[84,-34],[-38,-87],[-51,-17]],[[6722,5169],[-3,-67],[22,-68],[34,-51],[41,-15],[120,-127],[82,-26],[64,-56],[37,-70],[-35,-28],[-111,6],[-53,-11],[-28,22],[-109,-31],[-40,-53],[-13,-85],[-45,-36],[-7,-79],[-42,-14],[0,-47],[48,-48],[-26,-60],[-38,-42]],[[6620,4183],[-114,30],[-23,49],[-34,16],[-6,40],[24,81],[-67,97],[-74,12],[-43,63],[-57,30],[-54,3],[-29,-26],[-7,-68],[-77,-64],[-63,5]],[[5996,4451],[-19,73],[15,136],[-53,48],[11,34],[-8,96],[-54,109],[16,61]],[[5278,4876],[-29,-37],[36,-43],[3,-59],[-43,-39],[39,-72],[-14,-52],[69,-9],[32,-56]],[[5371,4509],[-186,-129]],[[5185,4380],[-62,41],[-80,-72],[-37,27],[-73,14],[-82,-21],[-35,19]],[[4816,4388],[-95,135],[46,84],[-29,106]],[[5996,4451],[-36,-23],[-121,-5],[-19,24],[-165,-36],[-61,-36],[-42,36],[-84,-22],[-60,19],[-41,64],[4,37]],[[4134,3973],[-14,51]],[[4120,4024],[75,28],[71,63],[27,-5],[38,47]],[[4331,4157],[55,-24],[46,-90],[94,23],[-23,114],[52,41],[-1,50],[187,21],[66,41],[9,55]],[[5185,4380],[-9,-39],[-74,-53],[-85,-42],[-55,-48],[-50,-21],[-48,-47],[-40,-9],[6,-72],[-24,-76],[20,-18],[11,-158],[18,-23],[-36,-52],[2,-61],[65,-40]],[[4744,3616],[-4,62],[-45,38],[-38,-5],[-15,63],[-54,3],[-27,54],[-67,-35],[-63,6],[-52,50],[-37,2],[-16,-52],[-33,16],[1,73],[-50,41],[-110,41]],[[4232,4246],[99,-89]],[[4120,4024],[-51,42],[-182,21],[86,76],[92,22],[41,54],[54,-12],[72,19]],[[4232,4246],[90,42],[-57,93],[13,96],[99,39],[14,41],[36,20],[70,0],[-6,63]],[[4224,3629],[-33,107],[-33,22],[3,39],[-58,45],[-2,57],[44,19],[-11,55]],[[6620,4183],[4,-58],[-18,-2],[-103,-97],[-30,9],[-85,-52],[-56,-77],[6,-61],[-28,-43],[-2,-137],[-60,-1],[-62,53],[-43,-26],[-16,-72],[-68,-66],[-18,-61],[-39,-13],[-4,-45],[23,-40],[-21,-52],[2,-73],[17,-68],[-32,-47],[-39,-14],[-5,-61],[-90,-2],[-70,35],[-32,-5],[-85,23],[-47,-34],[-29,-112],[7,-65],[-79,-7],[-23,-26]],[[3469,3222],[-70,82],[-7,27],[65,22]],[[3518,1715],[-33,-63],[-166,-77],[-17,-99],[61,-106],[-73,-100],[27,-19],[6,-79],[47,-14],[-86,-51],[-36,-44],[5,-84],[-36,-42],[15,-84],[-31,-116],[28,-24],[-39,-81]],[[2615,729],[118,29],[0,76],[15,98],[-29,53],[-110,38],[-14,22],[14,64],[-26,46]],[[2583,1155],[22,56],[51,9],[65,83],[-93,9],[-4,92],[-27,35],[86,131],[58,54],[72,27],[0,21],[-96,52],[118,135],[138,144]],[[2419,865],[-5,62],[-38,57],[36,20],[10,67],[92,57],[11,55],[-20,41],[51,15],[27,-84]],[[4249,700],[159,5],[37,28],[-15,41],[-41,0],[-3,85],[18,56],[86,11],[116,69]],[[4606,995],[47,-53],[10,-70],[32,-70],[-61,-75],[47,-31],[53,9],[27,-58],[-4,-39],[153,-187],[-68,-120],[67,-32],[30,-43]],[[4939,226],[-66,12],[-18,-41],[-99,-30]],[[5099,1659],[43,-76],[-4,-41],[38,-101],[43,-28],[72,-114],[-40,-93]],[[5251,1206],[-49,-23],[40,-43],[-12,-90],[19,-46],[50,-60],[111,-22],[40,-67],[31,12],[3,47],[52,30],[51,-37],[53,42]],[[5640,949],[52,10],[72,-71],[15,-67],[55,-114],[86,-30],[19,-60],[-15,-120],[40,-83],[-67,-49],[-67,14],[-70,32],[-55,-23],[-75,33],[-38,55],[-101,0],[-29,29],[-49,-31],[-60,-74]],[[5353,400],[-40,23],[-13,73],[19,57],[-9,39],[-39,15],[15,109],[20,23],[-66,87],[-24,-2],[-153,140],[-7,37],[-55,-17],[-48,25],[-5,50],[26,30],[-67,91],[-15,99],[16,27],[-16,53],[-100,111]],[[4792,1470],[31,36],[6,45],[37,69]],[[4866,1620],[34,31],[72,-3],[31,28],[51,-25],[45,8]],[[5251,1206],[99,50],[43,80],[54,57],[37,-5],[17,-44],[72,-15],[26,-25],[41,-81],[21,-7]],[[5661,1216],[-7,-19],[23,-104],[-51,-25],[-15,-33],[6,-62],[23,-24]],[[5468,2337],[11,-96],[86,-172],[40,-37],[17,-42],[127,-4],[32,-157],[30,-54],[-31,-54],[22,-68],[67,-36],[24,9],[61,-111],[-31,-138],[-56,-112],[-105,-87],[-61,41],[-40,-3]],[[5099,1659],[1,84],[38,88],[35,11],[15,42],[-8,87],[-57,32],[-17,67],[-34,30],[12,83]],[[4279,867],[45,61],[-3,62],[43,49],[-12,26],[25,59],[-7,117],[43,37],[13,63],[-65,61],[-53,-31],[11,72],[-7,79],[-20,37],[15,62],[-64,87],[-3,65]],[[4240,1773],[70,-18],[61,51],[53,-85],[42,-7],[68,-56],[26,-68],[54,-16],[70,65],[182,-19]],[[4792,1470],[-82,-94],[4,-90],[27,-20],[-54,-44],[-91,-96],[10,-131]],[[4240,1773],[-17,57],[-58,23],[-104,-10],[-34,50]],[[3910,1274],[-24,79],[14,31],[-65,90],[-46,97]],[[3568,358],[-78,23],[-74,7],[-27,45],[-11,83],[-26,67],[-98,-5]],[[5353,400],[1,-63],[-94,-71],[-11,-55],[10,-46],[-68,-5],[-42,-30],[-49,27],[-60,-21],[-27,39],[-58,17],[-16,34]],[[249,2187],[53,104],[51,69],[-14,65],[27,84],[36,7],[-62,168],[-44,18],[-76,58],[69,53],[63,-11],[-26,-61],[56,-72],[118,5],[30,31],[55,19],[78,65],[109,61]],[[3337,3944],[-20,98],[19,72],[-7,75],[-35,79],[-5,72],[48,75],[36,17],[-54,54],[4,30],[-48,30],[-18,85],[-55,17],[-15,94],[-39,47]],[[3261,4280],[-11,-36],[-93,-1],[5,36],[99,1]]],"transform":{"scale":[0.0001908911812595006,0.00015741860510258568],"translate":[129.97055055766225,32.09492408138141]},"objects":{"japan":{"type":"GeometryCollection","geometries":[{"arcs":[[0,1,2,3,4,5,6,7,8,9,10]],"type":"Polygon","properties":{"pref":"熊本県","city":"八代市","code5":"43202","code6":"432024"}},{"arcs":[[11,12,13,14,15]],"type":"Polygon","properties":{"pref":"熊本県","city":"人吉市","code5":"43203","code6":"432032"}},{"arcs":[[16,17,18,19,20]],"type":"Polygon","properties":{"pref":"熊本県","city":"荒尾市","code5":"43204","code6":"432041"}},{"arcs":[[21,22,23,24]],"type":"Polygon","properties":{"pref":"熊本県","city":"水俣市","code5":"43205","code6":"432059"}},{"arcs":[[25,26,27,-19,28,29,30]],"type":"Polygon","properties":{"pref":"熊本県","city":"玉名市","code5":"43206","code6":"432067"}},{"arcs":[[31,32,33,34,35]],"type":"Polygon","properties":{"pref":"熊本県","city":"山鹿市","code5":"43208","code6":"432083"}},{"arcs":[[36,-33,37,38,39,40]],"type":"Polygon","properties":{"pref":"熊本県","city":"菊池市","code5":"43210","code6":"432105"}},{"arcs":[[41,42,43]],"type":"Polygon","properties":{"pref":"熊本県","city":"宇土市","code5":"43211","code6":"432113"}},{"arcs":[[[44,45]],[[46]],[[47]],[[48]],[[49]]],"type":"MultiPolygon","properties":{"pref":"熊本県","city":"上天草市","code5":"43212","code6":"432121"}},{"arcs":[[[50,51,52,-1,53,54,-43]],[[55]]],"type":"MultiPolygon","properties":{"pref":"熊本県","city":"宇城市","code5":"43213","code6":"432130"}},{"arcs":[[-39,56,57,58,59,60,61,62]],"type":"Polygon","properties":{"pref":"熊本県","city":"阿蘇市","code5":"43214","code6":"432148"}},{"arcs":[[[63,64]],[[-45,65]],[[66]],[[67]],[[68]],[[69]],[[70]],[[71]]],"type":"MultiPolygon","properties":{"pref":"熊本県","city":"天草市","code5":"43215","code6":"432156"}},{"arcs":[[72,-41,73,74]],"type":"Polygon","properties":{"pref":"熊本県","city":"合志市","code5":"43216","code6":"432164"}},{"arcs":[[-2,-53,75,76,77]],"type":"Polygon","properties":{"pref":"熊本県","county":"下益城郡","city":"美里町","code5":"43348","code6":"433489"}},{"arcs":[[-31,78,-35,79]],"type":"Polygon","properties":{"pref":"熊本県","county":"玉名郡","city":"玉東町","code5":"43364","code6":"433641"}},{"arcs":[[80,81,-29,-18]],"type":"Polygon","properties":{"pref":"熊本県","county":"玉名郡","city":"南関町","code5":"43367","code6":"433675"}},{"arcs":[[-20,-28,82]],"type":"Polygon","properties":{"pref":"熊本県","county":"玉名郡","city":"長洲町","code5":"43368","code6":"433683"}},{"arcs":[[83,-36,-79,-30,-82,84]],"type":"Polygon","properties":{"pref":"熊本県","county":"玉名郡","city":"和水町","code5":"43369","code6":"433691"}},{"arcs":[[-40,-63,85,86,87,88,-74]],"type":"Polygon","properties":{"pref":"熊本県","county":"菊池郡","city":"大津町","code5":"43403","code6":"434035"}},{"arcs":[[89,-75,-89,90]],"type":"Polygon","properties":{"pref":"熊本県","county":"菊池郡","city":"菊陽町","code5":"43404","code6":"434043"}},{"arcs":[[-58,91,92,93,94]],"type":"Polygon","properties":{"pref":"熊本県","county":"阿蘇郡","city":"南小国町","code5":"43423","code6":"434230"}},{"arcs":[[-93,95]],"type":"Polygon","properties":{"pref":"熊本県","county":"阿蘇郡","city":"小国町","code5":"43424","code6":"434248"}},{"arcs":[[-59,-95,96]],"type":"Polygon","properties":{"pref":"熊本県","county":"阿蘇郡","city":"産山村","code5":"43425","code6":"434256"}},{"arcs":[[-61,97,98,99]],"type":"Polygon","properties":{"pref":"熊本県","county":"阿蘇郡","city":"高森町","code5":"43428","code6":"434281"}},{"arcs":[[-87,100,101,102,103]],"type":"Polygon","properties":{"pref":"熊本県","county":"阿蘇郡","city":"西原村","code5":"43432","code6":"434329"}},{"arcs":[[-62,-100,104,-101,-86]],"type":"Polygon","properties":{"pref":"熊本県","county":"阿蘇郡","city":"南阿蘇村","code5":"43433","code6":"434337"}},{"arcs":[[105,106,107,-103,108,-77,109]],"type":"Polygon","properties":{"pref":"熊本県","county":"上益城郡","city":"御船町","code5":"43441","code6":"434418"}},{"arcs":[[110,-107,111]],"type":"Polygon","properties":{"pref":"熊本県","county":"上益城郡","city":"嘉島町","code5":"43442","code6":"434426"}},{"arcs":[[112,-91,-88,-104,-108,-111]],"type":"Polygon","properties":{"pref":"熊本県","county":"上益城郡","city":"益城町","code5":"43443","code6":"434434"}},{"arcs":[[113,-110,-76,-52]],"type":"Polygon","properties":{"pref":"熊本県","county":"上益城郡","city":"甲佐町","code5":"43444","code6":"434442"}},{"arcs":[[-3,-78,-109,-102,-105,-99,114]],"type":"Polygon","properties":{"pref":"熊本県","county":"上益城郡","city":"山都町","code5":"43447","code6":"434477"}},{"arcs":[[-11,115,-54]],"type":"Polygon","properties":{"pref":"熊本県","county":"八代郡","city":"氷川町","code5":"43468","code6":"434680"}},{"arcs":[[-9,116,-23,117,118]],"type":"Polygon","properties":{"pref":"熊本県","county":"葦北郡","city":"芦北町","code5":"43482","code6":"434825"}},{"arcs":[[-22,119,-118]],"type":"Polygon","properties":{"pref":"熊本県","county":"葦北郡","city":"津奈木町","code5":"43484","code6":"434841"}},{"arcs":[[-13,120,121,122]],"type":"Polygon","properties":{"pref":"熊本県","county":"球磨郡","city":"錦町","code5":"43501","code6":"435015"}},{"arcs":[[123,124,125,126,127,128]],"type":"Polygon","properties":{"pref":"熊本県","county":"球磨郡","city":"多良木町","code5":"43505","code6":"435058"}},{"arcs":[[-125,129,130]],"type":"Polygon","properties":{"pref":"熊本県","county":"球磨郡","city":"湯前町","code5":"43506","code6":"435066"}},{"arcs":[[-5,131,-130,-124,132]],"type":"Polygon","properties":{"pref":"熊本県","county":"球磨郡","city":"水上村","code5":"43507","code6":"435074"}},{"arcs":[[-12,133,134,-128,135,-121]],"type":"Polygon","properties":{"pref":"熊本県","county":"球磨郡","city":"相良村","code5":"43510","code6":"435104"}},{"arcs":[[-6,-133,-129,-135,136]],"type":"Polygon","properties":{"pref":"熊本県","county":"球磨郡","city":"五木村","code5":"43511","code6":"435112"}},{"arcs":[[-7,-137,-134,-16,137]],"type":"Polygon","properties":{"pref":"熊本県","county":"球磨郡","city":"山江村","code5":"43512","code6":"435121"}},{"arcs":[[-8,-138,-15,138,-24,-117]],"type":"Polygon","properties":{"pref":"熊本県","county":"球磨郡","city":"球磨村","code5":"43513","code6":"435139"}},{"arcs":[[-122,-136,-127,139]],"type":"Polygon","properties":{"pref":"熊本県","county":"球磨郡","city":"あさぎり町","code5":"43514","code6":"435147"}},{"arcs":[[-64,140]],"type":"Polygon","properties":{"pref":"熊本県","county":"天草郡","city":"苓北町","code5":"43531","code6":"435317"}},{"arcs":[[[-113,-112,-106,-114,-51,-42,141,-26,-80,-34,-37,-73,-90]],[[142]]],"type":"MultiPolygon","properties":{"pref":"熊本県","city":"熊本市","code5":"43100","code6":"431001"}}]}}}