{"type":"Topology","arcs":[[[8793,4937],[-33,111],[-44,74],[-55,7],[-61,-18],[-57,-54],[-52,-1],[-73,-30],[-91,-72],[-34,26],[-56,-20],[-30,-36],[-183,-58],[-32,9],[-36,-63],[-72,-41],[-55,45],[-70,-59],[-10,-49],[-81,-118],[41,-36],[11,-38],[-29,-100],[-39,-25],[31,-62],[-68,-175],[-15,-58],[31,-57],[-73,-86],[-8,-95],[19,-65],[-121,-19],[-50,64],[-27,-10],[-43,42]],[[7328,3870],[-149,29],[-60,-43],[-67,-24],[-44,51],[-112,31],[-27,27],[-80,32],[-92,70],[-95,-3],[-52,-48],[-54,37],[-59,9],[-55,84],[-76,11],[-43,67],[-105,-10],[-24,-56],[-60,-14],[-58,-35],[-32,-40],[-58,-3],[-64,-24],[-96,-85],[47,-50],[-62,-114],[-102,-24],[-69,-37],[-80,19],[-50,34],[-25,46],[-20,111],[18,40],[-108,-8],[-28,-58],[-147,-91],[-32,19],[16,91],[-26,23]],[[5098,3934],[1,39],[83,54],[44,82],[-24,47],[33,66],[-50,39],[-12,44],[21,41],[75,39],[45,76],[79,4],[42,-42]],[[5435,4423],[19,89],[55,-16],[58,78],[103,68],[37,5],[2,57],[122,27],[35,112],[35,28],[68,96],[80,41],[57,43],[-33,51],[46,51],[-44,71],[46,112],[-12,42],[10,65],[44,3],[-18,66],[-35,16],[-68,-7],[-65,44]],[[5977,5565],[-41,59],[13,116]],[[5949,5740],[54,1],[132,-83],[103,2],[81,-24],[83,-41],[112,-33],[48,-27],[35,47],[72,30],[-13,36],[121,58],[89,23],[290,93],[21,2],[51,-161],[48,23],[-21,66],[-1,0],[0,2],[0,0],[-24,85],[77,32],[31,-102],[45,-20],[-36,135],[96,3],[115,-51],[87,-65],[-48,-66],[26,-23],[49,70],[136,-102],[1,-39],[61,-42],[83,-7],[-39,-46],[67,-24],[0,113],[100,-1],[29,-22],[0,-54],[78,33],[41,-35],[114,-27],[103,6],[15,8],[2,1],[25,8],[13,8],[17,2],[4,4],[0,0],[105,25],[7,0],[0,0],[13,-2],[82,9],[4,31],[66,2],[58,38],[34,-33],[88,-39],[-31,103],[141,69],[113,26],[48,2],[7,-64],[-91,-128],[-6,-43],[-54,-20],[-56,8],[-28,-59],[-1,-1],[-23,-18],[0,0],[-15,-46],[32,-36],[12,8],[8,-35],[-4,-16],[-2,-9],[-9,-21],[0,1],[-12,-5],[-37,-62],[0,0],[-10,-13],[-2,-3],[-22,-10],[-45,-89],[50,-17],[9,9],[6,-7],[8,-11],[-17,-25],[-4,0],[-36,-47],[-47,7],[0,0],[-1,-1],[-11,-8],[-56,-69]],[[9709,5867],[-27,-31],[0,0],[0,0],[-52,-33],[0,0],[-16,4],[-6,8],[-1,7],[-32,35],[-12,8],[13,8],[28,-1],[92,4],[0,0],[13,-9]],[[9176,5466],[-5,-37],[-13,27],[3,1],[15,9]],[[8881,4977],[0,0],[0,-1],[-1,-3],[-3,3],[4,1]],[[5977,5565],[-48,-8],[-49,42],[-51,-24],[19,-120],[2,-101],[-27,-46],[-33,42],[-98,27],[-35,-45],[-67,25],[-107,79],[-21,65],[-47,1],[-45,-33],[8,-38],[-87,-16],[-19,53],[-75,-38],[-53,-2],[-73,-27],[-58,-49],[-43,-15],[-190,66],[-23,26],[11,77],[-15,45],[47,82],[37,18],[46,76],[0,56],[-30,31],[3,82],[38,15],[97,7],[122,87],[-18,53],[39,134],[93,95],[4,58],[-55,27],[-63,-6],[-67,-63],[-115,36],[-2,27]],[[4929,6366],[-19,86],[51,102],[-13,69],[50,10],[79,-18]],[[5077,6615],[4,-39],[53,-28],[52,27],[35,-24],[63,20],[13,44],[66,-9],[139,35],[48,26],[130,-21],[85,-62]],[[5765,6584],[9,-72],[-13,-100],[71,-206],[-9,-91],[47,-272],[34,-81],[45,-22]],[[1417,8280],[99,32],[118,-32],[36,36],[64,14],[26,51],[50,3],[57,-53],[94,-64],[84,24],[39,-12],[18,-23],[85,-15],[121,21],[59,-27],[42,31],[116,-59],[96,3],[30,35],[68,-12],[112,15],[73,25],[35,-30],[75,10],[-15,64],[-53,36],[14,53],[-25,78],[86,60],[87,100],[32,146],[-38,102],[-87,72],[-25,36],[-4,106],[49,88],[-4,83],[66,126],[49,7],[117,-7],[100,-84],[-24,-38],[72,-4],[71,-32],[71,-3],[57,100],[49,-43],[29,59],[3,0],[3,0],[3,0],[19,1],[8,-97],[-24,-45],[105,-67],[45,-94],[48,-29]],[[3898,9027],[-16,-25],[-11,-131],[-28,-85],[0,-47],[-106,5],[-54,-125],[-12,-50],[34,-72],[4,-51],[114,-236],[25,-36],[-86,-126],[-28,-63],[-103,-46],[-50,15],[16,-90],[-25,-57],[36,-21],[17,-65],[-25,-53],[20,-92],[44,-63],[22,-65],[9,-170],[-107,7],[-59,-24],[-73,7],[-20,-29],[34,-39],[1,-81],[-56,-54],[-10,-58],[39,-65],[32,-18],[-35,-103],[-68,-46],[-17,-33]],[[3356,6742],[-89,-34],[-5,-46],[-57,-57],[-50,40],[-22,44],[-95,-26],[-33,91],[-60,76],[-87,-69],[-38,26],[-46,76],[-21,58],[-95,-9],[-53,-99],[-30,-1],[-83,43],[10,34],[-72,46],[-77,88],[-73,-2],[-88,-47],[-103,-2],[-67,-116],[-29,-121]],[[1993,6735],[-140,-12],[-68,8],[-66,-20],[-26,70],[-7,70],[-70,41],[-28,49],[20,60],[-26,63],[-128,62],[-88,125],[-57,16],[-100,116],[0,62],[-167,49],[-1,78],[-85,109],[-64,6],[-21,56]],[[871,7743],[25,32],[5,63],[108,197],[64,22],[54,44],[47,17],[9,43],[60,29],[23,49],[79,27],[72,14]],[[129,4059],[36,36],[79,17],[20,41],[52,47],[39,97],[7,72],[34,90],[3,53],[71,57],[-26,122],[-26,33],[37,66],[68,22],[14,104],[-108,31],[-45,48],[-51,-8],[-41,52],[-100,53],[-31,43],[-61,35],[20,66],[48,24],[130,103],[-60,32],[-169,20],[-57,27],[-9,44],[20,41],[-23,89],[33,42],[81,8],[61,-8],[30,37],[57,16],[73,-14],[36,30],[-4,40],[-59,-12],[-29,38],[-7,51],[-38,22],[43,78],[79,75],[-41,115],[13,20],[-58,140],[-13,111],[-36,78],[-48,21],[-25,-21],[-58,72],[42,23],[17,47],[69,36],[99,92],[-18,108],[24,39],[201,27],[-11,106],[26,157],[37,20],[-21,91],[26,50],[-7,104],[50,90],[-22,79],[46,32],[88,6],[44,52],[91,29]],[[1993,6735],[54,-17],[-4,-61],[-30,-55],[-12,-124],[36,-13],[49,24],[12,-59],[43,-47],[-3,-37],[-70,18],[-31,-76],[-56,-42],[12,-69],[-62,-110],[-62,-33],[-20,-68],[-3,-102],[-16,-106],[27,-37],[2,-49],[67,4],[21,31],[47,-25],[23,58],[68,-2],[33,-153],[66,-44],[98,-92],[-28,-30],[9,-172],[-29,-102],[-3,-92],[-23,-111]],[[2208,4942],[-125,28],[-61,38],[-185,-10],[-25,-60],[-66,-20],[-100,-89],[-93,-2],[-23,30],[-76,34],[-11,-67],[-34,-15],[-30,-79],[-3,-77],[-28,-51],[20,-39],[-22,-47],[25,-41],[-52,-18],[52,-79],[60,-51],[22,-108],[53,-32],[37,-64],[38,-16],[80,-152],[49,-68],[-43,-70],[-39,-12],[-32,-102],[60,-64],[-30,-49],[-14,-68],[16,-50],[-23,-48],[-60,-34],[-13,-73],[-44,-47],[-63,-47],[-118,13],[-59,-13],[-95,140],[0,69],[-19,34],[-87,60],[-84,-4],[-16,27],[-56,-30],[-45,-3],[-59,38],[-84,98],[-58,-9],[-27,92],[-53,30],[-8,81],[-30,40],[-82,47],[-83,-13],[-26,45],[-141,-13],[-16,-16],[-51,84],[1,39]],[[9107,327],[-15,9],[-89,-65],[-104,-3],[-30,-26],[-94,-18],[-4,65],[-21,57],[49,86],[-7,89],[-18,19],[-22,111],[36,64],[7,76],[44,59],[-7,23],[55,81],[-11,161],[-32,18],[-59,-56],[-62,22],[-56,-3],[-24,40],[-49,29],[-12,37],[-89,-36],[-65,-44],[-73,29],[-36,-31],[-52,62],[-5,60],[-158,34],[-127,-5],[-58,-35],[-51,12],[-48,-33],[6,-58],[-16,-78],[-30,-22],[-27,-193],[-83,-68],[-27,-58],[2,-53],[-25,-70],[-48,-20],[-91,32],[-45,-29],[-101,-19],[-26,-17],[-132,8],[-108,27],[-65,-15],[-94,15],[-38,29],[-64,-15],[-107,8],[-40,-17],[-36,30],[-56,-10],[-18,-39],[-75,-98],[-88,-71],[-31,14],[-85,-2],[-71,30],[-93,7],[-32,41],[-73,10],[-103,61],[-31,48],[-2,75],[21,90],[24,23],[34,89],[-84,52],[-49,49],[11,33],[-84,22],[-83,97],[-75,126]],[[5582,1279],[58,18],[21,39],[50,29],[35,53],[47,0],[27,27],[98,7],[71,23],[38,38],[99,52],[23,68],[68,43],[23,33],[108,61],[151,-56],[74,24],[1,116],[39,-18],[42,47],[59,37],[0,72],[46,56],[-27,118],[49,17],[60,-18],[14,-55],[51,24],[-29,94],[-56,-18],[-4,42],[101,115],[70,-17],[47,87],[-5,34],[131,90]],[[7162,2561],[60,-85],[38,-13],[91,6],[72,72],[39,-9],[66,81],[104,42],[63,11],[46,-21],[64,-4],[68,19],[38,-8],[42,29],[58,-46],[24,27],[116,64],[16,26],[56,5],[-46,119],[-22,17],[22,69],[-25,48],[59,77],[33,122],[63,44],[-22,81]],[[8285,3334],[86,2],[34,-23],[94,7],[61,-43],[108,110],[46,-15],[95,38],[96,6],[182,-11],[54,4],[84,104],[69,51],[93,2],[87,55],[80,26],[111,-63],[54,34],[62,-34],[30,-41],[42,-10],[125,71],[6,39],[68,19],[58,42]],[[10110,3704],[36,-96],[89,4],[-22,-41],[-79,-16],[-26,-14],[-55,22],[-68,-29],[-19,-50],[-47,-23],[-139,15],[-65,35],[-58,-16],[-60,40],[-51,-56],[-43,50],[-88,-86],[-10,-68],[10,-61],[-20,-72],[-54,-45],[-102,-116],[62,-102],[-23,-54],[-68,38],[-64,-50],[24,-58],[44,-1],[-9,-71],[129,-75],[52,18],[72,-33],[-24,-85],[101,-31],[9,-82],[71,15],[10,48],[114,-141],[47,25],[-14,52],[90,-36],[-15,-41],[45,-54],[40,-19],[34,37],[55,27],[5,88],[38,-5],[24,-90],[-24,-75],[82,-23],[28,-29],[59,30],[50,49],[29,-20],[70,15],[-5,131],[89,-55],[87,3],[42,-20],[104,26],[35,-40],[32,6],[26,-15],[2,-70],[20,-51],[-73,-2],[-69,56],[-40,-24],[-42,17],[-100,1],[23,-43],[-39,-62],[-46,11],[12,69],[-51,32],[-77,-16],[-21,-38],[-49,-7],[-20,-77],[-61,-23],[11,-163],[-49,39],[-44,2],[-47,53],[9,64],[-131,7],[42,-85],[11,-72],[-8,-74],[30,-16],[-20,-74],[28,-8],[74,82],[10,-33],[58,-59],[-41,-39],[0,-70],[-46,-9],[-74,-78],[-1,-50],[-29,-30],[-37,48],[-25,-39],[-5,-69],[-31,-2],[-86,-102],[-104,84],[-1,-45],[40,-56],[-8,-52],[57,-71],[-4,-50],[19,-80],[26,-7],[47,109],[101,-60],[48,66],[-36,54],[-63,49],[36,37],[54,14],[97,-83],[88,-14],[21,-22],[-22,-83],[-51,-46],[-136,-65],[-19,-40],[-64,-40],[-40,-61],[40,-31],[-3,-51],[-39,-30],[-72,26],[26,82],[-47,48],[-56,14],[-69,-41],[22,-76],[-44,-73],[-62,-57],[-62,17],[-18,55],[-31,30],[-30,-29],[0,-62],[-61,32],[-8,34],[-47,14],[-32,-86],[-68,37],[47,66],[-6,77],[-94,12],[-28,-139],[80,-116],[-49,-22],[-42,41],[-33,107],[-47,-6],[-15,-46],[27,-73],[-66,-43],[28,-57],[29,-9],[40,-65],[-51,-136],[103,-12],[-1,-23]],[[9533,3142],[73,-6],[-17,-46],[-91,-96],[19,-35],[62,4],[21,-22],[-72,-59],[-32,-8],[-53,-84],[-69,-9],[-42,28],[-12,56],[74,57],[49,53],[-11,122],[53,48],[48,-3]],[[10763,2614],[4,-42],[-68,-64],[-34,38],[1,58],[54,37],[30,68],[29,-45],[-16,-50]],[[9305,689],[60,-41],[65,-15],[1,-56],[-105,-8],[-21,120]],[[9462,130],[19,-2],[3,-101],[-32,-27],[-39,56],[49,74]],[[8793,4937],[-4,-4],[-81,-14],[-10,-38],[-44,-17],[5,-37],[-35,-34],[-66,-128],[45,-30],[-1,-75],[-46,-36],[-21,-44],[-83,-65],[4,-38],[-78,-91],[85,16],[24,-62],[67,15],[56,-13],[44,37],[51,-23],[-30,-40],[89,-43],[120,88],[17,48],[61,30],[79,-3],[-31,-72],[74,-19],[84,29],[57,46],[98,-26]],[[9323,4294],[-23,-40],[-80,-6],[-64,-59],[-96,-18],[-26,13],[-77,-47],[-34,-40],[-123,-52],[-88,11],[-110,-38],[-1,-57],[-62,-2],[-60,-48],[-41,11],[-22,-46],[-52,-53],[-87,-29],[-57,-61],[11,-85],[37,-76],[104,-34],[-30,-44],[9,-36],[-56,-55],[-10,-69]],[[7162,2561],[25,32],[-43,167],[-53,58],[-9,54],[-39,64],[-13,55],[-73,82],[-31,96],[6,63],[43,109],[79,-43],[31,33],[73,31],[19,77],[-11,56],[-50,36],[-13,53],[11,83],[31,32],[32,97],[71,28],[26,32],[54,14]],[[9323,4294],[32,-36],[-120,-54],[-29,-33],[-1,-50],[-31,-31],[-90,24],[-59,-33],[3,-64],[-69,-39],[3,-28],[0,-1],[0,0],[0,0],[1,-1],[0,0],[0,0],[0,0],[0,-1],[1,0],[0,0],[1,-1],[0,0],[1,0],[0,-1],[0,1],[0,0],[1,0],[0,0],[-1,-1],[0,-1],[1,0],[0,0],[0,-1],[0,-1],[0,0],[0,0],[0,-1],[0,0],[-1,0],[0,-1],[0,0],[0,0],[0,-1],[0,0],[0,0],[0,-1],[0,0],[0,0],[0,-1],[1,0],[0,0],[0,-1],[0,0],[0,0],[0,-1],[0,-1],[0,0],[0,-1],[0,0],[0,0],[0,-1],[0,0],[0,-1],[0,-1],[0,0],[0,0],[0,0],[0,-1],[0,0],[0,-1],[0,0],[0,0],[0,-1],[0,0],[0,0],[0,-1],[0,0],[0,0],[0,-1],[1,0],[0,-1],[1,-1],[0,-1],[-1,0],[0,0],[0,-1],[0,0],[-1,-1],[0,0],[0,0],[0,0],[0,-1],[-1,0],[0,0],[-3,-2],[0,0],[-1,0],[-2,0],[0,0],[-4,1],[-90,-12],[3,-45],[69,-15],[1,0],[2,-1],[0,0],[1,0],[2,-1],[1,-1],[2,1],[1,0],[0,0],[1,0],[0,1],[0,-4],[-6,-1],[-2,-1],[-50,-14],[8,-43],[57,-11],[56,23],[97,-58],[-40,52],[4,50],[0,1],[0,0],[3,1],[47,-2],[0,0],[2,-4],[55,-55],[48,-8],[21,-11],[43,64],[52,-48],[-11,-107],[62,34],[20,-33],[59,12],[8,65],[45,81],[-25,123],[50,-7],[-3,-122],[19,-51],[36,-29],[4,-49],[32,-25],[53,-1],[12,59],[105,-6],[-14,-64],[22,-30],[53,1],[122,60],[0,57],[-35,59],[36,59],[-1,65],[85,-5],[-23,-56],[1,-73],[38,-29],[16,-60]],[[10182,4137],[49,-49],[-43,-57],[-45,24],[-21,41],[60,41]],[[10021,4760],[-34,-52],[-46,34],[80,18]],[[9113,3855],[-2,0],[1,1],[1,0],[0,-1]],[[3682,2023],[-7,166],[-41,72],[-19,92],[57,64],[-36,16],[-10,55],[39,38],[-47,40],[9,27],[74,1],[42,63],[20,80],[-56,34],[-81,21],[-9,64],[13,70],[-62,53],[-44,85],[-59,34],[-42,56],[17,68],[-38,65],[-13,96],[-31,124],[6,25],[-59,46],[-114,138],[18,24],[-47,44]],[[3162,3784],[46,61],[13,44],[43,29],[149,-22],[29,-20],[94,31],[42,70],[44,101],[59,56],[-3,112],[32,13]],[[3710,4259],[121,20],[81,-73],[96,26],[164,-160],[184,39],[42,-43],[45,21],[86,-7],[48,54],[-54,56],[62,24],[95,58],[40,81],[17,74],[36,46],[61,17],[25,66],[82,-6],[54,18],[146,3],[43,-40],[55,-4],[50,22],[59,-13],[49,-43],[38,-72]],[[5098,3934],[-52,-39],[-9,-32],[-52,-32],[-6,-40],[-47,-64],[43,-70],[-73,-51],[29,-37],[63,3],[-36,-63],[33,-22],[-60,-43],[-17,-52],[-49,-22],[-11,-67],[-98,-20],[-3,-33],[35,-107],[68,9],[38,-27],[10,-44],[94,-19],[48,-45],[47,-12],[25,-148],[-34,-39],[43,-65],[-18,-75],[29,-35],[-26,-69],[-29,-12],[-50,-75],[-17,-51],[-8,-135],[-82,-68],[22,-72],[-33,-115],[-36,-24],[54,-107],[11,-178],[-58,-77],[-43,-34],[-8,-36],[77,-60],[-83,-118],[-3,-30],[-213,-136],[-108,-20],[-22,-43]],[[4483,1183],[-58,57],[-93,-5],[-55,80],[-5,36],[-106,91],[-134,43],[-129,135],[-52,11],[-16,62],[16,49],[-82,-23],[-56,83],[-36,111],[5,110]],[[6178,10033],[42,-106],[-3,-50],[25,-127],[42,-53],[-19,-29],[26,-56],[-12,-104],[107,-88],[62,-14],[21,-35],[-53,-103],[14,-104],[34,-29],[17,-81],[78,7],[63,-69],[-39,-169],[-24,-27]],[[6559,8796],[-22,9],[-81,-33],[-57,-69],[-49,-21],[-48,-76],[-41,-37],[-1,-40],[-64,-139],[-81,-149],[-47,-37],[-10,-49],[24,-60],[19,-148],[-63,5],[-45,-24],[-70,49],[-76,8],[1,32],[-137,96],[-57,4],[-85,115],[-73,13],[-65,33],[-62,107],[-15,85]],[[5354,8470],[-56,53],[-52,80],[-20,-28],[-74,8],[-14,58],[21,33],[-116,73],[25,43],[7,61],[107,42]],[[5182,8893],[52,25],[-87,128],[-4,97],[329,284],[57,-52],[42,68],[11,102],[79,67],[-35,24],[49,51],[8,44],[66,-49],[28,20],[-22,94],[84,20],[-70,76],[26,78],[49,0],[17,36],[65,-57],[126,50],[-25,77],[75,-48],[14,31],[62,-26]],[[6559,8796],[2,-63],[-33,-91],[1,-94],[27,-45],[14,-94],[69,-93],[-13,-53],[43,-32],[17,-138],[26,-68],[-24,-33],[41,-114],[81,1],[2,-41],[88,-9],[25,-87],[36,-19],[141,1],[61,-17],[-57,-78],[-20,-92],[108,-38],[111,36],[62,1],[14,53],[87,78],[107,14],[99,-38]],[[7674,7643],[-46,-62],[-31,-69],[-34,-115],[-18,-156],[-21,-36],[-127,2],[-46,34],[-83,34],[1,48],[-96,56],[-60,-29],[-108,15],[-45,22],[-8,-79],[-65,-50],[89,-48],[6,-79],[73,-68],[-3,-100],[-20,-77],[-63,5],[-22,-24],[-96,12],[-50,-27]],[[6801,6852],[-17,52],[3,93],[-39,45],[-60,-13],[-60,47],[-78,26],[-63,-62],[-84,-10],[-24,92],[-60,-9],[-26,25],[24,85],[-33,50],[43,33],[-67,126],[-83,-16],[-9,-77],[-51,-41],[-42,-11],[-12,-41],[-75,-57],[23,-78],[-107,-1],[-20,-58],[-90,2],[-44,-25],[-37,15],[-52,-14],[-25,-50],[-37,29],[-38,-12],[-122,60],[-46,10],[2,-68],[-33,-79],[28,-49],[-153,-179],[-17,6]],[[5220,6698],[-18,79],[-48,82],[-151,33],[-13,56],[46,97],[18,79],[54,33],[-21,120],[63,30],[-2,44],[42,47],[-12,71],[44,40],[-12,96],[-40,39],[16,41],[-44,115],[13,61],[-38,65],[-57,18],[-20,55],[-44,30],[42,125],[52,19],[38,61],[36,-1],[104,-43],[3,96],[-43,9],[-6,47],[-40,35],[59,41],[77,20],[36,32]],[[4929,6366],[-96,3],[-50,14],[-63,-16],[3,-43],[-60,-52],[-78,-10],[-32,-53],[-41,32],[-122,26],[-30,17]],[[4360,6284],[-49,31],[-123,24],[-38,49],[-1,45],[-43,55],[-39,-18],[-75,9],[-94,-16],[-61,65],[-34,92],[-59,30],[-15,38],[-57,16],[-34,31],[-59,15],[-10,-53],[-96,-2],[-29,48],[-88,-1]],[[3898,9027],[103,-18],[38,22],[70,-4],[64,14],[55,-13],[28,22],[122,-22],[3,-49],[35,-30],[85,-4],[77,45],[306,-9],[101,-43],[62,14],[63,-4],[9,-43],[63,-12]],[[5220,6698],[-119,-55],[-24,-28]],[[5582,1279],[-102,-63],[-77,-22],[-92,10],[-56,-14],[-49,-107],[-49,-21],[-37,-47],[-45,14],[-89,-11],[-47,14],[-46,-25],[-53,7],[-41,-29],[-48,5],[-123,-64],[-65,18],[-66,58],[17,65],[-8,78],[-23,38]],[[3710,4259],[20,139],[83,69],[50,57],[113,84],[106,41],[43,-20],[82,56],[19,46],[57,53],[-48,44],[-84,-62],[-110,80],[55,20],[39,-26],[19,91],[-165,123],[-67,165],[-69,84],[-36,83],[89,50],[45,50],[18,45],[68,48]],[[4037,5579],[7,105],[30,53],[103,81],[152,180],[29,50],[-137,115],[72,21],[7,35],[42,21],[18,44]],[[6178,10033],[30,13],[63,74],[54,8],[40,-122],[79,3],[-18,57],[1,65],[71,55],[40,2],[64,-55],[67,-14],[50,14],[-3,-87],[92,-19],[57,-25],[49,-1],[2,53],[45,30],[62,-99],[45,-16],[-10,-87],[40,-24],[22,60],[56,36],[56,-64],[-7,-36],[41,-27],[24,-81],[86,-106],[46,20],[32,-16],[36,-118],[32,-154],[45,-85],[70,-13],[94,-164],[39,-12],[31,-70],[-8,-64],[30,-81],[36,-52],[4,-162],[31,-34],[-15,-62],[-30,-24],[-59,-190],[-28,-164],[13,-99],[72,26],[-2,-302],[-99,12],[-38,-100],[-4,-59],[-30,-30]],[[7268,10673],[101,-20],[61,-47],[-46,-43],[-76,-29],[-46,-76],[-43,-14],[-66,47],[-103,4],[-111,-51],[-17,41],[59,29],[61,72],[84,-3],[56,68],[52,37],[34,-15]],[[6801,6852],[-23,-10],[-104,2],[-36,-12],[-19,-73],[26,-37],[-18,-102],[-102,-32],[-86,17],[-111,39],[-80,-24],[-80,53],[-38,110],[-138,21],[-145,-61],[-60,-13],[-4,-107],[-18,-39]],[[3162,3784],[-61,-40],[-99,97],[-20,69],[22,74],[-14,81],[-59,67],[-23,57],[20,33],[9,95],[-49,125],[-31,10],[-83,84],[-1,55],[-86,46],[-34,6],[-9,46],[-34,26],[-66,8],[-24,27],[-25,104],[-37,31]],[[2458,4885],[46,163],[51,87],[16,91],[56,94],[3,29],[108,93],[13,115],[55,54],[95,25],[42,-3],[41,138],[114,68],[13,55],[150,50],[7,72],[78,61],[55,14],[96,-12],[42,37],[91,28],[1,-51],[49,-55],[56,-139],[-26,-61],[56,-33],[57,33],[24,-21],[9,-62],[-24,-38],[134,-7],[71,-131]],[[2458,4885],[-100,48],[-35,-28],[-115,37]]],"transform":{"scale":[0.00011648788607360916,0.00009597118263473044],"translate":[130.82485,32.71447]},"objects":{"japan":{"type":"GeometryCollection","geometries":[{"arcs":[[[0,1,2,3,4,5]],[[6]],[[7]],[[8]]],"type":"MultiPolygon","properties":{"pref":"大分県","city":"大分市","code5":"44201","code6":"442011"}},{"arcs":[[-5,9,10,11,12]],"type":"Polygon","properties":{"pref":"大分県","city":"別府市","code5":"44202","code6":"442020"}},{"arcs":[[13,14,15,16,17]],"type":"Polygon","properties":{"pref":"大分県","city":"中津市","code5":"44203","code6":"442038"}},{"arcs":[[18,-17,19,20]],"type":"Polygon","properties":{"pref":"大分県","city":"日田市","code5":"44204","code6":"442046"}},{"arcs":[[[21,22,23,24,25]],[[26]],[[27]],[[28]],[[29]]],"type":"MultiPolygon","properties":{"pref":"大分県","city":"佐伯市","code5":"44205","code6":"442054"}},{"arcs":[[-1,30,31,-24,32]],"type":"Polygon","properties":{"pref":"大分県","city":"臼杵市","code5":"44206","code6":"442062"}},{"arcs":[[[-25,-32,33]],[[34]],[[35]],[[36]]],"type":"MultiPolygon","properties":{"pref":"大分県","city":"津久見市","code5":"44207","code6":"442071"}},{"arcs":[[37,38,39,-3,40,41]],"type":"Polygon","properties":{"pref":"大分県","city":"竹田市","code5":"44208","code6":"442089"}},{"arcs":[[42,43,44,45]],"type":"Polygon","properties":{"pref":"大分県","city":"豊後高田市","code5":"44209","code6":"442097"}},{"arcs":[[-44,46,47,48,49]],"type":"Polygon","properties":{"pref":"大分県","city":"杵築市","code5":"44210","code6":"442101"}},{"arcs":[[-11,50,51,-15,52,-45,-50,53]],"type":"Polygon","properties":{"pref":"大分県","city":"宇佐市","code5":"44211","code6":"442119"}},{"arcs":[[-2,-33,-23,54,-41]],"type":"Polygon","properties":{"pref":"大分県","city":"豊後大野市","code5":"44212","code6":"442127"}},{"arcs":[[-4,-40,55,56,-51,-10]],"type":"Polygon","properties":{"pref":"大分県","city":"由布市","code5":"44213","code6":"442135"}},{"arcs":[[-43,57,-47]],"type":"Polygon","properties":{"pref":"大分県","city":"国東市","code5":"44214","code6":"442143"}},{"arcs":[[58]],"type":"Polygon","properties":{"pref":"大分県","county":"東国東郡","city":"姫島村","code5":"44322","code6":"443221"}},{"arcs":[[-12,-54,-49,59]],"type":"Polygon","properties":{"pref":"大分県","county":"速見郡","city":"日出町","code5":"44341","code6":"443417"}},{"arcs":[[60,61,-56,-39]],"type":"Polygon","properties":{"pref":"大分県","county":"玖珠郡","city":"九重町","code5":"44461","code6":"444618"}},{"arcs":[[62,-20,-16,-52,-57,-62]],"type":"Polygon","properties":{"pref":"大分県","county":"玖珠郡","city":"玖珠町","code5":"44462","code6":"444626"}}]}}}