{"type":"Topology","arcs":[[[3823,4414],[42,9],[62,-32],[76,-11],[101,-57],[103,32]],[[4207,4355],[-51,-162],[-76,-276],[-51,-198],[-28,-154],[-38,-39],[48,-21],[-23,-105],[-35,-38],[-4,-101],[-22,-81],[-6,-171],[17,-113],[78,-120],[69,-77],[29,-2],[-63,-143],[-28,-28],[-18,-62],[18,-32],[-42,-62],[24,-82]],[[4005,2288],[-22,34],[-149,28],[-19,-5],[-82,53],[-30,70],[-70,11],[9,71],[-13,35],[-66,25],[-186,12],[-58,53],[-147,-7],[7,-62],[-118,-47],[-95,31]],[[2966,2590],[-31,77],[-117,-17],[-18,29],[11,96]],[[2811,2775],[-9,68],[-41,50],[-42,81],[31,42],[69,37],[5,61],[62,62],[-23,31],[-16,86],[-40,-16],[-53,21],[-63,3],[-54,-109],[-58,41],[-29,71],[8,102],[-4,81],[47,54],[48,-36],[60,43],[-32,74],[-81,55]],[[2596,3677],[-31,75],[38,78],[25,1],[20,92],[-42,17],[-18,47]],[[2588,3987],[86,47],[53,-114],[5,-34],[64,7],[85,46],[19,-16],[66,19]],[[2966,3942],[37,12],[93,-26],[93,-82],[76,-5],[28,82],[85,19],[63,-29],[59,-56],[16,97],[28,56],[-18,31],[49,71],[5,65]],[[3580,4177],[-4,95],[86,177],[26,29],[72,-46],[22,-39],[41,21]],[[2811,2775],[-31,-2],[-40,-95],[-33,7],[-66,-83],[-12,-62],[-76,-8],[-37,-29],[-66,-120],[-115,28],[-11,65],[-53,37],[-2,32],[-51,53],[-80,13],[-44,-67],[28,-63],[-29,-35],[-13,-118],[-25,-107],[104,-74],[49,-83],[9,-54],[41,-4],[57,-54],[79,16]],[[2394,1968],[39,-12],[64,-79],[4,-35],[54,-38],[34,-2],[26,-48]],[[2615,1754],[-69,-94]],[[2546,1660],[-102,72],[-58,23],[-56,-41],[-106,-27],[-68,27],[-73,89],[-114,99],[-35,-14],[-96,-156],[-35,54],[-8,66],[-48,60],[-31,7],[-35,71],[12,53],[-15,59],[26,36],[-53,49],[-29,51],[24,71],[-12,155],[-91,-18],[-38,33],[-64,3],[-2,46],[54,42],[17,36],[-24,57],[-36,-10],[-46,39],[-25,-20],[-194,31],[-61,109],[-89,-16],[-55,35],[-31,-7],[-40,65],[7,84],[18,29],[-29,68],[43,9],[26,39],[-8,58],[36,109],[41,41],[60,8]],[[1103,3334],[121,2],[63,29],[43,-21],[142,-40],[81,21],[10,54],[150,230],[53,6],[32,-50],[53,-36],[49,2],[90,-47],[68,6],[39,66],[-85,64],[7,47]],[[2019,3667],[51,-4],[14,-42],[42,11],[35,37],[87,40],[50,-16],[40,11],[36,-28],[71,-4],[20,35],[131,-30]],[[4218,8979],[19,-29],[127,-69],[170,-30],[54,44],[57,83],[35,7],[111,-13],[39,9],[80,-27],[40,9],[147,-21],[105,39],[55,-19],[29,12],[31,110],[51,42],[16,118],[19,13],[5,83],[96,34],[78,3],[96,-21],[3,-36],[99,-37],[93,49],[53,-64],[71,-12],[56,23],[7,-98],[-57,-99],[-26,-86],[29,-133],[-30,-53],[15,-75],[76,28],[63,1],[64,35],[-44,-42],[-7,-37],[-75,7],[-21,-33],[35,-69],[-75,21],[-22,-86],[41,-36],[-56,-77],[-27,45],[-58,57],[-52,-24],[-7,-101],[-72,-20],[-56,-72],[-32,13],[-68,-52],[-2,-42],[-46,-6],[23,-75],[33,-40],[-2,-41],[-44,-37],[-19,-51],[18,-25],[-45,-79],[-44,-16],[-27,-60],[-115,-16],[-38,6],[-32,-32],[-93,-161],[-36,-125],[-1,-44],[30,-63],[-26,-66],[8,-25],[84,-9],[-14,45],[30,24],[41,-13],[-7,-89],[79,-14],[15,-23]],[[5368,7216],[-64,-9],[-43,18],[-58,-13],[-66,-40],[-30,43],[-50,15],[-24,55],[-113,74],[-79,2],[-65,-17],[-9,62],[-50,33],[-62,-39],[-55,88],[3,43],[-84,-6],[-17,-40],[-75,-21],[-114,30]],[[4313,7494],[-59,37],[-55,69],[-47,10],[-54,39],[-67,12],[-46,-47],[-39,-13],[-146,16]],[[3800,7617],[60,58],[42,117],[6,148],[15,18],[-19,83],[-71,45],[10,90],[18,45],[-32,44],[72,64],[-6,38],[35,90],[66,62],[50,18],[39,83],[7,79],[-16,49],[45,64],[-8,55],[-34,22],[51,88],[88,2]],[[5841,8344],[57,-78],[-13,-41],[-78,18],[3,72],[31,29]],[[4005,2288],[-50,-72],[-14,-82],[66,-66],[-90,-32],[5,-75],[47,-3],[10,-103],[-53,-94],[48,-30],[-84,-101],[-119,-50],[-36,-51],[-50,-125],[-38,-21],[2,-46],[-22,-89],[-34,19],[-44,-44],[24,-79],[-3,-54],[-35,-81],[-23,-89],[59,-19],[-10,-55]],[[3561,846],[-64,-21],[-38,19],[-75,-25],[-49,26],[-51,5],[-17,47],[-53,-52],[-82,-1],[-30,50],[7,29],[-47,32],[-1,73],[15,33],[-66,64],[19,21],[-15,59],[-67,51],[45,60],[-21,49],[-47,10],[-34,58],[-5,55],[20,36],[-1,75],[-57,65],[-70,25],[-47,-32],[-44,27],[-12,48],[-59,22]],[[2394,1968],[46,96],[84,86],[95,31],[77,59],[74,17],[39,109],[108,19],[17,84],[29,37],[3,84]],[[3705,1152],[31,-67],[-32,-79],[-36,72],[37,74]],[[1514,5063],[60,74],[49,31],[29,-29],[101,0],[38,-54],[75,-34],[56,24],[69,-32],[67,-15],[67,50]],[[2125,5078],[65,-99],[44,14],[24,-64],[82,-3],[51,14],[44,-19],[12,-39]],[[2447,4882],[32,-119],[17,-10],[-13,-78],[36,-75],[-126,-72],[33,-56],[1,-85],[-51,-53],[3,-99],[-34,-13],[11,-50],[59,-60],[13,-76],[40,-39],[55,18],[65,-28]],[[2019,3667],[-96,87],[-44,11],[-26,33],[-62,-26],[-71,6],[-30,-24],[-86,-30],[-60,45],[-5,52],[-45,24],[-39,60],[-78,-130],[24,-117],[-43,-35],[-71,23],[-54,-64],[-86,-22],[-50,-79],[6,-145]],[[1103,3336],[-69,-2],[-53,114],[-65,118],[-66,75],[-22,-1]],[[828,3640],[48,84],[25,106],[80,49],[11,60],[-20,61],[-56,9],[29,159],[-30,51],[56,69],[61,14],[74,-2],[31,-23],[68,73],[62,31],[8,73],[39,61],[64,61],[-54,157],[-14,60]],[[1310,4793],[42,30],[68,5],[-10,46],[11,55],[94,72],[-1,62]],[[4962,6967],[32,-65],[52,-27],[49,0],[31,-59],[11,-97],[-67,-17],[-50,-32],[-44,15],[-45,-32],[-65,-186],[20,-50],[-53,-38],[-18,-52],[31,-48],[-30,-50],[-96,-98],[-65,-127]],[[4655,6004],[-63,19],[-42,-81],[-56,56],[-30,112],[-34,4],[-59,-26],[-45,1],[-12,-33],[-144,-118],[-31,26],[-38,-8],[-9,65],[-68,65],[-64,-60],[-68,26],[-110,-47]],[[3782,6005],[-81,17],[-23,23],[-65,1],[-62,22],[-63,-2],[3,39],[-108,66],[-40,-18]],[[3343,6153],[-9,52],[23,134],[34,50],[39,-5],[105,-70],[54,56],[44,10],[2,37],[46,119],[113,-3],[42,23],[58,0],[29,41],[102,16],[33,68],[29,24],[-2,77],[-40,95],[22,58],[139,24]],[[4206,6959],[34,-50],[40,2],[24,-31],[96,-11],[78,26],[38,-13],[104,146],[22,55],[71,-29],[34,-62],[60,21],[41,-32],[73,-18],[41,4]],[[3561,846],[30,-57],[-27,-34],[-43,-8],[-66,-42],[-1,-88],[44,-57],[8,-80],[-9,-53],[-29,-47],[-62,-22],[-55,-35],[7,-79],[-56,-5],[-7,-58],[17,-58],[77,-53],[-20,-54],[-52,-16],[-70,29],[-36,47],[-9,83],[-22,28],[-73,-30],[-176,-40],[-46,10],[-43,34],[-28,55],[-20,125],[34,25],[-3,54],[-86,31],[-35,51],[-75,51],[7,31],[-132,24],[-23,-43],[-87,77],[21,74],[-6,67],[41,63],[5,51],[37,26],[93,34],[21,39],[4,85],[-22,50],[-10,85],[-32,31],[65,64],[19,81],[-42,97],[-53,53],[-11,41],[22,77]],[[3580,4177],[-68,6],[-76,53],[-51,-2],[-85,66],[-17,50],[-43,45],[-13,55],[-36,-4],[-146,87],[-47,51],[-47,103],[-109,-3],[-60,31],[-43,83],[-44,51],[-69,-16],[-59,66]],[[2567,4899],[-22,53],[43,68],[71,-7],[26,110],[51,26],[69,-33],[36,19],[52,-21],[57,48],[10,39],[72,16],[-20,47],[-55,72],[49,20],[-2,58],[-52,-14],[-72,15],[-68,104],[-15,67],[-84,123],[20,92],[-120,126],[6,23],[-64,70],[-84,9]],[[2471,6029],[7,94],[36,28],[36,74],[45,-6]],[[2595,6219],[66,-63],[65,-38],[59,29],[75,3],[72,-82],[54,-28],[74,-17]],[[3060,6023],[115,-103],[11,-42],[36,-12],[49,-55],[47,26],[56,-19],[44,-38],[-30,-49],[39,-126],[75,-71],[122,-162],[20,-104],[75,-81],[7,-88],[33,-18],[26,-57],[39,-38],[88,-30],[-29,-39]],[[3883,4917],[-8,-44]],[[3875,4873],[-4,-36],[-63,-81],[-55,-48],[-15,-82],[27,-39],[-45,-75],[37,-15],[6,-44],[60,-39]],[[90,4701],[37,6],[31,42],[28,-45],[77,13],[31,-42],[39,30],[65,-13],[150,-1],[67,-28],[11,31],[85,47],[94,-47],[28,13],[37,84],[47,40],[99,29],[18,41],[66,-12],[16,-33],[58,-18],[27,-39],[60,21],[49,-27]],[[828,3640],[-21,27],[-89,29],[-126,-9],[-58,54],[-30,3],[8,67],[-35,80],[-54,36],[-28,120],[-10,118],[-81,55],[-15,52],[-58,19],[-62,75],[-169,66],[1,118],[65,55],[24,96]],[[1103,3334],[0,2]],[[2966,3942],[35,52],[5,133],[-86,127],[-33,25],[-53,-1],[-32,50],[-102,87],[-13,68],[-53,85],[-5,64],[-25,9],[-48,82],[-9,88],[13,58],[-17,26]],[[2543,4895],[24,4]],[[2447,4882],[43,-9],[53,22]],[[3883,4917],[68,-16],[92,97],[15,50],[37,2],[40,41]],[[4135,5091],[106,-43],[31,103],[36,-21],[61,-76],[32,6]],[[4401,5060],[-22,-131],[5,-30],[-28,-90],[-47,-103],[-31,-91]],[[4278,4615],[-76,61],[-7,57],[-79,27],[-41,-31],[-46,17],[-67,100],[-87,27]],[[4278,4615],[-33,-116],[-23,-118],[-15,-26]],[[2125,5078],[-40,82],[15,120],[-19,61],[-86,29],[-55,114],[-15,68],[-72,71],[-52,-11],[-23,25],[-6,62],[15,32],[51,25],[-23,104],[7,19],[40,4],[61,-41],[105,86],[56,113]],[[2084,6041],[90,33],[53,-63],[24,19],[72,14],[65,-5],[39,-60],[44,50]],[[3782,6005],[-8,-58],[25,-126],[23,-44],[10,-92],[-25,-41],[43,-43]],[[3850,5601],[32,-75],[-13,-67],[18,-30],[-9,-55],[27,-46],[78,-41],[89,-164],[63,-32]],[[3060,6023],[77,39],[40,42],[68,2],[98,47]],[[3850,5601],[148,49],[-33,76],[40,11],[61,-52],[15,-33],[106,-23],[180,-19],[27,-19],[-47,-53],[32,-25],[56,48],[121,11]],[[4556,5572],[-53,-131],[-52,-182],[-2,-61],[-48,-138]],[[4655,6004],[-77,-223],[-2,-65],[-27,-48],[20,-28],[-13,-68]],[[5368,7216],[1,-22],[-65,-74],[-28,2],[-75,-79],[-44,-4],[-55,40],[16,26],[-107,27],[-16,-21],[5,-69],[-30,-16],[-8,-59]],[[4206,6959],[30,20],[-15,52],[19,25],[-17,49],[14,48],[72,26],[-13,93],[42,59],[6,35],[-25,67],[-6,61]],[[2955,8129],[57,-12],[166,-58]],[[3178,8059],[32,-5],[27,-60],[41,-48],[95,5],[52,-25],[-5,-85],[42,-70],[51,-127]],[[3513,7644],[-27,-20],[0,-126],[45,-1],[83,-62],[21,-36],[15,-121],[67,-65],[1,-54],[-39,-57],[-151,-70],[-9,54],[48,70],[-144,107],[-70,-13],[-81,55],[-38,-59],[-75,-21],[-42,61],[-27,-25],[-71,18]],[[3019,7279],[1,62],[-32,50],[-63,8],[-28,-30],[-63,3],[-72,42],[-59,-8],[-24,67],[-6,69],[29,89],[-42,95],[-15,73]],[[2645,7799],[85,38],[31,-21],[69,47],[52,77],[23,128],[-10,71],[60,-10]],[[1629,7000],[11,67],[-50,106],[13,161],[80,31],[1,72],[-30,64],[2,48],[23,26],[79,7],[-6,66],[29,112],[46,34],[85,-24],[32,5],[70,-35],[90,2]],[[2104,7742],[33,-109],[47,-26],[56,-2],[23,33],[127,3],[56,47],[30,85],[-16,34],[20,61],[106,9],[59,-78]],[[3019,7279],[-14,-43],[101,-164],[11,-92],[-181,-60],[-17,-28],[-50,-4],[-14,-86],[26,-96],[29,-56],[-5,-55],[-45,-62],[-58,-42],[-83,-16],[-32,-59],[-107,19],[-10,-81],[16,-52],[36,-30],[-27,-53]],[[2084,6041],[32,137],[-62,111],[-24,-8],[-67,35],[-21,69],[30,53],[-30,55],[-32,157],[-127,3],[-16,42],[-41,38],[-85,171],[-12,96]],[[3513,7644],[35,-11],[81,41],[67,-50],[65,18],[39,-25]],[[2781,8847],[39,41],[25,60],[-48,49],[0,47],[42,13],[7,79],[45,36],[14,86],[39,53],[109,31],[28,-23],[53,11],[112,-5],[34,27],[57,3],[35,-35],[19,-70],[-11,-40],[80,-46],[76,39],[115,25],[110,-10]],[[3761,9218],[-7,-89],[-72,-165],[-27,-118],[-3,-91],[-62,-64],[-45,-83],[-50,-3],[-67,-111],[-37,13],[-84,-14],[-61,55],[-27,-76],[54,-86],[-10,-57],[-42,-71],[-16,-105],[-27,-94]],[[2955,8129],[9,66],[-23,125],[-38,1],[-29,38],[-66,-26],[-19,48],[-37,29],[68,58],[1,32],[-44,51],[108,95],[7,82],[-43,56],[-64,5]],[[2785,8789],[-4,58]],[[4043,9379],[45,-77],[51,-59],[126,-95],[-35,-68],[-12,-101]],[[3761,9218],[52,41],[30,65],[91,3],[109,52]],[[2104,7742],[6,61],[38,14],[32,48],[-17,67],[-2,73],[21,52],[-23,40],[4,46],[39,12],[18,61],[68,67],[16,71],[43,27],[62,-54],[61,1],[1,137],[28,43],[-5,61],[55,78],[85,52],[30,-10],[103,98],[18,2]]],"transform":{"scale":[0.00019088315875272498,0.00015740762624474986],"translate":[130.703376938695,31.36090186462951]},"objects":{"japan":{"type":"GeometryCollection","geometries":[{"arcs":[[0,1,2,3,4,5,6,7,8]],"type":"Polygon","properties":{"pref":"宮崎県","city":"宮崎市","code5":"45201","code6":"452017"}},{"arcs":[[-5,9,10,11,12,13,14]],"type":"Polygon","properties":{"pref":"宮崎県","city":"都城市","code5":"45202","code6":"452025"}},{"arcs":[[[15,16,17,18]],[[19]]],"type":"MultiPolygon","properties":{"pref":"宮崎県","city":"延岡市","code5":"45203","code6":"452033"}},{"arcs":[[[-3,20,21,-11,22]],[[23]]],"type":"MultiPolygon","properties":{"pref":"宮崎県","city":"日南市","code5":"45204","code6":"452041"}},{"arcs":[[24,25,26,-6,-15,27,28,29,30]],"type":"Polygon","properties":{"pref":"宮崎県","city":"小林市","code5":"45205","code6":"452050"}},{"arcs":[[31,32,33,34,35]],"type":"Polygon","properties":{"pref":"宮崎県","city":"日向市","code5":"45206","code6":"452068"}},{"arcs":[[-12,-22,36]],"type":"Polygon","properties":{"pref":"宮崎県","city":"串間市","code5":"45207","code6":"452076"}},{"arcs":[[-9,37,38,39,40,41,42,43]],"type":"Polygon","properties":{"pref":"宮崎県","city":"西都市","code5":"45208","code6":"452084"}},{"arcs":[[44,-30,45]],"type":"Polygon","properties":{"pref":"宮崎県","city":"えびの市","code5":"45209","code6":"452092"}},{"arcs":[[-4,-23,-10]],"type":"Polygon","properties":{"pref":"宮崎県","county":"北諸県郡","city":"三股町","code5":"45341","code6":"453412"}},{"arcs":[[-14,46,-28]],"type":"Polygon","properties":{"pref":"宮崎県","county":"西諸県郡","city":"高原町","code5":"45361","code6":"453617"}},{"arcs":[[-8,47,48,-38]],"type":"Polygon","properties":{"pref":"宮崎県","county":"東諸県郡","city":"国富町","code5":"45382","code6":"453820"}},{"arcs":[[-7,-27,49,-48]],"type":"Polygon","properties":{"pref":"宮崎県","county":"東諸県郡","city":"綾町","code5":"45383","code6":"453838"}},{"arcs":[[-43,50,51,52,53]],"type":"Polygon","properties":{"pref":"宮崎県","county":"児湯郡","city":"高鍋町","code5":"45401","code6":"454010"}},{"arcs":[[-1,-44,-54,54]],"type":"Polygon","properties":{"pref":"宮崎県","county":"児湯郡","city":"新富町","code5":"45402","code6":"454028"}},{"arcs":[[55,56,-39,-49,-50,-26]],"type":"Polygon","properties":{"pref":"宮崎県","county":"児湯郡","city":"西米良村","code5":"45403","code6":"454036"}},{"arcs":[[-34,57,58,-51,-42,59]],"type":"Polygon","properties":{"pref":"宮崎県","county":"児湯郡","city":"木城町","code5":"45404","code6":"454044"}},{"arcs":[[-52,-59,60,61]],"type":"Polygon","properties":{"pref":"宮崎県","county":"児湯郡","city":"川南町","code5":"45405","code6":"454052"}},{"arcs":[[-33,62,-61,-58]],"type":"Polygon","properties":{"pref":"宮崎県","county":"児湯郡","city":"都農町","code5":"45406","code6":"454061"}},{"arcs":[[-17,63,-36,64]],"type":"Polygon","properties":{"pref":"宮崎県","county":"東臼杵郡","city":"門川町","code5":"45421","code6":"454214"}},{"arcs":[[65,66,67,68,69]],"type":"Polygon","properties":{"pref":"宮崎県","county":"東臼杵郡","city":"諸塚村","code5":"45429","code6":"454290"}},{"arcs":[[70,71,-69,72,-40,-57,73]],"type":"Polygon","properties":{"pref":"宮崎県","county":"東臼杵郡","city":"椎葉村","code5":"45430","code6":"454303"}},{"arcs":[[-18,-65,-35,-60,-41,-73,-68,74]],"type":"Polygon","properties":{"pref":"宮崎県","county":"東臼杵郡","city":"美郷町","code5":"45431","code6":"454311"}},{"arcs":[[75,76,-66,77,78]],"type":"Polygon","properties":{"pref":"宮崎県","county":"西臼杵郡","city":"高千穂町","code5":"45441","code6":"454419"}},{"arcs":[[79,-19,-75,-67,-77,80]],"type":"Polygon","properties":{"pref":"宮崎県","county":"西臼杵郡","city":"日之影町","code5":"45442","code6":"454427"}},{"arcs":[[81,-78,-70,-72]],"type":"Polygon","properties":{"pref":"宮崎県","county":"西臼杵郡","city":"五ヶ瀬町","code5":"45443","code6":"454435"}}]}}}