{"type":"Topology","arcs":[[[19022,48492],[16,-77],[42,-98],[-58,-8],[-69,-106],[-9,-137],[-76,-70],[-62,-33],[-88,-70],[-29,-126],[-84,-64],[7,-64],[51,-123],[-6,-94],[-58,-142],[-28,-105],[-44,-1],[-53,31],[-24,-46],[29,-44],[-48,-13],[-57,-107],[27,-11],[-4,-62],[-47,-157],[-100,22],[-11,-51],[119,-33],[-22,-176],[-49,6],[-13,59],[-30,19],[-61,-17],[10,-85],[38,-115],[117,-16],[-6,-80],[-143,19],[-16,-58],[43,-101],[-1,-93],[0,0],[-1,0],[0,-1],[0,0],[0,0],[1,0],[34,-128],[20,-29],[-8,-66],[32,-116],[25,-16],[22,-81],[33,-11],[18,-64],[95,59],[70,-108],[-87,-67],[-17,-54],[10,-50],[61,-189],[24,-46],[15,-81],[49,-176],[92,-134],[76,-55]],[[18789,44652],[-96,-54],[-14,-23],[-73,5],[-149,-43],[-56,15]],[[18401,44552],[6,32],[-65,104],[-35,34],[-1,118],[-47,14],[-8,42],[-46,40],[-67,-17],[-63,39],[-7,51],[-50,6],[-39,85],[4,32],[54,106],[75,44],[18,69],[-15,71],[9,62],[32,87],[-29,57],[12,46],[-101,105],[4,31],[-79,81],[-37,156],[22,78],[-31,108],[11,44],[-99,-23],[-24,42],[-101,2],[-8,35],[-47,17],[-47,88]],[[17602,46438],[-7,77],[-40,66],[-48,32]],[[17507,46613],[-18,41],[134,139],[-18,24],[26,51],[-26,66],[5,70],[-103,92],[-56,1],[-36,79],[-45,15],[10,72],[-75,102],[-66,-1],[-114,118],[-22,66],[29,47],[45,35],[46,71],[105,-27],[8,56],[85,27],[29,31],[-5,49],[-54,73],[11,47],[120,46],[8,50],[129,-17],[62,16],[66,-36],[30,94],[-45,35],[-13,62],[-49,96],[-60,4],[-31,22],[-48,-21],[-24,89],[24,66],[-3,115],[-41,-4],[-19,168],[-104,34],[-30,38],[6,71],[-53,20],[-6,46]],[[17321,48951],[63,21],[38,71],[68,69],[105,-4],[83,46],[64,-19],[62,-56],[37,10]],[[17841,49089],[20,-22],[62,7],[49,-55],[33,19],[46,-24],[67,67],[-37,55],[-2,99],[57,15],[104,3],[28,33],[63,32],[78,2],[59,-29],[144,-4],[24,-23],[69,0],[22,-35],[50,-15],[28,-149],[-36,20],[-83,-31],[3,-59],[-82,-25],[19,-108],[42,-46],[65,-32],[20,-39],[39,-7],[73,-53],[50,-15],[23,-49],[-23,-78],[52,-42],[55,-9]],[[19842,47287],[-74,-16]],[[19768,47271],[-33,-33],[-51,-10],[-57,-73],[-43,4],[-19,63],[-79,25],[-98,-28],[-34,-12],[-94,-46],[-28,13],[-21,68],[-32,33],[-48,-40],[-32,32],[1,62],[-69,11],[3,50],[-37,67],[-49,-1],[0,0],[-52,59],[-40,19],[-8,83],[17,28],[57,12],[-10,43],[66,5],[43,116],[64,53],[64,71],[56,15],[84,-12],[93,45],[136,25],[52,-24],[39,40],[39,-76],[67,31],[64,-37],[6,-46],[114,-168],[-18,-48],[54,-38],[2,-49],[-67,-77],[51,-57],[-18,-19],[18,-83],[-1,-54],[-78,-26]],[[21723,47248],[-53,-32],[-28,-71],[2,-60],[28,-27],[6,-60],[-14,-69],[1,-81],[28,-31],[-28,-63],[-37,-41],[-106,2],[-19,-32],[10,-133],[18,-44],[35,-14],[31,-74],[42,-62],[64,12],[41,-16],[101,-12],[44,-21],[36,-128],[60,-148]],[[21985,46043],[-24,-29],[15,-107],[-24,-48],[16,-81],[46,-55],[-6,-84],[28,-44],[-15,-71],[8,-73],[83,-22],[-51,-62],[31,-51]],[[22092,45316],[-40,-49],[-56,14],[-45,-25],[-59,20],[-41,-36],[-100,-21],[-2,28],[-127,62],[-56,56],[-18,55],[23,68],[-5,62],[-104,59],[-7,-78],[22,-160],[57,-47],[19,-77],[72,-34],[12,-90],[-6,-80],[12,-42],[-8,-68],[14,-56],[0,-110],[67,-106],[-2,-82],[26,-29],[24,-80],[-50,-66],[40,-146],[28,-54],[-13,-60],[54,-78],[9,-40],[-27,-110],[-80,-62]],[[21725,43854],[-80,30],[-51,92],[-64,32],[-35,98],[-83,-29],[-62,100],[-19,12],[-43,93],[-44,21],[-70,2],[-20,31],[34,41],[-5,42],[41,77],[-5,51],[-41,43],[-147,24],[-43,53],[-48,27],[-72,6],[-49,-21],[-96,28],[-26,-36],[-17,-69],[-55,0],[-43,-40]],[[20582,44562],[-23,101],[42,59],[-6,45],[47,71],[30,108],[-5,45],[-80,128],[-33,120],[-42,23],[-50,107],[17,18],[-38,105],[-52,40],[4,44],[-46,152],[-47,67]],[[20300,45795],[-1,82],[111,88],[57,27],[30,-18],[104,28],[0,55],[66,45],[35,64],[19,169],[79,118],[-13,36],[16,54],[-13,68],[-42,72],[-73,15],[-84,108],[61,68],[53,113],[-49,24],[21,97],[60,7],[46,56],[-37,99],[10,41],[49,57],[-22,57],[37,52],[-23,91],[80,116],[-4,61],[-30,37]],[[20843,47782],[104,29],[100,15],[-3,38],[68,40]],[[21112,47904],[117,-91],[57,-8],[78,-43],[88,-82],[33,-77],[42,-32],[89,-148],[88,-36],[43,-68],[-24,-71]],[[16449,44972],[89,-131],[38,-26],[32,-105],[25,-11],[78,18],[46,-19],[87,58],[44,-23],[38,66],[76,-106],[-110,-88],[-5,-38],[24,-64],[-21,-42],[42,-168],[-10,-144],[16,-44]],[[16938,44105],[-154,-10],[-82,50],[-155,-5],[-57,20],[-56,87],[-25,13],[-73,-32],[-50,26],[-73,13],[-22,-65],[7,-72],[-62,-54],[-112,74]],[[16024,44150],[13,39],[-16,50],[-76,76],[-12,53],[60,39],[-6,28],[62,62],[15,36],[-67,29],[-61,77],[-66,21],[17,75],[121,-12],[72,34],[155,180],[49,-4],[35,68],[56,16],[74,-45]],[[15777,53236],[-27,-50],[-2,-83],[17,-52],[-33,-69],[18,-83],[32,-45],[0,-149],[-8,-85],[34,-37],[35,9],[87,-90],[-22,-57],[24,-28],[-44,-48],[29,-36],[-34,-29],[39,-61],[-54,-28],[21,-43],[62,3],[34,-56],[57,-1],[127,-108],[86,-32],[53,-55],[-4,-58],[28,-66],[69,-26],[54,-110]],[[16455,51663],[-9,-42],[-74,-64],[-20,-104],[-36,-49],[-79,-8],[-56,82],[-117,77],[-15,-52],[34,-110],[-3,-60],[-29,-46],[16,-49],[-54,-86],[-165,55],[-28,-19],[-65,2],[-35,-38],[-57,4]],[[15663,51156],[-3,44],[-33,81],[6,86],[-24,90],[0,4],[-32,119],[-1,1],[-11,32],[-63,53],[-11,50],[-38,73],[-60,2],[-83,120],[16,71],[-12,80],[88,13],[5,17],[5,-4],[4,-11],[23,77],[-26,55],[30,63],[75,27],[19,91],[-14,66],[33,51],[-27,116],[-45,80],[-29,-26],[0,0],[-1,-1],[0,-1],[-1,1],[0,0],[0,1],[-2,0],[-3,2],[-22,20],[-3,66],[-82,-43],[10,-83],[-105,76],[-2,103],[32,30],[8,156],[45,48],[74,3],[15,52],[170,97],[43,-6],[89,44],[57,-6]],[[16871,53657],[16,-32],[80,-63],[69,-93],[57,-33],[7,-46],[39,-92],[97,-102],[-6,-43],[76,-19],[115,-15],[48,-21],[92,-10],[71,28],[44,-29],[75,51],[32,-32],[56,30],[19,40]],[[17858,53176],[77,-60],[-20,-57],[37,-11],[62,-57],[-8,-85],[28,-16],[32,-70],[58,-32],[26,-148],[29,-42],[-65,-20],[-27,-36],[-17,-73],[-93,-102],[5,-27],[-59,-60],[-35,-9],[-14,-41]],[[17874,52230],[-106,-3],[-35,-21],[18,-54],[-14,-79],[-49,-31],[9,-42],[-86,-41],[-64,65],[-100,-8],[-109,-36],[-10,-101],[-50,-49],[-30,21],[-69,-6],[-49,-32],[-93,-8],[-108,-28],[1,-76],[-84,32],[-34,-13],[-11,-83],[-83,-44]],[[16718,51593],[-76,-2],[-97,33],[-33,42],[-57,-3]],[[15777,53236],[86,6],[74,-9],[32,-15],[77,-68],[16,91],[58,-26],[-15,-98],[103,-70],[27,-8],[195,-12],[19,40],[35,52],[100,47],[19,23],[64,13],[33,42],[43,13],[56,59],[17,95],[73,68],[0,31],[-38,80],[20,67]],[[18789,44652],[51,-29],[36,-66],[42,-28],[67,9],[67,-86],[54,-89],[58,-33],[133,-26],[133,1],[8,-45],[58,1],[-82,-109],[-35,-97],[0,-62],[0,-11],[-24,-65],[66,-140],[-27,-34],[-76,-11],[-42,9],[-97,-65],[2,-93],[63,63],[58,-16],[16,-39],[-15,-57],[-33,-26],[1,-43],[-48,-56],[-38,-3],[-37,-40],[-107,23],[-105,-9],[-46,-26],[-57,-63],[-13,-52],[42,-61],[-60,-23],[-109,103],[-80,57],[-85,24],[-118,-117],[-85,-38],[-103,25],[-82,96],[9,80],[-12,113],[63,50],[-60,156]],[[18140,43704],[20,26],[88,31],[42,29],[50,62],[9,60],[-16,48],[42,78],[28,142],[42,67],[-34,96],[3,60],[-40,66],[27,83]],[[19589,44404],[38,-31],[-38,-52],[-43,28],[43,55]],[[22641,37183],[-99,101],[-75,34],[-44,50],[-95,32],[-97,69],[-10,30],[34,49],[-52,24],[-22,52],[8,129],[-39,17],[-60,-49],[-127,-12],[-41,-25]],[[21922,37684],[-26,79],[-37,50],[50,182],[-65,34],[59,104],[70,59],[25,69],[46,31],[21,50],[71,108],[0,42],[42,128],[29,13],[-1,1],[74,-36],[25,41],[-37,99],[14,47],[49,20],[58,90],[-7,34],[52,115],[-11,107],[-40,62],[13,35],[53,33],[22,61],[82,91],[78,118],[7,98],[69,-23],[50,80],[76,96],[58,-42],[-4,-99],[22,-16],[-4,-83],[69,-39],[9,-31],[-11,-123],[69,-26],[26,-61],[7,-65],[-18,-56],[-63,-46],[-20,-53],[9,-114],[-6,-173],[16,-67],[-9,-169],[18,-42],[2,-76],[18,-22],[5,-91],[-38,-34],[-54,-2],[-11,-59],[-34,-34],[14,-80],[-63,-48],[-43,-149],[-11,-101],[53,-12],[24,-56],[-51,-117],[2,-98],[-15,-78],[32,-76],[-63,-104],[-59,-18],[-68,-59]],[[21136,39040],[26,-36],[-8,-55],[13,-63],[28,-23],[30,-81],[-31,-106],[-66,-57],[-103,20],[-55,-3],[12,131],[29,72],[-6,26],[63,83],[27,63],[41,29]],[[19842,47287],[157,1],[93,17],[139,-7],[127,55],[12,43],[76,52],[48,100],[38,38],[8,89],[-13,95],[41,33],[39,62],[-2,58],[45,142]],[[20650,48065],[47,-14],[70,-51],[2,-76],[-50,-3],[42,-71],[66,-34],[16,-34]],[[20300,45795],[-42,123],[-29,21],[-66,99],[-63,54],[-13,48],[-51,50],[-113,46],[-86,19],[-60,37],[-21,73],[-9,95],[-37,6],[-3,112],[46,56],[-5,31]],[[19748,46665],[4,-4],[3,6],[0,1],[0,1],[0,1],[11,29],[-25,95],[20,77],[0,0],[16,132],[47,10],[7,1],[5,5],[7,101],[-25,74],[-50,77]],[[19748,46665],[0,3],[0,-2],[0,-1]],[[17321,48951],[15,79],[-31,78],[-77,-3],[-91,23],[-118,-34]],[[17019,49094],[6,77],[-43,41],[-91,4],[-41,98],[5,40],[-68,23],[-24,-28],[-119,-58],[-89,-10],[-50,30],[-9,48],[-43,79],[-72,-4],[-54,-24],[-25,-38],[-91,-21],[-10,32],[-82,25],[-42,45],[-72,21],[-75,103],[-97,4],[-13,74],[-33,35],[-60,-26],[-53,26],[-58,-23],[-79,52],[-85,-10],[-32,-33],[-6,-45],[-93,-35]],[[15321,49596],[-71,62],[-45,105],[55,64],[11,73],[-10,72],[59,34],[50,123],[14,67],[66,78],[30,101],[-24,40],[22,67],[47,51],[48,29],[45,101],[-7,15],[29,52],[6,62],[27,21],[26,157],[-42,66],[6,120]],[[16718,51593],[16,-72],[-39,-11],[52,-109],[0,-43],[-37,-14],[51,-117],[108,-62],[149,-33],[10,-36],[99,-77],[43,-71],[52,-51],[13,-93],[-11,-33],[17,-84],[-32,-60],[20,-100],[-21,-76],[85,-108],[29,2],[16,-72],[122,6],[87,-37],[56,-9],[52,-45],[37,-166],[58,41],[16,40],[3,191],[-38,84],[65,24],[-27,73],[3,47],[35,38],[40,140],[9,79],[99,26],[10,-44],[81,-30],[90,52],[-22,101],[110,-7],[0,-41],[131,-40],[46,-5],[69,23],[50,-22],[43,14],[95,-11],[33,-29],[35,-81],[61,-33],[47,-3]],[[18834,50649],[-10,-48],[-46,-29],[-25,-85],[-46,-62],[-68,-21],[-46,29],[-104,-67],[-107,-103],[-30,-50],[16,-36],[-67,-50],[-24,16],[-36,-72],[14,-57],[-7,-69],[-23,-30],[-1,-99],[-145,-90],[3,-87],[22,-65],[-18,-29],[18,-56],[-22,-101],[-43,-11],[-60,-76],[-65,-37],[-12,-79],[-68,-55],[7,-41]],[[10858,48248],[-19,101],[79,38],[29,-28],[63,8],[34,38],[-42,25],[39,43],[30,71],[-11,28],[51,94],[30,30],[-20,110],[85,35],[-11,79],[50,48],[4,45],[95,48],[64,0],[130,50],[21,36],[62,21],[121,-2],[23,62],[68,-34],[16,58],[27,14],[7,74],[49,65],[31,86],[-62,53],[36,126],[91,-37],[-30,-58],[34,-44],[-6,-52],[47,-37],[-24,-28],[-50,2],[-34,-40],[1,-71],[-64,-38],[-34,-38],[13,-83],[-51,-109],[-19,-101],[-33,-34],[-82,-21],[-11,71],[-73,3],[-75,-118],[-2,-83],[40,-13],[-2,-100],[-47,-4],[-26,-64],[-57,-49],[-26,-50],[11,-108],[100,-47],[-12,-27],[-92,-57],[18,-52],[-78,-38],[-21,-53],[-44,-11],[42,-57],[-53,-17],[1,88],[-37,28],[-43,-8],[-36,-42],[21,-75],[-25,-28],[-100,2],[-2,68],[-102,78],[-51,-18],[-6,60],[-50,88]],[[13133,50021],[-54,-28],[-23,44],[-75,9],[-35,-20],[-37,-65],[-84,-28],[-133,-19],[-24,36],[20,78],[-33,21],[-41,-30],[-67,30],[37,46],[8,95],[-43,15],[-47,-44],[-36,-4],[10,104],[-44,36],[2,58],[109,6],[5,42],[-64,-17],[-63,55],[-72,-65],[-5,-66],[24,-88],[-39,-4],[-42,54],[-46,-8],[1,56],[-38,139],[52,19],[40,47],[60,142],[153,14],[87,-59],[93,-97],[68,-111],[41,-28],[52,0],[36,-25],[16,-52],[105,-45],[56,44],[-2,51],[-72,42],[11,96],[48,20],[89,-6],[-17,-53],[50,-26],[-14,-30],[26,-60],[-75,-29],[-24,-44],[10,-42],[73,-8],[7,-149],[-40,-49]],[[12326,49745],[-53,-33],[8,-48],[35,-45],[-5,-58],[-57,-3],[-47,43],[5,51],[-39,139],[44,43],[16,114],[60,35],[104,32],[30,-46],[-60,-96],[65,-49],[-16,-43],[-53,10],[-37,-46]],[[17507,46613],[-17,-20],[-76,-1],[-112,-39],[-93,-88],[-118,-34],[-30,22],[-42,-16],[-43,30],[-105,13],[-30,-41],[-47,21],[-48,65],[-72,22],[-135,-5],[-24,38],[-54,15]],[[16461,46595],[56,146],[59,217],[33,167],[29,220],[10,175],[-4,207],[-19,165],[-26,143],[-44,155],[-72,153]],[[16483,48343],[74,102],[-12,110],[53,40],[18,43],[-26,53],[17,53],[40,-2],[126,24],[10,19],[181,46],[57,48],[-11,132],[9,83]],[[21367,49873],[51,11],[90,-57],[72,-3],[49,43],[25,-14],[67,-96],[-4,-32],[36,-51],[319,-50],[41,32],[46,-23],[30,-40],[58,17],[31,-36],[9,-58],[-28,-59],[-51,-24],[-38,-45],[4,-76],[105,-4],[61,-55],[76,34],[73,-4],[22,-37],[-16,-38],[15,-179],[-14,-76],[-26,-42],[47,-82],[87,-81],[-43,-59],[1,-68],[24,-30],[-20,-86],[57,-117],[52,-11],[79,-98],[18,-70],[-6,-38],[40,-19],[18,-71],[94,145],[33,26],[30,86],[58,22],[34,-43],[53,-26],[53,-75],[47,-18],[60,-73],[46,-27],[13,-46],[63,-2],[47,-42],[95,13],[29,27],[50,4],[93,67],[83,2],[12,-39]],[[23817,48082],[-23,-93],[-89,-56],[-8,-72],[-52,-11],[-95,-66],[-124,15],[-20,-102],[-57,-16],[-30,-39],[-101,34],[-91,3],[-59,-14],[-33,33],[-69,7],[-68,33],[-61,-8],[-32,54],[-26,-30],[-76,23],[-31,41],[-57,7],[-36,-43],[-39,-93],[-56,-33],[52,-29],[36,-59],[40,-11],[34,-49],[15,-54],[34,-10],[0,-77],[-61,-38],[-37,-61],[-61,4],[-15,-21],[6,-89],[58,-25],[-22,-43],[-54,-40],[-134,-57],[-24,71],[-29,-9],[-71,33],[-113,11]],[[22138,47103],[-57,-2],[7,-55],[-68,-36]],[[22020,47010],[22,31],[-3,68],[-76,-41]],[[21963,47068],[-37,-10],[-57,60],[-37,-9],[-65,93],[-44,46]],[[21112,47904],[57,81],[20,-31],[51,30],[96,-32],[21,11],[-12,69],[8,100],[-43,28],[-6,62],[-36,-9],[-45,31],[-17,42],[26,130],[76,3],[38,-17],[174,-42],[70,31],[-2,49],[-38,36],[-20,73],[13,95],[-8,59],[-48,59],[13,84],[-20,78],[9,168],[-34,5],[-63,48],[44,118],[60,62],[-102,80],[-1,46],[-111,41],[43,76],[-7,87],[-30,23],[11,40],[47,58],[-17,28],[38,69]],[[21620,50710],[-99,-14],[-68,-67],[-9,-61],[-49,-117],[12,-96],[-41,-64],[-70,-14],[47,-111],[-30,-49],[-11,-137],[28,-8],[37,-99]],[[20650,48065],[75,98],[74,39],[30,60],[11,93],[-27,55],[-22,98],[-34,34],[-19,62],[-72,52],[-57,7],[33,62],[-22,46],[-44,35],[-91,-7],[-133,50],[-108,-7],[-36,24],[-91,15],[-11,-35],[-62,32],[-19,83],[-72,27],[-29,50],[-86,1],[-103,42],[-6,32],[-66,26],[-119,-72]],[[19544,49067],[80,117],[8,59],[32,70],[119,-24],[75,69],[56,-19],[49,51],[-65,10],[-60,34],[-43,-5],[-47,-37],[-15,53],[15,42],[-40,61],[33,55],[-13,53],[35,63],[-79,40],[-46,-4],[4,48],[-151,19],[-32,26],[-47,-6],[-89,163],[-43,11],[-43,101],[-8,169],[-22,37],[2,54],[-54,70],[-10,59],[-101,5],[-84,124],[-106,-11],[-20,25]],[[18834,50649],[38,-1],[73,83],[116,3],[20,34],[-90,89],[49,37],[49,104],[26,84]],[[19115,51082],[96,-1],[33,48],[70,-60],[104,32],[32,-38],[78,30],[50,51],[60,-34],[130,-35],[26,-50],[74,-6],[39,-19],[36,-53],[46,18],[13,-60],[31,-7],[62,75],[60,-12],[78,15],[95,64],[36,9],[120,118],[83,9],[101,56],[56,13],[59,43]],[[20783,51288],[177,5],[29,11],[54,-26],[92,-23],[33,-43],[37,0],[108,-122],[35,-10],[5,-65],[66,-119],[61,-157],[27,-29],[89,20],[23,-18],[1,-2]],[[16483,48343],[-37,22],[-3,0],[0,1],[-14,9],[-11,2],[0,0],[-2,2],[-61,-1],[0,0],[0,0],[-2,0],[-14,-4],[-3,1],[6,86],[-66,153],[-136,213],[-58,27],[-47,-6],[1,82],[-29,71],[-67,5],[-34,94],[-77,23],[-77,68],[-37,66],[-129,102],[-106,-17],[-28,-62],[-33,-21],[-48,28],[24,82],[-23,43],[-6,97],[-43,43],[-2,44]],[[17602,46438],[-26,0],[-157,-100],[-24,0],[-27,-101],[-27,-28],[-66,-113],[-97,-51],[-14,-55],[-35,-35],[-11,-43],[-52,-35],[5,-39],[-26,-62],[-56,-14],[-56,30],[-67,-18],[-34,-84],[-131,-107],[-43,-72],[1,-37],[35,-31],[-22,-162],[-80,-84],[-10,-118],[-53,-3],[-80,-104]],[[16024,44150],[-76,6],[-37,-35],[-43,-3],[-40,65],[-65,-34],[-48,-60],[-25,38],[-54,-44],[-34,51],[10,68],[53,21],[-10,41],[78,41],[-67,25],[74,57],[-24,44],[-82,-1],[-25,73],[-61,-79],[-40,38],[-27,56],[36,48],[86,31],[40,35],[35,-18],[39,52],[-12,40],[-47,34],[-41,85],[-64,10],[-29,-44],[-122,-12],[-10,54],[-75,27],[-16,55],[115,26],[39,-27],[38,50],[53,27],[-6,50],[30,14],[0,53],[-76,53],[-46,49],[-43,-29],[4,120],[-49,-12],[-86,9],[-25,75],[-59,8],[-42,74],[-89,85],[-48,101],[-5,31],[-48,57],[-124,90],[-54,-1],[-91,-34],[26,90],[53,25],[56,-7],[105,-69],[41,14],[96,133],[30,1],[35,87],[77,-45],[18,-47],[14,-104],[59,14],[50,-39],[27,-81],[131,-24],[22,-22],[178,-37],[75,78],[162,89],[27,-3],[133,90],[47,83],[70,94],[36,26],[22,72],[132,263],[50,130]],[[9025,43563],[60,-24],[-21,-59],[-32,-15],[-2,-129],[-51,24],[-15,68],[40,10],[21,125]],[[15227,45275],[-26,-41],[6,-57],[-62,9],[24,42],[58,47]],[[23817,48082],[75,-38],[13,-38],[70,-17],[9,-25],[-2,-38],[-33,-88],[16,-68],[88,-87],[69,-159],[-32,-133],[-106,-105],[52,-51],[4,-58],[26,-56],[-14,-25],[36,-81],[-12,-84],[6,-56],[-34,-64],[-107,-48],[-46,-8],[-59,-43],[-27,-56],[18,-27],[-46,-54],[-22,-50],[10,-109],[-34,-122],[-109,64],[-31,1],[-30,-40],[-62,50],[-70,21],[-63,36],[-87,-6],[-20,-60],[-54,-84],[-36,-33],[-62,47],[-33,-56],[50,-54],[-40,-31],[-59,106],[-92,-68],[-60,-57]],[[22877,46130],[-68,31],[-18,58],[15,26],[-66,49],[-99,-12],[-109,124],[-38,-2],[-42,-53],[-26,-87],[-44,-31],[-35,13],[-53,-30],[-76,54],[-11,43],[-50,5],[-18,37],[-100,78],[3,54],[25,41],[22,114],[24,20],[-17,56],[-69,-19],[7,56],[41,5],[18,43],[56,-10],[7,52],[-38,12],[2,193],[18,53]],[[22307,46484],[-80,-28],[20,-107],[50,16],[-20,78],[30,41]],[[21833,46833],[-9,-77],[-51,-24],[-15,50],[40,53],[35,-2]],[[22020,47010],[-57,58]],[[10090,13820],[-73,-131],[-77,3],[-41,-33],[-29,10],[-73,-4],[-35,-67],[105,-123],[-62,-60],[-64,-22],[-37,9],[-61,-47],[-30,8],[-71,-33],[-61,0],[-68,-35],[-49,-57],[-52,-3],[-55,60],[-103,25],[-58,-58],[21,-40],[-26,-112],[47,-95],[-14,-37],[-44,-2],[-37,-32],[-49,-108],[-4,-55],[-57,-1],[-21,30],[-127,5],[-95,16],[85,-83],[75,-10],[21,-46],[33,19],[19,-16],[0,-1],[78,-80],[67,3],[-3,33],[37,-5],[20,-36],[116,-82],[-2,-21],[31,-21],[15,-69],[-29,-9],[-21,-15],[-13,41],[-77,-6],[-40,-35],[-20,-91],[-34,-23],[-44,17],[-24,-32],[-72,30],[-27,-56]],[[8881,12237],[-40,33],[-32,113],[-51,63],[-76,-16],[-35,64],[-61,-21],[-55,-42],[-72,10],[-54,-79],[-30,-14],[-48,66],[-35,18],[16,58],[-32,58],[-98,49],[-37,107]],[[8141,12704],[24,30],[31,117],[56,43],[21,53],[154,93],[1,25],[-93,60],[-50,58]],[[8285,13183],[-1,95],[83,38],[24,-14],[117,78],[68,2],[39,45],[35,-17],[36,93],[-26,90],[47,35],[80,20],[134,-16],[-26,56],[-10,79],[-36,56],[-16,65],[17,103],[-27,38],[-9,69],[-91,35],[-38,44],[-39,5],[-67,52]],[[8579,14234],[24,7],[63,-33],[43,13],[22,37],[36,-20],[59,36],[44,-6],[20,-54],[44,-17],[118,8],[-22,64],[49,68],[0,0],[21,150],[27,25],[0,0],[44,14],[53,-29],[9,-29],[-27,-57],[97,-20],[58,67],[17,47],[51,-34],[25,-50],[-12,-162],[38,-48],[29,96],[38,74],[62,-7],[26,54],[-50,41],[0,75],[6,0],[15,97],[38,21],[-22,94],[43,101],[67,10],[56,44],[-8,43],[45,14],[11,42]],[[9836,15010],[21,-23],[54,-155],[-2,-80],[-28,-46],[-11,-64],[31,-76],[-30,-112],[70,17],[31,-87],[-14,-51],[-39,-47],[12,-81],[-91,-58],[-14,-77],[-26,-35],[-54,12],[-55,-78],[-21,-60],[67,-65],[85,2],[34,-44],[30,21],[85,18],[85,5],[34,-26]],[[10630,14454],[55,25],[62,-2],[8,146],[-29,44],[-13,60]],[[10713,14727],[25,-45],[80,-36],[28,78],[-58,94],[-6,62],[-28,17],[32,85],[-22,26],[-2,95],[37,-2],[9,-75],[30,-17],[30,-103],[-7,-34],[57,-78],[46,38],[-58,51],[14,74],[50,35],[-20,58],[5,48],[-47,73],[-82,67],[-9,76],[-45,64],[-38,27],[18,64],[80,-37],[22,61],[40,42],[106,173],[112,44],[3,-64],[29,-151],[-29,-77],[48,-110],[2,-39],[68,-117],[53,-2],[60,-65],[1,-77],[32,-19],[-4,-77],[-59,-77],[5,-42],[40,-38],[-86,-187],[-44,29],[-15,-36],[-68,-73],[-67,-1],[-33,-30],[-80,1],[-56,-57],[-7,-64],[-99,-6],[-21,41],[-84,13],[-71,27]],[[18140,43704],[-50,81],[-142,166],[-101,85],[-128,63],[-44,-10],[-88,24],[-53,-16],[-60,-47],[-46,30],[-27,-27],[-39,36],[-40,-19],[-89,53],[-34,-28],[-37,23],[-61,-23],[-47,19],[-116,-9]],[[19368,53477],[32,-110],[-3,-53],[65,-30],[39,-50],[28,10],[116,-107],[53,-38],[77,-84],[129,-31],[56,-33],[-23,-63],[-17,-95],[-31,-42],[-57,-18],[-19,-28],[-1,-195]],[[19812,52510],[14,-123],[-27,-22],[17,-105],[-18,-52],[19,-99],[-13,-51],[20,-56],[33,-34],[-30,-80],[-72,-18],[-47,-30],[0,-45],[-52,-35],[-54,-100],[-31,-3],[-48,-72],[-41,-97],[-4,-92],[-137,-121],[-83,-12],[-108,-41]],[[19150,51222],[-15,58],[-38,40],[-7,49],[-50,45],[-59,-33],[-30,-39],[-88,9],[-24,55],[-101,5],[-49,15],[-37,92],[-45,67],[-91,52],[-24,83],[-71,70],[-51,17],[-20,73],[18,65],[41,20],[-98,61],[-101,-62],[-50,-13],[-59,17],[-33,-37],[-74,110],[0,23],[-120,166]],[[17858,53176],[10,173],[46,6],[40,-45],[47,-17],[57,19],[87,53],[69,-49],[86,13],[111,3],[51,125],[98,50],[216,7],[54,135],[66,84],[-13,79],[-30,26],[161,7],[42,-109],[19,-137],[44,-73],[122,-11],[38,-32],[89,-6]],[[19544,49067],[-55,21],[-47,-16],[-119,-84],[-57,-70],[-54,-28],[-50,27],[-69,-84],[-47,-94],[10,-47],[-36,-51],[-16,-76],[18,-73]],[[13252,39933],[29,-69],[79,-27],[37,-60],[65,-10],[7,-57],[-98,-122],[-135,-65],[-66,-1],[-107,56],[-52,67],[7,40],[-61,38],[-3,55],[29,22],[66,6],[80,104],[60,-4],[63,27]],[[16379,39484],[41,-51],[43,-7],[46,-47],[25,-72],[-17,-65],[-51,-44],[-70,13],[-147,-35],[-61,-6],[-136,8],[-32,43],[32,25],[-2,63],[32,18],[62,-17],[51,59],[184,115]],[[17446,39602],[29,-44],[59,-46],[69,-13],[-37,-100],[-69,43],[-69,7],[-120,55],[-46,-27],[11,93],[20,19],[96,-36],[57,49]],[[12501,29850],[140,-25],[0,-44],[156,-49],[53,-54],[40,-72],[-32,-70],[17,-101],[85,-96],[67,-49],[46,-66],[-25,-30],[-106,0],[-49,14],[-78,2],[-79,-58],[-97,11],[-62,43],[-68,125],[-5,49],[-60,30],[-46,41],[-11,73],[-38,79],[17,72],[30,18],[9,80],[82,54],[14,23]],[[11543,27641],[24,-25],[-5,-57],[-25,-51],[-12,-100],[19,-34],[-8,-62],[-45,-85],[-5,-46],[-85,-49],[-53,-69],[-49,-38],[7,-68],[-52,-40],[-73,10],[-9,83],[-35,38],[-27,73],[5,117],[-15,53],[-39,40],[40,68],[-43,35],[81,86],[56,-16],[36,59],[80,41],[71,20],[69,-25],[16,28],[76,14]],[[13059,31138],[50,-192],[69,-93],[23,-62],[72,-45],[47,-103],[-25,-76],[-84,-38],[-51,14],[-37,42],[-90,33],[-76,82],[14,76],[-49,15],[57,124],[62,57],[-7,44],[-38,56],[22,49],[41,17]],[[10300,25612],[121,-51],[33,-116],[46,-55],[13,-58],[-63,-52],[-142,1],[-22,26],[18,80],[-78,45],[-9,38],[28,70],[55,72]],[[6917,22298],[23,-30],[64,31],[62,-6],[34,-70],[-34,-67],[1,-101],[28,-65],[-16,-28],[-76,72],[-94,53],[-117,153],[73,53],[52,5]],[[9798,30190],[113,-92],[38,-102],[-18,-41],[-39,-9],[-135,30],[-16,164],[57,50]],[[5140,18632],[43,-14],[37,-67],[-15,-59],[-60,-16],[-69,46],[-74,-33],[-39,72],[113,14],[64,57]],[[9778,27903],[40,-25],[6,-84],[-22,-87],[-95,56],[-8,40],[22,63],[57,37]],[[7997,23026],[39,-46],[-40,-67],[-65,45],[-3,24],[69,44]],[[5212,18938],[13,-83],[-40,0],[-11,69],[38,14]],[[10526,29854],[23,-19],[-21,-57],[-32,16],[30,60]],[[19150,51222],[-38,-52],[3,-88]],[[15471,53961],[16,-25],[-94,-89],[-37,-78],[25,-135],[48,-26],[36,43],[81,-56],[26,-93],[-36,-51],[-105,-14],[-67,-80],[-50,-28],[-17,-95],[-9,-130],[-82,-190],[6,-48],[-89,-33],[-74,46],[19,61],[-42,69],[-35,22],[-32,-35],[-55,50],[-27,54],[-80,30],[-15,55],[-38,22],[0,49],[30,89],[-23,26],[26,96],[-59,109],[-11,101],[-30,35],[-49,8],[-26,108],[43,81],[145,85],[-93,26],[34,38],[-49,26],[-1,41],[55,30],[73,-42],[45,38],[48,4],[153,-88],[-29,97],[54,17],[30,77],[27,-14],[6,-56],[41,-49],[27,40],[-25,35],[99,69],[-2,-78],[55,-31],[38,-57],[-12,-35],[55,-123],[52,2]],[[15845,54573],[-50,-6],[-78,63],[-111,-99],[-34,26],[41,88],[7,100],[22,53],[-34,20],[45,91],[36,43],[54,-44],[26,35],[8,81],[123,17],[8,23],[156,-76],[-15,-37],[35,-107],[-13,-31],[-67,18],[-17,-62],[-88,-43],[-4,-34],[-71,-30],[-29,-37],[50,-52]],[[15354,54566],[-73,-86],[9,-95],[-48,-89],[-62,-3],[-31,86],[38,27],[28,96],[54,76],[23,-31],[97,109],[13,-33],[-48,-57]],[[15555,54176],[36,-42],[-13,-44],[-66,51],[-38,-54],[-51,127],[37,49],[-30,151],[20,33],[54,-50],[-4,-99],[21,-41],[37,-4],[-3,-77]],[[19812,52510],[4,-8],[272,-99],[64,-67],[38,-58],[44,-30],[51,-1],[25,-84],[63,-52],[70,-39],[12,-30],[3,-163],[22,-60],[7,-95],[19,-42],[88,-60],[12,-71],[44,-59],[-13,-111],[50,-3],[96,-90]],[[22877,46130],[-109,-127],[-58,-78],[-73,-119],[-103,-210]],[[22534,45596],[-96,18],[-48,27],[-170,-26],[-77,88],[-83,49],[-31,89],[-18,180],[-26,22]],[[22534,45596],[-38,-157],[11,-65],[-15,-32],[7,-122]],[[22499,45220],[-70,7],[-85,-32],[-100,9],[-6,-46],[-40,-28],[-93,54],[7,117],[-20,15]],[[22576,45265],[-42,13],[17,130],[86,8],[19,-28],[6,-74]],[[22662,45314],[-60,-6],[-26,-43]],[[21725,43854],[10,-72],[-145,-179],[0,-39],[42,-53],[27,17],[113,-11],[58,-35],[31,-86],[-51,-78],[-39,-10],[-58,-77],[-108,-103],[-39,-23],[16,-72],[-141,-85],[-24,-60],[-70,-54]],[[21347,42834],[-81,-22],[-82,-63],[-58,46],[-110,5],[-52,32],[-48,79],[66,85],[53,24],[4,65],[-28,41],[-62,40],[-33,62],[11,43],[-44,34],[-63,125],[-40,-11],[-28,99],[-46,21],[4,92],[67,-37],[69,8],[65,94],[63,-21],[93,49],[-27,101],[-31,77],[-34,32],[-9,53],[-83,36],[-56,-62],[-27,-152],[-36,-5],[-31,33],[-7,50],[-71,44],[-87,-55],[-84,1],[-60,-58],[-60,9]],[[20364,43828],[8,30],[37,110],[130,104],[19,54],[-20,29],[11,103],[33,120],[-6,52],[22,21],[7,69],[-23,42]],[[21347,42834],[29,-67],[87,-23],[47,-84]],[[21510,42660],[-205,-150],[-30,-39],[-68,2],[-88,-37],[-93,-20],[-123,42],[-18,-40],[-57,-27],[-76,19],[-40,-20],[-13,-66],[-39,32],[-36,-3],[-47,-50],[-2,-49],[-76,-29],[-47,-56],[-91,-1],[-76,-93],[-51,45],[-61,-16],[-25,-51],[-137,-95],[-80,-4],[-12,-33],[25,-91],[-36,-46],[-63,23],[-29,-37],[-36,6],[-21,-53],[-43,-8],[-27,31],[-45,-4],[40,-109],[-36,-58],[-12,-54],[-83,58],[-42,-10],[-15,-117],[-40,5],[-48,57],[3,39],[71,50],[-13,36],[115,196],[0,91],[-18,19],[21,82],[-31,43],[39,52],[-75,72],[-97,30],[4,48],[80,97],[128,38],[22,64],[143,73],[104,134],[73,-2],[72,22],[34,37],[55,103],[24,12],[82,204],[43,172],[69,137],[-10,69],[-29,62],[-42,34],[-35,70],[4,91],[31,41],[32,11],[57,87]],[[22499,45220],[59,-47],[117,-27],[94,-33],[33,-32],[90,-43],[117,-8],[59,-43],[100,-22],[41,-23],[56,14],[-3,-111],[-22,-39],[40,-36],[-90,-90],[-51,-19],[-39,-83],[-111,-60],[4,-71],[19,-51],[64,-53],[68,44],[101,-16],[34,-18],[113,67],[10,47],[74,-19],[13,-49],[-17,-33],[-66,-61],[-95,-55],[-25,-66],[-73,-21],[-31,-37],[-82,-43],[-55,-53],[-25,-65],[-91,-109],[-121,-19],[-21,-15],[-68,38],[-53,-24],[-65,19],[-96,4],[-67,-83],[-24,-57],[29,-42],[0,-61],[-47,-68],[-10,-90],[-57,-44],[-36,-7],[-63,-65],[21,-57],[50,-46],[-134,1],[-44,-24],[-8,-67],[60,-31],[0,-65],[-137,-131],[-104,-55],[-26,-3],[-67,-55],[-95,-42],[-60,18],[-50,-122],[-44,-10],[-82,7]],[[22662,45314],[2,-36],[-88,-13]],[[22641,37183],[1,-61],[10,-79],[-23,-94],[-30,-58],[-43,-47],[-68,-46],[-22,-16],[-61,21],[-52,-31],[-15,-36],[-20,-74],[-1,-69],[-87,-67],[-52,-98],[3,-70],[-4,-68],[-43,-96],[-85,-104],[-12,-42],[56,-88],[-5,-58],[-68,-18],[-15,-36],[38,-71]],[[22043,35777],[-90,-53],[-43,39],[-56,-59],[-44,32],[-111,-52],[-55,16],[-86,60],[-28,73],[-13,96],[-123,69],[-17,49],[-37,32]],[[21340,36079],[16,60],[108,67],[80,122],[89,150],[164,327],[90,207],[59,172],[3,77],[-2,4],[-8,37],[-13,54],[1,31],[6,264],[-11,33]],[[22043,35777],[99,-74],[-21,-43],[54,-34],[-8,-54],[-40,-37],[-46,-78],[6,-75],[31,-67],[59,-59],[-116,-104],[-22,-91],[27,-94],[-55,-38],[-27,26],[-130,24],[-252,-91],[-160,-98],[-53,-58],[-23,-83],[-1,-1],[-2,-5],[-1,-4],[-11,3],[-3,1],[-15,3],[-9,7],[-19,-2],[-62,24],[-11,60],[-69,91],[-10,55],[-18,49],[13,82],[40,95],[0,1],[0,8],[0,1],[10,52],[1,1],[7,39],[4,48],[-2,48],[-2,30],[0,48],[-22,94],[-34,92],[-47,93],[-21,71],[16,32],[-6,65],[-32,76],[19,33],[159,-44],[42,43],[34,114],[26,27]],[[22012,34891],[-1,0],[-5,-1],[-5,8],[11,-7]],[[21140,34899],[-1,-1],[-1,-2],[0,1],[0,0],[2,2]],[[21149,34883],[-1,-2],[-1,0],[0,0],[2,2]],[[21152,34866],[0,-1],[0,0],[0,0],[-1,0],[1,1]],[[18049,35953],[8,-94],[42,-78],[59,31],[67,-29],[28,-64],[186,1],[32,-54],[45,6],[42,-48],[116,-59],[21,-65],[58,-13],[107,-70],[46,-7],[-8,-45],[21,-34],[77,-32],[24,9],[160,-67],[77,0],[210,-159],[43,-55],[29,-92],[-47,-152],[9,-87],[-31,-99],[-12,-171],[-16,-64],[-41,-38],[29,-34],[-45,-109],[-74,-50],[-50,-51],[-44,-78],[-48,-18],[-49,-84],[-62,-62],[-34,-11],[-60,-78],[1,-50],[-63,-46],[-50,1],[-51,-89],[-41,-1],[-36,-29],[-61,3],[-138,-32],[-69,-47],[-64,-3],[-48,44],[-29,-44],[-63,-34],[-26,40],[-57,14],[-118,-10],[-24,-40],[-57,5],[-104,71],[-51,-11],[-240,38],[-55,39],[-45,96],[-2,56],[-34,16],[-52,114],[-58,36],[-18,107],[15,70],[-26,60],[-47,195],[-19,35],[-57,14],[-38,46],[-32,127],[-5,64],[-29,35],[-29,82],[16,77],[-27,22],[3,50],[-29,106],[6,71],[34,115],[54,-15],[26,47],[132,9],[113,-15],[99,98],[71,98],[1,58],[44,28],[26,57],[44,43],[66,-6],[37,53],[18,96],[-29,80],[50,34],[22,42],[150,-32],[29,-45],[36,20],[-26,112],[39,29]],[[15035,36170],[75,-55],[82,51],[6,-56],[133,-8],[40,-79],[42,-45],[46,42],[34,56],[61,-31],[51,-56],[70,7],[61,-55],[58,17],[66,-106],[34,-2],[54,-62],[82,-61],[26,-83],[-18,-62],[-25,-9],[-63,59],[-163,-38],[-8,-46],[-64,-69],[-139,14],[-58,29],[-19,53],[-72,61],[-2,52],[-26,58],[4,41],[53,29],[-3,52],[-35,22],[-78,-69],[-41,-13],[-76,24],[15,37],[-38,93],[-97,74],[-42,15],[-4,45],[-34,25],[12,49]],[[8285,13183],[-57,-10],[-35,30],[-14,45],[-51,51],[-20,-14],[-77,24],[-117,-2],[-50,50],[-24,67],[-47,29],[-29,-25],[-102,-38],[-125,38],[-70,-9],[-30,72],[29,41],[-53,59]],[[7413,13591],[74,32],[67,-7],[111,24],[44,-8],[99,29],[73,60],[-20,68],[46,57],[85,23],[23,82],[58,46],[28,64],[54,9],[55,-50],[5,-40],[121,-63],[30,10],[53,86],[77,61],[22,42],[70,-58],[34,-131],[49,44],[8,141],[-18,46],[-82,76]],[[8141,12704],[-61,16],[-85,-67],[-51,53],[-59,-50],[-43,7],[-36,64],[-110,3],[-59,92],[-72,-6],[-58,-33],[-90,-5],[-116,-86],[-119,-26],[-51,77],[-50,-24],[-121,-18],[-36,46],[-111,-8],[-14,48],[-39,42],[-65,5],[-103,-16],[-54,28],[-48,-16],[-46,45],[-97,6]],[[6347,12881],[59,23],[208,-14],[17,69],[91,68],[63,-69],[116,-5],[23,-64],[85,-34],[31,63],[-17,103],[48,-3],[69,54],[36,-5],[41,-39],[-8,-43],[70,20],[34,-40],[-19,-66],[57,-26],[1,63],[27,50],[67,-41],[15,62],[79,-63],[39,156],[88,14],[54,-46],[14,51],[-27,22],[1,46],[-72,-17],[-58,10],[-46,-12],[-47,60],[-30,-20],[-7,-47],[19,-71],[-46,-27],[-77,23],[-99,105],[-34,-29],[-119,121],[-79,92],[89,38],[46,40],[57,-19],[38,45],[53,4],[87,51],[29,57]],[[6772,13408],[123,-58],[50,12],[68,-32],[42,-56],[29,-81],[-68,11],[-46,-42],[-69,44],[-86,-2],[-3,50],[-91,67],[51,87]],[[8881,12237],[-28,-13],[-10,0],[0,0],[-61,-50],[-27,18],[-33,24],[-45,23],[-32,-74],[57,-47],[-1,-1],[-9,-9],[-5,-63],[-22,-154],[-27,-43],[-43,29],[-89,35],[-25,27],[-63,-13],[-68,19],[-80,40],[-70,50],[-118,-73],[99,-83],[53,-28],[23,-69],[52,-10],[88,-138],[-17,-61],[38,-30],[24,-21],[-14,-58],[15,-15],[-3,-23],[11,-15],[-1,-20],[-3,-7],[-4,-13],[4,1],[-12,-9],[-11,18],[-32,16],[-96,76],[17,31],[-31,38],[1,85],[-37,17],[-66,-56],[-30,78],[-60,-20],[0,-46],[-41,-33],[-19,56],[-41,10],[-36,-31],[-52,110],[-64,19],[-54,54],[-92,35],[49,47],[-3,33],[-82,20],[82,51],[5,38],[-52,16],[27,52],[-32,35],[-52,-24],[-13,32],[37,31],[17,46],[-64,10],[-19,-33],[-46,-11],[-7,-48],[-45,-1],[-49,35],[26,46],[-11,40],[72,65],[0,81],[63,10],[38,50],[92,68],[-46,31],[-83,-13],[-57,-55],[-57,-15],[-42,9],[57,33],[6,37],[59,29],[1,79],[-67,-45],[-52,6],[-4,35],[-77,1],[-10,-48],[19,-86],[-42,-75],[66,-23],[1,-51],[-51,-16],[-47,10],[-29,48],[-3,80],[-25,26],[-63,17],[-16,-20],[-69,34],[-23,67],[-44,-15],[-21,-83],[-1,0],[-52,-7],[-61,76],[-59,10],[-48,-53],[-49,22],[-10,2],[-25,33],[-23,126],[-30,36],[-58,3],[-41,-51],[-52,-14],[-17,95],[-60,18],[3,42],[-47,3],[-28,34]],[[7082,12213],[96,76],[96,-110],[-31,-30],[-78,73],[-55,-10],[-76,-36],[-39,-38],[-45,-5],[-14,-41],[65,-28],[30,-35],[-38,-65],[84,-61],[61,-63],[81,-18],[34,-32],[43,13],[86,76],[10,37],[-26,101],[34,-1],[-3,-92],[37,23],[10,52],[75,-69],[26,-62],[4,-72],[-58,17],[-98,-12],[-52,16],[-24,-56],[22,-56],[-71,-50],[9,-39],[50,3],[6,-36],[-33,-28],[-5,-61],[69,17],[24,65],[95,59],[67,67],[3,-82],[-38,-41],[10,-98],[-8,-60],[32,-21],[33,23],[31,75],[58,2],[-26,-62],[39,-86],[35,-10],[30,31],[37,121],[38,-71],[131,-119],[70,68],[59,-1],[34,37],[60,-60],[46,8],[-14,-87],[-88,-163],[-12,-89],[-109,-41],[-36,-41],[-67,25],[8,57],[38,113],[38,26],[-41,74],[-51,-5],[-7,-40],[-85,-60],[-23,27],[-83,13],[-8,-56],[-50,-18],[29,-82],[-30,-17],[12,-74],[-22,-42],[-126,75],[-10,30],[-55,56],[34,51],[-4,68],[-28,11],[3,88],[-26,80],[-74,46],[-32,-33],[19,-86],[-69,2],[-101,-113],[3,-39],[-62,-80],[-55,-10],[-3,97],[42,20],[37,111],[-29,124],[-46,20],[10,78],[-22,65],[10,87],[38,45],[-49,30],[-37,49],[-58,-32],[-35,18],[-4,62],[-27,38],[-62,21],[-27,177],[-59,46],[-17,88],[118,10],[21,69],[102,56],[41,-25],[27,-49],[71,-14]],[[7026,10794],[108,-120],[44,-66],[-10,-31],[45,-32],[62,22],[41,66],[44,-28],[12,-67],[44,11],[54,53],[31,-43],[4,-67],[-31,-58],[28,-32],[-40,-69],[-64,-58],[-34,93],[-36,33],[-80,14],[-41,49],[-80,20],[-122,-25],[-10,74],[-41,46],[3,74],[51,42],[18,99]],[[6670,10939],[-23,-69],[62,-151],[-43,10],[-51,-26],[-6,-37],[40,-55],[-45,-72],[-8,-64],[14,-30],[-53,-42],[-48,10],[-52,-46],[-32,98],[19,98],[26,35],[11,118],[53,47],[18,81],[46,20],[17,65],[55,10]],[[6603,11502],[55,-33],[-1,-51],[-72,12],[-28,52],[46,20]],[[7542,10503],[45,-77],[-63,7],[18,70]],[[6655,12289],[-6,-70],[-41,32],[47,38]],[[9836,15010],[26,30],[82,-73],[39,-78],[24,57],[75,42],[25,64],[75,47],[58,-12],[58,83],[46,-5],[108,18],[22,14],[51,-101],[-56,-23],[-48,-102],[-38,-47],[0,-57],[20,-65],[-8,-41],[-85,1],[4,-72],[-38,-28],[16,-46],[-41,-84],[35,-11],[71,28],[-5,87],[14,84],[68,36],[9,-34],[51,4],[14,72],[-38,76],[49,36],[35,-5],[36,-145],[-75,-62],[-17,-55],[16,-63],[75,-40],[92,24],[31,91],[1,72]],[[10630,14454],[-45,7],[-128,-62],[-48,-130],[-39,-19],[-52,-62],[-25,-54],[-12,-91],[-82,-35],[0,-39],[-61,-55],[-15,-66],[-33,-28]],[[13064,13524],[24,33],[26,39],[39,8],[78,11],[12,18],[96,9],[118,91],[38,41],[58,18],[41,64],[37,20],[45,54],[47,82],[74,46],[57,84],[83,24],[72,-41],[51,-56],[16,-79],[-44,-101],[-61,-35],[-9,-57],[-36,-55],[-75,-20],[-52,-44],[-29,-131],[-59,-62],[-50,-89],[5,-22],[-83,-151],[-41,-44],[-72,-37],[-45,-6],[-46,-41],[-88,-14],[-52,38],[-65,147],[-89,-17],[-39,62],[-18,160],[36,53]],[[13386,13685],[0,0],[0,1],[0,0],[0,-1]],[[5174,7052],[-48,25],[-6,32],[-75,105],[-57,32],[-44,81],[-74,-26],[-22,29],[-72,-3],[-9,47],[20,79],[0,51]],[[4787,7504],[13,77],[40,24],[81,14],[41,75],[-4,43],[42,39],[-10,69],[69,93],[-22,24],[-62,9],[-121,77],[1,47],[-94,43],[-61,0],[-94,135],[-48,23],[-24,37],[32,53],[-30,52],[-61,151],[107,68],[32,45],[-26,82],[-27,39],[-2,43],[-110,42],[-53,-20],[6,67],[-12,98],[10,49]],[[4400,9102],[38,0],[130,-41],[76,33],[110,-21],[174,32],[-7,-68],[61,-143],[-91,-15],[-80,-87],[7,-36],[40,-14],[60,6],[28,-36],[-15,-104],[-38,-43],[38,-35],[11,-65],[-26,-11],[-15,-69],[37,-81],[89,-39],[42,-82],[95,14],[7,-37],[100,-94],[45,-70],[1,-57],[68,-48],[85,-12],[43,-72],[-9,-117],[-40,-96],[-52,-66],[-39,-12],[8,-10],[7,-31],[-34,-125],[21,-64],[-36,-43],[-55,-7],[-67,-93],[17,-42],[-60,-49]],[[4787,7504],[-102,27],[-155,-11],[-99,80],[-53,15],[-20,35]],[[4358,7650],[27,74],[-1,54],[-80,67],[-16,59],[4,61],[-48,35],[-15,82],[17,18],[-24,111],[28,43],[8,86],[-34,3],[-73,71],[21,208],[21,-72],[68,135],[-8,40],[19,52],[-42,39],[16,86],[-11,37],[69,145],[37,26],[59,-8]],[[5174,7052],[16,-54],[-21,-64],[-84,-139],[-49,-28],[-64,0],[-77,26],[-46,-48],[-67,-29],[-140,-27],[-90,52],[-45,86],[6,60],[-12,87],[-28,83],[-50,50],[-48,19],[-59,57],[-41,-4],[-107,149],[37,23],[54,68],[69,52],[1,92],[29,87]],[[1961,3576],[-34,21],[-28,71],[-70,84],[-78,9],[-65,-52],[-96,15],[-53,52],[47,97],[-21,109]],[[1563,3982],[115,-18],[56,13],[53,39],[46,3],[35,46],[70,-44],[45,35],[72,11],[172,148],[52,-3],[49,32],[103,39],[41,37],[7,35],[61,40],[107,-2],[63,-18],[22,-43],[-108,-114],[-96,-55],[-25,-27],[-85,-19],[-80,-109],[-25,-8],[-18,-76],[-30,-1],[-24,-61],[-71,-94],[-105,-160],[-38,0],[-66,-32]],[[1961,3576],[-60,-63],[-37,-71],[-32,-3],[-17,-46],[-93,-51],[-31,-31],[-209,-72],[-72,-9],[-82,36],[-59,50],[-102,118],[-16,57],[-42,87],[-40,112],[31,186],[51,114],[63,33],[36,-53],[63,-27],[89,-18],[161,57]],[[313,512],[73,-24],[53,-62],[72,-127],[-14,-76],[34,-175],[-104,-48],[-27,24],[-69,1],[-95,19],[-43,65],[-47,-12],[-27,65],[-32,39],[-71,7],[-16,94],[31,34],[71,-41],[35,2],[36,105],[-4,24],[52,63],[92,23]]],"transform":{"scale":[0.00011648785341182345,0.00009597195990120588],"translate":[128.39553,27.01902]},"objects":{"japan":{"type":"GeometryCollection","geometries":[{"arcs":[[[0,1,2,3,4,5,6]],[[7,8]]],"type":"MultiPolygon","properties":{"pref":"鹿児島県","city":"鹿児島市","code5":"46201","code6":"462012"}},{"arcs":[[9,10,11,12,13,14,15,16]],"type":"Polygon","properties":{"pref":"鹿児島県","city":"鹿屋市","code5":"46203","code6":"462039"}},{"arcs":[[17,18,19]],"type":"Polygon","properties":{"pref":"鹿児島県","city":"枕崎市","code5":"46204","code6":"462047"}},{"arcs":[[20,21,22]],"type":"Polygon","properties":{"pref":"鹿児島県","city":"阿久根市","code5":"46206","code6":"462063"}},{"arcs":[[23,24,25,26,-21,27]],"type":"Polygon","properties":{"pref":"鹿児島県","city":"出水市","code5":"46208","code6":"462080"}},{"arcs":[[[-2,28,29]],[[30]]],"type":"MultiPolygon","properties":{"pref":"鹿児島県","city":"指宿市","code5":"46210","code6":"462101"}},{"arcs":[[[31,32]],[[33]]],"type":"MultiPolygon","properties":{"pref":"鹿児島県","city":"西之表市","code5":"46213","code6":"462136"}},{"arcs":[[-8,34,35,-15,36,37]],"type":"Polygon","properties":{"pref":"鹿児島県","city":"垂水市","code5":"46214","code6":"462144"}},{"arcs":[[[-6,39,40,41,-22,-27,42,43]],[[44]],[[45]],[[46]]],"type":"MultiPolygon","properties":{"pref":"鹿児島県","city":"薩摩川内市","code5":"46215","code6":"462152"}},{"arcs":[[-5,47,48,49,-40]],"type":"Polygon","properties":{"pref":"鹿児島県","city":"日置市","code5":"46216","code6":"462161"}},{"arcs":[[50,51,52,53,54,-17,55]],"type":"Polygon","properties":{"pref":"鹿児島県","city":"曽於市","code5":"46217","code6":"462179"}},{"arcs":[[56,-56,-16,-36,57,58,59,60,61]],"type":"Polygon","properties":{"pref":"鹿児島県","city":"霧島市","code5":"46218","code6":"462187"}},{"arcs":[[-41,-50,62]],"type":"Polygon","properties":{"pref":"鹿児島県","city":"いちき串木野市","code5":"46219","code6":"462195"}},{"arcs":[[[-4,63,-20,64,-48]],[[65]],[[66]]],"type":"MultiPolygon","properties":{"pref":"鹿児島県","city":"南さつま市","code5":"46220","code6":"462209"}},{"arcs":[[[67,68,-52],[69]],[[70]],[[-54,71]]],"type":"MultiPolygon","properties":{"pref":"鹿児島県","city":"志布志市","code5":"46221","code6":"462217"}},{"arcs":[[[72,73,74,75,76,77]],[[78,79]]],"type":"MultiPolygon","properties":{"pref":"鹿児島県","city":"奄美市","code5":"46222","code6":"462225"}},{"arcs":[[-3,-30,80,-18,-64]],"type":"Polygon","properties":{"pref":"鹿児島県","city":"南九州市","code5":"46223","code6":"462233"}},{"arcs":[[81,82,83,-25,84]],"type":"Polygon","properties":{"pref":"鹿児島県","city":"伊佐市","code5":"46224","code6":"462241"}},{"arcs":[[-7,-44,-59,85]],"type":"Polygon","properties":{"pref":"鹿児島県","city":"姶良市","code5":"46225","code6":"462250"}},{"arcs":[[[86]],[[87]],[[88]]],"type":"MultiPolygon","properties":{"pref":"鹿児島県","county":"鹿児島郡","city":"三島村","code5":"46303","code6":"463035"}},{"arcs":[[[89]],[[90]],[[91]],[[92]],[[93]],[[94]],[[95]],[[96]],[[97]],[[98]],[[99]]],"type":"MultiPolygon","properties":{"pref":"鹿児島県","county":"鹿児島郡","city":"十島村","code5":"46304","code6":"463043"}},{"arcs":[[-26,-84,100,-60,-43]],"type":"Polygon","properties":{"pref":"鹿児島県","county":"薩摩郡","city":"さつま町","code5":"46392","code6":"463922"}},{"arcs":[[[101]],[[102]],[[103]],[[104]]],"type":"MultiPolygon","properties":{"pref":"鹿児島県","county":"出水郡","city":"長島町","code5":"46404","code6":"464040"}},{"arcs":[[105,-61,-101,-83]],"type":"Polygon","properties":{"pref":"鹿児島県","county":"姶良郡","city":"湧水町","code5":"46452","code6":"464520"}},{"arcs":[[[-10,-55,-72,-53,-69,106,107],[-71]],[[-70]]],"type":"MultiPolygon","properties":{"pref":"鹿児島県","county":"曽於郡","city":"大崎町","code5":"46468","code6":"464686"}},{"arcs":[[[-11,-108,108,109]],[[110,111]]],"type":"MultiPolygon","properties":{"pref":"鹿児島県","county":"肝属郡","city":"東串良町","code5":"46482","code6":"464821"}},{"arcs":[[-13,112,113,114]],"type":"Polygon","properties":{"pref":"鹿児島県","county":"肝属郡","city":"錦江町","code5":"46490","code6":"464902"}},{"arcs":[[-114,115,116]],"type":"Polygon","properties":{"pref":"鹿児島県","county":"肝属郡","city":"南大隅町","code5":"46491","code6":"464911"}},{"arcs":[[[-12,-110,117,-116,-113]],[[-112,118]]],"type":"MultiPolygon","properties":{"pref":"鹿児島県","county":"肝属郡","city":"肝付町","code5":"46492","code6":"464929"}},{"arcs":[[-32,119,120,121]],"type":"Polygon","properties":{"pref":"鹿児島県","county":"熊毛郡","city":"中種子町","code5":"46501","code6":"465011"}},{"arcs":[[[-121,122]],[[123]],[[124]],[[125]],[[126]]],"type":"MultiPolygon","properties":{"pref":"鹿児島県","county":"熊毛郡","city":"南種子町","code5":"46502","code6":"465020"}},{"arcs":[[[127]],[[128]]],"type":"MultiPolygon","properties":{"pref":"鹿児島県","county":"熊毛郡","city":"屋久島町","code5":"46505","code6":"465054"}},{"arcs":[[-76,129,130]],"type":"Polygon","properties":{"pref":"鹿児島県","county":"大島郡","city":"大和村","code5":"46523","code6":"465232"}},{"arcs":[[[-75,131,132,-130]],[[133]]],"type":"MultiPolygon","properties":{"pref":"鹿児島県","county":"大島郡","city":"宇検村","code5":"46524","code6":"465241"}},{"arcs":[[[-74,134,-132]],[[135]],[[136]],[[137]],[[138]],[[139]],[[140]]],"type":"MultiPolygon","properties":{"pref":"鹿児島県","county":"大島郡","city":"瀬戸内町","code5":"46525","code6":"465259"}},{"arcs":[[-78,141,-79,142]],"type":"Polygon","properties":{"pref":"鹿児島県","county":"大島郡","city":"龍郷町","code5":"46527","code6":"465275"}},{"arcs":[[143]],"type":"Polygon","properties":{"pref":"鹿児島県","county":"大島郡","city":"喜界町","code5":"46529","code6":"465291"}},{"arcs":[[145,146,147]],"type":"Polygon","properties":{"pref":"鹿児島県","county":"大島郡","city":"徳之島町","code5":"46530","code6":"465305"}},{"arcs":[[-147,148,149]],"type":"Polygon","properties":{"pref":"鹿児島県","county":"大島郡","city":"天城町","code5":"46531","code6":"465313"}},{"arcs":[[-146,150,-149]],"type":"Polygon","properties":{"pref":"鹿児島県","county":"大島郡","city":"伊仙町","code5":"46532","code6":"465321"}},{"arcs":[[151,152]],"type":"Polygon","properties":{"pref":"鹿児島県","county":"大島郡","city":"和泊町","code5":"46533","code6":"465330"}},{"arcs":[[-152,153]],"type":"Polygon","properties":{"pref":"鹿児島県","county":"大島郡","city":"知名町","code5":"46534","code6":"465348"}},{"arcs":[[154]],"type":"Polygon","properties":{"pref":"鹿児島県","county":"大島郡","city":"与論町","code5":"46535","code6":"465356"}}]}}}