{"type":"Topology","arcs":[[[24857,13955],[57,-18],[42,-40],[114,0],[66,18]],[[25136,13915],[-13,-118]],[[25123,13797],[-44,-17],[-26,-34],[-5,-72],[-44,-16],[-29,-35]],[[24975,13623],[-44,33],[-50,-8],[-34,26],[-14,-59],[-51,-44],[-33,5],[-59,-42],[-49,7]],[[24641,13541],[-1,72],[-45,74],[5,-141],[-26,3],[-3,174],[59,9],[37,58],[46,-20],[39,51],[31,-4],[53,36],[-9,87],[-37,-11],[-19,48],[33,0],[9,-4],[16,-7],[6,-3],[10,-4],[12,-4]],[[25351,14295],[40,-55]],[[25391,14240],[-104,-183],[11,-29]],[[25298,14028],[-86,-18]],[[25212,14010],[-56,42],[-18,-29],[-41,19],[-2,50],[-33,55]],[[25062,14147],[45,59],[41,9],[85,73]],[[25233,14288],[54,18],[64,-11]],[[7210,3597],[29,-28],[84,-17],[-6,-70],[19,-42],[-32,-103],[-68,-76],[-49,-23],[-40,-58],[-6,-54],[29,-39],[-70,-109],[-61,-40],[-12,-114],[-49,-28],[-62,-57],[-49,-91],[3,-74],[31,-29],[-39,-103],[42,-114],[-26,-87],[-6,-102],[11,-15],[-22,-79],[-1,-53],[-37,-64],[-34,-27],[-79,27],[-31,38],[-64,-4],[-24,-41],[13,-32],[-44,-52],[-59,-29],[-60,-4],[-106,85],[-28,39],[-64,39],[-33,4],[-74,70],[25,46],[56,22],[54,48],[20,44],[-7,54],[18,82],[-47,11],[-8,39],[-63,82],[-32,-19],[-61,12],[-79,-65],[-18,-43],[-38,62],[-38,17],[13,62],[24,12],[19,55],[74,31],[84,-63],[41,12],[-10,105],[41,24],[-6,52],[54,9],[56,-78],[-52,-101],[28,-33],[67,76],[90,-32],[47,-5],[74,57],[67,1],[27,-18],[64,2],[16,25],[-27,59],[18,85],[27,53],[-1,48],[50,6],[40,61],[63,72],[47,-34],[40,-61],[26,102],[46,118],[31,12],[-5,44],[-50,48],[-6,38],[76,53],[22,67],[51,89],[3,101],[23,10]],[[2810,10837],[54,-15],[9,-57],[-52,6],[-76,-43],[-21,59],[86,50]],[[6372,1825],[-11,-30],[-67,-6],[-5,31],[83,5]],[[24857,13955],[-8,84],[38,-5],[82,115],[93,-2]],[[25212,14010],[-76,-95]],[[26928,16517],[33,-118],[50,-46],[11,-31]],[[27022,16322],[-14,-38],[128,-126],[44,20]],[[27180,16178],[45,-42],[58,-110],[-53,-13],[8,-73],[-70,1],[-81,-27],[-103,-92],[-53,29],[-43,50],[-65,17],[-39,-23],[-90,5],[45,-77],[11,-49],[35,-51],[-109,-13],[-36,-53],[-79,27],[-43,-55],[-24,22]],[[26494,15651],[-12,39],[-114,45],[-37,2],[-38,-57],[-96,-25]],[[26197,15655],[-17,78],[-44,57]],[[26136,15790],[27,45],[38,-18],[86,69],[32,-32],[18,65],[44,46],[39,100],[-3,65],[-67,39],[-27,-2],[-112,76],[-52,8],[-68,33],[-47,-51],[-61,28]],[[25983,16261],[1,57],[63,86],[43,37],[70,4],[60,-25],[31,41],[41,14]],[[26292,16475],[56,-22],[83,24],[16,45]],[[26447,16522],[54,-23],[40,-79],[31,8],[63,-29],[79,59],[49,-14],[120,63],[45,10]],[[26612,16737],[14,-76],[45,-60],[-17,-56],[-72,45],[-26,-21],[-64,12],[-15,64],[31,54],[52,30],[52,8]],[[24956,13491],[13,-32],[-52,-83],[31,-37],[53,-8],[-15,-62],[-21,-10],[32,-93],[103,-128]],[[25100,13038],[-31,-47],[-64,-21],[-34,16],[-106,-54],[-33,-42],[-69,24],[-56,36],[13,115],[29,77],[1,59],[-24,82],[-35,-10],[-29,64],[112,43]],[[24774,13380],[55,45],[45,-2],[12,44],[52,-12],[18,36]],[[25682,14539],[-42,-55],[68,-73],[-96,-8],[-3,-57]],[[25609,14346],[-17,15],[-76,-10],[-21,57],[8,57],[-48,10],[-37,-52],[-39,9]],[[25379,14432],[-38,51],[6,24],[-34,62],[30,23]],[[25343,14592],[7,51],[-6,97],[25,43],[-8,58],[22,23],[15,100],[-17,41]],[[25381,15005],[5,51]],[[25386,15056],[12,37]],[[25398,15093],[28,-105],[42,-78],[34,2],[16,41],[50,-69],[23,26],[39,-60],[-11,-70],[-44,-95],[39,-83],[68,-63]],[[25685,14538],[65,-52]],[[25750,14486],[-84,8],[19,44]],[[24975,13623],[33,-65]],[[25008,13558],[-52,-67]],[[24774,13380],[-18,33],[-9,10],[-12,7],[-8,13],[-6,-4],[-21,5],[-59,97]],[[24698,13435],[28,0],[24,-16],[15,-29],[-42,-13],[-51,9],[26,49]],[[25677,15179],[11,-23],[-18,-30],[-48,32],[-23,-58],[91,-106],[66,-47],[52,-61],[24,-7],[52,-74],[-30,-14],[-13,-78],[79,-134],[46,-43],[47,-21],[51,-56],[42,-126],[-12,-46],[-116,61],[-145,170],[-13,30],[-33,54],[-105,-63]],[[25398,15093],[101,76],[18,43],[66,51],[61,7]],[[25644,15270],[33,-91]],[[26444,14860],[36,-130],[-73,-58],[-54,-1],[-6,77],[22,57],[52,22],[23,33]],[[26327,14733],[22,-64],[23,-31],[-78,-76],[-56,11],[-29,32],[16,36],[102,92]],[[25685,14538],[97,59],[35,-49],[8,-38],[-19,-17],[-41,40],[-15,-47]],[[26259,14504],[77,-40],[-37,-45],[-42,-4],[2,89]],[[26216,14080],[19,-27],[-8,-63],[-33,-41],[-36,37],[26,35],[-5,59],[37,0]],[[26506,14960],[18,-19],[-28,-100],[-27,8],[-16,62],[53,49]],[[12199,5507],[17,-67],[57,-65],[11,-59],[60,-36],[50,-100],[1,-79],[47,-88],[106,-81],[-20,-31],[-1,-78],[25,-45],[67,-23],[16,-27],[60,-7],[30,22],[83,-38],[30,-70],[67,-60],[118,-37],[38,5],[39,-42],[11,-49],[60,-77],[1,-25],[-51,-32],[-22,24],[-83,-19],[-96,23],[-74,-5],[-50,-27],[-54,26],[-76,-39],[-104,-26],[-82,-3],[-27,-34],[-48,-7],[-117,81],[-77,30],[-51,37],[-11,62],[-35,74],[41,19],[43,-52],[80,1],[-6,74],[-71,122],[-51,10],[-18,66],[100,78],[17,43],[8,89],[-15,60],[26,29],[75,25],[-65,133],[-59,89],[-4,70],[-39,44],[32,45],[-9,47]],[[11646,5206],[82,-24],[53,-45],[121,-68],[44,-120],[4,-71],[-27,-45],[-56,-17],[-53,13],[-59,34],[-34,3],[-8,18],[-21,14],[-13,26],[-18,9],[-23,45],[-14,8],[-4,21],[-16,20],[24,17],[-17,107],[35,55]],[[11533,5061],[21,-54],[64,-11],[4,-16],[10,-3],[23,-32],[5,-15],[12,-6],[3,-16],[35,-29],[-5,-42],[-67,-30],[-76,25],[-47,65],[8,35],[-23,80],[33,49]],[[12057,4356],[55,-27],[30,-42],[-13,-35],[-51,-11],[-32,30],[11,85]],[[12044,5672],[67,-40],[18,-44],[-67,-19],[-44,37],[-12,48],[38,18]],[[25333,13612],[9,-103],[67,-8],[3,62],[21,30],[136,38],[1,-60],[52,-37],[-7,-70],[-27,-2],[-34,-49],[-33,-13],[-99,-129],[-42,-15],[-50,15],[-69,-57]],[[25261,13214],[-16,44],[-32,3],[-58,71],[-14,46],[-44,3],[-7,104]],[[25090,13485],[25,26],[-1,63],[29,42],[5,52],[29,7]],[[25177,13675],[85,-24],[16,-54],[55,15]],[[26032,13505],[-1,-15],[-113,-99],[6,54],[85,37],[23,23]],[[27893,16656],[-22,4],[-50,71],[-5,42],[-32,23],[-7,84],[-46,3],[-62,30],[-71,-61],[-12,-57],[-31,0]],[[27555,16795],[-61,67],[-82,38],[-23,35],[-72,39]],[[27317,16974],[30,76],[-25,66],[85,43],[62,16],[30,71],[178,180],[15,52],[69,148],[24,31],[49,110],[-1,51],[-48,50],[13,59],[51,46],[38,-6],[-8,-49],[84,-67],[32,-50],[117,-29],[-10,-82],[48,-58],[32,-63],[-13,-110],[48,-81],[-23,-67],[12,-36],[-17,-55],[29,-26],[-46,-59],[5,-53],[-65,-31],[-17,-53],[-40,-14],[19,-49],[-44,-23],[3,-53],[-61,-52],[-2,-80],[-28,-52],[-49,-19]],[[26928,16517],[40,29],[47,74],[31,13],[106,-26],[-10,49],[-87,33],[-31,51],[74,94],[17,38],[89,18],[61,33],[52,51]],[[27555,16795],[-38,-39],[-26,-74],[-62,-42],[-37,-81],[-78,-52],[-35,-2],[-59,29],[-32,-46],[-26,-2],[-93,-87],[3,-25],[-50,-52]],[[27893,16656],[2,-27],[-74,-81],[-34,-84],[-52,-45],[-93,-9],[-21,-18],[-151,-14],[-129,43],[-59,-9],[-14,-45],[52,-90],[-23,-51],[-29,-12],[-111,25],[23,-61]],[[26292,16475],[20,47],[-23,84],[-70,73],[-81,5],[-35,64],[-29,5],[4,121]],[[26078,16874],[81,5],[99,34],[40,-10],[123,-83],[70,-13],[58,-54],[-61,-40],[-17,-83],[-23,-53],[-1,-55]],[[26594,16952],[54,-27],[2,-46],[-29,-54],[-40,15],[-31,70],[44,42]],[[25983,16261],[-104,195],[-7,113],[61,62],[-8,54],[-27,41],[-50,37],[-2,41],[33,79],[49,3],[74,-32],[76,20]],[[25807,16568],[42,-32],[-20,-52],[-60,-13],[-23,61],[61,36]],[[26197,15655],[-67,-64]],[[26130,15591],[-28,12],[-18,-74],[-35,-46],[-41,53],[-37,-11],[-68,-92],[-88,8],[-38,-20],[-132,-103],[-1,-48]],[[25386,15056],[-53,7],[-60,35],[-62,-28],[-57,26]],[[25154,15096],[77,58],[81,84],[52,-55],[90,10],[23,35],[-9,58],[41,29],[16,42],[97,52],[22,47],[49,10],[3,40],[-28,51],[22,46],[33,21],[27,-33],[57,58],[42,-6],[48,-37],[37,54],[79,44],[57,-13],[23,79],[43,20]],[[26494,15651],[-32,-34],[57,-94],[-7,-42],[-52,-49],[-134,-44],[-19,32],[-45,3],[-35,-56]],[[26227,15367],[-28,38],[-21,92],[-49,57],[1,37]],[[26227,15367],[14,-58],[-32,-34],[-3,-56],[-97,-16],[-41,50],[-103,23],[-30,31],[-74,-7],[-29,21],[-91,-40],[-57,-90],[-7,-12]],[[25500,17109],[108,-94],[15,-46],[-18,-45],[-94,-26],[-94,23],[-159,-7],[-44,23],[-22,69],[28,78],[31,16],[85,-24],[81,-2],[83,35]],[[25381,15005],[-63,-107],[-22,-74],[1,-50],[-161,-62]],[[25136,14712],[-115,255],[-16,59],[10,122],[-4,66],[55,-5],[59,-112],[29,-1]],[[25343,14592],[-107,-17],[-61,15]],[[25175,14590],[-39,122]],[[25233,14288],[17,94],[-24,6],[-16,71],[-33,5],[-18,52],[16,74]],[[25379,14432],[6,-18],[-53,-70],[19,-49]],[[25609,14346],[-65,6],[-26,-42],[16,-54]],[[25534,14256],[-53,-32],[-90,16]],[[25534,14256],[10,-80],[-36,-14],[-60,-62],[-44,-107],[-11,-106]],[[25393,13887],[-65,38],[-42,4],[-11,32],[23,67]],[[25393,13887],[-91,-155]],[[25302,13732],[-65,34],[-84,13]],[[25153,13779],[-30,18]],[[25177,13675],[-24,104]],[[25302,13732],[2,-94],[29,-26]],[[25090,13485],[-82,73]],[[23139,13852],[49,-26],[29,-44],[9,-84],[-24,-79],[-46,-42],[-4,-51],[19,-117],[-97,-16],[18,82],[-34,25],[-13,72],[29,51],[18,129],[34,37],[13,63]],[[23640,13840],[12,-41],[-29,-37],[-14,-59],[-34,6],[36,93],[29,38]],[[22892,14014],[5,-27],[80,-20],[33,-28],[-57,-53],[-8,52],[-48,-16],[17,-64],[-57,-48],[-62,46],[-5,41],[29,55],[32,-28],[41,90]],[[22739,13757],[66,-109],[-75,-33],[-15,38],[-45,10],[15,62],[54,32]],[[22574,13831],[2,-46],[-55,-29],[9,63],[44,12]],[[22782,13606],[29,-55],[-43,-19],[-20,45],[34,29]],[[22479,16238],[47,-13],[42,-87],[-35,-56],[-36,16],[-139,-25],[44,106],[77,59]],[[22037,14840],[-3,-65],[18,-55],[54,-28],[-70,-43],[-50,89],[51,102]],[[43483,11603],[58,-2],[71,-33],[42,-91],[-31,-88],[0,-55],[-54,-80],[-123,-31],[-47,17],[-59,49],[20,52],[0,107],[20,68],[-2,50],[30,24],[75,13]],[[43720,12166],[107,-34],[68,5],[67,-34],[-47,-122],[-22,-18],[-71,-4],[-58,33],[-48,94],[4,80]],[[43175,2709],[69,-25],[-30,-44],[-26,14],[-13,55]],[[26615,19367],[-102,-126],[-13,-84],[-39,-110],[-41,-25],[-57,0],[-41,-34],[10,-61],[-113,-39],[-25,-89],[-42,57],[4,50],[66,72],[29,74],[46,33],[52,81],[91,75],[44,90],[67,8],[64,28]],[[26109,18771],[-18,-73],[-42,38],[60,35]],[[26180,18485],[92,-63],[10,-68],[-36,-71],[9,-66],[-69,-11],[-91,46],[3,77],[-53,36],[41,70],[81,31],[13,19]],[[20095,14900],[54,-35],[61,-110],[35,12],[40,-76],[60,-77],[-51,-45],[-46,-98],[9,-25],[-16,-80],[32,-31],[18,-56],[-18,-17],[-54,16],[-33,40],[-67,32],[-24,61],[-41,48],[9,28],[-34,51],[-91,72],[-109,19],[-42,29],[-41,90],[40,45],[53,0],[68,24],[98,69],[90,14]],[[27673,24390],[51,-70],[21,-50],[-13,-38],[-58,43],[-28,67],[27,48]],[[25261,13214],[-34,-39],[-45,-10],[-82,-127]],[[9276,4011],[82,-67],[9,-41],[-12,-62],[-93,-79],[-80,0],[-92,33],[-24,81],[11,58],[51,52],[75,23],[73,2]],[[9193,4549],[32,-47],[12,-59],[-103,75],[59,31]],[[4410,2487],[93,-95],[7,-43],[57,-28],[-13,-72],[39,-56],[66,51],[16,53],[62,-33],[21,14],[69,-61],[44,62],[58,-33],[7,-69],[107,-19],[74,-45],[29,-76],[84,-6],[-12,-102],[-43,-32],[-7,-68],[16,-36],[-102,-55],[-59,-117],[23,-80],[-14,-93],[-51,42],[-52,0],[17,-67],[-20,-87],[-94,1],[-93,72],[-60,28],[-145,-16],[-83,35],[-85,7],[-98,22],[-75,58],[-39,47],[-53,22],[-21,-135],[-83,6],[-35,27],[-85,-2],[-97,160],[47,35],[58,-39],[28,17],[-37,74],[16,55],[134,-45],[-31,62],[17,41],[42,-47],[56,53],[19,-44],[49,-29],[10,-50],[44,5],[11,102],[-29,27],[47,67],[-37,39],[-18,58],[37,17],[15,37],[-36,75],[34,17],[-7,63],[52,83],[60,21],[-1,57],[-44,23],[33,42],[61,3]],[[4437,164],[104,-33],[15,-50],[-36,-62],[-40,-19],[-183,17],[-38,29],[6,62],[26,4],[91,50],[55,2]],[[5574,1321],[63,-43],[42,19],[32,-78],[-18,-48],[-69,-56],[-65,18],[-53,108],[-1,38],[38,43],[31,-1]],[[5418,1962],[94,-51],[-14,-37],[67,-52],[1,-37],[-47,-21],[-54,48],[-107,10],[33,67],[-24,51],[51,22]],[[6007,1872],[32,-24],[48,-101],[-50,-46],[-65,-1],[-22,75],[24,68],[33,29]],[[4144,2015],[66,-57],[-10,-53],[-61,45],[-32,40],[37,25]],[[5293,1251],[20,-34],[-66,-74],[-15,56],[61,52]],[[5209,1115],[7,-60],[-53,-5],[-26,40],[72,25]],[[4112,2123],[-34,-95],[-37,35],[15,46],[56,14]],[[348,2722],[70,-21],[97,-52],[-47,-82],[-48,-28],[-44,-52],[-51,25],[-26,-10],[-67,21],[-13,-31],[-80,-3],[-98,42],[-41,-1],[17,89],[61,25],[1,30],[38,37],[90,-26],[81,29],[33,-18],[27,26]]],"transform":{"scale":[0.00019089116078333478,0.00015741740668133198],"translate":[122.94015612240729,24.04587194603363]},"objects":{"japan":{"type":"GeometryCollection","geometries":[{"arcs":[[0,1,2,3,4]],"type":"Polygon","properties":{"pref":"沖縄県","city":"那覇市","code5":"47201","code6":"472018"}},{"arcs":[[5,6,7,8,9,10]],"type":"Polygon","properties":{"pref":"沖縄県","city":"宜野湾市","code5":"47205","code6":"472051"}},{"arcs":[[[11]],[[12]],[[13]]],"type":"MultiPolygon","properties":{"pref":"沖縄県","city":"石垣市","code5":"47207","code6":"472077"}},{"arcs":[[-1,14,-9,15]],"type":"Polygon","properties":{"pref":"沖縄県","city":"浦添市","code5":"47208","code6":"472085"}},{"arcs":[[[16,17,18,19,20,21,22,23,24]],[[25]]],"type":"MultiPolygon","properties":{"pref":"沖縄県","city":"名護市","code5":"47209","code6":"472093"}},{"arcs":[[26,27,28]],"type":"Polygon","properties":{"pref":"沖縄県","city":"糸満市","code5":"47210","code6":"472107"}},{"arcs":[[[29,30,31,32,33,34,35]],[[36,37]]],"type":"MultiPolygon","properties":{"pref":"沖縄県","city":"沖縄市","code5":"47211","code6":"472115"}},{"arcs":[[[-4,38,39,-29,40]],[[41]]],"type":"MultiPolygon","properties":{"pref":"沖縄県","city":"豊見城市","code5":"47212","code6":"472123"}},{"arcs":[[[42,-36,43,44]],[[45]],[[46]],[[-37,47]],[[48]],[[49]],[[50]]],"type":"MultiPolygon","properties":{"pref":"沖縄県","city":"うるま市","code5":"47213","code6":"472131"}},{"arcs":[[[51]],[[52]],[[53]],[[54]],[[55]]],"type":"MultiPolygon","properties":{"pref":"沖縄県","city":"宮古島市","code5":"47214","code6":"472140"}},{"arcs":[[[56,57,58,59]],[[60]]],"type":"MultiPolygon","properties":{"pref":"沖縄県","city":"南城市","code5":"47215","code6":"472158"}},{"arcs":[[61,62,63]],"type":"Polygon","properties":{"pref":"沖縄県","county":"国頭郡","city":"国頭村","code5":"47301","code6":"473014"}},{"arcs":[[-17,64,-63,65]],"type":"Polygon","properties":{"pref":"沖縄県","county":"国頭郡","city":"大宜味村","code5":"47302","code6":"473022"}},{"arcs":[[-18,-66,-62,66]],"type":"Polygon","properties":{"pref":"沖縄県","county":"国頭郡","city":"東村","code5":"47303","code6":"473031"}},{"arcs":[[[-24,67,68]],[[69]]],"type":"MultiPolygon","properties":{"pref":"沖縄県","county":"国頭郡","city":"今帰仁村","code5":"47306","code6":"473065"}},{"arcs":[[[-23,70,-68]],[[71]]],"type":"MultiPolygon","properties":{"pref":"沖縄県","county":"国頭郡","city":"本部町","code5":"47308","code6":"473081"}},{"arcs":[[-21,72,73,-44,-35,74,75]],"type":"Polygon","properties":{"pref":"沖縄県","county":"国頭郡","city":"恩納村","code5":"47311","code6":"473111"}},{"arcs":[[-20,76,77,-73]],"type":"Polygon","properties":{"pref":"沖縄県","county":"国頭郡","city":"宜野座村","code5":"47313","code6":"473138"}},{"arcs":[[-45,-74,-78,78]],"type":"Polygon","properties":{"pref":"沖縄県","county":"国頭郡","city":"金武町","code5":"47314","code6":"473146"}},{"arcs":[[79]],"type":"Polygon","properties":{"pref":"沖縄県","county":"国頭郡","city":"伊江村","code5":"47315","code6":"473154"}},{"arcs":[[-34,80,81,-75]],"type":"Polygon","properties":{"pref":"沖縄県","county":"中頭郡","city":"読谷村","code5":"47324","code6":"473243"}},{"arcs":[[-33,82,83,-81]],"type":"Polygon","properties":{"pref":"沖縄県","county":"中頭郡","city":"嘉手納町","code5":"47325","code6":"473251"}},{"arcs":[[-11,84,-83,-32,85]],"type":"Polygon","properties":{"pref":"沖縄県","county":"中頭郡","city":"北谷町","code5":"47326","code6":"473260"}},{"arcs":[[-6,-86,-31,86,87]],"type":"Polygon","properties":{"pref":"沖縄県","county":"中頭郡","city":"北中城村","code5":"47327","code6":"473278"}},{"arcs":[[-7,-88,88,89]],"type":"Polygon","properties":{"pref":"沖縄県","county":"中頭郡","city":"中城村","code5":"47328","code6":"473286"}},{"arcs":[[-2,-16,-8,-90,90,91,92]],"type":"Polygon","properties":{"pref":"沖縄県","county":"中頭郡","city":"西原町","code5":"47329","code6":"473294"}},{"arcs":[[-60,93,-92,94]],"type":"Polygon","properties":{"pref":"沖縄県","county":"島尻郡","city":"与那原町","code5":"47348","code6":"473481"}},{"arcs":[[-3,-93,-94,-59,95,-39]],"type":"Polygon","properties":{"pref":"沖縄県","county":"島尻郡","city":"南風原町","code5":"47350","code6":"473502"}},{"arcs":[[[96]],[[97]]],"type":"MultiPolygon","properties":{"pref":"沖縄県","county":"島尻郡","city":"渡嘉敷村","code5":"47353","code6":"473537"}},{"arcs":[[[98]],[[99]],[[100]],[[101]]],"type":"MultiPolygon","properties":{"pref":"沖縄県","county":"島尻郡","city":"座間味村","code5":"47354","code6":"473545"}},{"arcs":[[102]],"type":"Polygon","properties":{"pref":"沖縄県","county":"島尻郡","city":"粟国村","code5":"47355","code6":"473553"}},{"arcs":[[103]],"type":"Polygon","properties":{"pref":"沖縄県","county":"島尻郡","city":"渡名喜村","code5":"47356","code6":"473561"}},{"arcs":[[104]],"type":"Polygon","properties":{"pref":"沖縄県","county":"島尻郡","city":"南大東村","code5":"47357","code6":"473570"}},{"arcs":[[[105]],[[106]]],"type":"MultiPolygon","properties":{"pref":"沖縄県","county":"島尻郡","city":"北大東村","code5":"47358","code6":"473588"}},{"arcs":[[[107]],[[108]]],"type":"MultiPolygon","properties":{"pref":"沖縄県","county":"島尻郡","city":"伊平屋村","code5":"47359","code6":"473596"}},{"arcs":[[109]],"type":"Polygon","properties":{"pref":"沖縄県","county":"島尻郡","city":"伊是名村","code5":"47360","code6":"473600"}},{"arcs":[[[110]],[[111]]],"type":"MultiPolygon","properties":{"pref":"沖縄県","county":"島尻郡","city":"久米島町","code5":"47361","code6":"473618"}},{"arcs":[[-27,-40,-96,-58,112]],"type":"Polygon","properties":{"pref":"沖縄県","county":"島尻郡","city":"八重瀬町","code5":"47362","code6":"473626"}},{"arcs":[[[113]],[[114]]],"type":"MultiPolygon","properties":{"pref":"沖縄県","county":"宮古郡","city":"多良間村","code5":"47375","code6":"473758"}},{"arcs":[[[115]],[[116]],[[117]],[[118]],[[119]],[[120]],[[121]],[[122]],[[123]]],"type":"MultiPolygon","properties":{"pref":"沖縄県","county":"八重山郡","city":"竹富町","code5":"47381","code6":"473812"}},{"arcs":[[124]],"type":"Polygon","properties":{"pref":"沖縄県","county":"八重山郡","city":"与那国町","code5":"47382","code6":"473821"}}]}}}