{"type":"FeatureCollection", "features": [
{"type":"Feature","geometry":{"type":"Polygon","coordinates":[[[140.66079,40.94845],[140.65191,40.95026],[140.61604,40.95179],[140.60887,40.95043],[140.60525,40.95987],[140.60074,40.96244],[140.58747,40.96548],[140.58151,40.96275],[140.56945,40.9685],[140.56309,40.97022],[140.5536,40.96926],[140.55277,40.96136],[140.55569,40.95538],[140.56219,40.95324],[140.56652,40.94813],[140.56672,40.94455],[140.57612,40.93946],[140.57993,40.94032],[140.58773,40.93421],[140.58276,40.92597],[140.58605,40.9226],[140.58251,40.91821],[140.58352,40.91401],[140.57871,40.91177],[140.57947,40.90708],[140.575,40.9043],[140.57526,40.89705],[140.58394,40.89437],[140.58598,40.88627],[140.58989,40.8833],[140.58776,40.88],[140.59075,40.87587],[140.5921,40.8686],[140.59003,40.85319],[140.5851,40.84355],[140.57991,40.84096],[140.58199,40.83289],[140.5772,40.82897],[140.57751,40.81498],[140.57356,40.80986],[140.57448,40.80139],[140.57707,40.79914],[140.57287,40.79362],[140.57661,40.78722],[140.5721,40.78004],[140.57801,40.76709],[140.57344,40.76056],[140.5636,40.76062],[140.55822,40.7575],[140.55568,40.7484],[140.54361,40.74601],[140.53868,40.73923],[140.52991,40.73666],[140.52393,40.73693],[140.52728,40.731],[140.52024,40.72969],[140.52113,40.72196],[140.52514,40.7199],[140.53692,40.70599],[140.54706,40.70028],[140.54875,40.69548],[140.54073,40.68766],[140.54427,40.67712],[140.5489,40.67408],[140.55622,40.67861],[140.55576,40.68486],[140.55918,40.68806],[140.56783,40.68786],[140.5719,40.68943],[140.57825,40.68732],[140.59852,40.6921],[140.61538,40.68743],[140.62288,40.68752],[140.6344,40.68985],[140.63605,40.68367],[140.64084,40.67707],[140.65222,40.67014],[140.6586,40.66217],[140.6682,40.65667],[140.68431,40.65926],[140.69057,40.65824],[140.69546,40.66052],[140.70139,40.65688],[140.70554,40.66176],[140.71624,40.66219],[140.72325,40.66584],[140.72969,40.66628],[140.7334,40.66234],[140.74051,40.66105],[140.75173,40.66303],[140.76095,40.66093],[140.7664,40.66594],[140.77551,40.65593],[140.7802,40.65516],[140.78434,40.65051],[140.79348,40.64751],[140.79757,40.64809],[140.80587,40.64525],[140.81158,40.641],[140.82606,40.62428],[140.83816,40.61369],[140.84431,40.61051],[140.84427,40.60592],[140.8528,40.60941],[140.86292,40.60964],[140.87669,40.61389],[140.87622,40.62382],[140.88369,40.63556],[140.88379,40.64067],[140.87629,40.64654],[140.88012,40.65707],[140.88693,40.65317],[140.90483,40.65424],[140.91142,40.65275],[140.92101,40.64543],[140.93051,40.64505],[140.93894,40.6429],[140.955,40.64699],[140.95621,40.65598],[140.96109,40.6594],[140.95974,40.66525],[140.96824,40.67417],[140.96757,40.682],[140.97105,40.69332],[140.97897,40.69762],[140.97532,40.69933],[140.97002,40.70583],[140.96362,40.70965],[140.95317,40.7187],[140.93918,40.72153],[140.92917,40.72161],[140.92632,40.72666],[140.91995,40.72629],[140.91564,40.72969],[140.90984,40.72917],[140.90123,40.73836],[140.90191,40.74347],[140.90626,40.74662],[140.90571,40.75105],[140.91053,40.75706],[140.91642,40.75675],[140.92026,40.7617],[140.93954,40.7595],[140.94492,40.76338],[140.95342,40.76557],[140.96111,40.77274],[140.95811,40.78003],[140.97023,40.78665],[140.97562,40.79165],[140.97675,40.80079],[140.98061,40.80618],[140.97731,40.80725],[140.96827,40.81451],[140.96023,40.8152],[140.95457,40.82095],[140.95614,40.83041],[140.95011,40.837],[140.94196,40.83874],[140.93829,40.84251],[140.93005,40.84548],[140.93333,40.8507],[140.93129,40.8562],[140.92405,40.8585],[140.91907,40.8632],[140.91299,40.86481],[140.91026,40.87147],[140.89685,40.87919],[140.88828,40.88943],[140.88916,40.89619],[140.883,40.89707],[140.88143,40.90234],[140.87247,40.90084],[140.86767,40.90303],[140.85892,40.90395],[140.8604,40.88908],[140.84996,40.8833],[140.84966,40.87794],[140.84482,40.87276],[140.83489,40.87212],[140.83488,40.86653],[140.82233,40.86089],[140.82053,40.85416],[140.81261,40.8478],[140.80173,40.83935],[140.78907,40.83381],[140.78039,40.83188],[140.75957,40.83467],[140.75374,40.83168],[140.73809,40.82999],[140.72759,40.83687],[140.72044,40.84335],[140.70806,40.8504],[140.70212,40.8513],[140.69191,40.86041],[140.68489,40.8712],[140.67693,40.88946],[140.67584,40.89554],[140.67446,40.90588],[140.6681,40.92738],[140.66247,40.94074],[140.66079,40.94845]]]},"properties":{"pref":"青森県","city":"青森市","code5":"02201","code6":"022012"}},
{"type":"Feature","geometry":{"type":"Polygon","coordinates":[[[140.33962,40.75922],[140.33285,40.76137],[140.32946,40.7571],[140.32245,40.75363],[140.3156,40.74669],[140.30707,40.74235],[140.30145,40.73325],[140.29607,40.73258],[140.2882,40.72694],[140.28682,40.72038],[140.28832,40.7086],[140.29147,40.69877],[140.29476,40.6941],[140.30894,40.70386],[140.31503,40.70159],[140.32774,40.70104],[140.33713,40.69944],[140.33217,40.6929],[140.32214,40.68753],[140.31472,40.68066],[140.30319,40.67774],[140.28874,40.66928],[140.29034,40.66693],[140.27818,40.66236],[140.27955,40.65458],[140.26883,40.65334],[140.25617,40.64887],[140.24637,40.64891],[140.24009,40.64504],[140.23289,40.64504],[140.2201,40.64087],[140.21659,40.63124],[140.21895,40.62449],[140.20837,40.61959],[140.20484,40.60922],[140.18939,40.60567],[140.19305,40.60135],[140.19081,40.59354],[140.18358,40.59582],[140.17547,40.59372],[140.16489,40.58738],[140.15711,40.58752],[140.15505,40.57144],[140.16207,40.56525],[140.16075,40.55839],[140.16321,40.55695],[140.16616,40.56065],[140.17811,40.56678],[140.18349,40.55991],[140.19014,40.55577],[140.19805,40.55659],[140.19866,40.5616],[140.20249,40.56636],[140.2074,40.5671],[140.21119,40.57196],[140.21093,40.58169],[140.2199,40.58576],[140.22198,40.58931],[140.2308,40.59049],[140.2353,40.59674],[140.2372,40.6043],[140.24766,40.6028],[140.24866,40.60748],[140.25926,40.61391],[140.2689,40.61601],[140.28595,40.61094],[140.28782,40.60717],[140.29763,40.60594],[140.29622,40.60044],[140.30148,40.59421],[140.30787,40.59393],[140.31047,40.58839],[140.30642,40.58532],[140.29894,40.58448],[140.30882,40.57884],[140.30392,40.57369],[140.31026,40.56758],[140.31013,40.55249],[140.30264,40.54684],[140.30159,40.5378],[140.30203,40.52757],[140.30595,40.52136],[140.31118,40.52045],[140.31425,40.51548],[140.31982,40.51511],[140.32328,40.50947],[140.32014,40.50644],[140.32013,40.49974],[140.33032,40.49095],[140.32705,40.48789],[140.32829,40.48289],[140.33646,40.47944],[140.33759,40.47464],[140.34534,40.47179],[140.34781,40.46755],[140.3613,40.47839],[140.37258,40.47619],[140.37795,40.47654],[140.38375,40.48513],[140.38696,40.48706],[140.39567,40.48204],[140.39672,40.47823],[140.40612,40.47464],[140.4175,40.47995],[140.42708,40.48259],[140.43721,40.47826],[140.44438,40.48025],[140.44856,40.4779],[140.45436,40.48123],[140.45926,40.48023],[140.46465,40.48688],[140.45873,40.49282],[140.46263,40.49832],[140.46293,40.50322],[140.47714,40.50429],[140.48392,40.50835],[140.48187,40.51461],[140.48429,40.5185],[140.49386,40.52191],[140.51042,40.52424],[140.52008,40.52287],[140.53113,40.52695],[140.53536,40.53001],[140.54141,40.54538],[140.546,40.54345],[140.55105,40.53612],[140.55439,40.53925],[140.55354,40.54922],[140.5593,40.54875],[140.56407,40.54292],[140.56925,40.5442],[140.57601,40.53771],[140.58303,40.5383],[140.58769,40.54079],[140.59815,40.54284],[140.59869,40.54814],[140.59317,40.55078],[140.59208,40.55526],[140.58358,40.55858],[140.57949,40.56351],[140.56953,40.56269],[140.55963,40.56396],[140.55761,40.55982],[140.55271,40.56076],[140.54821,40.55494],[140.54019,40.5577],[140.53508,40.5632],[140.53038,40.57128],[140.53873,40.57433],[140.53594,40.57684],[140.52924,40.57304],[140.52629,40.57787],[140.52819,40.58809],[140.52582,40.59807],[140.52636,40.60853],[140.5236,40.61388],[140.51384,40.61524],[140.51144,40.62102],[140.50444,40.6245],[140.50616,40.62926],[140.50169,40.63029],[140.49847,40.6355],[140.49706,40.64262],[140.49352,40.65076],[140.48289,40.6515],[140.48045,40.64577],[140.47181,40.6508],[140.46724,40.65535],[140.46566,40.66069],[140.4608,40.66139],[140.46169,40.66748],[140.46547,40.67051],[140.46122,40.68538],[140.45608,40.68757],[140.45363,40.69464],[140.44562,40.69831],[140.44169,40.70552],[140.43577,40.70807],[140.42793,40.71704],[140.42655,40.72201],[140.41979,40.72413],[140.42044,40.73665],[140.4017,40.7385],[140.40202,40.74445],[140.39936,40.74668],[140.389,40.74262],[140.38173,40.74782],[140.35684,40.74874],[140.35552,40.75506],[140.34662,40.75848],[140.33962,40.75922]]]},"properties":{"pref":"青森県","city":"弘前市","code5":"02202","code6":"022021"}},
{"type":"Feature","geometry":{"type":"MultiPolygon","coordinates":[[[[141.64652,40.4747],[141.64157,40.47945],[141.63356,40.48423],[141.63157,40.49375],[141.625,40.49705],[141.62176,40.49866],[141.61943,40.50458],[141.61114,40.5063],[141.61015,40.51274],[141.60124,40.51721],[141.5977,40.52042],[141.59677,40.51991],[141.59462,40.52008],[141.58776,40.52218],[141.58246,40.53147],[141.58212,40.53207],[141.58208,40.53225],[141.58215,40.5323],[141.58215,40.53254],[141.58092,40.53395],[141.58049,40.53712],[141.58085,40.53732],[141.581,40.53738],[141.57552,40.54294],[141.56609,40.543],[141.56303,40.54075],[141.55344,40.53063],[141.54366,40.52762],[141.53456,40.52718],[141.52432,40.52959],[141.5235,40.53216],[141.51508,40.53889],[141.51435,40.54308],[141.50528,40.54012],[141.50285,40.54294],[141.50998,40.54585],[141.50755,40.54911],[141.50182,40.54664],[141.50012,40.55678],[141.49341,40.55819],[141.48749,40.55679],[141.48512,40.56092],[141.49199,40.56474],[141.48894,40.57121],[141.48236,40.56887],[141.47717,40.57861],[141.47578,40.58549],[141.47011,40.58936],[141.46716,40.59729],[141.46299,40.60347],[141.46133,40.60022],[141.45163,40.59987],[141.44714,40.59672],[141.43574,40.59466],[141.41958,40.58504],[141.41178,40.58369],[141.4113,40.58105],[141.40666,40.57814],[141.40771,40.57456],[141.42029,40.57299],[141.42351,40.56231],[141.41985,40.55409],[141.41044,40.54669],[141.41852,40.53945],[141.41164,40.5375],[141.40266,40.53719],[141.39277,40.53251],[141.38464,40.52388],[141.37704,40.52419],[141.36888,40.52043],[141.35476,40.51707],[141.35837,40.51086],[141.35674,40.50589],[141.36641,40.4967],[141.36362,40.49476],[141.38107,40.50295],[141.38129,40.49347],[141.38503,40.48938],[141.3916,40.48764],[141.39314,40.48016],[141.40124,40.47333],[141.41497,40.47128],[141.41747,40.47575],[141.42263,40.4725],[141.42539,40.4626],[141.42794,40.45901],[141.43524,40.4575],[141.44139,40.45275],[141.4535,40.44835],[141.45213,40.44529],[141.44396,40.43884],[141.44409,40.43481],[141.44012,40.4294],[141.42429,40.42734],[141.41604,40.42532],[141.40814,40.4253],[141.40148,40.42274],[141.39595,40.4234],[141.40123,40.41494],[141.39397,40.40844],[141.38729,40.40568],[141.39012,40.40242],[141.38468,40.39953],[141.38394,40.39069],[141.38702,40.38735],[141.38446,40.38034],[141.38322,40.36929],[141.3931,40.36069],[141.39749,40.36732],[141.40121,40.36667],[141.40698,40.35716],[141.41924,40.36352],[141.42742,40.365],[141.43409,40.37237],[141.4416,40.37604],[141.45431,40.373],[141.46608,40.37738],[141.48047,40.37613],[141.49643,40.36741],[141.49936,40.36197],[141.50721,40.36293],[141.51515,40.3535],[141.52635,40.34996],[141.53168,40.35145],[141.53903,40.34797],[141.54512,40.35104],[141.5537,40.35866],[141.54523,40.37174],[141.5421,40.3786],[141.5292,40.3934],[141.52363,40.39711],[141.52005,40.40444],[141.51922,40.41647],[141.52214,40.42561],[141.52149,40.43592],[141.51877,40.45684],[141.52598,40.45975],[141.53347,40.45992],[141.53824,40.45257],[141.5518,40.45639],[141.55291,40.46448],[141.55851,40.46587],[141.55688,40.47425],[141.57039,40.47957],[141.58486,40.47603],[141.59472,40.47732],[141.59333,40.46787],[141.60068,40.46386],[141.60564,40.46311],[141.62341,40.46742],[141.63229,40.47462],[141.64354,40.47349],[141.64652,40.4747]]],[[[141.53091,40.54409],[141.52352,40.5367],[141.52682,40.5342],[141.53091,40.54409]]]]},"properties":{"pref":"青森県","city":"八戸市","code5":"02203","code6":"022039"}},
{"type":"Feature","geometry":{"type":"Polygon","coordinates":[[[140.57825,40.68732],[140.57662,40.67989],[140.57133,40.67259],[140.56824,40.66874],[140.57439,40.663],[140.57317,40.65845],[140.56507,40.66047],[140.56677,40.65425],[140.57476,40.64934],[140.57535,40.64338],[140.57356,40.63762],[140.58172,40.63497],[140.58208,40.63095],[140.58914,40.62983],[140.59187,40.62247],[140.59853,40.62218],[140.60681,40.61231],[140.61834,40.61112],[140.62285,40.6088],[140.62639,40.60322],[140.63803,40.60179],[140.65024,40.59374],[140.65578,40.5867],[140.65947,40.57848],[140.65655,40.57139],[140.6512,40.56573],[140.65616,40.55805],[140.66245,40.56033],[140.66958,40.56057],[140.67317,40.56617],[140.68166,40.57042],[140.6859,40.56662],[140.6857,40.56013],[140.69256,40.5566],[140.69295,40.54854],[140.69527,40.54521],[140.70108,40.54417],[140.70992,40.53749],[140.73287,40.53475],[140.74656,40.53727],[140.74972,40.54582],[140.75395,40.54683],[140.75646,40.55404],[140.75254,40.5597],[140.75964,40.56587],[140.76755,40.57014],[140.77573,40.56652],[140.78605,40.56756],[140.78908,40.56627],[140.8027,40.56878],[140.81152,40.5725],[140.82092,40.58845],[140.82534,40.59804],[140.83032,40.59861],[140.84265,40.60338],[140.84427,40.60592],[140.84431,40.61051],[140.83816,40.61369],[140.82606,40.62428],[140.81158,40.641],[140.80587,40.64525],[140.79757,40.64809],[140.79348,40.64751],[140.78434,40.65051],[140.7802,40.65516],[140.77551,40.65593],[140.7664,40.66594],[140.76095,40.66093],[140.75173,40.66303],[140.74051,40.66105],[140.7334,40.66234],[140.72969,40.66628],[140.72325,40.66584],[140.71624,40.66219],[140.70554,40.66176],[140.70139,40.65688],[140.69546,40.66052],[140.69057,40.65824],[140.68431,40.65926],[140.6682,40.65667],[140.6586,40.66217],[140.65222,40.67014],[140.64084,40.67707],[140.63605,40.68367],[140.6344,40.68985],[140.62288,40.68752],[140.61538,40.68743],[140.59852,40.6921],[140.57825,40.68732]]]},"properties":{"pref":"青森県","city":"黒石市","code5":"02204","code6":"022047"}},
{"type":"Feature","geometry":{"type":"MultiPolygon","coordinates":[[[[140.5536,40.96926],[140.54777,40.97056],[140.55104,40.97778],[140.54578,40.98304],[140.5385,40.98412],[140.52166,40.99569],[140.51708,40.99168],[140.51778,40.98329],[140.51217,40.97571],[140.51507,40.97056],[140.51373,40.96468],[140.50671,40.95248],[140.50215,40.94834],[140.49029,40.94641],[140.48742,40.94242],[140.47905,40.94335],[140.46341,40.93509],[140.45611,40.93441],[140.44716,40.9361],[140.43199,40.92994],[140.43504,40.92259],[140.43081,40.92005],[140.42174,40.91934],[140.41901,40.92187],[140.41659,40.91286],[140.41996,40.91033],[140.42759,40.91063],[140.42833,40.90684],[140.42279,40.89939],[140.42535,40.89366],[140.41931,40.89228],[140.42134,40.88726],[140.41368,40.88278],[140.40436,40.88145],[140.40668,40.87146],[140.39971,40.8663],[140.40041,40.84957],[140.40744,40.84638],[140.41076,40.83599],[140.42508,40.82102],[140.42387,40.81632],[140.41871,40.81523],[140.4229,40.8065],[140.43723,40.80958],[140.43788,40.8034],[140.43597,40.79772],[140.43749,40.78964],[140.43895,40.78134],[140.44414,40.78028],[140.44459,40.77146],[140.455,40.77198],[140.45896,40.76949],[140.46225,40.76128],[140.46761,40.76131],[140.46957,40.75761],[140.4755,40.75668],[140.47839,40.76323],[140.48587,40.7649],[140.49427,40.75602],[140.49899,40.75695],[140.50104,40.76005],[140.51373,40.7571],[140.5121,40.74448],[140.51543,40.74064],[140.51242,40.73701],[140.52024,40.72969],[140.52728,40.731],[140.52393,40.73693],[140.52991,40.73666],[140.53868,40.73923],[140.54361,40.74601],[140.55568,40.7484],[140.55822,40.7575],[140.5636,40.76062],[140.57344,40.76056],[140.57801,40.76709],[140.5721,40.78004],[140.57661,40.78722],[140.57287,40.79362],[140.57707,40.79914],[140.57448,40.80139],[140.57356,40.80986],[140.57751,40.81498],[140.5772,40.82897],[140.58199,40.83289],[140.57991,40.84096],[140.5851,40.84355],[140.59003,40.85319],[140.5921,40.8686],[140.59075,40.87587],[140.58776,40.88],[140.58989,40.8833],[140.58598,40.88627],[140.58394,40.89437],[140.57526,40.89705],[140.575,40.9043],[140.57947,40.90708],[140.57871,40.91177],[140.58352,40.91401],[140.58251,40.91821],[140.58605,40.9226],[140.58276,40.92597],[140.58773,40.93421],[140.57993,40.94032],[140.57612,40.93946],[140.56672,40.94455],[140.56652,40.94813],[140.56219,40.95324],[140.55569,40.95538],[140.55277,40.96136],[140.5536,40.96926]]],[[[140.39125,41.12705],[140.37404,41.12761],[140.35918,41.12121],[140.35432,41.11597],[140.35148,41.10974],[140.34319,41.1104],[140.33619,41.10675],[140.32966,41.10615],[140.32465,41.10937],[140.31354,41.10617],[140.30587,41.10663],[140.3116,41.09732],[140.31946,41.09271],[140.32322,41.0796],[140.32411,41.05572],[140.32254,41.0316],[140.31895,40.99981],[140.32217,41.00049],[140.32977,41.00839],[140.3383,41.00809],[140.34744,40.99942],[140.35945,40.99377],[140.36603,40.99876],[140.36506,41.00219],[140.35974,41.00513],[140.36266,41.01057],[140.36701,41.01206],[140.37101,41.01634],[140.37756,41.01931],[140.39195,41.02291],[140.39204,41.01911],[140.39752,41.0183],[140.39965,41.02339],[140.40481,41.02275],[140.40821,41.01775],[140.41338,41.02028],[140.41542,41.02686],[140.40755,41.03224],[140.40307,41.03924],[140.38627,41.04002],[140.38883,41.044],[140.39879,41.04509],[140.40657,41.04327],[140.41538,41.04473],[140.41624,41.04928],[140.42101,41.05737],[140.42708,41.06011],[140.43285,41.06527],[140.43762,41.07254],[140.44522,41.07736],[140.45245,41.0788],[140.45319,41.08319],[140.44925,41.08951],[140.4486,41.09705],[140.45083,41.10408],[140.45673,41.10415],[140.45897,41.10825],[140.46452,41.11177],[140.46146,41.11732],[140.45408,41.11767],[140.44335,41.1159],[140.43347,41.12013],[140.42679,41.1214],[140.41925,41.11943],[140.40686,41.12097],[140.39924,41.12215],[140.39125,41.12705]]]]},"properties":{"pref":"青森県","city":"五所川原市","code5":"02205","code6":"022055"}},
{"type":"Feature","geometry":{"type":"Polygon","coordinates":[[[140.86292,40.60964],[140.85835,40.60383],[140.86303,40.59754],[140.85892,40.58837],[140.86632,40.58517],[140.86668,40.57404],[140.86209,40.55422],[140.85145,40.54495],[140.86074,40.5397],[140.86295,40.53453],[140.8682,40.52988],[140.87148,40.52233],[140.88006,40.51025],[140.87811,40.49842],[140.86132,40.44063],[140.89233,40.42335],[140.89678,40.4252],[140.90672,40.42527],[140.91095,40.4233],[140.91922,40.42732],[140.92677,40.42111],[140.93296,40.42127],[140.94195,40.4302],[140.95126,40.42631],[140.96188,40.42693],[140.97221,40.43085],[140.98517,40.42708],[140.99426,40.43354],[141.00091,40.44488],[141.00116,40.45471],[141.00574,40.45842],[141.03109,40.47451],[141.05536,40.47712],[141.05837,40.4795],[141.06825,40.48003],[141.06799,40.48308],[141.08625,40.49073],[141.08786,40.49358],[141.10413,40.49262],[141.11188,40.49867],[141.1192,40.49579],[141.12792,40.49644],[141.13853,40.49473],[141.14571,40.49583],[141.15716,40.49548],[141.16425,40.4935],[141.17283,40.49304],[141.18496,40.49585],[141.19481,40.49984],[141.2017,40.50874],[141.20796,40.5109],[141.21284,40.51565],[141.21915,40.51877],[141.21964,40.52761],[141.22559,40.53114],[141.24093,40.53423],[141.24453,40.53647],[141.26324,40.54006],[141.2754,40.53759],[141.28124,40.54386],[141.29115,40.55804],[141.29868,40.55837],[141.30367,40.56806],[141.30191,40.57541],[141.29612,40.57771],[141.28894,40.58618],[141.2855,40.58828],[141.28748,40.59903],[141.27875,40.60075],[141.27508,40.60686],[141.27437,40.6156],[141.25838,40.61633],[141.25705,40.61911],[141.25918,40.63039],[141.26398,40.63324],[141.26141,40.6372],[141.27069,40.63752],[141.27784,40.6404],[141.28315,40.64519],[141.27876,40.6474],[141.2692,40.6462],[141.26315,40.65132],[141.26544,40.659],[141.26993,40.66449],[141.27159,40.669],[141.26709,40.67123],[141.26697,40.67893],[141.26361,40.68516],[141.26626,40.69162],[141.26549,40.6978],[141.26039,40.70112],[141.25633,40.69922],[141.25145,40.70167],[141.24421,40.69661],[141.23992,40.6985],[141.2315,40.69477],[141.23088,40.69168],[141.22319,40.69154],[141.2153,40.68932],[141.21107,40.69042],[141.20345,40.68831],[141.19493,40.68933],[141.1889,40.68584],[141.17283,40.68313],[141.16969,40.67928],[141.1711,40.67239],[141.16138,40.67249],[141.15701,40.66322],[141.14552,40.65682],[141.14869,40.65101],[141.14864,40.64566],[141.14428,40.6392],[141.12652,40.64277],[141.11411,40.63689],[141.10835,40.63557],[141.08541,40.63469],[141.07673,40.63635],[141.07319,40.64046],[141.06259,40.64319],[141.05528,40.65047],[141.05084,40.66117],[141.04595,40.66465],[141.03613,40.66585],[141.02749,40.66439],[141.01161,40.66789],[141.00374,40.67069],[140.99964,40.67671],[140.99894,40.68122],[140.99176,40.689],[140.99059,40.69349],[140.97897,40.69762],[140.97105,40.69332],[140.96757,40.682],[140.96824,40.67417],[140.95974,40.66525],[140.96109,40.6594],[140.95621,40.65598],[140.955,40.64699],[140.93894,40.6429],[140.93051,40.64505],[140.92101,40.64543],[140.91142,40.65275],[140.90483,40.65424],[140.88693,40.65317],[140.88012,40.65707],[140.87629,40.64654],[140.88379,40.64067],[140.88369,40.63556],[140.87622,40.62382],[140.87669,40.61389],[140.86292,40.60964]]]},"properties":{"pref":"青森県","city":"十和田市","code5":"02206","code6":"022063"}},
{"type":"Feature","geometry":{"type":"Polygon","coordinates":[[[141.43878,40.67051],[141.43949,40.67502],[141.4361,40.67825],[141.42812,40.69525],[141.41693,40.74156],[141.41284,40.76126],[141.41112,40.7737],[141.40717,40.78735],[141.40441,40.80551],[141.40251,40.81265],[141.39926,40.84454],[141.39758,40.84785],[141.39293,40.88662],[141.38541,40.88553],[141.37976,40.8828],[141.37691,40.87585],[141.3741,40.86355],[141.37821,40.85193],[141.37879,40.84496],[141.37143,40.83896],[141.36773,40.83865],[141.36608,40.82746],[141.35899,40.8161],[141.34975,40.81016],[141.34774,40.80406],[141.34881,40.77793],[141.35544,40.77451],[141.35795,40.76839],[141.35965,40.74574],[141.35842,40.73615],[141.35142,40.72344],[141.34628,40.72058],[141.3377,40.72425],[141.32185,40.72451],[141.3101,40.71655],[141.31099,40.71031],[141.3184,40.71309],[141.33063,40.71324],[141.33604,40.72074],[141.34302,40.72022],[141.34232,40.71533],[141.33418,40.70807],[141.32825,40.70644],[141.3247,40.70066],[141.32248,40.69626],[141.32557,40.69262],[141.33163,40.69243],[141.34067,40.68836],[141.33598,40.68476],[141.33255,40.67487],[141.33425,40.66978],[141.34467,40.66099],[141.35182,40.665],[141.35584,40.66382],[141.36124,40.66434],[141.36401,40.67237],[141.36821,40.66693],[141.38785,40.66534],[141.41826,40.66925],[141.42897,40.66801],[141.43878,40.67051]]]},"properties":{"pref":"青森県","city":"三沢市","code5":"02207","code6":"022071"}},
{"type":"Feature","geometry":{"type":"Polygon","coordinates":[[[141.24657,41.36116],[141.22942,41.3675],[141.22825,41.36881],[141.21013,41.37637],[141.1932,41.38669],[141.17975,41.39806],[141.17667,41.40376],[141.16466,41.41425],[141.15995,41.41541],[141.15116,41.42275],[141.14636,41.43065],[141.14114,41.43435],[141.13653,41.43422],[141.12743,41.44212],[141.11569,41.45566],[141.10497,41.45136],[141.08299,41.45131],[141.07193,41.44686],[141.0633,41.44685],[141.06036,41.44406],[141.05113,41.44637],[141.04771,41.44493],[141.05119,41.43868],[141.05071,41.43407],[141.039,41.42636],[141.03102,41.42498],[141.02783,41.42075],[141.01251,41.42153],[141.00751,41.42365],[141.00287,41.43491],[140.99524,41.43991],[140.98658,41.43698],[140.97549,41.43903],[140.96759,41.43515],[140.96559,41.43151],[140.95671,41.42397],[140.94515,41.42688],[140.94461,41.42254],[140.94037,41.42106],[140.93722,41.4077],[140.92879,41.40028],[140.93322,41.39306],[140.92934,41.38959],[140.92468,41.38167],[140.91496,41.38053],[140.91162,41.37451],[140.91845,41.36945],[140.91451,41.36556],[140.90248,41.36454],[140.89041,41.35328],[140.88457,41.35091],[140.88412,41.34754],[140.8741,41.33541],[140.87597,41.33305],[140.87016,41.32538],[140.86871,41.32102],[140.86109,41.32145],[140.85929,41.31525],[140.84946,41.31454],[140.8458,41.30689],[140.84049,41.30674],[140.83494,41.30232],[140.83471,41.29863],[140.85198,41.28717],[140.85,41.28249],[140.85338,41.27086],[140.85997,41.26715],[140.86348,41.26028],[140.85242,41.26158],[140.84695,41.2661],[140.83169,41.27119],[140.82576,41.26887],[140.81592,41.25619],[140.8236,41.24757],[140.82282,41.23945],[140.818,41.23275],[140.8104,41.23084],[140.79828,41.22284],[140.79271,41.22284],[140.79257,41.21698],[140.78854,41.21358],[140.77828,41.21014],[140.77894,41.20752],[140.76889,41.20131],[140.7642,41.19523],[140.76703,41.18372],[140.76878,41.16483],[140.76829,41.15861],[140.76426,41.14784],[140.76956,41.14061],[140.77343,41.14077],[140.78316,41.13128],[140.79409,41.13256],[140.79866,41.1289],[140.80558,41.12981],[140.81149,41.12765],[140.82173,41.13872],[140.82534,41.14538],[140.83275,41.14972],[140.84586,41.15495],[140.84861,41.15863],[140.85956,41.1614],[140.86592,41.16449],[140.877,41.16689],[140.88974,41.16349],[140.90367,41.16807],[140.90589,41.17165],[140.91219,41.17511],[140.92316,41.17562],[140.92973,41.17333],[140.93767,41.17581],[140.94519,41.17386],[140.95614,41.18242],[140.96394,41.19102],[140.96895,41.19419],[140.98253,41.19898],[140.99689,41.19515],[141.00957,41.19752],[141.01506,41.19567],[141.0347,41.185],[141.04196,41.18539],[141.0485,41.18328],[141.05816,41.18344],[141.06313,41.19056],[141.0721,41.19871],[141.08024,41.2037],[141.08591,41.20546],[141.09389,41.21065],[141.1015,41.21352],[141.11335,41.21335],[141.12405,41.21997],[141.13645,41.2305],[141.1441,41.23423],[141.15518,41.24497],[141.15559,41.25116],[141.14652,41.24486],[141.14457,41.2411],[141.1345,41.24001],[141.13323,41.24386],[141.13846,41.24693],[141.14112,41.25351],[141.1444,41.25563],[141.15567,41.26936],[141.16004,41.27819],[141.17111,41.27962],[141.18103,41.27643],[141.18789,41.27699],[141.19827,41.27204],[141.2194,41.25535],[141.23384,41.24137],[141.24766,41.22418],[141.25969,41.20566],[141.27385,41.17493],[141.27906,41.15834],[141.27632,41.15069],[141.28564,41.15685],[141.31057,41.15169],[141.32295,41.15411],[141.32171,41.15975],[141.3185,41.1624],[141.31933,41.16749],[141.33021,41.1821],[141.33011,41.19084],[141.33714,41.20001],[141.33473,41.20551],[141.33622,41.21327],[141.33897,41.21525],[141.33213,41.22619],[141.32536,41.23939],[141.32669,41.24425],[141.31526,41.24737],[141.31049,41.24325],[141.30347,41.24931],[141.29992,41.24765],[141.2899,41.24727],[141.28274,41.24989],[141.26604,41.24339],[141.25506,41.24482],[141.24651,41.2492],[141.24752,41.2586],[141.25114,41.267],[141.24754,41.28186],[141.2512,41.2898],[141.2542,41.29209],[141.25296,41.30166],[141.24555,41.31063],[141.23492,41.30878],[141.22844,41.30946],[141.22605,41.31238],[141.22881,41.31956],[141.23403,41.3259],[141.24493,41.33145],[141.23697,41.33377],[141.24541,41.34403],[141.25,41.35211],[141.24657,41.36116]]]},"properties":{"pref":"青森県","city":"むつ市","code5":"02208","code6":"022080"}},
{"type":"Feature","geometry":{"type":"Polygon","coordinates":[[[140.33962,40.75922],[140.34246,40.76182],[140.35345,40.76501],[140.36111,40.76933],[140.37051,40.77126],[140.37513,40.77711],[140.37099,40.78551],[140.37793,40.78982],[140.38424,40.78357],[140.38708,40.78521],[140.39418,40.77824],[140.40736,40.7724],[140.41423,40.7626],[140.42135,40.76582],[140.42028,40.77203],[140.41464,40.77648],[140.42398,40.78749],[140.43548,40.78796],[140.43749,40.78964],[140.43597,40.79772],[140.43788,40.8034],[140.43723,40.80958],[140.4229,40.8065],[140.41871,40.81523],[140.42387,40.81632],[140.42508,40.82102],[140.41076,40.83599],[140.40744,40.84638],[140.40041,40.84957],[140.39971,40.8663],[140.40668,40.87146],[140.40436,40.88145],[140.41368,40.88278],[140.42134,40.88726],[140.41931,40.89228],[140.42535,40.89366],[140.42279,40.89939],[140.42833,40.90684],[140.42759,40.91063],[140.41996,40.91033],[140.41659,40.91286],[140.41901,40.92187],[140.41732,40.92851],[140.41143,40.93619],[140.40566,40.93696],[140.40005,40.94143],[140.39439,40.94192],[140.3858,40.93842],[140.38034,40.9416],[140.37999,40.94818],[140.37566,40.95129],[140.37664,40.95724],[140.38018,40.96366],[140.39067,40.9761],[140.39246,40.98062],[140.39044,40.98766],[140.38292,40.99522],[140.38194,41.00181],[140.37296,41.01051],[140.36701,41.01206],[140.36266,41.01057],[140.35974,41.00513],[140.36506,41.00219],[140.36603,40.99876],[140.35945,40.99377],[140.34744,40.99942],[140.3383,41.00809],[140.32977,41.00839],[140.32217,41.00049],[140.31895,40.99981],[140.31322,40.96501],[140.30856,40.94286],[140.30208,40.91709],[140.29209,40.88456],[140.28475,40.86387],[140.26908,40.82958],[140.25791,40.81081],[140.24993,40.80047],[140.27031,40.8002],[140.27524,40.79785],[140.27334,40.79422],[140.28444,40.78556],[140.29177,40.77278],[140.29795,40.77096],[140.31081,40.76989],[140.32946,40.7571],[140.33285,40.76137],[140.33962,40.75922]]]},"properties":{"pref":"青森県","city":"つがる市","code5":"02209","code6":"022098"}},
{"type":"Feature","geometry":{"type":"Polygon","coordinates":[[[140.84427,40.60592],[140.84265,40.60338],[140.83032,40.59861],[140.82534,40.59804],[140.82092,40.58845],[140.81152,40.5725],[140.8027,40.56878],[140.78908,40.56627],[140.78605,40.56756],[140.77573,40.56652],[140.76755,40.57014],[140.75964,40.56587],[140.75254,40.5597],[140.75646,40.55404],[140.75395,40.54683],[140.74972,40.54582],[140.74656,40.53727],[140.73287,40.53475],[140.70992,40.53749],[140.70108,40.54417],[140.69527,40.54521],[140.69295,40.54854],[140.69256,40.5566],[140.6857,40.56013],[140.6859,40.56662],[140.68166,40.57042],[140.67317,40.56617],[140.66958,40.56057],[140.66245,40.56033],[140.65616,40.55805],[140.6512,40.56573],[140.65655,40.57139],[140.65947,40.57848],[140.65578,40.5867],[140.65024,40.59374],[140.63803,40.60179],[140.62639,40.60322],[140.62285,40.6088],[140.61834,40.61112],[140.60681,40.61231],[140.59853,40.62218],[140.59187,40.62247],[140.58914,40.62983],[140.58208,40.63095],[140.57061,40.6301],[140.56621,40.62567],[140.55704,40.62343],[140.54402,40.62462],[140.53637,40.62992],[140.51838,40.62388],[140.51384,40.61524],[140.5236,40.61388],[140.52636,40.60853],[140.52582,40.59807],[140.52819,40.58809],[140.52629,40.57787],[140.52924,40.57304],[140.53594,40.57684],[140.53873,40.57433],[140.53038,40.57128],[140.53508,40.5632],[140.54019,40.5577],[140.54821,40.55494],[140.55271,40.56076],[140.55761,40.55982],[140.55963,40.56396],[140.56953,40.56269],[140.57949,40.56351],[140.58358,40.55858],[140.59208,40.55526],[140.59317,40.55078],[140.59869,40.54814],[140.59815,40.54284],[140.60231,40.53905],[140.61561,40.53551],[140.62753,40.54052],[140.63309,40.53512],[140.63996,40.537],[140.64847,40.53167],[140.66336,40.53044],[140.67732,40.52082],[140.6765,40.51702],[140.67892,40.51104],[140.66618,40.50258],[140.64841,40.49385],[140.6359,40.49498],[140.63042,40.49433],[140.62119,40.49793],[140.61732,40.49133],[140.61408,40.48072],[140.6072,40.47974],[140.60601,40.48894],[140.59949,40.49306],[140.59448,40.49392],[140.58895,40.48772],[140.58341,40.48518],[140.59864,40.47561],[140.59747,40.46948],[140.60126,40.45287],[140.59915,40.44265],[140.58973,40.43611],[140.59446,40.4351],[140.60359,40.42992],[140.60589,40.426],[140.61204,40.42368],[140.62361,40.42452],[140.63293,40.41771],[140.63629,40.40948],[140.63248,40.40386],[140.64104,40.40518],[140.64523,40.40309],[140.65369,40.4036],[140.66429,40.40687],[140.66645,40.41159],[140.67587,40.41288],[140.67861,40.41549],[140.68726,40.41842],[140.68752,40.42702],[140.69923,40.42942],[140.70265,40.42713],[140.71607,40.42756],[140.71747,40.42111],[140.72302,40.41661],[140.73357,40.4158],[140.73586,40.42786],[140.73162,40.4305],[140.7344,40.43452],[140.73409,40.43968],[140.74129,40.43794],[140.7527,40.43917],[140.75685,40.44558],[140.76271,40.45125],[140.76938,40.45391],[140.77241,40.45123],[140.78685,40.45723],[140.79101,40.45448],[140.79354,40.44935],[140.8034,40.44859],[140.80772,40.45781],[140.80856,40.46979],[140.81149,40.47856],[140.81063,40.48713],[140.81468,40.48844],[140.82003,40.49533],[140.82639,40.49592],[140.83654,40.50412],[140.84502,40.50736],[140.8523,40.50526],[140.88006,40.51025],[140.87148,40.52233],[140.8682,40.52988],[140.86295,40.53453],[140.86074,40.5397],[140.85145,40.54495],[140.86209,40.55422],[140.86668,40.57404],[140.86632,40.58517],[140.85892,40.58837],[140.86303,40.59754],[140.85835,40.60383],[140.86292,40.60964],[140.8528,40.60941],[140.84427,40.60592]]]},"properties":{"pref":"青森県","city":"平川市","code5":"02210","code6":"022101"}},
{"type":"Feature","geometry":{"type":"Polygon","coordinates":[[[140.98061,40.80618],[140.98615,40.80709],[140.98802,40.81083],[140.99611,40.815],[141.0067,40.81661],[141.01673,40.81985],[141.02014,40.82596],[141.01807,40.83716],[141.02245,40.83678],[141.0394,40.84039],[141.03945,40.84677],[141.0462,40.85196],[141.04163,40.8649],[141.04371,40.87421],[141.04702,40.87707],[141.07675,40.88598],[141.08412,40.88621],[141.07887,40.89638],[141.07048,40.90365],[141.06425,40.91334],[141.05477,40.91706],[141.04334,40.91483],[141.03454,40.91752],[141.02327,40.92466],[141.0206,40.92985],[141.0068,40.93213],[140.99753,40.93696],[140.99128,40.93447],[140.97855,40.93312],[140.97075,40.93605],[140.97254,40.94052],[140.97989,40.9441],[140.97837,40.94974],[140.98232,40.95526],[140.98211,40.96138],[140.97647,40.96335],[140.97069,40.96823],[140.96118,40.97342],[140.95022,40.98574],[140.94871,40.99235],[140.93916,40.99514],[140.93388,40.99307],[140.92355,40.99281],[140.91778,40.9943],[140.91525,40.99783],[140.90316,41.00791],[140.88967,41.0108],[140.88011,41.00811],[140.88075,41.00441],[140.87602,40.99234],[140.86969,40.98387],[140.87279,40.9814],[140.86934,40.97744],[140.85997,40.97165],[140.85952,40.96233],[140.86386,40.95977],[140.85898,40.95603],[140.84691,40.95454],[140.83946,40.95237],[140.85686,40.94404],[140.86176,40.94736],[140.86718,40.9416],[140.86622,40.93196],[140.86878,40.92561],[140.86515,40.9204],[140.86985,40.9153],[140.86512,40.90391],[140.85892,40.90395],[140.86767,40.90303],[140.87247,40.90084],[140.88143,40.90234],[140.883,40.89707],[140.88916,40.89619],[140.88828,40.88943],[140.89685,40.87919],[140.91026,40.87147],[140.91299,40.86481],[140.91907,40.8632],[140.92405,40.8585],[140.93129,40.8562],[140.93333,40.8507],[140.93005,40.84548],[140.93829,40.84251],[140.94196,40.83874],[140.95011,40.837],[140.95614,40.83041],[140.95457,40.82095],[140.96023,40.8152],[140.96827,40.81451],[140.97731,40.80725],[140.98061,40.80618]]]},"properties":{"pref":"青森県","county":"東津軽郡","city":"平内町","code5":"02301","code6":"023019"}},
{"type":"Feature","geometry":{"type":"Polygon","coordinates":[[[140.46452,41.11177],[140.47306,41.10732],[140.47968,41.10602],[140.48443,41.10938],[140.49148,41.10823],[140.4978,41.10326],[140.5131,41.1048],[140.52547,41.10875],[140.53224,41.10802],[140.53658,41.10341],[140.54411,41.10418],[140.55411,41.11151],[140.55055,41.11872],[140.55613,41.12204],[140.56584,41.13264],[140.56532,41.138],[140.56917,41.13904],[140.57342,41.15132],[140.58062,41.15249],[140.57911,41.1565],[140.58037,41.16505],[140.57874,41.16961],[140.58203,41.1755],[140.59157,41.18331],[140.59777,41.18194],[140.59861,41.1894],[140.60338,41.19113],[140.59957,41.19949],[140.59384,41.2077],[140.59402,41.21639],[140.58785,41.21728],[140.57903,41.2224],[140.56206,41.2245],[140.555,41.22436],[140.54973,41.22759],[140.53863,41.21786],[140.53453,41.22158],[140.52692,41.22119],[140.52061,41.21258],[140.51945,41.20535],[140.50756,41.19577],[140.49099,41.18609],[140.48218,41.18327],[140.46804,41.18178],[140.46205,41.1829],[140.45927,41.18774],[140.44883,41.18872],[140.4492,41.18241],[140.43842,41.16943],[140.44187,41.15158],[140.43366,41.142],[140.4353,41.13673],[140.42854,41.13136],[140.41958,41.13138],[140.41655,41.12809],[140.41004,41.12619],[140.40686,41.12097],[140.41925,41.11943],[140.42679,41.1214],[140.43347,41.12013],[140.44335,41.1159],[140.45408,41.11767],[140.46146,41.11732],[140.46452,41.11177]]]},"properties":{"pref":"青森県","county":"東津軽郡","city":"今別町","code5":"02303","code6":"023035"}},
{"type":"Feature","geometry":{"type":"Polygon","coordinates":[[[140.66079,40.94845],[140.65877,40.95644],[140.65563,40.98699],[140.65198,40.99973],[140.64675,41.02932],[140.63433,41.03142],[140.62789,41.03668],[140.62082,41.03425],[140.61776,41.03661],[140.61178,41.0315],[140.60448,41.03109],[140.59835,41.03294],[140.59487,41.03081],[140.58605,41.03045],[140.5777,41.02822],[140.57041,41.03095],[140.54912,41.02623],[140.54555,41.0222],[140.53262,41.02409],[140.51889,41.02293],[140.51577,41.01471],[140.51614,41.00914],[140.52203,41.00713],[140.52054,41],[140.52166,40.99569],[140.5385,40.98412],[140.54578,40.98304],[140.55104,40.97778],[140.54777,40.97056],[140.5536,40.96926],[140.56309,40.97022],[140.56945,40.9685],[140.58151,40.96275],[140.58747,40.96548],[140.60074,40.96244],[140.60525,40.95987],[140.60887,40.95043],[140.61604,40.95179],[140.65191,40.95026],[140.66079,40.94845]]]},"properties":{"pref":"青森県","county":"東津軽郡","city":"蓬田村","code5":"02304","code6":"023043"}},
{"type":"Feature","geometry":{"type":"MultiPolygon","coordinates":[[[[140.45673,41.10415],[140.45519,41.09936],[140.45809,41.09679],[140.46264,41.08796],[140.47348,41.08367],[140.47653,41.08068],[140.48521,41.07677],[140.48975,41.0711],[140.49536,41.06854],[140.49767,41.06202],[140.49435,41.05309],[140.50171,41.04328],[140.51067,41.03742],[140.5147,41.03718],[140.51432,41.02993],[140.51931,41.02898],[140.51889,41.02293],[140.53262,41.02409],[140.54555,41.0222],[140.54912,41.02623],[140.57041,41.03095],[140.5777,41.02822],[140.58605,41.03045],[140.59487,41.03081],[140.59835,41.03294],[140.60448,41.03109],[140.61178,41.0315],[140.61776,41.03661],[140.62082,41.03425],[140.62789,41.03668],[140.63433,41.03142],[140.64675,41.02932],[140.6452,41.04108],[140.64554,41.04891],[140.63875,41.06194],[140.63738,41.07282],[140.63458,41.07842],[140.63407,41.08796],[140.63165,41.10143],[140.63307,41.11121],[140.63209,41.1168],[140.63421,41.12494],[140.63387,41.13323],[140.63949,41.14803],[140.63847,41.15295],[140.64374,41.1724],[140.64175,41.17905],[140.6323,41.1916],[140.61785,41.19697],[140.61257,41.20253],[140.60666,41.21226],[140.60243,41.21496],[140.59402,41.21639],[140.59384,41.2077],[140.59957,41.19949],[140.60338,41.19113],[140.59861,41.1894],[140.59777,41.18194],[140.59157,41.18331],[140.58203,41.1755],[140.57874,41.16961],[140.58037,41.16505],[140.57911,41.1565],[140.58062,41.15249],[140.57342,41.15132],[140.56917,41.13904],[140.56532,41.138],[140.56584,41.13264],[140.55613,41.12204],[140.55055,41.11872],[140.55411,41.11151],[140.54411,41.10418],[140.53658,41.10341],[140.53224,41.10802],[140.52547,41.10875],[140.5131,41.1048],[140.4978,41.10326],[140.49148,41.10823],[140.48443,41.10938],[140.47968,41.10602],[140.47306,41.10732],[140.46452,41.11177],[140.45897,41.10825],[140.45673,41.10415]]],[[[140.40686,41.12097],[140.41004,41.12619],[140.41655,41.12809],[140.41958,41.13138],[140.42854,41.13136],[140.4353,41.13673],[140.43366,41.142],[140.44187,41.15158],[140.43842,41.16943],[140.4492,41.18241],[140.44883,41.18872],[140.43251,41.19588],[140.4264,41.20765],[140.41321,41.21651],[140.40662,41.21898],[140.40217,41.22301],[140.40059,41.22931],[140.39667,41.23451],[140.38383,41.24084],[140.37508,41.24745],[140.36172,41.25003],[140.35958,41.2532],[140.35217,41.25526],[140.34919,41.25862],[140.34509,41.26293],[140.34033,41.2593],[140.33936,41.25482],[140.34218,41.24899],[140.34907,41.2489],[140.35546,41.24383],[140.35422,41.2412],[140.36202,41.23501],[140.36326,41.22992],[140.36191,41.21986],[140.37246,41.21015],[140.37137,41.20305],[140.37553,41.19604],[140.37149,41.19324],[140.36851,41.17973],[140.37058,41.17337],[140.36803,41.16213],[140.36319,41.1528],[140.37031,41.15004],[140.37264,41.14531],[140.37847,41.13952],[140.38581,41.13487],[140.39125,41.12705],[140.39924,41.12215],[140.40686,41.12097]]]]},"properties":{"pref":"青森県","county":"東津軽郡","city":"外ヶ浜町","code5":"02307","code6":"023078"}},
{"type":"Feature","geometry":{"type":"Polygon","coordinates":[[[140.32946,40.7571],[140.31081,40.76989],[140.29795,40.77096],[140.29177,40.77278],[140.28444,40.78556],[140.27334,40.79422],[140.27524,40.79785],[140.27031,40.8002],[140.24993,40.80047],[140.24337,40.79483],[140.2394,40.78933],[140.22758,40.78151],[140.2138,40.77901],[140.20766,40.78106],[140.20344,40.7855],[140.19154,40.78265],[140.18287,40.77477],[140.16882,40.76958],[140.15791,40.76015],[140.15513,40.75959],[140.14438,40.75196],[140.15,40.74964],[140.16074,40.748],[140.15847,40.74264],[140.15955,40.73854],[140.16506,40.73464],[140.16636,40.72857],[140.16001,40.7212],[140.15038,40.71231],[140.14973,40.7065],[140.13679,40.70275],[140.12949,40.69406],[140.12662,40.68656],[140.12626,40.67986],[140.11777,40.6755],[140.10951,40.66876],[140.10634,40.66821],[140.1051,40.66028],[140.10106,40.64793],[140.10272,40.63884],[140.09603,40.63586],[140.09388,40.63022],[140.09763,40.62762],[140.0963,40.62194],[140.09769,40.61395],[140.09494,40.60903],[140.09973,40.60436],[140.10188,40.59408],[140.09999,40.59101],[140.10139,40.57621],[140.09855,40.5707],[140.10389,40.55847],[140.10221,40.55063],[140.09216,40.5408],[140.09474,40.53571],[140.09139,40.52753],[140.0862,40.52213],[140.08689,40.51584],[140.08424,40.506],[140.07538,40.4974],[140.07308,40.49229],[140.07647,40.48199],[140.07129,40.47561],[140.06835,40.46886],[140.07413,40.46462],[140.07845,40.4669],[140.09358,40.45892],[140.0995,40.45296],[140.09737,40.44924],[140.09917,40.44397],[140.10509,40.4408],[140.10762,40.4359],[140.12094,40.4364],[140.13325,40.43796],[140.13673,40.43962],[140.14724,40.43813],[140.15148,40.44213],[140.14998,40.45166],[140.15305,40.46239],[140.14956,40.47427],[140.14364,40.47582],[140.13379,40.48571],[140.1257,40.50159],[140.12086,40.50377],[140.11955,40.51218],[140.12915,40.51373],[140.13648,40.51892],[140.13471,40.52191],[140.13515,40.52934],[140.13766,40.53957],[140.14617,40.5441],[140.1602,40.54411],[140.16362,40.55028],[140.16321,40.55695],[140.16075,40.55839],[140.16207,40.56525],[140.15505,40.57144],[140.15711,40.58752],[140.16489,40.58738],[140.17547,40.59372],[140.18358,40.59582],[140.19081,40.59354],[140.19305,40.60135],[140.18939,40.60567],[140.20484,40.60922],[140.20837,40.61959],[140.21895,40.62449],[140.21659,40.63124],[140.2201,40.64087],[140.23289,40.64504],[140.24009,40.64504],[140.24637,40.64891],[140.25617,40.64887],[140.26883,40.65334],[140.27955,40.65458],[140.27818,40.66236],[140.29034,40.66693],[140.28874,40.66928],[140.30319,40.67774],[140.31472,40.68066],[140.32214,40.68753],[140.33217,40.6929],[140.33713,40.69944],[140.32774,40.70104],[140.31503,40.70159],[140.30894,40.70386],[140.29476,40.6941],[140.29147,40.69877],[140.28832,40.7086],[140.28682,40.72038],[140.2882,40.72694],[140.29607,40.73258],[140.30145,40.73325],[140.30707,40.74235],[140.3156,40.74669],[140.32245,40.75363],[140.32946,40.7571]]]},"properties":{"pref":"青森県","county":"西津軽郡","city":"鰺ヶ沢町","code5":"02321","code6":"023213"}},
{"type":"Feature","geometry":{"type":"Polygon","coordinates":[[[140.14438,40.75196],[140.13737,40.74798],[140.12275,40.74258],[140.11174,40.74176],[140.0959,40.74705],[140.09046,40.75215],[140.08911,40.75632],[140.07621,40.7596],[140.06531,40.76683],[140.05289,40.76922],[140.05028,40.76607],[140.03927,40.76385],[140.03403,40.76046],[140.02568,40.7502],[140.02109,40.75041],[140.00702,40.74462],[140.00068,40.74495],[140.00056,40.73967],[139.99418,40.73239],[139.98645,40.71864],[139.98768,40.71594],[139.97912,40.70278],[139.96782,40.69888],[139.96923,40.69608],[139.96615,40.68678],[139.95084,40.67045],[139.93903,40.66822],[139.9362,40.65453],[139.9295,40.65271],[139.92261,40.64436],[139.91154,40.64224],[139.90455,40.64652],[139.90176,40.64543],[139.89199,40.63446],[139.88536,40.62923],[139.86904,40.61976],[139.86095,40.61598],[139.86312,40.6091],[139.86078,40.60742],[139.86403,40.59805],[139.86204,40.59496],[139.86857,40.58444],[139.87665,40.58168],[139.88418,40.58436],[139.89927,40.58245],[139.90731,40.58638],[139.91843,40.58579],[139.92719,40.57672],[139.93349,40.56528],[139.93006,40.55906],[139.93793,40.5557],[139.94018,40.5527],[139.945,40.53788],[139.94751,40.52405],[139.94704,40.51162],[139.94858,40.50934],[139.9499,40.49377],[139.94623,40.48806],[139.94703,40.48435],[139.94503,40.46435],[139.94201,40.45783],[139.94208,40.44914],[139.9389,40.44605],[139.94012,40.43517],[139.93631,40.4282],[139.95087,40.43092],[139.95977,40.43483],[139.96411,40.43028],[139.97352,40.4266],[139.9852,40.42791],[139.99373,40.43254],[140.00103,40.43289],[140.00642,40.42735],[140.01126,40.42596],[140.02163,40.42947],[140.02534,40.43958],[140.02021,40.44655],[140.02485,40.45309],[140.03126,40.45775],[140.03836,40.46078],[140.04735,40.46072],[140.05924,40.46723],[140.06835,40.46886],[140.07129,40.47561],[140.07647,40.48199],[140.07308,40.49229],[140.07538,40.4974],[140.08424,40.506],[140.08689,40.51584],[140.0862,40.52213],[140.09139,40.52753],[140.09474,40.53571],[140.09216,40.5408],[140.10221,40.55063],[140.10389,40.55847],[140.09855,40.5707],[140.10139,40.57621],[140.09999,40.59101],[140.10188,40.59408],[140.09973,40.60436],[140.09494,40.60903],[140.09769,40.61395],[140.0963,40.62194],[140.09763,40.62762],[140.09388,40.63022],[140.09603,40.63586],[140.10272,40.63884],[140.10106,40.64793],[140.1051,40.66028],[140.10634,40.66821],[140.10951,40.66876],[140.11777,40.6755],[140.12626,40.67986],[140.12662,40.68656],[140.12949,40.69406],[140.13679,40.70275],[140.14973,40.7065],[140.15038,40.71231],[140.16001,40.7212],[140.16636,40.72857],[140.16506,40.73464],[140.15955,40.73854],[140.15847,40.74264],[140.16074,40.748],[140.15,40.74964],[140.14438,40.75196]]]},"properties":{"pref":"青森県","county":"西津軽郡","city":"深浦町","code5":"02323","code6":"023230"}},
{"type":"Feature","geometry":{"type":"Polygon","coordinates":[[[140.16321,40.55695],[140.16362,40.55028],[140.1602,40.54411],[140.14617,40.5441],[140.13766,40.53957],[140.13515,40.52934],[140.13471,40.52191],[140.13648,40.51892],[140.12915,40.51373],[140.11955,40.51218],[140.12086,40.50377],[140.1257,40.50159],[140.13379,40.48571],[140.14364,40.47582],[140.14956,40.47427],[140.15305,40.46239],[140.14998,40.45166],[140.15148,40.44213],[140.14724,40.43813],[140.15141,40.43502],[140.16242,40.43936],[140.18038,40.44115],[140.18748,40.43957],[140.19696,40.43462],[140.2101,40.43843],[140.21158,40.43592],[140.22017,40.43115],[140.2425,40.43728],[140.2515,40.44191],[140.26687,40.44074],[140.27934,40.44605],[140.28814,40.44489],[140.29887,40.44625],[140.30196,40.44284],[140.30763,40.44189],[140.30954,40.43657],[140.32097,40.4386],[140.33522,40.43938],[140.33915,40.44114],[140.34378,40.4522],[140.34337,40.46166],[140.34781,40.46755],[140.34534,40.47179],[140.33759,40.47464],[140.33646,40.47944],[140.32829,40.48289],[140.32705,40.48789],[140.33032,40.49095],[140.32013,40.49974],[140.32014,40.50644],[140.32328,40.50947],[140.31982,40.51511],[140.31425,40.51548],[140.31118,40.52045],[140.30595,40.52136],[140.30203,40.52757],[140.30159,40.5378],[140.30264,40.54684],[140.31013,40.55249],[140.31026,40.56758],[140.30392,40.57369],[140.30882,40.57884],[140.29894,40.58448],[140.30642,40.58532],[140.31047,40.58839],[140.30787,40.59393],[140.30148,40.59421],[140.29622,40.60044],[140.29763,40.60594],[140.28782,40.60717],[140.28595,40.61094],[140.2689,40.61601],[140.25926,40.61391],[140.24866,40.60748],[140.24766,40.6028],[140.2372,40.6043],[140.2353,40.59674],[140.2308,40.59049],[140.22198,40.58931],[140.2199,40.58576],[140.21093,40.58169],[140.21119,40.57196],[140.2074,40.5671],[140.20249,40.56636],[140.19866,40.5616],[140.19805,40.55659],[140.19014,40.55577],[140.18349,40.55991],[140.17811,40.56678],[140.16616,40.56065],[140.16321,40.55695]]]},"properties":{"pref":"青森県","county":"中津軽郡","city":"西目屋村","code5":"02343","code6":"023434"}},
{"type":"Feature","geometry":{"type":"Polygon","coordinates":[[[140.52113,40.72196],[140.52117,40.71777],[140.52522,40.71111],[140.52825,40.70189],[140.5273,40.69781],[140.52041,40.69435],[140.50625,40.70482],[140.49302,40.69949],[140.49142,40.69588],[140.49275,40.68559],[140.48532,40.68309],[140.47943,40.68307],[140.47704,40.6802],[140.47914,40.67112],[140.47216,40.66617],[140.46547,40.67051],[140.46169,40.66748],[140.4608,40.66139],[140.46566,40.66069],[140.46724,40.65535],[140.47181,40.6508],[140.48045,40.64577],[140.48289,40.6515],[140.49352,40.65076],[140.49706,40.64262],[140.50209,40.64126],[140.50938,40.6431],[140.51989,40.65073],[140.52298,40.65707],[140.52246,40.66146],[140.53054,40.65925],[140.54769,40.65916],[140.54973,40.66242],[140.5579,40.663],[140.56747,40.67443],[140.57133,40.67259],[140.57662,40.67989],[140.57825,40.68732],[140.5719,40.68943],[140.56783,40.68786],[140.55918,40.68806],[140.55576,40.68486],[140.55622,40.67861],[140.5489,40.67408],[140.54427,40.67712],[140.54073,40.68766],[140.54875,40.69548],[140.54706,40.70028],[140.53692,40.70599],[140.52514,40.7199],[140.52113,40.72196]]]},"properties":{"pref":"青森県","county":"南津軽郡","city":"藤崎町","code5":"02361","code6":"023612"}},
{"type":"Feature","geometry":{"type":"Polygon","coordinates":[[[140.43721,40.47826],[140.43385,40.47273],[140.43346,40.4677],[140.43702,40.46547],[140.43755,40.45527],[140.44382,40.45063],[140.45941,40.45645],[140.46589,40.45398],[140.47765,40.45307],[140.48432,40.44622],[140.48516,40.44087],[140.49801,40.43645],[140.50257,40.43145],[140.50845,40.42853],[140.51883,40.43079],[140.52788,40.43133],[140.53081,40.42671],[140.52981,40.42026],[140.52439,40.41895],[140.52381,40.41021],[140.53218,40.41128],[140.53589,40.40952],[140.54078,40.40268],[140.54735,40.40391],[140.55915,40.39706],[140.56707,40.39864],[140.56597,40.40647],[140.55936,40.41134],[140.55321,40.41998],[140.55764,40.42569],[140.5741,40.42614],[140.57561,40.42892],[140.58871,40.4302],[140.58973,40.43611],[140.59915,40.44265],[140.60126,40.45287],[140.59747,40.46948],[140.59864,40.47561],[140.58341,40.48518],[140.58895,40.48772],[140.59448,40.49392],[140.59949,40.49306],[140.60601,40.48894],[140.6072,40.47974],[140.61408,40.48072],[140.61732,40.49133],[140.62119,40.49793],[140.63042,40.49433],[140.6359,40.49498],[140.64841,40.49385],[140.66618,40.50258],[140.67892,40.51104],[140.6765,40.51702],[140.67732,40.52082],[140.66336,40.53044],[140.64847,40.53167],[140.63996,40.537],[140.63309,40.53512],[140.62753,40.54052],[140.61561,40.53551],[140.60231,40.53905],[140.59815,40.54284],[140.58769,40.54079],[140.58303,40.5383],[140.57601,40.53771],[140.56925,40.5442],[140.56407,40.54292],[140.5593,40.54875],[140.55354,40.54922],[140.55439,40.53925],[140.55105,40.53612],[140.546,40.54345],[140.54141,40.54538],[140.53536,40.53001],[140.53113,40.52695],[140.52008,40.52287],[140.51042,40.52424],[140.49386,40.52191],[140.48429,40.5185],[140.48187,40.51461],[140.48392,40.50835],[140.47714,40.50429],[140.46293,40.50322],[140.46263,40.49832],[140.45873,40.49282],[140.46465,40.48688],[140.45926,40.48023],[140.45436,40.48123],[140.44856,40.4779],[140.44438,40.48025],[140.43721,40.47826]]]},"properties":{"pref":"青森県","county":"南津軽郡","city":"大鰐町","code5":"02362","code6":"023621"}},
{"type":"Feature","geometry":{"type":"Polygon","coordinates":[[[140.51384,40.61524],[140.51838,40.62388],[140.53637,40.62992],[140.54402,40.62462],[140.55704,40.62343],[140.56621,40.62567],[140.57061,40.6301],[140.58208,40.63095],[140.58172,40.63497],[140.57356,40.63762],[140.57535,40.64338],[140.57476,40.64934],[140.56677,40.65425],[140.56507,40.66047],[140.57317,40.65845],[140.57439,40.663],[140.56824,40.66874],[140.57133,40.67259],[140.56747,40.67443],[140.5579,40.663],[140.54973,40.66242],[140.54769,40.65916],[140.53054,40.65925],[140.52246,40.66146],[140.52298,40.65707],[140.51989,40.65073],[140.50938,40.6431],[140.50209,40.64126],[140.49706,40.64262],[140.49847,40.6355],[140.50169,40.63029],[140.50616,40.62926],[140.50444,40.6245],[140.51144,40.62102],[140.51384,40.61524]]]},"properties":{"pref":"青森県","county":"南津軽郡","city":"田舎館村","code5":"02367","code6":"023671"}},
{"type":"Feature","geometry":{"type":"Polygon","coordinates":[[[140.52024,40.72969],[140.51242,40.73701],[140.51543,40.74064],[140.5121,40.74448],[140.51373,40.7571],[140.50104,40.76005],[140.49899,40.75695],[140.50116,40.74864],[140.49891,40.74408],[140.48889,40.74886],[140.47259,40.75213],[140.4721,40.74438],[140.46744,40.73896],[140.4684,40.73164],[140.46675,40.72764],[140.45986,40.73108],[140.44945,40.73027],[140.44685,40.72816],[140.43738,40.72944],[140.4339,40.72388],[140.42655,40.72201],[140.42793,40.71704],[140.43577,40.70807],[140.44169,40.70552],[140.44562,40.69831],[140.45363,40.69464],[140.45608,40.68757],[140.46122,40.68538],[140.46547,40.67051],[140.47216,40.66617],[140.47914,40.67112],[140.47704,40.6802],[140.47943,40.68307],[140.48532,40.68309],[140.49275,40.68559],[140.49142,40.69588],[140.49302,40.69949],[140.50625,40.70482],[140.52041,40.69435],[140.5273,40.69781],[140.52825,40.70189],[140.52522,40.71111],[140.52117,40.71777],[140.52113,40.72196],[140.52024,40.72969]]]},"properties":{"pref":"青森県","county":"北津軽郡","city":"板柳町","code5":"02381","code6":"023817"}},
{"type":"Feature","geometry":{"type":"Polygon","coordinates":[[[140.42655,40.72201],[140.4339,40.72388],[140.43738,40.72944],[140.44685,40.72816],[140.44945,40.73027],[140.45986,40.73108],[140.46675,40.72764],[140.4684,40.73164],[140.46744,40.73896],[140.4721,40.74438],[140.47259,40.75213],[140.48889,40.74886],[140.49891,40.74408],[140.50116,40.74864],[140.49899,40.75695],[140.49427,40.75602],[140.48587,40.7649],[140.47839,40.76323],[140.4755,40.75668],[140.46957,40.75761],[140.46761,40.76131],[140.46225,40.76128],[140.45896,40.76949],[140.455,40.77198],[140.44459,40.77146],[140.44414,40.78028],[140.43895,40.78134],[140.43749,40.78964],[140.43548,40.78796],[140.42398,40.78749],[140.41464,40.77648],[140.42028,40.77203],[140.42135,40.76582],[140.41423,40.7626],[140.40736,40.7724],[140.39418,40.77824],[140.38708,40.78521],[140.38424,40.78357],[140.37793,40.78982],[140.37099,40.78551],[140.37513,40.77711],[140.37051,40.77126],[140.36111,40.76933],[140.35345,40.76501],[140.34246,40.76182],[140.33962,40.75922],[140.34662,40.75848],[140.35552,40.75506],[140.35684,40.74874],[140.38173,40.74782],[140.389,40.74262],[140.39936,40.74668],[140.40202,40.74445],[140.4017,40.7385],[140.42044,40.73665],[140.41979,40.72413],[140.42655,40.72201]]]},"properties":{"pref":"青森県","county":"北津軽郡","city":"鶴田町","code5":"02384","code6":"023841"}},
{"type":"Feature","geometry":{"type":"MultiPolygon","coordinates":[[[[140.52166,40.99569],[140.52054,41],[140.52203,41.00713],[140.51614,41.00914],[140.51577,41.01471],[140.51889,41.02293],[140.51931,41.02898],[140.51432,41.02993],[140.5147,41.03718],[140.51067,41.03742],[140.50171,41.04328],[140.49435,41.05309],[140.49767,41.06202],[140.49536,41.06854],[140.48975,41.0711],[140.48521,41.07677],[140.47653,41.08068],[140.47348,41.08367],[140.46264,41.08796],[140.45809,41.09679],[140.45519,41.09936],[140.45673,41.10415],[140.45083,41.10408],[140.4486,41.09705],[140.44925,41.08951],[140.45319,41.08319],[140.45245,41.0788],[140.44522,41.07736],[140.43762,41.07254],[140.43285,41.06527],[140.42708,41.06011],[140.42101,41.05737],[140.41624,41.04928],[140.41538,41.04473],[140.40657,41.04327],[140.39879,41.04509],[140.38883,41.044],[140.38627,41.04002],[140.40307,41.03924],[140.40755,41.03224],[140.41542,41.02686],[140.41338,41.02028],[140.40821,41.01775],[140.40481,41.02275],[140.39965,41.02339],[140.39752,41.0183],[140.39204,41.01911],[140.39195,41.02291],[140.37756,41.01931],[140.37101,41.01634],[140.36701,41.01206],[140.37296,41.01051],[140.38194,41.00181],[140.38292,40.99522],[140.39044,40.98766],[140.39246,40.98062],[140.39067,40.9761],[140.38018,40.96366],[140.37664,40.95724],[140.37566,40.95129],[140.37999,40.94818],[140.38034,40.9416],[140.3858,40.93842],[140.39439,40.94192],[140.40005,40.94143],[140.40566,40.93696],[140.41143,40.93619],[140.41732,40.92851],[140.41901,40.92187],[140.42174,40.91934],[140.43081,40.92005],[140.43504,40.92259],[140.43199,40.92994],[140.44716,40.9361],[140.45611,40.93441],[140.46341,40.93509],[140.47905,40.94335],[140.48742,40.94242],[140.49029,40.94641],[140.50215,40.94834],[140.50671,40.95248],[140.51373,40.96468],[140.51507,40.97056],[140.51217,40.97571],[140.51778,40.98329],[140.51708,40.99168],[140.52166,40.99569]]],[[[140.39125,41.12705],[140.38581,41.13487],[140.37847,41.13952],[140.37264,41.14531],[140.37031,41.15004],[140.36319,41.1528],[140.36803,41.16213],[140.37058,41.17337],[140.36851,41.17973],[140.37149,41.19324],[140.37553,41.19604],[140.37137,41.20305],[140.37246,41.21015],[140.36191,41.21986],[140.36326,41.22992],[140.36202,41.23501],[140.35422,41.2412],[140.35546,41.24383],[140.34907,41.2489],[140.34218,41.24899],[140.34008,41.23905],[140.33211,41.23606],[140.32897,41.21914],[140.33203,41.21525],[140.33452,41.20498],[140.33123,41.20175],[140.33145,41.19712],[140.33557,41.19315],[140.33543,41.18778],[140.33241,41.18393],[140.33376,41.17998],[140.32887,41.1678],[140.32803,41.16003],[140.32159,41.14783],[140.31773,41.145],[140.3121,41.14573],[140.3125,41.13801],[140.30336,41.13131],[140.29572,41.13113],[140.2889,41.13646],[140.28269,41.13643],[140.27755,41.13925],[140.27289,41.13741],[140.26467,41.1356],[140.25701,41.14067],[140.25392,41.13777],[140.25047,41.13107],[140.25006,41.12372],[140.25686,41.12112],[140.26733,41.12054],[140.2802,41.12126],[140.28839,41.11945],[140.29216,41.11507],[140.2964,41.11471],[140.30587,41.10663],[140.31354,41.10617],[140.32465,41.10937],[140.32966,41.10615],[140.33619,41.10675],[140.34319,41.1104],[140.35148,41.10974],[140.35432,41.11597],[140.35918,41.12121],[140.37404,41.12761],[140.39125,41.12705]]]]},"properties":{"pref":"青森県","county":"北津軽郡","city":"中泊町","code5":"02387","code6":"023876"}},
{"type":"Feature","geometry":{"type":"Polygon","coordinates":[[[141.0394,40.84039],[141.04328,40.83452],[141.0469,40.8338],[141.05941,40.83531],[141.07674,40.83028],[141.08376,40.8309],[141.11516,40.84063],[141.1277,40.84086],[141.12709,40.83782],[141.13386,40.83495],[141.1353,40.83934],[141.13231,40.84897],[141.13799,40.85045],[141.14665,40.84712],[141.15275,40.84961],[141.17374,40.86402],[141.18659,40.86777],[141.19145,40.87093],[141.19528,40.86965],[141.20339,40.8865],[141.21751,40.89643],[141.22496,40.90306],[141.22456,40.90833],[141.22702,40.9147],[141.23089,40.91799],[141.23439,40.9249],[141.23245,40.93161],[141.23465,40.93871],[141.23278,40.94053],[141.24504,40.95267],[141.24643,40.96025],[141.2582,40.96663],[141.25534,40.96936],[141.23986,40.97201],[141.22099,40.97141],[141.21135,40.95165],[141.20283,40.93718],[141.18957,40.91787],[141.17685,40.90317],[141.16101,40.88817],[141.14884,40.87927],[141.13777,40.87588],[141.13209,40.87261],[141.12569,40.87323],[141.11641,40.87111],[141.10333,40.87246],[141.09106,40.88017],[141.08412,40.88621],[141.07675,40.88598],[141.04702,40.87707],[141.04371,40.87421],[141.04163,40.8649],[141.0462,40.85196],[141.03945,40.84677],[141.0394,40.84039]]]},"properties":{"pref":"青森県","county":"上北郡","city":"野辺地町","code5":"02401","code6":"024015"}},
{"type":"Feature","geometry":{"type":"Polygon","coordinates":[[[140.97897,40.69762],[140.99059,40.69349],[140.99176,40.689],[140.99894,40.68122],[140.99964,40.67671],[141.00374,40.67069],[141.01161,40.66789],[141.02749,40.66439],[141.03613,40.66585],[141.04595,40.66465],[141.05084,40.66117],[141.05528,40.65047],[141.06259,40.64319],[141.07319,40.64046],[141.07673,40.63635],[141.08541,40.63469],[141.10835,40.63557],[141.11411,40.63689],[141.12652,40.64277],[141.14428,40.6392],[141.14864,40.64566],[141.14869,40.65101],[141.14552,40.65682],[141.15701,40.66322],[141.16138,40.67249],[141.1711,40.67239],[141.16969,40.67928],[141.17283,40.68313],[141.17595,40.68958],[141.17258,40.69794],[141.18002,40.7036],[141.17916,40.7068],[141.18554,40.71117],[141.19632,40.71447],[141.20508,40.71842],[141.21441,40.72578],[141.22403,40.72615],[141.22956,40.72958],[141.23838,40.73183],[141.24407,40.73745],[141.24874,40.7457],[141.24615,40.75066],[141.25186,40.75367],[141.25808,40.75065],[141.27086,40.74978],[141.27152,40.75347],[141.25369,40.75489],[141.25538,40.77281],[141.24809,40.77594],[141.23659,40.77452],[141.23821,40.76943],[141.231,40.76735],[141.2267,40.76129],[141.22928,40.75825],[141.2187,40.75664],[141.20897,40.76327],[141.19205,40.76478],[141.18544,40.76832],[141.18901,40.77843],[141.18763,40.78331],[141.18014,40.78605],[141.16892,40.7853],[141.16262,40.78683],[141.16171,40.79425],[141.14771,40.79676],[141.1354,40.80402],[141.11912,40.80216],[141.0997,40.80554],[141.08827,40.80064],[141.07935,40.80291],[141.07003,40.80257],[141.06314,40.80024],[141.05534,40.80078],[141.0533,40.7987],[141.04508,40.79979],[141.04073,40.80376],[141.03035,40.79921],[141.02725,40.80114],[141.01618,40.80256],[141.0067,40.81661],[140.99611,40.815],[140.98802,40.81083],[140.98615,40.80709],[140.98061,40.80618],[140.97675,40.80079],[140.97562,40.79165],[140.97023,40.78665],[140.95811,40.78003],[140.96111,40.77274],[140.95342,40.76557],[140.94492,40.76338],[140.93954,40.7595],[140.92026,40.7617],[140.91642,40.75675],[140.91053,40.75706],[140.90571,40.75105],[140.90626,40.74662],[140.90191,40.74347],[140.90123,40.73836],[140.90984,40.72917],[140.91564,40.72969],[140.91995,40.72629],[140.92632,40.72666],[140.92917,40.72161],[140.93918,40.72153],[140.95317,40.7187],[140.96362,40.70965],[140.97002,40.70583],[140.97532,40.69933],[140.97897,40.69762]]]},"properties":{"pref":"青森県","county":"上北郡","city":"七戸町","code5":"02402","code6":"024023"}},
{"type":"Feature","geometry":{"type":"Polygon","coordinates":[[[141.30367,40.56806],[141.32258,40.56272],[141.33694,40.568],[141.33377,40.5789],[141.34051,40.58202],[141.346,40.58124],[141.35247,40.58581],[141.35873,40.57817],[141.36527,40.56621],[141.3697,40.5672],[141.37644,40.57217],[141.38053,40.57973],[141.38037,40.58555],[141.36616,40.58926],[141.35453,40.58941],[141.36306,40.59978],[141.36618,40.60125],[141.36493,40.60689],[141.36041,40.60555],[141.36098,40.6009],[141.35303,40.60232],[141.34725,40.60125],[141.34382,40.61096],[141.34678,40.61314],[141.34462,40.61763],[141.34572,40.62529],[141.35428,40.63837],[141.36309,40.64251],[141.36035,40.64745],[141.35936,40.65804],[141.35584,40.66382],[141.35182,40.665],[141.34467,40.66099],[141.33425,40.66978],[141.33255,40.67487],[141.33598,40.68476],[141.34067,40.68836],[141.33163,40.69243],[141.32557,40.69262],[141.32248,40.69626],[141.3247,40.70066],[141.31792,40.69907],[141.31551,40.69053],[141.30757,40.68857],[141.3006,40.68276],[141.2902,40.68101],[141.28748,40.67621],[141.27834,40.67138],[141.26993,40.66449],[141.26544,40.659],[141.26315,40.65132],[141.2692,40.6462],[141.27876,40.6474],[141.28315,40.64519],[141.27784,40.6404],[141.27069,40.63752],[141.26141,40.6372],[141.26398,40.63324],[141.25918,40.63039],[141.25705,40.61911],[141.25838,40.61633],[141.27437,40.6156],[141.27508,40.60686],[141.27875,40.60075],[141.28748,40.59903],[141.2855,40.58828],[141.28894,40.58618],[141.29612,40.57771],[141.30191,40.57541],[141.30367,40.56806]]]},"properties":{"pref":"青森県","county":"上北郡","city":"六戸町","code5":"02405","code6":"024058"}},
{"type":"Feature","geometry":{"type":"Polygon","coordinates":[[[141.27632,41.15069],[141.27667,41.14759],[141.27227,41.1348],[141.26334,41.12592],[141.26013,41.12627],[141.2549,41.12066],[141.25436,41.11561],[141.24842,41.11019],[141.24647,41.10464],[141.24724,41.08933],[141.24208,41.08327],[141.24279,41.0617],[141.24088,41.0417],[141.23743,41.02192],[141.23414,41.00834],[141.229,40.99153],[141.22099,40.97141],[141.23986,40.97201],[141.25534,40.96936],[141.26467,40.97392],[141.26363,40.98193],[141.27012,40.98824],[141.27311,40.99431],[141.28375,40.99467],[141.28826,41.00365],[141.29781,41.00489],[141.30149,41.01628],[141.31224,41.02079],[141.31477,41.02483],[141.32111,41.02854],[141.31783,41.04186],[141.32424,41.04487],[141.32596,41.05404],[141.32888,41.05898],[141.33803,41.05712],[141.34315,41.05978],[141.34425,41.06502],[141.33879,41.07194],[141.34578,41.07496],[141.34334,41.08309],[141.34595,41.09291],[141.35069,41.09389],[141.35198,41.10184],[141.34758,41.10644],[141.33503,41.10873],[141.32834,41.11235],[141.32524,41.11675],[141.32826,41.1224],[141.33391,41.12343],[141.33066,41.13293],[141.32747,41.13555],[141.32549,41.14792],[141.32295,41.15411],[141.31057,41.15169],[141.28564,41.15685],[141.27632,41.15069]]]},"properties":{"pref":"青森県","county":"上北郡","city":"横浜町","code5":"02406","code6":"024066"}},
{"type":"Feature","geometry":{"type":"Polygon","coordinates":[[[141.26993,40.66449],[141.27834,40.67138],[141.28748,40.67621],[141.2902,40.68101],[141.3006,40.68276],[141.30757,40.68857],[141.31551,40.69053],[141.31792,40.69907],[141.3247,40.70066],[141.32825,40.70644],[141.33418,40.70807],[141.34232,40.71533],[141.34302,40.72022],[141.33604,40.72074],[141.33063,40.71324],[141.3184,40.71309],[141.31099,40.71031],[141.3101,40.71655],[141.32185,40.72451],[141.3377,40.72425],[141.34628,40.72058],[141.35142,40.72344],[141.35842,40.73615],[141.35965,40.74574],[141.35795,40.76839],[141.35544,40.77451],[141.34881,40.77793],[141.34774,40.80406],[141.34975,40.81016],[141.35899,40.8161],[141.36608,40.82746],[141.36773,40.83865],[141.36544,40.8427],[141.35945,40.84451],[141.3508,40.8428],[141.33774,40.84268],[141.32663,40.84689],[141.32432,40.85025],[141.31544,40.84732],[141.30798,40.83158],[141.29661,40.83601],[141.28178,40.83981],[141.26981,40.84571],[141.26818,40.85509],[141.26828,40.86374],[141.26653,40.86988],[141.26932,40.88501],[141.26265,40.8914],[141.26074,40.89971],[141.25609,40.90837],[141.25672,40.91266],[141.26169,40.92009],[141.26092,40.92612],[141.24972,40.92391],[141.23245,40.93161],[141.23439,40.9249],[141.23089,40.91799],[141.22702,40.9147],[141.22456,40.90833],[141.22496,40.90306],[141.21751,40.89643],[141.20339,40.8865],[141.19528,40.86965],[141.19145,40.87093],[141.18659,40.86777],[141.17374,40.86402],[141.15275,40.84961],[141.14665,40.84712],[141.13799,40.85045],[141.13231,40.84897],[141.1353,40.83934],[141.13386,40.83495],[141.12709,40.83782],[141.1277,40.84086],[141.11516,40.84063],[141.08376,40.8309],[141.07674,40.83028],[141.05941,40.83531],[141.0469,40.8338],[141.04328,40.83452],[141.0394,40.84039],[141.02245,40.83678],[141.01807,40.83716],[141.02014,40.82596],[141.01673,40.81985],[141.0067,40.81661],[141.01618,40.80256],[141.02725,40.80114],[141.03035,40.79921],[141.04073,40.80376],[141.04508,40.79979],[141.0533,40.7987],[141.05534,40.80078],[141.06314,40.80024],[141.07003,40.80257],[141.07935,40.80291],[141.08827,40.80064],[141.0997,40.80554],[141.11912,40.80216],[141.1354,40.80402],[141.14771,40.79676],[141.16171,40.79425],[141.16262,40.78683],[141.16892,40.7853],[141.18014,40.78605],[141.18763,40.78331],[141.18901,40.77843],[141.18544,40.76832],[141.19205,40.76478],[141.20897,40.76327],[141.2187,40.75664],[141.22928,40.75825],[141.2267,40.76129],[141.231,40.76735],[141.23821,40.76943],[141.23659,40.77452],[141.24809,40.77594],[141.25538,40.77281],[141.25369,40.75489],[141.27152,40.75347],[141.27086,40.74978],[141.25808,40.75065],[141.25186,40.75367],[141.24615,40.75066],[141.24874,40.7457],[141.24407,40.73745],[141.23838,40.73183],[141.22956,40.72958],[141.22403,40.72615],[141.21441,40.72578],[141.20508,40.71842],[141.19632,40.71447],[141.18554,40.71117],[141.17916,40.7068],[141.18002,40.7036],[141.17258,40.69794],[141.17595,40.68958],[141.17283,40.68313],[141.1889,40.68584],[141.19493,40.68933],[141.20345,40.68831],[141.21107,40.69042],[141.2153,40.68932],[141.22319,40.69154],[141.23088,40.69168],[141.2315,40.69477],[141.23992,40.6985],[141.24421,40.69661],[141.25145,40.70167],[141.25633,40.69922],[141.26039,40.70112],[141.26549,40.6978],[141.26626,40.69162],[141.26361,40.68516],[141.26697,40.67893],[141.26709,40.67123],[141.27159,40.669],[141.26993,40.66449]]]},"properties":{"pref":"青森県","county":"上北郡","city":"東北町","code5":"02408","code6":"024082"}},
{"type":"Feature","geometry":{"type":"Polygon","coordinates":[[[141.39293,40.88662],[141.39114,40.91046],[141.39275,40.92251],[141.38696,40.92423],[141.38361,40.9353],[141.38868,40.93945],[141.38585,40.95214],[141.38739,40.96972],[141.38511,40.97793],[141.38489,41.00948],[141.38667,41.03238],[141.39144,41.0735],[141.39281,41.08114],[141.3967,41.09117],[141.39841,41.10043],[141.39479,41.10094],[141.39376,41.11445],[141.39627,41.12631],[141.39584,41.13237],[141.39201,41.12959],[141.38566,41.12965],[141.37754,41.12482],[141.36845,41.11206],[141.36155,41.10806],[141.35422,41.10902],[141.34758,41.10644],[141.35198,41.10184],[141.35069,41.09389],[141.34595,41.09291],[141.34334,41.08309],[141.34578,41.07496],[141.33879,41.07194],[141.34425,41.06502],[141.34315,41.05978],[141.33803,41.05712],[141.32888,41.05898],[141.32596,41.05404],[141.32424,41.04487],[141.31783,41.04186],[141.32111,41.02854],[141.31477,41.02483],[141.31224,41.02079],[141.30149,41.01628],[141.29781,41.00489],[141.28826,41.00365],[141.28375,40.99467],[141.27311,40.99431],[141.27012,40.98824],[141.26363,40.98193],[141.26467,40.97392],[141.25534,40.96936],[141.2582,40.96663],[141.24643,40.96025],[141.24504,40.95267],[141.23278,40.94053],[141.23465,40.93871],[141.23245,40.93161],[141.24972,40.92391],[141.26092,40.92612],[141.26169,40.92009],[141.25672,40.91266],[141.25609,40.90837],[141.26074,40.89971],[141.26265,40.8914],[141.26932,40.88501],[141.26653,40.86988],[141.26828,40.86374],[141.26818,40.85509],[141.26981,40.84571],[141.28178,40.83981],[141.29661,40.83601],[141.30798,40.83158],[141.31544,40.84732],[141.32432,40.85025],[141.32663,40.84689],[141.33774,40.84268],[141.3508,40.8428],[141.35945,40.84451],[141.36544,40.8427],[141.36773,40.83865],[141.37143,40.83896],[141.37879,40.84496],[141.37821,40.85193],[141.3741,40.86355],[141.37691,40.87585],[141.37976,40.8828],[141.38541,40.88553],[141.39293,40.88662]]]},"properties":{"pref":"青森県","county":"上北郡","city":"六ヶ所村","code5":"02411","code6":"024112"}},
{"type":"Feature","geometry":{"type":"Polygon","coordinates":[[[141.46299,40.60347],[141.46241,40.60773],[141.45446,40.62333],[141.44789,40.63882],[141.4394,40.66657],[141.43878,40.67051],[141.42897,40.66801],[141.41826,40.66925],[141.38785,40.66534],[141.36821,40.66693],[141.36401,40.67237],[141.36124,40.66434],[141.35584,40.66382],[141.35936,40.65804],[141.36035,40.64745],[141.36309,40.64251],[141.35428,40.63837],[141.34572,40.62529],[141.34462,40.61763],[141.34678,40.61314],[141.34382,40.61096],[141.34725,40.60125],[141.35303,40.60232],[141.36098,40.6009],[141.36041,40.60555],[141.36493,40.60689],[141.36618,40.60125],[141.36306,40.59978],[141.35453,40.58941],[141.36616,40.58926],[141.38037,40.58555],[141.38979,40.58735],[141.39622,40.58452],[141.40639,40.58478],[141.4113,40.58105],[141.41178,40.58369],[141.41958,40.58504],[141.43574,40.59466],[141.44714,40.59672],[141.45163,40.59987],[141.46133,40.60022],[141.46299,40.60347]]]},"properties":{"pref":"青森県","county":"上北郡","city":"おいらせ町","code5":"02412","code6":"024121"}},
{"type":"Feature","geometry":{"type":"Polygon","coordinates":[[[140.96759,41.43515],[140.96259,41.43564],[140.95198,41.44538],[140.9508,41.44887],[140.95658,41.45254],[140.95521,41.45705],[140.95854,41.46207],[140.9576,41.46676],[140.9608,41.47269],[140.95797,41.48038],[140.95237,41.48793],[140.95522,41.49391],[140.95908,41.49505],[140.95736,41.50148],[140.94749,41.50664],[140.93389,41.52137],[140.93708,41.52896],[140.92415,41.53461],[140.91693,41.54495],[140.91072,41.54493],[140.90795,41.53753],[140.90813,41.52996],[140.89879,41.52392],[140.90616,41.51389],[140.90957,41.50355],[140.90711,41.4993],[140.90895,41.49452],[140.90473,41.49183],[140.89842,41.47663],[140.8898,41.47115],[140.88216,41.4682],[140.88807,41.46867],[140.89809,41.45731],[140.89648,41.4519],[140.899,41.44917],[140.9018,41.44012],[140.9081,41.43341],[140.91667,41.43201],[140.91852,41.42553],[140.92279,41.42364],[140.92839,41.42736],[140.94037,41.42106],[140.94461,41.42254],[140.94515,41.42688],[140.95671,41.42397],[140.96559,41.43151],[140.96759,41.43515]]]},"properties":{"pref":"青森県","county":"下北郡","city":"大間町","code5":"02423","code6":"024236"}},
{"type":"Feature","geometry":{"type":"Polygon","coordinates":[[[141.32295,41.15411],[141.32549,41.14792],[141.32747,41.13555],[141.33066,41.13293],[141.33391,41.12343],[141.32826,41.1224],[141.32524,41.11675],[141.32834,41.11235],[141.33503,41.10873],[141.34758,41.10644],[141.35422,41.10902],[141.36155,41.10806],[141.36845,41.11206],[141.37754,41.12482],[141.38566,41.12965],[141.39201,41.12959],[141.39584,41.13237],[141.39171,41.13338],[141.38845,41.15392],[141.39091,41.17846],[141.39494,41.19501],[141.39692,41.19951],[141.40354,41.22274],[141.40494,41.23855],[141.40819,41.25],[141.4127,41.2609],[141.41505,41.27084],[141.42265,41.29206],[141.43394,41.33087],[141.44239,41.35734],[141.44471,41.36274],[141.45005,41.37323],[141.45922,41.37918],[141.46064,41.38938],[141.45322,41.39442],[141.45519,41.40137],[141.46334,41.4033],[141.46005,41.41173],[141.46153,41.4162],[141.46854,41.4192],[141.46385,41.42377],[141.46139,41.43121],[141.45654,41.42498],[141.4389,41.41298],[141.43429,41.40687],[141.4255,41.40181],[141.42292,41.39823],[141.41526,41.39399],[141.40411,41.38415],[141.38938,41.37641],[141.37694,41.37199],[141.35747,41.36388],[141.33429,41.35624],[141.32245,41.35434],[141.31064,41.35126],[141.29686,41.35045],[141.27461,41.35368],[141.26358,41.35605],[141.24657,41.36116],[141.25,41.35211],[141.24541,41.34403],[141.23697,41.33377],[141.24493,41.33145],[141.23403,41.3259],[141.22881,41.31956],[141.22605,41.31238],[141.22844,41.30946],[141.23492,41.30878],[141.24555,41.31063],[141.25296,41.30166],[141.2542,41.29209],[141.2512,41.2898],[141.24754,41.28186],[141.25114,41.267],[141.24752,41.2586],[141.24651,41.2492],[141.25506,41.24482],[141.26604,41.24339],[141.28274,41.24989],[141.2899,41.24727],[141.29992,41.24765],[141.30347,41.24931],[141.31049,41.24325],[141.31526,41.24737],[141.32669,41.24425],[141.32536,41.23939],[141.33213,41.22619],[141.33897,41.21525],[141.33622,41.21327],[141.33473,41.20551],[141.33714,41.20001],[141.33011,41.19084],[141.33021,41.1821],[141.31933,41.16749],[141.3185,41.1624],[141.32171,41.15975],[141.32295,41.15411]]]},"properties":{"pref":"青森県","county":"下北郡","city":"東通村","code5":"02424","code6":"024244"}},
{"type":"Feature","geometry":{"type":"Polygon","coordinates":[[[141.11569,41.45566],[141.11159,41.4596],[141.11266,41.46295],[141.09403,41.46788],[141.07038,41.4788],[141.06687,41.48226],[141.05838,41.48314],[141.02853,41.48302],[141.0106,41.48551],[141.00274,41.48553],[140.99417,41.49088],[140.98084,41.49518],[140.97211,41.49995],[140.96868,41.50568],[140.96459,41.50828],[140.96361,41.51303],[140.95738,41.51581],[140.95258,41.52198],[140.946,41.52304],[140.93708,41.52896],[140.93389,41.52137],[140.94749,41.50664],[140.95736,41.50148],[140.95908,41.49505],[140.95522,41.49391],[140.95237,41.48793],[140.95797,41.48038],[140.9608,41.47269],[140.9576,41.46676],[140.95854,41.46207],[140.95521,41.45705],[140.95658,41.45254],[140.9508,41.44887],[140.95198,41.44538],[140.96259,41.43564],[140.96759,41.43515],[140.97549,41.43903],[140.98658,41.43698],[140.99524,41.43991],[141.00287,41.43491],[141.00751,41.42365],[141.01251,41.42153],[141.02783,41.42075],[141.03102,41.42498],[141.039,41.42636],[141.05071,41.43407],[141.05119,41.43868],[141.04771,41.44493],[141.05113,41.44637],[141.06036,41.44406],[141.0633,41.44685],[141.07193,41.44686],[141.08299,41.45131],[141.10497,41.45136],[141.11569,41.45566]]]},"properties":{"pref":"青森県","county":"下北郡","city":"風間浦村","code5":"02425","code6":"024252"}},
{"type":"Feature","geometry":{"type":"Polygon","coordinates":[[[140.94037,41.42106],[140.92839,41.42736],[140.92279,41.42364],[140.91852,41.42553],[140.91667,41.43201],[140.9081,41.43341],[140.9018,41.44012],[140.899,41.44917],[140.89648,41.4519],[140.89809,41.45731],[140.88807,41.46867],[140.88216,41.4682],[140.88495,41.46712],[140.87751,41.45654],[140.87889,41.4533],[140.8709,41.45089],[140.8661,41.44643],[140.86665,41.43651],[140.8647,41.43453],[140.85298,41.4304],[140.84887,41.42188],[140.83522,41.41573],[140.83875,41.41286],[140.83359,41.40543],[140.82713,41.38649],[140.828,41.37833],[140.82035,41.34614],[140.81646,41.33834],[140.81151,41.3343],[140.80599,41.33287],[140.80719,41.32714],[140.79885,41.3208],[140.80625,41.31415],[140.79886,41.30135],[140.79797,41.2865],[140.79574,41.27887],[140.78953,41.27442],[140.79148,41.27153],[140.78578,41.2616],[140.78538,41.25637],[140.7799,41.25336],[140.78183,41.24238],[140.78472,41.23948],[140.78502,41.23011],[140.7793,41.21608],[140.77958,41.21107],[140.77828,41.21014],[140.78854,41.21358],[140.79257,41.21698],[140.79271,41.22284],[140.79828,41.22284],[140.8104,41.23084],[140.818,41.23275],[140.82282,41.23945],[140.8236,41.24757],[140.81592,41.25619],[140.82576,41.26887],[140.83169,41.27119],[140.84695,41.2661],[140.85242,41.26158],[140.86348,41.26028],[140.85997,41.26715],[140.85338,41.27086],[140.85,41.28249],[140.85198,41.28717],[140.83471,41.29863],[140.83494,41.30232],[140.84049,41.30674],[140.8458,41.30689],[140.84946,41.31454],[140.85929,41.31525],[140.86109,41.32145],[140.86871,41.32102],[140.87016,41.32538],[140.87597,41.33305],[140.8741,41.33541],[140.88412,41.34754],[140.88457,41.35091],[140.89041,41.35328],[140.90248,41.36454],[140.91451,41.36556],[140.91845,41.36945],[140.91162,41.37451],[140.91496,41.38053],[140.92468,41.38167],[140.92934,41.38959],[140.93322,41.39306],[140.92879,41.40028],[140.93722,41.4077],[140.94037,41.42106]]]},"properties":{"pref":"青森県","county":"下北郡","city":"佐井村","code5":"02426","code6":"024261"}},
{"type":"Feature","geometry":{"type":"Polygon","coordinates":[[[141.21102,40.41406],[141.18953,40.41736],[141.17597,40.41604],[141.17325,40.42004],[141.15506,40.4217],[141.14334,40.42024],[141.1316,40.41486],[141.12097,40.41676],[141.11277,40.41451],[141.10143,40.40712],[141.09348,40.40584],[141.08458,40.41241],[141.07371,40.41197],[141.06121,40.40881],[141.05008,40.40748],[141.04603,40.40292],[141.03835,40.40164],[141.0335,40.40614],[141.02354,40.40828],[141.01529,40.40647],[141.00637,40.40998],[140.99603,40.4068],[140.9908,40.40251],[140.98373,40.4084],[140.98254,40.41204],[140.9814,40.40565],[140.98576,40.40319],[140.98728,40.39503],[140.99734,40.39637],[141.00271,40.38712],[141.00927,40.38706],[141.01192,40.38336],[141.02155,40.3852],[141.02966,40.38514],[141.03386,40.38705],[141.0419,40.38485],[141.04273,40.38104],[141.05258,40.37592],[141.06038,40.37677],[141.06828,40.3752],[141.08043,40.3756],[141.08449,40.37319],[141.09186,40.37364],[141.10125,40.37698],[141.11022,40.37643],[141.11762,40.37182],[141.13892,40.36884],[141.14295,40.36477],[141.1542,40.36719],[141.16566,40.36657],[141.16464,40.36056],[141.17898,40.35581],[141.18336,40.35159],[141.177,40.34586],[141.18246,40.33297],[141.17261,40.32846],[141.16985,40.32413],[141.17249,40.31937],[141.16312,40.31507],[141.15885,40.30994],[141.15919,40.30479],[141.16851,40.30665],[141.17195,40.30976],[141.18561,40.30766],[141.19767,40.3077],[141.20924,40.31402],[141.21866,40.31532],[141.2186,40.31805],[141.22632,40.32795],[141.2318,40.32812],[141.23792,40.33405],[141.24518,40.33749],[141.24838,40.341],[141.26013,40.34187],[141.26243,40.34948],[141.26745,40.34909],[141.27509,40.34467],[141.28883,40.3492],[141.29232,40.35167],[141.29195,40.35788],[141.29893,40.36584],[141.31037,40.36683],[141.3171,40.37266],[141.31339,40.37736],[141.31462,40.38251],[141.31075,40.38739],[141.3023,40.38558],[141.29808,40.38722],[141.28675,40.39676],[141.27861,40.39363],[141.26989,40.39319],[141.26417,40.40187],[141.25869,40.40111],[141.24804,40.40378],[141.23622,40.40106],[141.22463,40.39986],[141.21102,40.41406]]]},"properties":{"pref":"青森県","county":"三戸郡","city":"三戸町","code5":"02441","code6":"024414"}},
{"type":"Feature","geometry":{"type":"Polygon","coordinates":[[[141.4113,40.58105],[141.40639,40.58478],[141.39622,40.58452],[141.38979,40.58735],[141.38037,40.58555],[141.38053,40.57973],[141.37644,40.57217],[141.3697,40.5672],[141.36527,40.56621],[141.35873,40.57817],[141.35247,40.58581],[141.346,40.58124],[141.34051,40.58202],[141.33377,40.5789],[141.33694,40.568],[141.32258,40.56272],[141.30367,40.56806],[141.29868,40.55837],[141.29115,40.55804],[141.28124,40.54386],[141.2754,40.53759],[141.26324,40.54006],[141.24453,40.53647],[141.24093,40.53423],[141.22559,40.53114],[141.21964,40.52761],[141.21915,40.51877],[141.21284,40.51565],[141.20796,40.5109],[141.2017,40.50874],[141.19481,40.49984],[141.18496,40.49585],[141.18349,40.49314],[141.17545,40.48882],[141.18388,40.48284],[141.18413,40.47814],[141.18989,40.47661],[141.19445,40.47031],[141.19637,40.45545],[141.2163,40.46029],[141.22184,40.45949],[141.23106,40.45397],[141.23332,40.44464],[141.23839,40.44402],[141.22966,40.43414],[141.22227,40.43044],[141.22623,40.424],[141.23407,40.41913],[141.24242,40.42037],[141.25178,40.4272],[141.26056,40.42905],[141.26415,40.42812],[141.27253,40.436],[141.28209,40.42973],[141.28358,40.42677],[141.29342,40.42589],[141.29601,40.42954],[141.29371,40.43493],[141.2857,40.44314],[141.29492,40.44761],[141.30278,40.45846],[141.3112,40.46059],[141.31921,40.46814],[141.32468,40.46704],[141.31985,40.47599],[141.32594,40.47697],[141.33048,40.48014],[141.34304,40.48419],[141.35546,40.49135],[141.36362,40.49476],[141.36641,40.4967],[141.35674,40.50589],[141.35837,40.51086],[141.35476,40.51707],[141.36888,40.52043],[141.37704,40.52419],[141.38464,40.52388],[141.39277,40.53251],[141.40266,40.53719],[141.41164,40.5375],[141.41852,40.53945],[141.41044,40.54669],[141.41985,40.55409],[141.42351,40.56231],[141.42029,40.57299],[141.40771,40.57456],[141.40666,40.57814],[141.4113,40.58105]]]},"properties":{"pref":"青森県","county":"三戸郡","city":"五戸町","code5":"02442","code6":"024422"}},
{"type":"Feature","geometry":{"type":"Polygon","coordinates":[[[140.98728,40.39503],[140.98441,40.38843],[140.99045,40.37821],[140.9936,40.37697],[140.99501,40.37017],[140.99117,40.36734],[140.99524,40.35524],[140.99316,40.35229],[140.98122,40.34337],[140.97393,40.34414],[140.96539,40.35029],[140.96295,40.34669],[140.96856,40.33749],[140.96255,40.32817],[140.96258,40.32316],[140.95891,40.32162],[140.95729,40.31506],[140.95758,40.30651],[140.95342,40.30105],[140.9463,40.29913],[140.94397,40.29626],[140.9446,40.28814],[140.95239,40.28742],[140.95758,40.28204],[140.95428,40.27974],[140.95278,40.27125],[140.94727,40.26445],[140.94571,40.25807],[140.95507,40.24763],[140.95919,40.24149],[140.96537,40.23972],[140.96943,40.22825],[140.97596,40.22576],[140.98006,40.21963],[140.9914,40.22275],[140.99649,40.21915],[141.00177,40.2206],[141.00603,40.21792],[141.02237,40.22027],[141.02598,40.22168],[141.02684,40.22657],[141.04655,40.23715],[141.05995,40.23831],[141.06918,40.2488],[141.07641,40.25264],[141.09019,40.25217],[141.09451,40.25488],[141.10406,40.25573],[141.11005,40.26105],[141.0998,40.28018],[141.10357,40.28053],[141.11559,40.28636],[141.11994,40.28999],[141.13439,40.29474],[141.13837,40.3005],[141.14521,40.29968],[141.15419,40.30143],[141.15919,40.30479],[141.15885,40.30994],[141.16312,40.31507],[141.17249,40.31937],[141.16985,40.32413],[141.17261,40.32846],[141.18246,40.33297],[141.177,40.34586],[141.18336,40.35159],[141.17898,40.35581],[141.16464,40.36056],[141.16566,40.36657],[141.1542,40.36719],[141.14295,40.36477],[141.13892,40.36884],[141.11762,40.37182],[141.11022,40.37643],[141.10125,40.37698],[141.09186,40.37364],[141.08449,40.37319],[141.08043,40.3756],[141.06828,40.3752],[141.06038,40.37677],[141.05258,40.37592],[141.04273,40.38104],[141.0419,40.38485],[141.03386,40.38705],[141.02966,40.38514],[141.02155,40.3852],[141.01192,40.38336],[141.00927,40.38706],[141.00271,40.38712],[140.99734,40.39637],[140.98728,40.39503]]]},"properties":{"pref":"青森県","county":"三戸郡","city":"田子町","code5":"02443","code6":"024431"}},
{"type":"Feature","geometry":{"type":"Polygon","coordinates":[[[141.36362,40.49476],[141.35546,40.49135],[141.34304,40.48419],[141.33048,40.48014],[141.32594,40.47697],[141.31985,40.47599],[141.32468,40.46704],[141.31921,40.46814],[141.3112,40.46059],[141.30278,40.45846],[141.29492,40.44761],[141.2857,40.44314],[141.29371,40.43493],[141.29601,40.42954],[141.29342,40.42589],[141.28358,40.42677],[141.28209,40.42973],[141.27253,40.436],[141.26415,40.42812],[141.26056,40.42905],[141.25178,40.4272],[141.24242,40.42037],[141.23407,40.41913],[141.23026,40.41748],[141.21102,40.41406],[141.22463,40.39986],[141.23622,40.40106],[141.24804,40.40378],[141.25869,40.40111],[141.26417,40.40187],[141.26989,40.39319],[141.27861,40.39363],[141.28675,40.39676],[141.29808,40.38722],[141.3023,40.38558],[141.31075,40.38739],[141.31462,40.38251],[141.31339,40.37736],[141.3171,40.37266],[141.32439,40.36986],[141.32433,40.36677],[141.33045,40.36169],[141.33634,40.3602],[141.33727,40.35493],[141.334,40.3456],[141.3382,40.34246],[141.34837,40.33871],[141.351,40.33107],[141.36979,40.33839],[141.37311,40.34309],[141.38182,40.34249],[141.38217,40.3452],[141.38979,40.35304],[141.38912,40.35922],[141.3931,40.36069],[141.38322,40.36929],[141.38446,40.38034],[141.38702,40.38735],[141.38394,40.39069],[141.38468,40.39953],[141.39012,40.40242],[141.38729,40.40568],[141.39397,40.40844],[141.40123,40.41494],[141.39595,40.4234],[141.40148,40.42274],[141.40814,40.4253],[141.41604,40.42532],[141.42429,40.42734],[141.44012,40.4294],[141.44409,40.43481],[141.44396,40.43884],[141.45213,40.44529],[141.4535,40.44835],[141.44139,40.45275],[141.43524,40.4575],[141.42794,40.45901],[141.42539,40.4626],[141.42263,40.4725],[141.41747,40.47575],[141.41497,40.47128],[141.40124,40.47333],[141.39314,40.48016],[141.3916,40.48764],[141.38503,40.48938],[141.38129,40.49347],[141.38107,40.50295],[141.36362,40.49476]]]},"properties":{"pref":"青森県","county":"三戸郡","city":"南部町","code5":"02445","code6":"024457"}},
{"type":"Feature","geometry":{"type":"Polygon","coordinates":[[[141.5537,40.35866],[141.55602,40.36123],[141.56395,40.36157],[141.57188,40.36586],[141.57271,40.36961],[141.58135,40.37384],[141.58676,40.38071],[141.58274,40.38514],[141.58457,40.38955],[141.58109,40.392],[141.58124,40.39843],[141.58506,40.40114],[141.59512,40.41213],[141.61255,40.41544],[141.61935,40.42079],[141.63134,40.42025],[141.63935,40.42287],[141.6471,40.42829],[141.65236,40.42765],[141.65997,40.43118],[141.66102,40.43365],[141.66995,40.43724],[141.67603,40.44854],[141.68259,40.45026],[141.66603,40.45868],[141.66135,40.46547],[141.64918,40.47021],[141.64652,40.4747],[141.64354,40.47349],[141.63229,40.47462],[141.62341,40.46742],[141.60564,40.46311],[141.60068,40.46386],[141.59333,40.46787],[141.59472,40.47732],[141.58486,40.47603],[141.57039,40.47957],[141.55688,40.47425],[141.55851,40.46587],[141.55291,40.46448],[141.5518,40.45639],[141.53824,40.45257],[141.53347,40.45992],[141.52598,40.45975],[141.51877,40.45684],[141.52149,40.43592],[141.52214,40.42561],[141.51922,40.41647],[141.52005,40.40444],[141.52363,40.39711],[141.5292,40.3934],[141.5421,40.3786],[141.54523,40.37174],[141.5537,40.35866]]]},"properties":{"pref":"青森県","county":"三戸郡","city":"階上町","code5":"02446","code6":"024465"}},
{"type":"Feature","geometry":{"type":"Polygon","coordinates":[[[140.98517,40.42708],[140.98555,40.42171],[140.9797,40.41771],[140.98254,40.41204],[140.98373,40.4084],[140.9908,40.40251],[140.99603,40.4068],[141.00637,40.40998],[141.01529,40.40647],[141.02354,40.40828],[141.0335,40.40614],[141.03835,40.40164],[141.04603,40.40292],[141.05008,40.40748],[141.06121,40.40881],[141.07371,40.41197],[141.08458,40.41241],[141.09348,40.40584],[141.10143,40.40712],[141.11277,40.41451],[141.12097,40.41676],[141.1316,40.41486],[141.14334,40.42024],[141.15506,40.4217],[141.17325,40.42004],[141.17597,40.41604],[141.18953,40.41736],[141.21102,40.41406],[141.23026,40.41748],[141.23407,40.41913],[141.22623,40.424],[141.22227,40.43044],[141.22966,40.43414],[141.23839,40.44402],[141.23332,40.44464],[141.23106,40.45397],[141.22184,40.45949],[141.2163,40.46029],[141.19637,40.45545],[141.19445,40.47031],[141.18989,40.47661],[141.18413,40.47814],[141.18388,40.48284],[141.17545,40.48882],[141.18349,40.49314],[141.18496,40.49585],[141.17283,40.49304],[141.16425,40.4935],[141.15716,40.49548],[141.14571,40.49583],[141.13853,40.49473],[141.12792,40.49644],[141.1192,40.49579],[141.11188,40.49867],[141.10413,40.49262],[141.08786,40.49358],[141.08625,40.49073],[141.06799,40.48308],[141.06825,40.48003],[141.05837,40.4795],[141.05536,40.47712],[141.03109,40.47451],[141.00574,40.45842],[141.00116,40.45471],[141.00091,40.44488],[140.99426,40.43354],[140.98517,40.42708]]]},"properties":{"pref":"青森県","county":"三戸郡","city":"新郷村","code5":"02450","code6":"024503"}}
]}