{"type":"FeatureCollection", "features": [
{"type":"Feature","geometry":{"type":"MultiPolygon","coordinates":[[[[141.52846,38.63027],[141.52304,38.63242],[141.51612,38.62626],[141.50845,38.61479],[141.49849,38.61728],[141.4935,38.62293],[141.48573,38.61864],[141.4743,38.62085],[141.46723,38.61664],[141.46096,38.61494],[141.45785,38.61004],[141.44617,38.60836],[141.44802,38.60414],[141.43177,38.59658],[141.42606,38.5931],[141.41687,38.59393],[141.40713,38.60183],[141.41594,38.60565],[141.4102,38.60981],[141.40148,38.60939],[141.39735,38.60382],[141.38389,38.59616],[141.37699,38.5897],[141.3714,38.59169],[141.36288,38.59115],[141.34928,38.58437],[141.34727,38.58121],[141.33701,38.57691],[141.32443,38.57642],[141.31675,38.56873],[141.30659,38.56939],[141.297,38.57172],[141.28742,38.57104],[141.28657,38.57698],[141.29012,38.59258],[141.2902,38.60218],[141.2764,38.6054],[141.27027,38.60492],[141.26513,38.60027],[141.2668,38.5872],[141.26166,38.58184],[141.23847,38.5731],[141.23421,38.56719],[141.23105,38.54727],[141.22655,38.53408],[141.21658,38.53425],[141.19653,38.54144],[141.18667,38.53539],[141.18458,38.53199],[141.17787,38.53094],[141.17663,38.51999],[141.16385,38.50149],[141.16861,38.4945],[141.17121,38.48538],[141.16595,38.48481],[141.16691,38.47932],[141.16118,38.47607],[141.16585,38.47034],[141.16394,38.4674],[141.1658,38.46082],[141.1766,38.46099],[141.18231,38.45866],[141.18711,38.46019],[141.1933,38.45782],[141.19157,38.4539],[141.19598,38.44929],[141.20267,38.45224],[141.20766,38.45736],[141.21547,38.46065],[141.22397,38.45972],[141.22621,38.47238],[141.23688,38.46807],[141.23597,38.45731],[141.2407,38.45425],[141.2417,38.44598],[141.24587,38.44447],[141.25541,38.44504],[141.25882,38.43346],[141.25796,38.42741],[141.24896,38.42713],[141.24694,38.41962],[141.24898,38.4141],[141.24834,38.40567],[141.25833,38.40826],[141.26653,38.40798],[141.2666,38.41939],[141.27536,38.41848],[141.28533,38.41943],[141.2857,38.41621],[141.27485,38.41444],[141.27405,38.40921],[141.27982,38.40791],[141.28605,38.409],[141.28679,38.39963],[141.29477,38.40013],[141.29289,38.41374],[141.30631,38.4148],[141.31506,38.41132],[141.34105,38.41266],[141.34858,38.41434],[141.35658,38.41416],[141.36337,38.41194],[141.36906,38.40745],[141.37018,38.4004],[141.36655,38.3861],[141.37318,38.38327],[141.3806,38.38516],[141.3865,38.38412],[141.3923,38.39023],[141.39739,38.39133],[141.40245,38.39929],[141.41028,38.40311],[141.41065,38.39809],[141.43307,38.39671],[141.43068,38.3919],[141.42496,38.3886],[141.42271,38.38468],[141.43074,38.38057],[141.43733,38.38217],[141.43997,38.37547],[141.44657,38.37637],[141.45402,38.37141],[141.44361,38.3705],[141.44062,38.3651],[141.42987,38.36476],[141.42362,38.35574],[141.41799,38.35317],[141.41874,38.34722],[141.43161,38.34725],[141.43661,38.3415],[141.4415,38.34991],[141.44661,38.35385],[141.45205,38.34214],[141.45696,38.34811],[141.4622,38.35125],[141.46514,38.34118],[141.4633,38.33552],[141.47395,38.33302],[141.4741,38.32929],[141.46841,38.32693],[141.46524,38.323],[141.4584,38.32223],[141.45115,38.31752],[141.45965,38.31258],[141.46146,38.30902],[141.46702,38.30595],[141.47479,38.30854],[141.48016,38.30734],[141.4895,38.30884],[141.49718,38.3045],[141.49422,38.29869],[141.49391,38.2984],[141.49565,38.29147],[141.49865,38.29411],[141.50902,38.29671],[141.50959,38.28096],[141.51271,38.27467],[141.5171,38.27272],[141.52338,38.2716],[141.5261,38.27539],[141.52464,38.28208],[141.52597,38.28937],[141.52599,38.2894],[141.5262,38.28972],[141.52562,38.29593],[141.5285,38.29864],[141.52852,38.29863],[141.53048,38.30115],[141.53725,38.30137],[141.53728,38.30135],[141.53748,38.30208],[141.54102,38.30804],[141.54057,38.31501],[141.53191,38.32058],[141.52517,38.32426],[141.52526,38.32686],[141.5306,38.33151],[141.53302,38.34201],[141.52946,38.34369],[141.52441,38.34744],[141.52413,38.35306],[141.52009,38.36006],[141.52058,38.36052],[141.52057,38.36053],[141.51941,38.3658],[141.51336,38.3709],[141.51063,38.36979],[141.50655,38.37144],[141.49703,38.37081],[141.49002,38.36749],[141.48589,38.36905],[141.48132,38.3755],[141.4846,38.38],[141.49175,38.37994],[141.49456,38.3821],[141.5033,38.38271],[141.50942,38.389],[141.51476,38.39089],[141.51927,38.38854],[141.52657,38.38915],[141.52666,38.38449],[141.53021,38.38138],[141.53395,38.3867],[141.54004,38.38897],[141.53868,38.39453],[141.54042,38.39592],[141.53423,38.40205],[141.53189,38.39771],[141.52378,38.39724],[141.52183,38.39414],[141.51567,38.39291],[141.51166,38.39844],[141.50618,38.39758],[141.49796,38.38902],[141.4925,38.39258],[141.48227,38.39162],[141.47513,38.38469],[141.46762,38.38484],[141.45873,38.38723],[141.45849,38.391],[141.45076,38.39294],[141.45195,38.39569],[141.45097,38.40749],[141.44869,38.41019],[141.42772,38.41485],[141.42532,38.412],[141.41224,38.41124],[141.40935,38.41677],[141.39986,38.41944],[141.40031,38.43661],[141.40608,38.44539],[141.40741,38.45879],[141.41219,38.47065],[141.41521,38.47297],[141.41495,38.48018],[141.41689,38.48532],[141.42287,38.48592],[141.43196,38.48327],[141.44016,38.47907],[141.45012,38.48234],[141.45014,38.48486],[141.4591,38.49261],[141.46159,38.4904],[141.47011,38.48965],[141.47266,38.48224],[141.48677,38.47976],[141.49603,38.48005],[141.49505,38.4848],[141.49087,38.48902],[141.49684,38.49507],[141.49643,38.49912],[141.4905,38.49841],[141.48688,38.50188],[141.48831,38.50686],[141.47877,38.51345],[141.4751,38.51773],[141.48369,38.51953],[141.48573,38.5161],[141.49411,38.51145],[141.50185,38.51064],[141.5119,38.51313],[141.51583,38.50674],[141.51522,38.49444],[141.52293,38.49605],[141.52353,38.49126],[141.53053,38.48881],[141.53389,38.49048],[141.5362,38.49904],[141.54021,38.50248],[141.53478,38.50818],[141.53882,38.51181],[141.54121,38.51855],[141.54452,38.52061],[141.54628,38.52373],[141.5388,38.52895],[141.53855,38.5293],[141.53812,38.53203],[141.53714,38.53166],[141.53707,38.53166],[141.53649,38.53178],[141.53645,38.53263],[141.53058,38.53321],[141.53412,38.54065],[141.53416,38.541],[141.5341,38.5418],[141.53415,38.5437],[141.53477,38.54509],[141.53447,38.54543],[141.53467,38.5458],[141.53454,38.54584],[141.53443,38.54595],[141.53457,38.54599],[141.53462,38.54613],[141.53458,38.54617],[141.53463,38.54618],[141.53457,38.54619],[141.53457,38.54616],[141.53431,38.54676],[141.53266,38.54648],[141.53262,38.54894],[141.5326,38.54899],[141.52497,38.54609],[141.52155,38.53954],[141.51631,38.54302],[141.51176,38.54084],[141.506,38.53377],[141.49309,38.53325],[141.48581,38.54073],[141.48779,38.5531],[141.48259,38.55456],[141.48066,38.55887],[141.46848,38.56171],[141.46847,38.56172],[141.46287,38.56134],[141.46042,38.56783],[141.45857,38.57847],[141.46559,38.5826],[141.47033,38.58194],[141.47428,38.58474],[141.48045,38.58235],[141.48537,38.58365],[141.48555,38.58344],[141.48549,38.58339],[141.486,38.58342],[141.48602,38.58342],[141.48648,38.58351],[141.4875,38.58362],[141.48859,38.5864],[141.49134,38.58728],[141.49247,38.59074],[141.49852,38.59122],[141.5014,38.59365],[141.50415,38.59616],[141.50367,38.59643],[141.50847,38.59938],[141.50819,38.5989],[141.50838,38.59841],[141.51017,38.60061],[141.51018,38.60062],[141.51032,38.60516],[141.51783,38.60485],[141.52226,38.60844],[141.52568,38.61454],[141.52736,38.61877],[141.5273,38.6188],[141.52746,38.62101],[141.52731,38.62156],[141.52827,38.6251],[141.52853,38.62522],[141.52846,38.63027]]],[[[141.51631,38.54302],[141.51638,38.54303],[141.51633,38.54304],[141.51631,38.54302]]],[[[141.58515,38.27645],[141.57982,38.28772],[141.5828,38.29392],[141.5874,38.29631],[141.5892,38.30169],[141.5815,38.30562],[141.56999,38.3078],[141.57124,38.31197],[141.56477,38.31273],[141.56047,38.30903],[141.55211,38.30633],[141.54785,38.30244],[141.55422,38.28614],[141.55425,38.28613],[141.55431,38.2861],[141.55433,38.28611],[141.55639,38.28465],[141.5564,38.28377],[141.55641,38.28377],[141.55764,38.28323],[141.55885,38.28153],[141.56322,38.27922],[141.56324,38.27922],[141.5682,38.27687],[141.57369,38.26988],[141.57437,38.26948],[141.58327,38.27479],[141.58298,38.27502],[141.58515,38.27645]]],[[[141.49003,38.26103],[141.48714,38.27052],[141.47955,38.2794],[141.46979,38.28353],[141.46216,38.27985],[141.46109,38.2741],[141.4565,38.27345],[141.45657,38.27338],[141.45814,38.27352],[141.45706,38.2685],[141.46286,38.26806],[141.47244,38.26348],[141.47572,38.25259],[141.49031,38.24904],[141.49667,38.2507],[141.49757,38.25574],[141.49898,38.25644],[141.49775,38.25778],[141.49384,38.25648],[141.49003,38.26103]]],[[[141.41086,38.2969],[141.40652,38.29039],[141.4091,38.2858],[141.41745,38.28926],[141.42275,38.28894],[141.42428,38.29457],[141.42024,38.30308],[141.42219,38.30719],[141.41654,38.31163],[141.41123,38.30853],[141.41023,38.30171],[141.4103,38.30162],[141.41086,38.2969]]],[[[141.51479,38.55375],[141.51058,38.55096],[141.51165,38.54981],[141.51366,38.55206],[141.51365,38.55207],[141.51447,38.55305],[141.51479,38.55375]]],[[[141.49983,38.59213],[141.49948,38.59148],[141.4998,38.59182],[141.49983,38.59213]]],[[[141.50411,38.59439],[141.5037,38.59456],[141.50344,38.59426],[141.50367,38.59427],[141.50393,38.59422],[141.50411,38.59439]]],[[[141.49908,38.59002],[141.49879,38.58983],[141.49921,38.59006],[141.49908,38.59002]]],[[[141.4969,38.58979],[141.49653,38.58983],[141.49635,38.5895],[141.4968,38.58948],[141.49693,38.58973],[141.4969,38.58979]]],[[[141.52297,38.47375],[141.5228,38.47371],[141.5229,38.4737],[141.52291,38.4737],[141.52292,38.47371],[141.52297,38.47375]]],[[[141.52139,38.36071],[141.52135,38.36075],[141.52134,38.36068],[141.52139,38.36071]]],[[[141.53485,38.54649],[141.53489,38.54653],[141.5348,38.54651],[141.53485,38.54649]]],[[[141.52826,38.32372],[141.52821,38.32375],[141.52824,38.32372],[141.52826,38.32372]]]]},"properties":{"pref":"宮城県","city":"石巻市","code5":"04202","code6":"042021"}},
{"type":"Feature","geometry":{"type":"MultiPolygon","coordinates":[[[[141.03648,38.33965],[141.02648,38.33859],[141.02301,38.34057],[141.02589,38.34696],[141.01906,38.34827],[141.01013,38.33929],[141.00545,38.33081],[140.99807,38.32787],[141.00376,38.32478],[141.00078,38.3196],[140.9939,38.31423],[141.0005,38.30541],[141.00748,38.30588],[141.01032,38.30375],[141.0164,38.30699],[141.02159,38.30683],[141.02736,38.30938],[141.03172,38.30293],[141.036,38.30278],[141.03591,38.30702],[141.04125,38.31131],[141.04556,38.31864],[141.02738,38.31986],[141.03504,38.32359],[141.04344,38.3235],[141.05218,38.3318],[141.04668,38.33833],[141.04328,38.33805],[141.04327,38.33804],[141.03648,38.33965]]],[[[141.12781,38.33933],[141.12353,38.33935],[141.11988,38.33948],[141.1156,38.33498],[141.12304,38.32696],[141.12846,38.32793],[141.12949,38.33222],[141.12781,38.33933]]],[[[141.1069,38.32801],[141.10525,38.33186],[141.09534,38.33617],[141.0853,38.33508],[141.08769,38.33075],[141.09353,38.333],[141.1069,38.32801]]],[[[141.11062,38.33526],[141.11359,38.33825],[141.11168,38.33948],[141.10733,38.33954],[141.10683,38.33409],[141.10946,38.33111],[141.11062,38.33526]]],[[[141.12107,38.35417],[141.12113,38.35425],[141.12111,38.35425],[141.12107,38.35417]]],[[[141.05521,38.33821],[141.05494,38.33813],[141.05524,38.3382],[141.05521,38.33821]]]]},"properties":{"pref":"宮城県","city":"塩竈市","code5":"04203","code6":"042030"}},
{"type":"Feature","geometry":{"type":"MultiPolygon","coordinates":[[[[141.41013,38.76781],[141.40649,38.76266],[141.39882,38.75668],[141.40418,38.75208],[141.40357,38.74871],[141.40696,38.7433],[141.41407,38.73963],[141.42196,38.74006],[141.43514,38.74253],[141.4417,38.74863],[141.45111,38.74525],[141.45418,38.7421],[141.46371,38.74505],[141.46718,38.75063],[141.4755,38.75348],[141.48028,38.75164],[141.48661,38.74568],[141.49654,38.74588],[141.50125,38.7425],[141.51728,38.74834],[141.52665,38.74715],[141.53023,38.74857],[141.5279,38.75416],[141.52926,38.75855],[141.51921,38.76065],[141.51803,38.7653],[141.51779,38.76532],[141.51777,38.76532],[141.51724,38.76538],[141.51287,38.76875],[141.51853,38.77617],[141.51777,38.78058],[141.52041,38.78846],[141.52732,38.79071],[141.53137,38.7948],[141.53605,38.79548],[141.55693,38.80311],[141.5551,38.80943],[141.559,38.81249],[141.56869,38.81339],[141.57242,38.81026],[141.57766,38.81357],[141.57489,38.81955],[141.5775,38.82322],[141.58318,38.82509],[141.58904,38.82386],[141.59672,38.82914],[141.60274,38.82711],[141.60372,38.82916],[141.59748,38.83583],[141.59277,38.83316],[141.58341,38.84849],[141.58253,38.8536],[141.58584,38.86729],[141.58995,38.87166],[141.5888,38.87614],[141.59167,38.87933],[141.59026,38.88549],[141.59371,38.88975],[141.586,38.89294],[141.5797,38.90488],[141.58467,38.90936],[141.58468,38.90937],[141.58743,38.90644],[141.58772,38.90052],[141.59152,38.89489],[141.59751,38.89224],[141.60451,38.87998],[141.60841,38.88006],[141.61467,38.88792],[141.62109,38.89034],[141.6302,38.89608],[141.63517,38.89599],[141.63535,38.89044],[141.63899,38.88418],[141.64517,38.88283],[141.6448,38.8794],[141.64836,38.87937],[141.65242,38.86831],[141.65575,38.8663],[141.67463,38.85817],[141.67309,38.86818],[141.66642,38.87819],[141.66393,38.87851],[141.66245,38.88857],[141.66731,38.89245],[141.65512,38.90019],[141.6551,38.9002],[141.65102,38.90302],[141.64942,38.90874],[141.65064,38.91709],[141.64501,38.92588],[141.63795,38.9273],[141.63456,38.93133],[141.64298,38.93316],[141.64448,38.94147],[141.64023,38.94202],[141.63743,38.94747],[141.63135,38.95426],[141.63764,38.95533],[141.64148,38.95869],[141.63686,38.96287],[141.63172,38.9707],[141.62449,38.97145],[141.61923,38.97411],[141.60139,38.98628],[141.58404,38.9887],[141.57454,38.98729],[141.56699,38.99598],[141.56028,38.99382],[141.54817,38.99631],[141.53248,38.99454],[141.52313,38.99135],[141.51662,38.99823],[141.51788,39.00166],[141.50855,39.00272],[141.50684,38.99982],[141.49238,38.99896],[141.48728,38.99353],[141.48353,38.97817],[141.48888,38.96831],[141.49035,38.95709],[141.49396,38.95535],[141.49018,38.94998],[141.49046,38.94316],[141.48557,38.93573],[141.48556,38.93228],[141.49211,38.92162],[141.48938,38.91745],[141.49213,38.91479],[141.48909,38.90703],[141.48278,38.90232],[141.46619,38.89366],[141.46604,38.88544],[141.45368,38.87894],[141.45069,38.87514],[141.45571,38.8603],[141.46378,38.85844],[141.46389,38.85301],[141.4546,38.84725],[141.44983,38.83739],[141.45011,38.8327],[141.45455,38.8214],[141.45403,38.8168],[141.45909,38.81524],[141.45434,38.8109],[141.44643,38.81047],[141.43735,38.81284],[141.42942,38.8106],[141.43145,38.80656],[141.43616,38.80578],[141.43671,38.80143],[141.43253,38.79159],[141.43796,38.78308],[141.4315,38.78329],[141.42139,38.77954],[141.42306,38.77184],[141.41013,38.76781]]],[[[141.61726,38.84182],[141.61641,38.83879],[141.62633,38.83504],[141.62919,38.84029],[141.63625,38.83919],[141.6322,38.8488],[141.62823,38.84782],[141.62283,38.85053],[141.62242,38.85939],[141.62486,38.86393],[141.63303,38.86549],[141.63136,38.87756],[141.6276,38.88282],[141.62273,38.88261],[141.61854,38.87871],[141.60646,38.87708],[141.6021,38.87391],[141.60857,38.86425],[141.60496,38.86023],[141.60513,38.86008],[141.61726,38.84182]]],[[[141.6758,38.86201],[141.67549,38.86186],[141.67559,38.8618],[141.6758,38.86195],[141.6758,38.86201]]],[[[141.6706,38.87466],[141.6706,38.87468],[141.67058,38.87469],[141.67058,38.87466],[141.6706,38.87466]]],[[[141.53748,38.79526],[141.53745,38.79526],[141.53747,38.79525],[141.53748,38.79526]]]]},"properties":{"pref":"宮城県","city":"気仙沼市","code5":"04205","code6":"042056"}},
{"type":"Feature","geometry":{"type":"Polygon","coordinates":[[[140.69543,38.03636],[140.68929,38.03587],[140.67747,38.03917],[140.67219,38.03717],[140.66646,38.04098],[140.65773,38.04277],[140.64908,38.03421],[140.64474,38.03761],[140.64554,38.04312],[140.6416,38.04655],[140.63922,38.05315],[140.63084,38.05431],[140.62818,38.05889],[140.62338,38.05995],[140.61927,38.06413],[140.61257,38.06506],[140.6111,38.07312],[140.60436,38.07997],[140.6054,38.08435],[140.59761,38.08813],[140.59394,38.08653],[140.57145,38.086],[140.55428,38.07804],[140.55018,38.07952],[140.54763,38.08768],[140.54041,38.09126],[140.53939,38.09673],[140.52688,38.09545],[140.51907,38.09605],[140.50955,38.09416],[140.4953,38.09315],[140.48765,38.08838],[140.47738,38.09071],[140.47187,38.0851],[140.47373,38.07834],[140.48091,38.07548],[140.48856,38.06556],[140.49099,38.05507],[140.49058,38.04165],[140.5008,38.03313],[140.50858,38.03025],[140.51166,38.02506],[140.51341,38.00834],[140.5215,38.0036],[140.51716,38.00186],[140.51637,37.99642],[140.51914,37.99039],[140.52982,37.97848],[140.53309,37.96832],[140.52997,37.96421],[140.52438,37.96593],[140.50766,37.9508],[140.4981,37.95192],[140.48893,37.95515],[140.48609,37.95262],[140.47785,37.95425],[140.47488,37.94678],[140.46748,37.93782],[140.46936,37.92955],[140.46953,37.91787],[140.47666,37.90692],[140.48418,37.90153],[140.48788,37.89985],[140.49835,37.90036],[140.50217,37.90457],[140.50897,37.90518],[140.51579,37.90349],[140.51726,37.90747],[140.52182,37.9088],[140.53133,37.90525],[140.53689,37.90759],[140.55458,37.90942],[140.56303,37.91144],[140.56256,37.91791],[140.56638,37.92279],[140.57531,37.91448],[140.58429,37.90892],[140.59181,37.90617],[140.59841,37.90764],[140.60033,37.91016],[140.61021,37.91109],[140.61165,37.91516],[140.61862,37.91252],[140.62122,37.91728],[140.62968,37.9218],[140.62608,37.92824],[140.62467,37.9346],[140.63235,37.94129],[140.64655,37.94494],[140.66588,37.94783],[140.67133,37.95221],[140.67619,37.94892],[140.68417,37.95919],[140.68646,37.96729],[140.69252,37.97229],[140.68928,37.97558],[140.68843,37.98225],[140.69294,37.98793],[140.69437,37.99505],[140.69021,38.00192],[140.69894,38.0044],[140.70472,38.01326],[140.70598,38.02249],[140.70554,38.03062],[140.70137,38.03736],[140.69543,38.03636]]]},"properties":{"pref":"宮城県","city":"白石市","code5":"04206","code6":"042064"}},
{"type":"Feature","geometry":{"type":"Polygon","coordinates":[[[140.96172,38.17422],[140.9514,38.17988],[140.94821,38.18308],[140.9415,38.18528],[140.9371,38.18929],[140.93591,38.19764],[140.93329,38.19765],[140.92798,38.19307],[140.93502,38.18634],[140.93349,38.18253],[140.91757,38.1837],[140.91515,38.18535],[140.89856,38.18474],[140.89995,38.18962],[140.89419,38.19037],[140.88832,38.18832],[140.87977,38.18896],[140.86699,38.18775],[140.86644,38.19121],[140.8596,38.19495],[140.86335,38.20195],[140.84484,38.2073],[140.83057,38.21394],[140.82669,38.21693],[140.81701,38.21874],[140.80635,38.21069],[140.79876,38.21251],[140.79774,38.21824],[140.78817,38.21805],[140.78393,38.21437],[140.78799,38.20237],[140.79389,38.20256],[140.79797,38.19464],[140.81326,38.1873],[140.80624,38.18536],[140.79675,38.18025],[140.79581,38.17532],[140.79197,38.1744],[140.79106,38.16571],[140.79459,38.16231],[140.79394,38.15589],[140.7966,38.14806],[140.81202,38.13963],[140.83122,38.13783],[140.83735,38.13402],[140.84293,38.1345],[140.8528,38.13242],[140.86338,38.1325],[140.86769,38.14068],[140.87144,38.13908],[140.86624,38.1271],[140.87405,38.12663],[140.87321,38.12301],[140.87605,38.11554],[140.88197,38.10976],[140.88488,38.11378],[140.8841,38.11785],[140.89062,38.11903],[140.89265,38.12472],[140.89882,38.13251],[140.90509,38.14424],[140.9251,38.13666],[140.93052,38.13383],[140.94142,38.13177],[140.9515,38.153],[140.95969,38.16649],[140.96172,38.17422]]]},"properties":{"pref":"宮城県","city":"名取市","code5":"04207","code6":"042072"}},
{"type":"Feature","geometry":{"type":"Polygon","coordinates":[[[140.68646,37.96729],[140.69722,37.96341],[140.70348,37.96486],[140.71114,37.95919],[140.70887,37.95238],[140.70251,37.9494],[140.71219,37.94255],[140.72348,37.94314],[140.73249,37.94209],[140.73359,37.94587],[140.7503,37.94266],[140.76679,37.94867],[140.78127,37.94831],[140.78742,37.95602],[140.78665,37.94117],[140.78334,37.93517],[140.78755,37.93178],[140.80098,37.92886],[140.80445,37.92389],[140.80793,37.92504],[140.80666,37.93336],[140.8162,37.93451],[140.83073,37.93113],[140.83374,37.92698],[140.84079,37.92433],[140.84643,37.9131],[140.85092,37.91223],[140.85668,37.92789],[140.85073,37.93788],[140.85255,37.93934],[140.85372,37.94877],[140.85149,37.95704],[140.85352,37.961],[140.84996,37.97867],[140.84297,37.99172],[140.84025,37.99672],[140.84107,38.00708],[140.83907,38.0103],[140.83925,38.01834],[140.83186,38.0253],[140.82946,38.03125],[140.82815,38.04231],[140.83036,38.04521],[140.83014,38.06022],[140.82609,38.06636],[140.82629,38.07538],[140.82313,38.07715],[140.81157,38.06027],[140.81077,38.05246],[140.80076,38.05074],[140.79811,38.04588],[140.79292,38.0438],[140.78821,38.04591],[140.78227,38.04174],[140.77721,38.0427],[140.77444,38.03968],[140.76826,38.0387],[140.7576,38.04106],[140.75249,38.03991],[140.74593,38.03347],[140.73306,38.03098],[140.72984,38.02851],[140.72374,38.03149],[140.71776,38.02659],[140.71265,38.02604],[140.70598,38.02249],[140.70472,38.01326],[140.69894,38.0044],[140.69021,38.00192],[140.69437,37.99505],[140.69294,37.98793],[140.68843,37.98225],[140.68928,37.97558],[140.69252,37.97229],[140.68646,37.96729]]]},"properties":{"pref":"宮城県","city":"角田市","code5":"04208","code6":"042081"}},
{"type":"Feature","geometry":{"type":"Polygon","coordinates":[[[141.02852,38.28226],[141.03095,38.28201],[141.03113,38.28091],[141.03131,38.28071],[141.0322,38.28037],[141.03574,38.28702],[141.04066,38.28648],[141.04268,38.29321],[141.03563,38.2991],[141.036,38.30278],[141.03172,38.30293],[141.02736,38.30938],[141.02159,38.30683],[141.0164,38.30699],[141.01032,38.30375],[141.00748,38.30588],[141.0005,38.30541],[140.9939,38.31423],[140.97704,38.30866],[140.97493,38.30993],[140.9627,38.3096],[140.95984,38.30605],[140.95645,38.29625],[140.96351,38.28594],[140.97091,38.28604],[140.97587,38.2836],[140.98868,38.28418],[140.99573,38.28299],[141.01288,38.2764],[141.02554,38.28314],[141.02852,38.28226]]]},"properties":{"pref":"宮城県","city":"多賀城市","code5":"04209","code6":"042099"}},
{"type":"Feature","geometry":{"type":"Polygon","coordinates":[[[140.7966,38.14806],[140.79063,38.14563],[140.78642,38.13683],[140.77986,38.13375],[140.77743,38.12837],[140.79351,38.1234],[140.80189,38.12232],[140.80577,38.12691],[140.81901,38.12684],[140.82426,38.12216],[140.82696,38.11157],[140.82539,38.10711],[140.82538,38.0972],[140.83485,38.0865],[140.83474,38.0837],[140.84504,38.08023],[140.85763,38.08158],[140.86434,38.08539],[140.86915,38.09387],[140.8751,38.09574],[140.88697,38.09483],[140.89456,38.08998],[140.90844,38.07634],[140.90985,38.06933],[140.90635,38.0602],[140.9095,38.05227],[140.92198,38.04699],[140.92517,38.07386],[140.93045,38.09956],[140.93702,38.12043],[140.94142,38.13177],[140.93052,38.13383],[140.9251,38.13666],[140.90509,38.14424],[140.89882,38.13251],[140.89265,38.12472],[140.89062,38.11903],[140.8841,38.11785],[140.88488,38.11378],[140.88197,38.10976],[140.87605,38.11554],[140.87321,38.12301],[140.87405,38.12663],[140.86624,38.1271],[140.87144,38.13908],[140.86769,38.14068],[140.86338,38.1325],[140.8528,38.13242],[140.84293,38.1345],[140.83735,38.13402],[140.83122,38.13783],[140.81202,38.13963],[140.7966,38.14806]]]},"properties":{"pref":"宮城県","city":"岩沼市","code5":"04211","code6":"042111"}},
{"type":"Feature","geometry":{"type":"Polygon","coordinates":[[[141.1573,38.78263],[141.15526,38.7758],[141.15253,38.75986],[141.15526,38.74594],[141.16373,38.74241],[141.15993,38.73292],[141.14589,38.72504],[141.13907,38.72565],[141.133,38.73042],[141.12515,38.73005],[141.11865,38.72246],[141.11393,38.7235],[141.09287,38.71567],[141.08796,38.71231],[141.08245,38.71149],[141.07268,38.6943],[141.06411,38.68991],[141.06576,38.68657],[141.05853,38.6826],[141.06088,38.6773],[141.06634,38.67444],[141.07396,38.67482],[141.07875,38.66782],[141.07674,38.66369],[141.08283,38.65703],[141.08283,38.64543],[141.09475,38.64079],[141.10064,38.64058],[141.11084,38.64385],[141.11075,38.63664],[141.1086,38.6294],[141.11289,38.62908],[141.11547,38.62449],[141.12446,38.62284],[141.13215,38.61763],[141.13829,38.61038],[141.14989,38.60839],[141.16049,38.6009],[141.16184,38.59838],[141.17458,38.59626],[141.17924,38.60363],[141.1911,38.59914],[141.20087,38.59397],[141.20065,38.58928],[141.19632,38.58836],[141.19556,38.58156],[141.2036,38.57202],[141.21029,38.56914],[141.21693,38.56917],[141.22338,38.56591],[141.22916,38.55697],[141.23105,38.54727],[141.23421,38.56719],[141.23847,38.5731],[141.26166,38.58184],[141.2668,38.5872],[141.26513,38.60027],[141.27027,38.60492],[141.2764,38.6054],[141.2902,38.60218],[141.29012,38.59258],[141.28657,38.57698],[141.28742,38.57104],[141.297,38.57172],[141.30659,38.56939],[141.31675,38.56873],[141.32443,38.57642],[141.33701,38.57691],[141.34727,38.58121],[141.34928,38.58437],[141.36288,38.59115],[141.3714,38.59169],[141.37699,38.5897],[141.38389,38.59616],[141.39735,38.60382],[141.40148,38.60939],[141.39995,38.61627],[141.40347,38.62433],[141.3974,38.62561],[141.38965,38.63635],[141.39042,38.6385],[141.38614,38.64591],[141.38049,38.64788],[141.37545,38.65741],[141.37962,38.66782],[141.3857,38.67195],[141.38367,38.67582],[141.37251,38.67671],[141.37475,38.68571],[141.37103,38.69264],[141.36997,38.70713],[141.37177,38.71066],[141.36868,38.71881],[141.37427,38.71881],[141.38494,38.72364],[141.39333,38.72584],[141.39207,38.731],[141.40584,38.73592],[141.41189,38.73591],[141.41407,38.73963],[141.40696,38.7433],[141.40357,38.74871],[141.40418,38.75208],[141.39882,38.75668],[141.40649,38.76266],[141.41013,38.76781],[141.40983,38.77253],[141.41562,38.77966],[141.41486,38.7862],[141.4105,38.78565],[141.40433,38.78889],[141.39811,38.7895],[141.39739,38.79528],[141.39381,38.79984],[141.38664,38.79984],[141.37796,38.79712],[141.37138,38.80743],[141.36595,38.80948],[141.35966,38.80915],[141.35307,38.8124],[141.34773,38.80994],[141.33466,38.80691],[141.33252,38.81121],[141.32045,38.8185],[141.31685,38.82327],[141.30896,38.82216],[141.30659,38.81896],[141.30727,38.80871],[141.303,38.80488],[141.30455,38.79346],[141.29755,38.79341],[141.28518,38.79762],[141.27976,38.79271],[141.26907,38.79345],[141.2692,38.78862],[141.26441,38.78818],[141.26326,38.7803],[141.25817,38.7764],[141.25595,38.77062],[141.25734,38.76239],[141.24766,38.76045],[141.24793,38.75837],[141.23523,38.75614],[141.23711,38.74914],[141.23255,38.74765],[141.21584,38.74847],[141.20727,38.75681],[141.20823,38.76139],[141.20606,38.76948],[141.19775,38.7739],[141.1956,38.77681],[141.18609,38.77991],[141.18097,38.78453],[141.16749,38.77846],[141.16359,38.78196],[141.1573,38.78263]]]},"properties":{"pref":"宮城県","city":"登米市","code5":"04212","code6":"042129"}},
{"type":"Feature","geometry":{"type":"Polygon","coordinates":[[[140.77359,38.95808],[140.76317,38.95708],[140.75563,38.95821],[140.74525,38.95637],[140.74331,38.95368],[140.73209,38.94927],[140.72322,38.93752],[140.72334,38.93437],[140.70739,38.92036],[140.71236,38.91783],[140.71398,38.91396],[140.71921,38.91197],[140.72397,38.90574],[140.72923,38.90553],[140.73752,38.89982],[140.74094,38.89],[140.74572,38.88612],[140.7496,38.87734],[140.74501,38.87263],[140.74367,38.8678],[140.74797,38.86621],[140.7496,38.85839],[140.74771,38.85423],[140.74891,38.84924],[140.74597,38.84242],[140.74871,38.83768],[140.75341,38.83808],[140.75803,38.83423],[140.75095,38.82794],[140.75489,38.82313],[140.75152,38.81735],[140.75005,38.80997],[140.74973,38.79692],[140.73796,38.78006],[140.74395,38.7745],[140.7465,38.76949],[140.76334,38.76367],[140.76278,38.76828],[140.76746,38.76922],[140.78042,38.76762],[140.79957,38.75706],[140.80301,38.75087],[140.81501,38.74548],[140.82363,38.73747],[140.83411,38.73117],[140.85501,38.73199],[140.85994,38.73468],[140.88349,38.72284],[140.88813,38.72264],[140.89135,38.72607],[140.89727,38.72622],[140.90149,38.7235],[140.91011,38.72375],[140.91904,38.71868],[140.92225,38.72113],[140.92983,38.72135],[140.93754,38.7169],[140.94036,38.71736],[140.94814,38.70884],[140.96479,38.70419],[140.96796,38.69843],[140.96448,38.6958],[140.96989,38.69167],[140.97092,38.68423],[140.96735,38.66935],[140.9751,38.66667],[140.98046,38.66056],[140.99478,38.65411],[140.99422,38.6484],[140.98999,38.6454],[140.99186,38.64116],[141.00734,38.62925],[141.01559,38.62817],[141.01868,38.63091],[141.02989,38.62848],[141.03473,38.6297],[141.05285,38.62743],[141.0609,38.6276],[141.07327,38.6318],[141.08305,38.62935],[141.09066,38.64018],[141.09475,38.64079],[141.08283,38.64543],[141.08283,38.65703],[141.07674,38.66369],[141.07875,38.66782],[141.07396,38.67482],[141.06634,38.67444],[141.06088,38.6773],[141.05853,38.6826],[141.06576,38.68657],[141.06411,38.68991],[141.07268,38.6943],[141.08245,38.71149],[141.08796,38.71231],[141.09287,38.71567],[141.11393,38.7235],[141.11865,38.72246],[141.12515,38.73005],[141.133,38.73042],[141.13907,38.72565],[141.14589,38.72504],[141.15993,38.73292],[141.16373,38.74241],[141.15526,38.74594],[141.15253,38.75986],[141.15526,38.7758],[141.1573,38.78263],[141.14015,38.78864],[141.14112,38.80888],[141.13992,38.8143],[141.12992,38.81282],[141.12362,38.81655],[141.12607,38.82185],[141.12044,38.82607],[141.1161,38.82238],[141.10869,38.8252],[141.10278,38.83063],[141.10482,38.83735],[141.11335,38.83801],[141.12045,38.83509],[141.13017,38.84],[141.1325,38.84501],[141.13802,38.84752],[141.14678,38.85627],[141.14562,38.86561],[141.13948,38.87749],[141.12379,38.88047],[141.11683,38.88048],[141.10798,38.87766],[141.10245,38.88071],[141.10226,38.8845],[141.0917,38.88743],[141.07477,38.87947],[141.06148,38.88388],[141.04762,38.88114],[141.04351,38.87657],[141.03253,38.87792],[141.02961,38.88347],[141.02167,38.88276],[141.01635,38.88439],[141.00463,38.8787],[141.0025,38.88092],[140.99505,38.88009],[140.98981,38.87432],[140.9843,38.87619],[140.97996,38.8837],[140.97449,38.88725],[140.97084,38.89491],[140.9661,38.89867],[140.96152,38.90573],[140.95479,38.90935],[140.94719,38.91007],[140.94343,38.91502],[140.93784,38.91488],[140.92469,38.92089],[140.92039,38.91622],[140.9151,38.92041],[140.91037,38.92744],[140.90265,38.92927],[140.89319,38.92743],[140.87573,38.93099],[140.87297,38.93495],[140.86441,38.94141],[140.85552,38.9432],[140.84069,38.95058],[140.83708,38.9578],[140.82406,38.96412],[140.81132,38.96459],[140.80029,38.96194],[140.79404,38.964],[140.78217,38.95821],[140.77359,38.95808]]]},"properties":{"pref":"宮城県","city":"栗原市","code5":"04213","code6":"042137"}},
{"type":"Feature","geometry":{"type":"MultiPolygon","coordinates":[[[[141.1658,38.46082],[141.17402,38.45842],[141.17577,38.45504],[141.15997,38.45254],[141.15665,38.4502],[141.14784,38.4505],[141.13543,38.44211],[141.12385,38.44127],[141.13076,38.44641],[141.12793,38.44989],[141.11628,38.44334],[141.11526,38.4368],[141.12322,38.42907],[141.12725,38.42193],[141.11083,38.41406],[141.1043,38.4122],[141.09905,38.40838],[141.10055,38.40296],[141.10676,38.40017],[141.10833,38.39538],[141.11651,38.39878],[141.12442,38.389],[141.12639,38.37993],[141.13336,38.377],[141.13778,38.37162],[141.13223,38.36016],[141.14899,38.35844],[141.15847,38.35359],[141.15865,38.35973],[141.16284,38.36741],[141.17391,38.37557],[141.20146,38.38936],[141.23026,38.40095],[141.24834,38.40567],[141.24898,38.4141],[141.24694,38.41962],[141.24896,38.42713],[141.25796,38.42741],[141.25882,38.43346],[141.25541,38.44504],[141.24587,38.44447],[141.2417,38.44598],[141.2407,38.45425],[141.23597,38.45731],[141.23688,38.46807],[141.22621,38.47238],[141.22397,38.45972],[141.21547,38.46065],[141.20766,38.45736],[141.20267,38.45224],[141.19598,38.44929],[141.19157,38.4539],[141.1933,38.45782],[141.18711,38.46019],[141.18231,38.45866],[141.1766,38.46099],[141.1658,38.46082]]],[[[141.16874,38.348],[141.15647,38.34945],[141.15826,38.35322],[141.1523,38.35579],[141.14145,38.35501],[141.14199,38.35024],[141.14939,38.34218],[141.148,38.3387],[141.13151,38.3387],[141.13421,38.33572],[141.13981,38.32408],[141.14648,38.32503],[141.15423,38.32235],[141.16261,38.32794],[141.17035,38.32367],[141.17038,38.32368],[141.17145,38.32357],[141.17145,38.32364],[141.17487,38.32312],[141.1782,38.32351],[141.18111,38.32346],[141.1804,38.32353],[141.17811,38.32408],[141.17645,38.3256],[141.1734,38.32504],[141.17193,38.32552],[141.17193,38.32553],[141.17076,38.32782],[141.16683,38.33199],[141.16874,38.348]]]]},"properties":{"pref":"宮城県","city":"東松島市","code5":"04214","code6":"042145"}},
{"type":"Feature","geometry":{"type":"Polygon","coordinates":[[[141.09475,38.64079],[141.09066,38.64018],[141.08305,38.62935],[141.07327,38.6318],[141.0609,38.6276],[141.05285,38.62743],[141.03473,38.6297],[141.02989,38.62848],[141.01868,38.63091],[141.01559,38.62817],[141.00734,38.62925],[140.99186,38.64116],[140.98999,38.6454],[140.99422,38.6484],[140.99478,38.65411],[140.98046,38.66056],[140.9751,38.66667],[140.96735,38.66935],[140.97092,38.68423],[140.96989,38.69167],[140.96448,38.6958],[140.96796,38.69843],[140.96479,38.70419],[140.94814,38.70884],[140.94036,38.71736],[140.93754,38.7169],[140.92983,38.72135],[140.92225,38.72113],[140.91904,38.71868],[140.91011,38.72375],[140.90149,38.7235],[140.89727,38.72622],[140.89135,38.72607],[140.88813,38.72264],[140.88349,38.72284],[140.85994,38.73468],[140.85501,38.73199],[140.83411,38.73117],[140.82363,38.73747],[140.81501,38.74548],[140.80301,38.75087],[140.79957,38.75706],[140.78042,38.76762],[140.76746,38.76922],[140.76278,38.76828],[140.76334,38.76367],[140.7465,38.76949],[140.74395,38.7745],[140.73796,38.78006],[140.74973,38.79692],[140.75005,38.80997],[140.75152,38.81735],[140.75489,38.82313],[140.75095,38.82794],[140.75803,38.83423],[140.75341,38.83808],[140.74871,38.83768],[140.74597,38.84242],[140.74891,38.84924],[140.74771,38.85423],[140.7496,38.85839],[140.74797,38.86621],[140.74367,38.8678],[140.74501,38.87263],[140.7496,38.87734],[140.74572,38.88612],[140.74094,38.89],[140.73752,38.89982],[140.72923,38.90553],[140.72397,38.90574],[140.71921,38.91197],[140.71398,38.91396],[140.71236,38.91783],[140.70739,38.92036],[140.70039,38.92382],[140.69416,38.91955],[140.68565,38.9176],[140.68018,38.91333],[140.67908,38.9082],[140.67302,38.90361],[140.67111,38.89713],[140.66047,38.89422],[140.64501,38.88863],[140.64034,38.8839],[140.63,38.88928],[140.62036,38.89039],[140.61564,38.8937],[140.60955,38.89243],[140.60714,38.8866],[140.59868,38.88517],[140.59315,38.887],[140.57287,38.87844],[140.56979,38.87478],[140.56217,38.87316],[140.55426,38.87621],[140.55306,38.88281],[140.54712,38.88921],[140.5477,38.88119],[140.54158,38.8763],[140.53878,38.87139],[140.53927,38.86394],[140.54132,38.86131],[140.55302,38.85913],[140.55655,38.85563],[140.55913,38.84725],[140.56304,38.84854],[140.56929,38.8468],[140.57352,38.84248],[140.58003,38.84138],[140.58628,38.83634],[140.59073,38.83604],[140.59294,38.82779],[140.59855,38.82596],[140.59941,38.81739],[140.59514,38.81092],[140.59775,38.80873],[140.59574,38.80219],[140.59888,38.79974],[140.5991,38.79168],[140.60269,38.78941],[140.60353,38.78371],[140.61302,38.78141],[140.61359,38.77865],[140.62743,38.77388],[140.63685,38.77743],[140.6416,38.77576],[140.64646,38.76952],[140.64339,38.76485],[140.63636,38.76216],[140.63129,38.75226],[140.63134,38.74711],[140.62304,38.74169],[140.62089,38.73155],[140.60704,38.72131],[140.6091,38.70956],[140.607,38.7033],[140.61636,38.70048],[140.62399,38.69144],[140.62629,38.69255],[140.63554,38.68938],[140.64069,38.69596],[140.65068,38.69993],[140.65709,38.69836],[140.65879,38.68992],[140.6633,38.68719],[140.67087,38.68894],[140.67762,38.69492],[140.67865,38.70015],[140.68788,38.70175],[140.69439,38.69905],[140.70873,38.7008],[140.70828,38.70584],[140.71302,38.70795],[140.7262,38.70715],[140.72947,38.69987],[140.74101,38.69618],[140.74546,38.68896],[140.75038,38.68615],[140.7638,38.68577],[140.7673,38.69194],[140.77878,38.68301],[140.78496,38.67534],[140.79792,38.66802],[140.79951,38.66445],[140.8068,38.6584],[140.81555,38.65435],[140.83105,38.6381],[140.84648,38.63125],[140.85031,38.62625],[140.8582,38.62153],[140.86322,38.61365],[140.8706,38.61221],[140.87875,38.59898],[140.87582,38.59257],[140.87662,38.57988],[140.88191,38.57524],[140.88743,38.57528],[140.90511,38.56863],[140.90698,38.56431],[140.90296,38.56027],[140.8973,38.56107],[140.89778,38.55502],[140.89653,38.53854],[140.89167,38.53358],[140.88802,38.53323],[140.88576,38.52942],[140.89061,38.51336],[140.8953,38.50478],[140.90557,38.49789],[140.9103,38.4934],[140.92276,38.48901],[140.92493,38.48693],[140.93286,38.48699],[140.93696,38.49131],[140.94217,38.48755],[140.94908,38.48988],[140.94901,38.49823],[140.95323,38.50041],[140.95696,38.50564],[140.96914,38.50575],[140.978,38.50363],[140.9873,38.49695],[140.99782,38.49199],[141.00128,38.4835],[141.00108,38.47862],[141.00689,38.47339],[141.01545,38.47737],[141.02323,38.46868],[141.03619,38.46224],[141.02592,38.44474],[141.03535,38.44596],[141.04326,38.44325],[141.06053,38.44137],[141.06067,38.44548],[141.07327,38.44934],[141.08131,38.44968],[141.08708,38.44604],[141.09745,38.44506],[141.09937,38.44228],[141.11095,38.44362],[141.10381,38.45241],[141.11053,38.45901],[141.11571,38.46063],[141.12628,38.46728],[141.12975,38.48341],[141.12622,38.48729],[141.12578,38.49258],[141.11527,38.49816],[141.11723,38.50168],[141.1108,38.50722],[141.10281,38.50794],[141.10008,38.51502],[141.09303,38.51477],[141.09079,38.51758],[141.09869,38.52041],[141.09569,38.52375],[141.08173,38.52501],[141.07604,38.53008],[141.07143,38.52799],[141.05603,38.52831],[141.05157,38.53285],[141.04685,38.53015],[141.03147,38.52689],[141.02587,38.52793],[141.02487,38.53791],[141.0201,38.53963],[141.02476,38.54937],[141.01103,38.55682],[140.99817,38.55929],[140.99482,38.56603],[140.99732,38.57546],[141.00422,38.57387],[141.0078,38.56985],[141.01265,38.56912],[141.01488,38.58594],[141.01272,38.59289],[141.02939,38.58886],[141.03624,38.59092],[141.05127,38.58978],[141.05019,38.57703],[141.05258,38.57372],[141.05049,38.56786],[141.05949,38.56631],[141.06023,38.56103],[141.07728,38.56388],[141.08953,38.55671],[141.09301,38.556],[141.09954,38.5564],[141.09921,38.56172],[141.08448,38.56688],[141.08196,38.57193],[141.08294,38.57695],[141.09121,38.58457],[141.09843,38.58436],[141.1037,38.58928],[141.11484,38.58927],[141.11747,38.58537],[141.12574,38.58234],[141.13048,38.58653],[141.13187,38.59395],[141.14201,38.60265],[141.16184,38.59838],[141.16049,38.6009],[141.14989,38.60839],[141.13829,38.61038],[141.13215,38.61763],[141.12446,38.62284],[141.11547,38.62449],[141.11289,38.62908],[141.1086,38.6294],[141.11075,38.63664],[141.11084,38.64385],[141.10064,38.64058],[141.09475,38.64079]]]},"properties":{"pref":"宮城県","city":"大崎市","code5":"04215","code6":"042153"}},
{"type":"Feature","geometry":{"type":"Polygon","coordinates":[[[140.93415,38.3408],[140.93382,38.34609],[140.93818,38.34828],[140.93929,38.35359],[140.93617,38.3589],[140.9385,38.37046],[140.93662,38.37218],[140.93768,38.38068],[140.9332,38.39406],[140.93587,38.40372],[140.92976,38.40263],[140.92554,38.40576],[140.91051,38.40484],[140.91011,38.41003],[140.90418,38.40885],[140.90055,38.41745],[140.90106,38.42478],[140.90397,38.42921],[140.89383,38.43172],[140.88673,38.42879],[140.88098,38.42921],[140.87198,38.42379],[140.87225,38.41345],[140.86241,38.41096],[140.85864,38.4068],[140.86059,38.40399],[140.87144,38.40823],[140.87578,38.40277],[140.87125,38.39702],[140.87324,38.39058],[140.86978,38.38978],[140.86931,38.38389],[140.86321,38.37904],[140.86071,38.37019],[140.86343,38.36202],[140.87062,38.36033],[140.87898,38.3555],[140.88246,38.34917],[140.90086,38.34087],[140.90339,38.33692],[140.91063,38.33417],[140.92726,38.33309],[140.92654,38.33777],[140.93415,38.3408]]]},"properties":{"pref":"宮城県","city":"富谷市","code5":"04216","code6":"042161"}},
{"type":"Feature","geometry":{"type":"Polygon","coordinates":[[[140.69543,38.03636],[140.69588,38.04161],[140.68917,38.04447],[140.67988,38.05244],[140.67753,38.06104],[140.68241,38.07126],[140.68876,38.07462],[140.68658,38.08607],[140.69098,38.08808],[140.69685,38.10304],[140.70053,38.10591],[140.70327,38.11216],[140.70443,38.12479],[140.69879,38.13553],[140.68436,38.13966],[140.67811,38.13806],[140.66742,38.14391],[140.64738,38.13742],[140.64289,38.1371],[140.63657,38.14209],[140.62008,38.13376],[140.61318,38.13659],[140.6021,38.13863],[140.58989,38.13784],[140.58753,38.14468],[140.57364,38.14993],[140.56596,38.14752],[140.55815,38.14916],[140.545,38.13659],[140.53234,38.13878],[140.52648,38.13682],[140.51858,38.14648],[140.51191,38.1471],[140.49529,38.14364],[140.48808,38.14844],[140.47928,38.14421],[140.47378,38.14522],[140.4699,38.14244],[140.46541,38.14511],[140.46172,38.14173],[140.44591,38.1436],[140.44263,38.13576],[140.44569,38.12985],[140.44851,38.12182],[140.45332,38.11971],[140.45391,38.11358],[140.4577,38.10629],[140.47613,38.09514],[140.47738,38.09071],[140.48765,38.08838],[140.4953,38.09315],[140.50955,38.09416],[140.51907,38.09605],[140.52688,38.09545],[140.53939,38.09673],[140.54041,38.09126],[140.54763,38.08768],[140.55018,38.07952],[140.55428,38.07804],[140.57145,38.086],[140.59394,38.08653],[140.59761,38.08813],[140.6054,38.08435],[140.60436,38.07997],[140.6111,38.07312],[140.61257,38.06506],[140.61927,38.06413],[140.62338,38.05995],[140.62818,38.05889],[140.63084,38.05431],[140.63922,38.05315],[140.6416,38.04655],[140.64554,38.04312],[140.64474,38.03761],[140.64908,38.03421],[140.65773,38.04277],[140.66646,38.04098],[140.67219,38.03717],[140.67747,38.03917],[140.68929,38.03587],[140.69543,38.03636]]]},"properties":{"pref":"宮城県","county":"刈田郡","city":"蔵王町","code5":"04301","code6":"043010"}},
{"type":"Feature","geometry":{"type":"Polygon","coordinates":[[[140.47738,38.09071],[140.47613,38.09514],[140.4577,38.10629],[140.45391,38.11358],[140.45332,38.11971],[140.44851,38.12182],[140.44569,38.12985],[140.43104,38.12686],[140.42387,38.11939],[140.42561,38.11492],[140.41741,38.10292],[140.42066,38.08526],[140.41767,38.08034],[140.40419,38.07373],[140.40345,38.07072],[140.39655,38.06936],[140.39184,38.07101],[140.38016,38.06947],[140.3824,38.06436],[140.37498,38.05744],[140.36454,38.05631],[140.35564,38.05848],[140.35005,38.05399],[140.3446,38.05337],[140.3317,38.05624],[140.32498,38.05501],[140.3176,38.05606],[140.315,38.05839],[140.30843,38.05768],[140.30448,38.05402],[140.29661,38.05715],[140.29212,38.05581],[140.28908,38.05934],[140.28193,38.05952],[140.27709,38.05616],[140.28205,38.0491],[140.28188,38.04412],[140.27592,38.03598],[140.27659,38.02857],[140.28119,38.02588],[140.28175,38.02003],[140.28954,38.0071],[140.28274,38.00146],[140.27688,37.99418],[140.275,37.98387],[140.28,37.97664],[140.28446,37.97299],[140.29165,37.97036],[140.30226,37.9691],[140.30979,37.96416],[140.31377,37.9645],[140.31664,37.95809],[140.32876,37.95823],[140.3323,37.95272],[140.33581,37.95499],[140.34859,37.95016],[140.35577,37.95213],[140.35515,37.95785],[140.3642,37.95873],[140.36669,37.95695],[140.38306,37.95311],[140.38563,37.95372],[140.38564,37.96489],[140.38841,37.96912],[140.39857,37.97442],[140.40752,37.97362],[140.40921,37.96374],[140.41462,37.96329],[140.42416,37.95695],[140.43409,37.9538],[140.44471,37.95695],[140.44781,37.95113],[140.45607,37.95037],[140.4615,37.95258],[140.46602,37.94914],[140.47488,37.94678],[140.47785,37.95425],[140.48609,37.95262],[140.48893,37.95515],[140.4981,37.95192],[140.50766,37.9508],[140.52438,37.96593],[140.52997,37.96421],[140.53309,37.96832],[140.52982,37.97848],[140.51914,37.99039],[140.51637,37.99642],[140.51716,38.00186],[140.5215,38.0036],[140.51341,38.00834],[140.51166,38.02506],[140.50858,38.03025],[140.5008,38.03313],[140.49058,38.04165],[140.49099,38.05507],[140.48856,38.06556],[140.48091,38.07548],[140.47373,38.07834],[140.47187,38.0851],[140.47738,38.09071]]]},"properties":{"pref":"宮城県","county":"刈田郡","city":"七ヶ宿町","code5":"04302","code6":"043028"}},
{"type":"Feature","geometry":{"type":"Polygon","coordinates":[[[140.70598,38.02249],[140.71265,38.02604],[140.71776,38.02659],[140.72374,38.03149],[140.72984,38.02851],[140.73306,38.03098],[140.74593,38.03347],[140.75249,38.03991],[140.74937,38.04469],[140.74305,38.04886],[140.75271,38.05184],[140.74843,38.05669],[140.75363,38.05849],[140.74282,38.06248],[140.73924,38.06774],[140.72402,38.06975],[140.71874,38.07513],[140.7083,38.07319],[140.6994,38.07665],[140.68876,38.07462],[140.68241,38.07126],[140.67753,38.06104],[140.67988,38.05244],[140.68917,38.04447],[140.69588,38.04161],[140.69543,38.03636],[140.70137,38.03736],[140.70554,38.03062],[140.70598,38.02249]]]},"properties":{"pref":"宮城県","county":"柴田郡","city":"大河原町","code5":"04321","code6":"043214"}},
{"type":"Feature","geometry":{"type":"Polygon","coordinates":[[[140.7497,38.17904],[140.74387,38.17202],[140.74554,38.16206],[140.73989,38.15974],[140.73117,38.15226],[140.71961,38.15015],[140.70706,38.15363],[140.7029,38.15963],[140.69365,38.1549],[140.68479,38.15839],[140.67905,38.15888],[140.66662,38.16343],[140.66379,38.16875],[140.65325,38.16919],[140.64876,38.16564],[140.6504,38.15442],[140.65455,38.14501],[140.65019,38.14339],[140.64045,38.14362],[140.63657,38.14209],[140.64289,38.1371],[140.64738,38.13742],[140.66742,38.14391],[140.67811,38.13806],[140.68436,38.13966],[140.69879,38.13553],[140.70443,38.12479],[140.70327,38.11216],[140.70053,38.10591],[140.69685,38.10304],[140.69098,38.08808],[140.68658,38.08607],[140.68876,38.07462],[140.6994,38.07665],[140.7083,38.07319],[140.71874,38.07513],[140.72402,38.06975],[140.73924,38.06774],[140.74282,38.06248],[140.75363,38.05849],[140.75276,38.07109],[140.75682,38.08339],[140.75556,38.08901],[140.75086,38.0938],[140.75682,38.10607],[140.75645,38.11077],[140.76125,38.12089],[140.77422,38.12774],[140.77614,38.13713],[140.78642,38.13683],[140.79063,38.14563],[140.7966,38.14806],[140.79394,38.15589],[140.79459,38.16231],[140.79106,38.16571],[140.79197,38.1744],[140.78652,38.17728],[140.7765,38.1795],[140.75671,38.17671],[140.7497,38.17904]]]},"properties":{"pref":"宮城県","county":"柴田郡","city":"村田町","code5":"04322","code6":"043222"}},
{"type":"Feature","geometry":{"type":"Polygon","coordinates":[[[140.82313,38.07715],[140.83474,38.0837],[140.83485,38.0865],[140.82538,38.0972],[140.82539,38.10711],[140.82696,38.11157],[140.82426,38.12216],[140.81901,38.12684],[140.80577,38.12691],[140.80189,38.12232],[140.79351,38.1234],[140.77743,38.12837],[140.77986,38.13375],[140.78642,38.13683],[140.77614,38.13713],[140.77422,38.12774],[140.76125,38.12089],[140.75645,38.11077],[140.75682,38.10607],[140.75086,38.0938],[140.75556,38.08901],[140.75682,38.08339],[140.75276,38.07109],[140.75363,38.05849],[140.74843,38.05669],[140.75271,38.05184],[140.74305,38.04886],[140.74937,38.04469],[140.75249,38.03991],[140.7576,38.04106],[140.76826,38.0387],[140.77444,38.03968],[140.77721,38.0427],[140.78227,38.04174],[140.78821,38.04591],[140.79292,38.0438],[140.79811,38.04588],[140.80076,38.05074],[140.81077,38.05246],[140.81157,38.06027],[140.82313,38.07715]]]},"properties":{"pref":"宮城県","county":"柴田郡","city":"柴田町","code5":"04323","code6":"043231"}},
{"type":"Feature","geometry":{"type":"Polygon","coordinates":[[[140.47253,38.25223],[140.46921,38.24292],[140.47107,38.23478],[140.46933,38.22833],[140.47429,38.22448],[140.47095,38.21457],[140.47233,38.2062],[140.4773,38.20079],[140.47763,38.19184],[140.48015,38.18214],[140.46965,38.17064],[140.46766,38.15698],[140.45201,38.15106],[140.44591,38.1436],[140.46172,38.14173],[140.46541,38.14511],[140.4699,38.14244],[140.47378,38.14522],[140.47928,38.14421],[140.48808,38.14844],[140.49529,38.14364],[140.51191,38.1471],[140.51858,38.14648],[140.52648,38.13682],[140.53234,38.13878],[140.545,38.13659],[140.55815,38.14916],[140.56596,38.14752],[140.57364,38.14993],[140.58753,38.14468],[140.58989,38.13784],[140.6021,38.13863],[140.61318,38.13659],[140.62008,38.13376],[140.63657,38.14209],[140.64045,38.14362],[140.65019,38.14339],[140.65455,38.14501],[140.6504,38.15442],[140.64876,38.16564],[140.65325,38.16919],[140.66379,38.16875],[140.66662,38.16343],[140.67905,38.15888],[140.68479,38.15839],[140.69365,38.1549],[140.7029,38.15963],[140.70706,38.15363],[140.71961,38.15015],[140.73117,38.15226],[140.73989,38.15974],[140.74554,38.16206],[140.74387,38.17202],[140.7497,38.17904],[140.74367,38.18287],[140.74188,38.19973],[140.73573,38.21071],[140.73056,38.21189],[140.72228,38.21655],[140.70233,38.22],[140.69831,38.22299],[140.69189,38.22291],[140.68312,38.22598],[140.67709,38.23279],[140.66681,38.23967],[140.6624,38.23878],[140.65066,38.24038],[140.65,38.24884],[140.63013,38.25825],[140.62162,38.25857],[140.6079,38.26519],[140.60467,38.26339],[140.59418,38.26462],[140.58524,38.26316],[140.56257,38.26753],[140.5577,38.26681],[140.54834,38.26131],[140.54135,38.26383],[140.53409,38.2597],[140.50763,38.25933],[140.50164,38.25546],[140.49549,38.25665],[140.48116,38.2552],[140.47637,38.25139],[140.47253,38.25223]]]},"properties":{"pref":"宮城県","county":"柴田郡","city":"川崎町","code5":"04324","code6":"043249"}},
{"type":"Feature","geometry":{"type":"Polygon","coordinates":[[[140.61862,37.91252],[140.62245,37.90264],[140.62734,37.89907],[140.64467,37.89545],[140.64686,37.89864],[140.66,37.90088],[140.66698,37.89506],[140.67228,37.89297],[140.68854,37.88913],[140.69089,37.88367],[140.68288,37.87951],[140.68276,37.87407],[140.68753,37.87121],[140.68582,37.86794],[140.69053,37.86256],[140.69285,37.85705],[140.69158,37.84951],[140.68561,37.84689],[140.68694,37.84224],[140.6795,37.83685],[140.68424,37.83089],[140.68645,37.81952],[140.6855,37.81535],[140.6898,37.81275],[140.69437,37.80326],[140.70131,37.80328],[140.71152,37.80066],[140.71967,37.79334],[140.723,37.79254],[140.72697,37.78148],[140.73803,37.78723],[140.74568,37.7883],[140.74899,37.7853],[140.75715,37.78547],[140.77522,37.78182],[140.78735,37.77481],[140.79553,37.77355],[140.80293,37.77998],[140.79449,37.78219],[140.78678,37.78918],[140.77941,37.79095],[140.77253,37.79737],[140.77498,37.80631],[140.78324,37.80449],[140.80076,37.79783],[140.81075,37.79562],[140.81639,37.79825],[140.82359,37.79874],[140.83037,37.79482],[140.84066,37.79603],[140.85172,37.79531],[140.85791,37.80285],[140.85372,37.80703],[140.85395,37.81174],[140.85814,37.81442],[140.85364,37.82136],[140.85593,37.82863],[140.85418,37.84193],[140.85054,37.84923],[140.85864,37.85627],[140.86156,37.86283],[140.86074,37.86718],[140.85458,37.87452],[140.86069,37.87915],[140.85649,37.88298],[140.85625,37.8909],[140.85933,37.89569],[140.85714,37.90579],[140.85092,37.91223],[140.84643,37.9131],[140.84079,37.92433],[140.83374,37.92698],[140.83073,37.93113],[140.8162,37.93451],[140.80666,37.93336],[140.80793,37.92504],[140.80445,37.92389],[140.80098,37.92886],[140.78755,37.93178],[140.78334,37.93517],[140.78665,37.94117],[140.78742,37.95602],[140.78127,37.94831],[140.76679,37.94867],[140.7503,37.94266],[140.73359,37.94587],[140.73249,37.94209],[140.72348,37.94314],[140.71219,37.94255],[140.70251,37.9494],[140.70887,37.95238],[140.71114,37.95919],[140.70348,37.96486],[140.69722,37.96341],[140.68646,37.96729],[140.68417,37.95919],[140.67619,37.94892],[140.67133,37.95221],[140.66588,37.94783],[140.64655,37.94494],[140.63235,37.94129],[140.62467,37.9346],[140.62608,37.92824],[140.62968,37.9218],[140.62122,37.91728],[140.61862,37.91252]]]},"properties":{"pref":"宮城県","county":"伊具郡","city":"丸森町","code5":"04341","code6":"043419"}},
{"type":"Feature","geometry":{"type":"Polygon","coordinates":[[[140.84297,37.99172],[140.85563,37.99546],[140.86198,38.00037],[140.87767,38.00099],[140.87955,37.98903],[140.88989,37.99511],[140.89878,37.99332],[140.91511,37.99356],[140.91752,38.01846],[140.92264,38.03393],[140.92198,38.04699],[140.9095,38.05227],[140.90635,38.0602],[140.90985,38.06933],[140.90844,38.07634],[140.89456,38.08998],[140.88697,38.09483],[140.8751,38.09574],[140.86915,38.09387],[140.86434,38.08539],[140.85763,38.08158],[140.84504,38.08023],[140.83474,38.0837],[140.82313,38.07715],[140.82629,38.07538],[140.82609,38.06636],[140.83014,38.06022],[140.83036,38.04521],[140.82815,38.04231],[140.82946,38.03125],[140.83186,38.0253],[140.83925,38.01834],[140.83907,38.0103],[140.84107,38.00708],[140.84025,37.99672],[140.84297,37.99172]]]},"properties":{"pref":"宮城県","county":"亘理郡","city":"亘理町","code5":"04361","code6":"043613"}},
{"type":"Feature","geometry":{"type":"Polygon","coordinates":[[[140.85092,37.91223],[140.85714,37.90579],[140.85933,37.89569],[140.85625,37.8909],[140.86412,37.89297],[140.87016,37.89642],[140.88101,37.89787],[140.89052,37.9023],[140.89815,37.90299],[140.90112,37.89764],[140.91218,37.89659],[140.91518,37.89784],[140.92397,37.89491],[140.93109,37.89618],[140.92666,37.90355],[140.92357,37.91275],[140.91542,37.96284],[140.91466,37.97853],[140.91511,37.99356],[140.89878,37.99332],[140.88989,37.99511],[140.87955,37.98903],[140.87767,38.00099],[140.86198,38.00037],[140.85563,37.99546],[140.84297,37.99172],[140.84996,37.97867],[140.85352,37.961],[140.85149,37.95704],[140.85372,37.94877],[140.85255,37.93934],[140.85073,37.93788],[140.85668,37.92789],[140.85092,37.91223]]]},"properties":{"pref":"宮城県","county":"亘理郡","city":"山元町","code5":"04362","code6":"043621"}},
{"type":"Feature","geometry":{"type":"MultiPolygon","coordinates":[[[[141.11628,38.44334],[141.11095,38.44362],[141.09937,38.44228],[141.09745,38.44506],[141.08708,38.44604],[141.08131,38.44968],[141.07327,38.44934],[141.06067,38.44548],[141.06053,38.44137],[141.06152,38.43384],[141.05672,38.43215],[141.05232,38.4227],[141.04785,38.41831],[141.04727,38.41021],[141.04009,38.40641],[141.03221,38.39205],[141.02609,38.38554],[141.0257,38.37965],[141.01719,38.37221],[141.03156,38.36758],[141.04231,38.37249],[141.04463,38.36979],[141.04959,38.35564],[141.05943,38.35057],[141.06261,38.35557],[141.06127,38.36178],[141.06198,38.36939],[141.0685,38.36996],[141.07436,38.37786],[141.08153,38.37858],[141.08754,38.38168],[141.09097,38.3789],[141.10018,38.37634],[141.09876,38.37319],[141.10175,38.37362],[141.10177,38.37362],[141.10607,38.36979],[141.10869,38.37051],[141.1072,38.37497],[141.10716,38.3862],[141.11485,38.38202],[141.12639,38.37993],[141.12442,38.389],[141.11651,38.39878],[141.10833,38.39538],[141.10676,38.40017],[141.10055,38.40296],[141.09905,38.40838],[141.1043,38.4122],[141.11083,38.41406],[141.12725,38.42193],[141.12322,38.42907],[141.11526,38.4368],[141.11628,38.44334]]],[[[141.07664,38.36972],[141.07503,38.3699],[141.07501,38.36989],[141.07664,38.36972]]]]},"properties":{"pref":"宮城県","county":"宮城郡","city":"松島町","code5":"04401","code6":"044016"}},
{"type":"Feature","geometry":{"type":"Polygon","coordinates":[[[141.04346,38.27681],[141.05501,38.2806],[141.06258,38.28283],[141.06443,38.2876],[141.06938,38.29259],[141.07727,38.29575],[141.0847,38.29286],[141.08802,38.30285],[141.0814,38.30582],[141.07954,38.31507],[141.0764,38.31957],[141.06545,38.32172],[141.05986,38.31343],[141.05693,38.31438],[141.04512,38.31249],[141.04149,38.30831],[141.03591,38.30702],[141.036,38.30278],[141.03563,38.2991],[141.04268,38.29321],[141.04066,38.28648],[141.03574,38.28702],[141.0322,38.28037],[141.03746,38.28292],[141.04346,38.27681]]]},"properties":{"pref":"宮城県","county":"宮城郡","city":"七ヶ浜町","code5":"04404","code6":"044041"}},
{"type":"Feature","geometry":{"type":"Polygon","coordinates":[[[140.9627,38.3096],[140.97493,38.30993],[140.97704,38.30866],[140.9939,38.31423],[141.00078,38.3196],[141.00376,38.32478],[140.99807,38.32787],[141.00545,38.33081],[141.01013,38.33929],[141.01906,38.34827],[141.02589,38.34696],[141.02301,38.34057],[141.02648,38.33859],[141.03648,38.33965],[141.03675,38.33975],[141.03758,38.34342],[141.04512,38.34773],[141.05505,38.34672],[141.05943,38.35057],[141.04959,38.35564],[141.04463,38.36979],[141.04231,38.37249],[141.03156,38.36758],[141.01719,38.37221],[141.01308,38.36771],[141.00291,38.36522],[140.99808,38.3681],[140.99285,38.36646],[140.98704,38.37465],[140.98042,38.37354],[140.97648,38.37295],[140.9763,38.36477],[140.97168,38.36324],[140.9609,38.35428],[140.9543,38.36072],[140.9476,38.35662],[140.93929,38.35359],[140.93818,38.34828],[140.93382,38.34609],[140.93415,38.3408],[140.93954,38.33535],[140.93686,38.33172],[140.93641,38.31689],[140.94269,38.31219],[140.95357,38.30848],[140.9627,38.3096]]]},"properties":{"pref":"宮城県","county":"宮城郡","city":"利府町","code5":"04406","code6":"044067"}},
{"type":"Feature","geometry":{"type":"Polygon","coordinates":[[[140.62585,38.44728],[140.62691,38.4436],[140.63295,38.4434],[140.64279,38.43687],[140.65177,38.43784],[140.65917,38.43221],[140.67055,38.43273],[140.67688,38.4308],[140.6825,38.42656],[140.69589,38.42529],[140.69798,38.42144],[140.69687,38.41564],[140.70275,38.41701],[140.71129,38.42483],[140.71624,38.43389],[140.72613,38.43249],[140.72669,38.4295],[140.73637,38.42412],[140.7381,38.42054],[140.74441,38.41559],[140.74354,38.41204],[140.75452,38.41143],[140.76893,38.4048],[140.78164,38.40204],[140.79965,38.39389],[140.80847,38.39212],[140.81692,38.38119],[140.82537,38.37494],[140.82681,38.36887],[140.82265,38.36263],[140.8282,38.36278],[140.83508,38.36008],[140.83144,38.3567],[140.83412,38.347],[140.84179,38.34857],[140.84516,38.35783],[140.85304,38.35873],[140.85467,38.36166],[140.86343,38.36202],[140.86071,38.37019],[140.86321,38.37904],[140.86931,38.38389],[140.86978,38.38978],[140.87324,38.39058],[140.87125,38.39702],[140.87578,38.40277],[140.87144,38.40823],[140.86059,38.40399],[140.85864,38.4068],[140.86241,38.41096],[140.87225,38.41345],[140.87198,38.42379],[140.88098,38.42921],[140.88673,38.42879],[140.89383,38.43172],[140.90397,38.42921],[140.90106,38.42478],[140.90055,38.41745],[140.90418,38.40885],[140.91011,38.41003],[140.91051,38.40484],[140.92554,38.40576],[140.92976,38.40263],[140.93587,38.40372],[140.9332,38.39406],[140.93768,38.38068],[140.93662,38.37218],[140.9385,38.37046],[140.93617,38.3589],[140.93929,38.35359],[140.9476,38.35662],[140.9543,38.36072],[140.9609,38.35428],[140.97168,38.36324],[140.9763,38.36477],[140.97648,38.37295],[140.98042,38.37354],[140.98013,38.37899],[140.97572,38.38354],[140.97157,38.38272],[140.96674,38.38751],[140.96429,38.3985],[140.97139,38.4086],[140.97365,38.41487],[140.97417,38.42593],[140.9702,38.43253],[140.9742,38.43678],[140.98159,38.44068],[140.97871,38.44455],[140.96822,38.44568],[140.96201,38.4562],[140.96042,38.46527],[140.94927,38.46844],[140.94048,38.46473],[140.92641,38.46655],[140.91442,38.46261],[140.91346,38.4568],[140.90712,38.45547],[140.90719,38.44504],[140.89757,38.4452],[140.89504,38.44339],[140.88355,38.45157],[140.87839,38.45385],[140.87043,38.45187],[140.86225,38.4556],[140.85878,38.45503],[140.84346,38.45877],[140.83951,38.46077],[140.83801,38.46592],[140.8329,38.46595],[140.82488,38.46962],[140.81974,38.46937],[140.81691,38.47411],[140.80556,38.47295],[140.79473,38.47486],[140.7882,38.48075],[140.78633,38.48454],[140.7884,38.4942],[140.77121,38.49679],[140.76487,38.49462],[140.7518,38.49487],[140.74811,38.49681],[140.73917,38.4953],[140.73341,38.49679],[140.72361,38.49535],[140.70728,38.48529],[140.70149,38.48637],[140.69221,38.48151],[140.67215,38.47272],[140.66996,38.46927],[140.65949,38.46496],[140.62585,38.44728]]]},"properties":{"pref":"宮城県","county":"黒川郡","city":"大和町","code5":"04421","code6":"044211"}},
{"type":"Feature","geometry":{"type":"Polygon","coordinates":[[[140.94908,38.48988],[140.95561,38.48636],[140.94957,38.48095],[140.95253,38.47559],[140.95802,38.47506],[140.96116,38.47118],[140.96042,38.46527],[140.96201,38.4562],[140.96822,38.44568],[140.97871,38.44455],[140.98159,38.44068],[140.9742,38.43678],[140.9702,38.43253],[140.97417,38.42593],[140.97365,38.41487],[140.97139,38.4086],[140.96429,38.3985],[140.96674,38.38751],[140.97157,38.38272],[140.97572,38.38354],[140.98013,38.37899],[140.98042,38.37354],[140.98704,38.37465],[140.99285,38.36646],[140.99808,38.3681],[141.00291,38.36522],[141.01308,38.36771],[141.01719,38.37221],[141.0257,38.37965],[141.02609,38.38554],[141.03221,38.39205],[141.04009,38.40641],[141.04727,38.41021],[141.04785,38.41831],[141.05232,38.4227],[141.05672,38.43215],[141.06152,38.43384],[141.06053,38.44137],[141.04326,38.44325],[141.03535,38.44596],[141.02592,38.44474],[141.03619,38.46224],[141.02323,38.46868],[141.01545,38.47737],[141.00689,38.47339],[141.00108,38.47862],[141.00128,38.4835],[140.99782,38.49199],[140.9873,38.49695],[140.978,38.50363],[140.96914,38.50575],[140.95696,38.50564],[140.95323,38.50041],[140.94901,38.49823],[140.94908,38.48988]]]},"properties":{"pref":"宮城県","county":"黒川郡","city":"大郷町","code5":"04422","code6":"044229"}},
{"type":"Feature","geometry":{"type":"Polygon","coordinates":[[[140.89061,38.51336],[140.8838,38.51257],[140.88443,38.50442],[140.87373,38.50151],[140.86453,38.50258],[140.85032,38.50823],[140.83926,38.50559],[140.81838,38.50239],[140.80228,38.49512],[140.7884,38.4942],[140.78633,38.48454],[140.7882,38.48075],[140.79473,38.47486],[140.80556,38.47295],[140.81691,38.47411],[140.81974,38.46937],[140.82488,38.46962],[140.8329,38.46595],[140.83801,38.46592],[140.83951,38.46077],[140.84346,38.45877],[140.85878,38.45503],[140.86225,38.4556],[140.87043,38.45187],[140.87839,38.45385],[140.88355,38.45157],[140.89504,38.44339],[140.89757,38.4452],[140.90719,38.44504],[140.90712,38.45547],[140.91346,38.4568],[140.91442,38.46261],[140.92641,38.46655],[140.94048,38.46473],[140.94927,38.46844],[140.96042,38.46527],[140.96116,38.47118],[140.95802,38.47506],[140.95253,38.47559],[140.94957,38.48095],[140.95561,38.48636],[140.94908,38.48988],[140.94217,38.48755],[140.93696,38.49131],[140.93286,38.48699],[140.92493,38.48693],[140.92276,38.48901],[140.9103,38.4934],[140.90557,38.49789],[140.8953,38.50478],[140.89061,38.51336]]]},"properties":{"pref":"宮城県","county":"黒川郡","city":"大衡村","code5":"04424","code6":"044245"}},
{"type":"Feature","geometry":{"type":"Polygon","coordinates":[[[140.62585,38.44728],[140.65949,38.46496],[140.66996,38.46927],[140.67215,38.47272],[140.69221,38.48151],[140.70149,38.48637],[140.70728,38.48529],[140.72361,38.49535],[140.73341,38.49679],[140.73917,38.4953],[140.74811,38.49681],[140.7518,38.49487],[140.76487,38.49462],[140.77121,38.49679],[140.7884,38.4942],[140.80228,38.49512],[140.81838,38.50239],[140.83926,38.50559],[140.85032,38.50823],[140.86453,38.50258],[140.87373,38.50151],[140.88443,38.50442],[140.8838,38.51257],[140.89061,38.51336],[140.88576,38.52942],[140.88802,38.53323],[140.87984,38.53642],[140.87923,38.53948],[140.86879,38.54412],[140.86816,38.55012],[140.86522,38.55156],[140.85076,38.5535],[140.84941,38.56166],[140.8455,38.57285],[140.83708,38.56897],[140.82888,38.56792],[140.82263,38.56496],[140.81899,38.57033],[140.80752,38.56736],[140.79871,38.56194],[140.77931,38.55852],[140.76878,38.56135],[140.76556,38.55789],[140.76081,38.55773],[140.75645,38.55378],[140.75079,38.552],[140.74683,38.54368],[140.74168,38.54203],[140.73664,38.53668],[140.73975,38.53365],[140.73764,38.52799],[140.73043,38.52434],[140.7212,38.5217],[140.70572,38.52104],[140.69636,38.51831],[140.68979,38.51201],[140.68998,38.50665],[140.66371,38.49185],[140.66148,38.48712],[140.6624,38.48183],[140.64969,38.47418],[140.64439,38.46655],[140.64083,38.46705],[140.63005,38.46205],[140.62079,38.46092],[140.62004,38.4552],[140.61968,38.45469],[140.62585,38.44728]]]},"properties":{"pref":"宮城県","county":"加美郡","city":"色麻町","code5":"04444","code6":"044440"}},
{"type":"Feature","geometry":{"type":"Polygon","coordinates":[[[140.62399,38.69144],[140.62131,38.68489],[140.62199,38.68123],[140.61889,38.67296],[140.61437,38.66933],[140.61244,38.66226],[140.60606,38.65549],[140.6058,38.64878],[140.60202,38.6406],[140.59643,38.63884],[140.58994,38.63382],[140.57979,38.63567],[140.57594,38.63921],[140.5694,38.63821],[140.56275,38.64806],[140.55454,38.64712],[140.54653,38.64968],[140.54414,38.64814],[140.53764,38.63384],[140.54242,38.62927],[140.54326,38.62405],[140.54687,38.62196],[140.55222,38.61334],[140.56034,38.60945],[140.56228,38.60491],[140.55827,38.60227],[140.55845,38.59764],[140.56955,38.59422],[140.56789,38.59001],[140.572,38.58662],[140.571,38.58026],[140.57864,38.56807],[140.56663,38.55956],[140.56985,38.55518],[140.56634,38.55166],[140.56474,38.54586],[140.55408,38.54076],[140.55442,38.53512],[140.56252,38.5267],[140.56835,38.52779],[140.57196,38.52564],[140.56778,38.51917],[140.5703,38.5153],[140.56346,38.51064],[140.56933,38.50435],[140.56741,38.5013],[140.57369,38.49491],[140.58372,38.49101],[140.59765,38.48737],[140.60435,38.48205],[140.60272,38.47886],[140.60816,38.46882],[140.60629,38.46329],[140.60821,38.4584],[140.62004,38.4552],[140.62079,38.46092],[140.63005,38.46205],[140.64083,38.46705],[140.64439,38.46655],[140.64969,38.47418],[140.6624,38.48183],[140.66148,38.48712],[140.66371,38.49185],[140.68998,38.50665],[140.68979,38.51201],[140.69636,38.51831],[140.70572,38.52104],[140.7212,38.5217],[140.73043,38.52434],[140.73764,38.52799],[140.73975,38.53365],[140.73664,38.53668],[140.74168,38.54203],[140.74683,38.54368],[140.75079,38.552],[140.75645,38.55378],[140.76081,38.55773],[140.76556,38.55789],[140.76878,38.56135],[140.77931,38.55852],[140.79871,38.56194],[140.80752,38.56736],[140.81899,38.57033],[140.82263,38.56496],[140.82888,38.56792],[140.83708,38.56897],[140.8455,38.57285],[140.84941,38.56166],[140.85076,38.5535],[140.86522,38.55156],[140.86816,38.55012],[140.86879,38.54412],[140.87923,38.53948],[140.87984,38.53642],[140.88802,38.53323],[140.89167,38.53358],[140.89653,38.53854],[140.89778,38.55502],[140.8973,38.56107],[140.90296,38.56027],[140.90698,38.56431],[140.90511,38.56863],[140.88743,38.57528],[140.88191,38.57524],[140.87662,38.57988],[140.87582,38.59257],[140.87875,38.59898],[140.8706,38.61221],[140.86322,38.61365],[140.8582,38.62153],[140.85031,38.62625],[140.84648,38.63125],[140.83105,38.6381],[140.81555,38.65435],[140.8068,38.6584],[140.79951,38.66445],[140.79792,38.66802],[140.78496,38.67534],[140.77878,38.68301],[140.7673,38.69194],[140.7638,38.68577],[140.75038,38.68615],[140.74546,38.68896],[140.74101,38.69618],[140.72947,38.69987],[140.7262,38.70715],[140.71302,38.70795],[140.70828,38.70584],[140.70873,38.7008],[140.69439,38.69905],[140.68788,38.70175],[140.67865,38.70015],[140.67762,38.69492],[140.67087,38.68894],[140.6633,38.68719],[140.65879,38.68992],[140.65709,38.69836],[140.65068,38.69993],[140.64069,38.69596],[140.63554,38.68938],[140.62629,38.69255],[140.62399,38.69144]]]},"properties":{"pref":"宮城県","county":"加美郡","city":"加美町","code5":"04445","code6":"044458"}},
{"type":"Feature","geometry":{"type":"Polygon","coordinates":[[[141.23105,38.54727],[141.22916,38.55697],[141.22338,38.56591],[141.21693,38.56917],[141.21029,38.56914],[141.2036,38.57202],[141.19556,38.58156],[141.19632,38.58836],[141.20065,38.58928],[141.20087,38.59397],[141.1911,38.59914],[141.17924,38.60363],[141.17458,38.59626],[141.16184,38.59838],[141.14201,38.60265],[141.13187,38.59395],[141.13048,38.58653],[141.12574,38.58234],[141.11747,38.58537],[141.11484,38.58927],[141.1037,38.58928],[141.09843,38.58436],[141.09121,38.58457],[141.08294,38.57695],[141.08196,38.57193],[141.08448,38.56688],[141.09921,38.56172],[141.09954,38.5564],[141.09301,38.556],[141.08739,38.55217],[141.07643,38.55214],[141.06656,38.54867],[141.06852,38.54617],[141.07816,38.54155],[141.10091,38.53615],[141.11642,38.53753],[141.12301,38.53086],[141.13226,38.52956],[141.13777,38.52009],[141.13743,38.51733],[141.15126,38.51054],[141.17169,38.51602],[141.17663,38.51999],[141.17787,38.53094],[141.18458,38.53199],[141.18667,38.53539],[141.19653,38.54144],[141.21658,38.53425],[141.22655,38.53408],[141.23105,38.54727]]]},"properties":{"pref":"宮城県","county":"遠田郡","city":"涌谷町","code5":"04501","code6":"045012"}},
{"type":"Feature","geometry":{"type":"Polygon","coordinates":[[[141.17663,38.51999],[141.17169,38.51602],[141.15126,38.51054],[141.13743,38.51733],[141.13777,38.52009],[141.13226,38.52956],[141.12301,38.53086],[141.11642,38.53753],[141.10091,38.53615],[141.07816,38.54155],[141.06852,38.54617],[141.06656,38.54867],[141.07643,38.55214],[141.08739,38.55217],[141.09301,38.556],[141.08953,38.55671],[141.07728,38.56388],[141.06023,38.56103],[141.05949,38.56631],[141.05049,38.56786],[141.05258,38.57372],[141.05019,38.57703],[141.05127,38.58978],[141.03624,38.59092],[141.02939,38.58886],[141.01272,38.59289],[141.01488,38.58594],[141.01265,38.56912],[141.0078,38.56985],[141.00422,38.57387],[140.99732,38.57546],[140.99482,38.56603],[140.99817,38.55929],[141.01103,38.55682],[141.02476,38.54937],[141.0201,38.53963],[141.02487,38.53791],[141.02587,38.52793],[141.03147,38.52689],[141.04685,38.53015],[141.05157,38.53285],[141.05603,38.52831],[141.07143,38.52799],[141.07604,38.53008],[141.08173,38.52501],[141.09569,38.52375],[141.09869,38.52041],[141.09079,38.51758],[141.09303,38.51477],[141.10008,38.51502],[141.10281,38.50794],[141.1108,38.50722],[141.11723,38.50168],[141.11527,38.49816],[141.12578,38.49258],[141.12622,38.48729],[141.12975,38.48341],[141.12628,38.46728],[141.11571,38.46063],[141.11053,38.45901],[141.10381,38.45241],[141.11095,38.44362],[141.11628,38.44334],[141.12793,38.44989],[141.13076,38.44641],[141.12385,38.44127],[141.13543,38.44211],[141.14784,38.4505],[141.15665,38.4502],[141.15997,38.45254],[141.17577,38.45504],[141.17402,38.45842],[141.1658,38.46082],[141.16394,38.4674],[141.16585,38.47034],[141.16118,38.47607],[141.16691,38.47932],[141.16595,38.48481],[141.17121,38.48538],[141.16861,38.4945],[141.16385,38.50149],[141.17663,38.51999]]]},"properties":{"pref":"宮城県","county":"遠田郡","city":"美里町","code5":"04505","code6":"045055"}},
{"type":"Feature","geometry":{"type":"MultiPolygon","coordinates":[[[[141.50618,38.39758],[141.50087,38.4034],[141.50407,38.40951],[141.50303,38.41439],[141.49676,38.41143],[141.49303,38.41206],[141.49091,38.40581],[141.48518,38.40414],[141.48128,38.3987],[141.47739,38.39883],[141.47242,38.39381],[141.4665,38.39709],[141.46626,38.40032],[141.47208,38.40838],[141.47313,38.40899],[141.47272,38.41653],[141.47474,38.41873],[141.47173,38.42552],[141.46848,38.4246],[141.46573,38.43044],[141.45901,38.43483],[141.45285,38.44359],[141.46096,38.44505],[141.46614,38.44097],[141.4793,38.44035],[141.48243,38.43693],[141.48979,38.44098],[141.50652,38.44616],[141.51025,38.44564],[141.51024,38.44566],[141.5023,38.45004],[141.4966,38.44934],[141.49466,38.45619],[141.4879,38.46153],[141.47698,38.46317],[141.47607,38.46782],[141.48363,38.47125],[141.48882,38.46901],[141.49425,38.47366],[141.49735,38.47986],[141.49722,38.47993],[141.49603,38.48005],[141.48677,38.47976],[141.47266,38.48224],[141.47011,38.48965],[141.46159,38.4904],[141.4591,38.49261],[141.45014,38.48486],[141.45012,38.48234],[141.44016,38.47907],[141.43196,38.48327],[141.42287,38.48592],[141.41689,38.48532],[141.41495,38.48018],[141.41521,38.47297],[141.41219,38.47065],[141.40741,38.45879],[141.40608,38.44539],[141.40031,38.43661],[141.39986,38.41944],[141.40935,38.41677],[141.41224,38.41124],[141.42532,38.412],[141.42772,38.41485],[141.44869,38.41019],[141.45097,38.40749],[141.45195,38.39569],[141.45076,38.39294],[141.45849,38.391],[141.45873,38.38723],[141.46762,38.38484],[141.47513,38.38469],[141.48227,38.39162],[141.4925,38.39258],[141.49796,38.38902],[141.50618,38.39758]]],[[[141.52096,38.46394],[141.51625,38.45864],[141.51935,38.45659],[141.51852,38.44655],[141.5186,38.44285],[141.52613,38.43763],[141.53029,38.43776],[141.53479,38.44385],[141.53466,38.44534],[141.53075,38.44869],[141.53074,38.4487],[141.52938,38.45028],[141.53096,38.45418],[141.52783,38.45319],[141.52693,38.45769],[141.52096,38.46394]]],[[[141.59654,38.40077],[141.59653,38.40158],[141.59652,38.40159],[141.58936,38.39906],[141.59383,38.39626],[141.59488,38.39624],[141.59654,38.40077]]],[[[141.59908,38.40203],[141.59898,38.40204],[141.59897,38.40203],[141.59908,38.40203]]],[[[141.60048,38.40147],[141.60043,38.40148],[141.60043,38.40141],[141.60046,38.40118],[141.60108,38.4013],[141.60092,38.40153],[141.60048,38.40147]]],[[[141.5969,38.40286],[141.5969,38.40291],[141.59689,38.4029],[141.59688,38.40285],[141.5969,38.40286]]],[[[141.59073,38.39235],[141.59076,38.39239],[141.59075,38.3924],[141.59072,38.39237],[141.59073,38.39235]]],[[[141.59654,38.40077],[141.59658,38.40079],[141.59657,38.4008],[141.59654,38.40077]]]]},"properties":{"pref":"宮城県","county":"牡鹿郡","city":"女川町","code5":"04581","code6":"045811"}},
{"type":"Feature","geometry":{"type":"MultiPolygon","coordinates":[[[[141.52846,38.63027],[141.5293,38.63664],[141.52459,38.63613],[141.51503,38.63885],[141.50989,38.63856],[141.50529,38.63835],[141.5053,38.63837],[141.49729,38.64423],[141.49735,38.6444],[141.4855,38.64141],[141.47672,38.64515],[141.46928,38.64514],[141.46425,38.64791],[141.46125,38.6422],[141.44291,38.64368],[141.44354,38.65089],[141.45015,38.65745],[141.44557,38.66424],[141.44426,38.67354],[141.4537,38.67382],[141.46306,38.66674],[141.46151,38.66985],[141.47602,38.67984],[141.48181,38.67533],[141.4945,38.67652],[141.49587,38.68094],[141.49006,38.6896],[141.50403,38.68992],[141.51091,38.68603],[141.51635,38.68933],[141.51849,38.69451],[141.5179,38.69601],[141.52054,38.70228],[141.52188,38.70351],[141.52189,38.70351],[141.52518,38.70998],[141.52226,38.71588],[141.53109,38.71667],[141.53753,38.70692],[141.53792,38.70843],[141.5487,38.71162],[141.55773,38.70575],[141.55894,38.70153],[141.55481,38.69793],[141.55555,38.69416],[141.55622,38.69417],[141.56121,38.69363],[141.56124,38.69377],[141.56399,38.69869],[141.56408,38.69865],[141.56409,38.6987],[141.56403,38.69874],[141.564,38.6987],[141.56402,38.69883],[141.56384,38.69887],[141.56386,38.6991],[141.56431,38.69932],[141.56443,38.70003],[141.56402,38.70195],[141.56284,38.70367],[141.56582,38.70705],[141.5664,38.71115],[141.55866,38.71458],[141.55672,38.71909],[141.55862,38.7239],[141.56586,38.72834],[141.56294,38.7323],[141.56542,38.73312],[141.5656,38.73627],[141.56453,38.73745],[141.5654,38.7395],[141.5652,38.73964],[141.56394,38.74017],[141.55599,38.73827],[141.54816,38.73334],[141.54652,38.73908],[141.53986,38.73959],[141.53944,38.7434],[141.53945,38.74341],[141.53996,38.74724],[141.53023,38.74857],[141.52665,38.74715],[141.51728,38.74834],[141.50125,38.7425],[141.49654,38.74588],[141.48661,38.74568],[141.48028,38.75164],[141.4755,38.75348],[141.46718,38.75063],[141.46371,38.74505],[141.45418,38.7421],[141.45111,38.74525],[141.4417,38.74863],[141.43514,38.74253],[141.42196,38.74006],[141.41407,38.73963],[141.41189,38.73591],[141.40584,38.73592],[141.39207,38.731],[141.39333,38.72584],[141.38494,38.72364],[141.37427,38.71881],[141.36868,38.71881],[141.37177,38.71066],[141.36997,38.70713],[141.37103,38.69264],[141.37475,38.68571],[141.37251,38.67671],[141.38367,38.67582],[141.3857,38.67195],[141.37962,38.66782],[141.37545,38.65741],[141.38049,38.64788],[141.38614,38.64591],[141.39042,38.6385],[141.38965,38.63635],[141.3974,38.62561],[141.40347,38.62433],[141.39995,38.61627],[141.40148,38.60939],[141.4102,38.60981],[141.41594,38.60565],[141.40713,38.60183],[141.41687,38.59393],[141.42606,38.5931],[141.43177,38.59658],[141.44802,38.60414],[141.44617,38.60836],[141.45785,38.61004],[141.46096,38.61494],[141.46723,38.61664],[141.4743,38.62085],[141.48573,38.61864],[141.4935,38.62293],[141.49849,38.61728],[141.50845,38.61479],[141.51612,38.62626],[141.52304,38.63242],[141.52846,38.63027]]],[[[141.51069,38.67485],[141.51205,38.6747],[141.51192,38.67481],[141.51109,38.67572],[141.51069,38.67485]]],[[[141.5654,38.7395],[141.5655,38.73955],[141.56543,38.73957],[141.56542,38.73956],[141.5654,38.7395]]],[[[141.51069,38.67485],[141.5107,38.67482],[141.51072,38.67482],[141.51069,38.67485]]],[[[141.56586,38.7383],[141.56586,38.73829],[141.56589,38.73829],[141.56589,38.73832],[141.56586,38.73832],[141.56586,38.7383]]]]},"properties":{"pref":"宮城県","county":"本吉郡","city":"南三陸町","code5":"04606","code6":"046060"}},
{"type":"Feature","geometry":{"type":"MultiPolygon","coordinates":[[[[140.58615,38.44053],[140.58063,38.43744],[140.5817,38.43344],[140.57831,38.42035],[140.57204,38.41516],[140.57453,38.39668],[140.57823,38.39296],[140.56757,38.38533],[140.56324,38.3772],[140.55258,38.37653],[140.5454,38.36407],[140.54086,38.36209],[140.53374,38.36209],[140.52631,38.35753],[140.52167,38.34967],[140.52511,38.33268],[140.53066,38.3252],[140.52974,38.3207],[140.52391,38.3168],[140.52028,38.30952],[140.51174,38.31116],[140.50431,38.31414],[140.50428,38.30807],[140.50069,38.30381],[140.49259,38.30269],[140.49253,38.29276],[140.49695,38.28314],[140.49199,38.28012],[140.48788,38.2745],[140.47301,38.27182],[140.47118,38.26936],[140.47281,38.2614],[140.4695,38.25641],[140.47253,38.25223],[140.47637,38.25139],[140.48116,38.2552],[140.49549,38.25665],[140.50164,38.25546],[140.50763,38.25933],[140.53409,38.2597],[140.54135,38.26383],[140.54834,38.26131],[140.5577,38.26681],[140.56257,38.26753],[140.58524,38.26316],[140.59418,38.26462],[140.60467,38.26339],[140.6079,38.26519],[140.62162,38.25857],[140.63013,38.25825],[140.65,38.24884],[140.65066,38.24038],[140.6624,38.23878],[140.66681,38.23967],[140.67709,38.23279],[140.68312,38.22598],[140.69189,38.22291],[140.69831,38.22299],[140.70233,38.22],[140.72228,38.21655],[140.73056,38.21189],[140.73573,38.21071],[140.74188,38.19973],[140.74367,38.18287],[140.7497,38.17904],[140.75671,38.17671],[140.7765,38.1795],[140.78652,38.17728],[140.79197,38.1744],[140.79581,38.17532],[140.79675,38.18025],[140.80624,38.18536],[140.81326,38.1873],[140.79797,38.19464],[140.79389,38.20256],[140.78799,38.20237],[140.78393,38.21437],[140.78817,38.21805],[140.79774,38.21824],[140.79876,38.21251],[140.80635,38.21069],[140.81701,38.21874],[140.82669,38.21693],[140.83057,38.21394],[140.84484,38.2073],[140.86335,38.20195],[140.8596,38.19495],[140.86644,38.19121],[140.86699,38.18775],[140.87977,38.18896],[140.88832,38.18832],[140.89419,38.19037],[140.89995,38.18962],[140.89856,38.18474],[140.91515,38.18535],[140.91757,38.1837],[140.93349,38.18253],[140.93502,38.18634],[140.92798,38.19307],[140.93329,38.19765],[140.93591,38.19764],[140.9371,38.18929],[140.9415,38.18528],[140.94821,38.18308],[140.9514,38.17988],[140.96172,38.17422],[140.96134,38.17739],[140.96714,38.18972],[140.9812,38.21073],[140.98573,38.21532],[140.99532,38.22972],[141.01468,38.25393],[141.02228,38.26433],[141.02674,38.26758],[140.99851,38.26999],[141.00346,38.27386],[141.01214,38.27197],[141.02497,38.27107],[141.02852,38.28226],[141.02554,38.28314],[141.01288,38.2764],[140.99573,38.28299],[140.98868,38.28418],[140.97587,38.2836],[140.97091,38.28604],[140.96351,38.28594],[140.95645,38.29625],[140.95984,38.30605],[140.9627,38.3096],[140.95357,38.30848],[140.94269,38.31219],[140.93641,38.31689],[140.93686,38.33172],[140.93954,38.33535],[140.93415,38.3408],[140.92654,38.33777],[140.92726,38.33309],[140.91063,38.33417],[140.90339,38.33692],[140.90086,38.34087],[140.88246,38.34917],[140.87898,38.3555],[140.87062,38.36033],[140.86343,38.36202],[140.85467,38.36166],[140.85304,38.35873],[140.84516,38.35783],[140.84179,38.34857],[140.83412,38.347],[140.83144,38.3567],[140.83508,38.36008],[140.8282,38.36278],[140.82265,38.36263],[140.82681,38.36887],[140.82537,38.37494],[140.81692,38.38119],[140.80847,38.39212],[140.79965,38.39389],[140.78164,38.40204],[140.76893,38.4048],[140.75452,38.41143],[140.74354,38.41204],[140.74441,38.41559],[140.7381,38.42054],[140.73637,38.42412],[140.72669,38.4295],[140.72613,38.43249],[140.71624,38.43389],[140.71129,38.42483],[140.70275,38.41701],[140.69687,38.41564],[140.69798,38.42144],[140.69589,38.42529],[140.6825,38.42656],[140.67688,38.4308],[140.67055,38.43273],[140.65917,38.43221],[140.65177,38.43784],[140.64279,38.43687],[140.63295,38.4434],[140.62691,38.4436],[140.62585,38.44728],[140.61968,38.45469],[140.61258,38.4527],[140.60962,38.44644],[140.60443,38.44404],[140.59776,38.43653],[140.59236,38.44172],[140.58615,38.44053]]],[[[141.04346,38.27681],[141.03746,38.28292],[141.0322,38.28037],[141.03131,38.28071],[141.02957,38.27557],[141.04031,38.2727],[141.04346,38.27681]]]]},"properties":{"pref":"宮城県","city":"仙台市","code5":"04100","code6":"041009"}}
]}