{"type":"FeatureCollection", "features": [
{"type":"Feature","geometry":{"type":"Polygon","coordinates":[[[140.21591,39.86314],[140.20805,39.86503],[140.20045,39.86394],[140.19778,39.85979],[140.19904,39.85558],[140.19314,39.85161],[140.1926,39.8475],[140.18629,39.8483],[140.17519,39.84475],[140.16665,39.84469],[140.15525,39.84958],[140.14716,39.84469],[140.14055,39.84653],[140.1329,39.8449],[140.12456,39.84908],[140.11753,39.8507],[140.10797,39.84225],[140.09873,39.84113],[140.09352,39.83529],[140.08612,39.84547],[140.08088,39.8446],[140.07605,39.85049],[140.07765,39.85386],[140.07249,39.85751],[140.06634,39.85574],[140.06617,39.85041],[140.05946,39.8473],[140.05628,39.85158],[140.04921,39.84914],[140.04873,39.84459],[140.05493,39.82876],[140.05569,39.80704],[140.03404,39.80449],[140.03732,39.79634],[140.03845,39.7886],[140.04234,39.78285],[140.03339,39.78103],[140.03663,39.77142],[140.04082,39.76843],[140.03821,39.7648],[140.04608,39.7635],[140.04284,39.77284],[140.04932,39.7741],[140.04818,39.76797],[140.05074,39.76124],[140.04744,39.75711],[140.049,39.75195],[140.04628,39.7495],[140.04853,39.74067],[140.05404,39.73887],[140.05515,39.7323],[140.05776,39.7296],[140.05925,39.72066],[140.0598,39.69834],[140.06193,39.67569],[140.06298,39.65442],[140.0627,39.63541],[140.06107,39.61072],[140.05966,39.59779],[140.0681,39.5983],[140.07565,39.59479],[140.07765,39.58802],[140.08667,39.57995],[140.09921,39.58599],[140.10906,39.5844],[140.10794,39.58201],[140.11275,39.57727],[140.12204,39.57607],[140.12263,39.57033],[140.13809,39.56858],[140.14857,39.57037],[140.15949,39.55859],[140.16096,39.55178],[140.16739,39.54799],[140.16495,39.54256],[140.15613,39.5378],[140.16826,39.53265],[140.17121,39.53483],[140.18586,39.53842],[140.18861,39.53406],[140.18524,39.52841],[140.18403,39.52139],[140.17948,39.52022],[140.18098,39.51574],[140.17811,39.51244],[140.181,39.50365],[140.18701,39.50324],[140.19823,39.49744],[140.21142,39.49571],[140.21571,39.49798],[140.21979,39.49382],[140.22887,39.49056],[140.22231,39.48733],[140.22079,39.4816],[140.22291,39.4743],[140.223,39.46754],[140.23242,39.47001],[140.2392,39.46695],[140.23442,39.46003],[140.24055,39.45467],[140.24983,39.45421],[140.25881,39.44888],[140.26191,39.45178],[140.26897,39.44957],[140.2789,39.451],[140.28181,39.45546],[140.28142,39.46765],[140.2764,39.47488],[140.27113,39.47869],[140.26609,39.48555],[140.27539,39.49186],[140.27064,39.49448],[140.26847,39.49909],[140.27046,39.50371],[140.26535,39.5073],[140.26312,39.51208],[140.25224,39.51326],[140.24886,39.51943],[140.24699,39.52956],[140.24673,39.53845],[140.24149,39.54389],[140.2282,39.54349],[140.22731,39.54793],[140.23274,39.5509],[140.23297,39.55999],[140.23944,39.56259],[140.24108,39.57056],[140.24349,39.57315],[140.25438,39.57543],[140.25618,39.57801],[140.25435,39.58699],[140.25804,39.59342],[140.26197,39.59413],[140.26815,39.60155],[140.26756,39.60985],[140.27693,39.61572],[140.27749,39.62195],[140.28418,39.62515],[140.2857,39.63714],[140.28437,39.64054],[140.27153,39.63976],[140.26726,39.64443],[140.27083,39.65351],[140.28606,39.65401],[140.2922,39.65544],[140.29529,39.64881],[140.30905,39.6476],[140.31033,39.65563],[140.30789,39.65885],[140.30661,39.66741],[140.31119,39.67287],[140.3223,39.67634],[140.32553,39.6806],[140.33826,39.67645],[140.34347,39.67674],[140.34215,39.68365],[140.34771,39.69129],[140.35273,39.69079],[140.35897,39.69457],[140.36401,39.69515],[140.37235,39.69291],[140.38294,39.69628],[140.38544,39.69917],[140.39242,39.69992],[140.39533,39.70441],[140.40699,39.70686],[140.41417,39.71451],[140.41928,39.71506],[140.4309,39.71047],[140.43229,39.70748],[140.44712,39.70514],[140.46091,39.71137],[140.46305,39.71098],[140.47478,39.7169],[140.48326,39.71754],[140.49228,39.72358],[140.49649,39.72373],[140.5032,39.72622],[140.50879,39.7325],[140.5087,39.74043],[140.51561,39.74779],[140.51018,39.75467],[140.50628,39.76791],[140.50373,39.77174],[140.49772,39.7739],[140.49007,39.78074],[140.48351,39.79441],[140.48037,39.79653],[140.47535,39.79565],[140.46724,39.8103],[140.46079,39.81518],[140.45987,39.82246],[140.45236,39.82447],[140.4446,39.82214],[140.43123,39.82027],[140.43079,39.82409],[140.42443,39.82502],[140.41663,39.8287],[140.40399,39.82912],[140.40078,39.83485],[140.39395,39.83334],[140.39069,39.83504],[140.37863,39.83397],[140.37221,39.83582],[140.36358,39.82789],[140.35568,39.82622],[140.34678,39.81589],[140.34914,39.81148],[140.3404,39.80458],[140.32539,39.79988],[140.32056,39.79648],[140.31093,39.79718],[140.31439,39.80752],[140.31358,39.81317],[140.30864,39.81674],[140.31068,39.82031],[140.30673,39.82994],[140.29646,39.83295],[140.28817,39.83077],[140.28178,39.83497],[140.27377,39.82738],[140.26602,39.82776],[140.25889,39.83001],[140.25072,39.82757],[140.24295,39.83193],[140.23931,39.83898],[140.23379,39.84156],[140.22659,39.85355],[140.22266,39.85501],[140.22272,39.86097],[140.21591,39.86314]]]},"properties":{"pref":"秋田県","city":"秋田市","code5":"05201","code6":"052019"}},
{"type":"Feature","geometry":{"type":"Polygon","coordinates":[[[140.15617,40.37411],[140.15073,40.37425],[140.15232,40.36791],[140.15046,40.35779],[140.14535,40.34885],[140.13793,40.34278],[140.13487,40.33786],[140.13567,40.32975],[140.14069,40.32415],[140.1347,40.31575],[140.13588,40.30719],[140.1329,40.30429],[140.13703,40.30106],[140.14161,40.29388],[140.13426,40.28782],[140.1386,40.28193],[140.1339,40.27073],[140.13457,40.26588],[140.13128,40.26169],[140.1232,40.26099],[140.10308,40.25646],[140.09866,40.25171],[140.09253,40.25236],[140.0924,40.25722],[140.08334,40.25969],[140.08349,40.2548],[140.07911,40.25428],[140.07582,40.26401],[140.06725,40.26414],[140.06685,40.26905],[140.04717,40.27003],[140.04117,40.27507],[140.03347,40.27096],[140.02972,40.26307],[140.01566,40.26446],[140.01086,40.24457],[140.0069,40.23628],[140.00781,40.23433],[140.0049,40.22448],[140.00077,40.22019],[140.00522,40.21137],[139.99783,40.21004],[139.99499,40.19925],[139.98842,40.20021],[139.98397,40.18353],[139.99211,40.18225],[139.99215,40.17579],[139.98094,40.14463],[139.97258,40.12514],[139.98145,40.12378],[140.00669,40.12224],[140.01896,40.12579],[140.02634,40.12494],[140.02634,40.13265],[140.03162,40.13681],[140.04137,40.15348],[140.04805,40.14955],[140.06845,40.15727],[140.0864,40.14837],[140.09312,40.14968],[140.09791,40.14603],[140.10871,40.14267],[140.11283,40.13563],[140.12133,40.12899],[140.13365,40.13199],[140.14562,40.12773],[140.15518,40.12786],[140.16172,40.13156],[140.17813,40.13199],[140.18821,40.12888],[140.1846,40.123],[140.18472,40.11823],[140.17716,40.11209],[140.17703,40.10546],[140.17469,40.09785],[140.18173,40.09378],[140.18488,40.08607],[140.18436,40.08251],[140.19312,40.08056],[140.19008,40.0676],[140.19978,40.06777],[140.2066,40.07059],[140.21489,40.06923],[140.2162,40.06068],[140.23034,40.04937],[140.23667,40.0475],[140.24241,40.05174],[140.23939,40.05533],[140.24038,40.06046],[140.2502,40.06345],[140.25005,40.0688],[140.25423,40.07135],[140.25116,40.0726],[140.2544,40.0805],[140.25456,40.08617],[140.24685,40.08869],[140.24777,40.09282],[140.25297,40.09705],[140.25012,40.09921],[140.24293,40.11187],[140.24769,40.11741],[140.24704,40.12631],[140.25027,40.13156],[140.24796,40.13472],[140.24979,40.14253],[140.25246,40.14296],[140.25654,40.15212],[140.25731,40.15777],[140.25454,40.16056],[140.25302,40.16881],[140.2549,40.18289],[140.26091,40.18469],[140.26582,40.18349],[140.27095,40.18878],[140.2735,40.19633],[140.28303,40.19522],[140.28952,40.19814],[140.29487,40.19801],[140.2994,40.20119],[140.29937,40.20524],[140.29195,40.20629],[140.28634,40.21042],[140.27315,40.21174],[140.2786,40.21478],[140.28286,40.22458],[140.27353,40.23599],[140.27601,40.24171],[140.2718,40.24475],[140.25872,40.24281],[140.25235,40.2403],[140.24465,40.24589],[140.2357,40.24917],[140.23195,40.24775],[140.22622,40.25417],[140.21914,40.25871],[140.22262,40.26727],[140.21298,40.26867],[140.21105,40.27419],[140.21621,40.2759],[140.21763,40.28478],[140.21377,40.28709],[140.21347,40.29755],[140.20446,40.2973],[140.20161,40.30186],[140.20187,40.31285],[140.19499,40.31977],[140.19546,40.339],[140.19775,40.34243],[140.19351,40.35023],[140.1829,40.35598],[140.17513,40.36202],[140.17179,40.36109],[140.16768,40.36966],[140.15617,40.37411]]]},"properties":{"pref":"秋田県","city":"能代市","code5":"05202","code6":"052027"}},
{"type":"Feature","geometry":{"type":"Polygon","coordinates":[[[140.65617,39.38915],[140.65345,39.38588],[140.64431,39.3837],[140.64333,39.38163],[140.63209,39.37862],[140.6304,39.37259],[140.62726,39.37106],[140.61751,39.37442],[140.61567,39.38004],[140.61134,39.3812],[140.59968,39.37572],[140.59528,39.37821],[140.57229,39.38031],[140.57047,39.37671],[140.55499,39.37604],[140.55139,39.3715],[140.55024,39.36062],[140.54826,39.35698],[140.53972,39.36373],[140.53066,39.36289],[140.53333,39.35648],[140.54009,39.35454],[140.54007,39.35135],[140.53018,39.35326],[140.52613,39.35757],[140.51258,39.3625],[140.50784,39.36952],[140.50139,39.37295],[140.4979,39.3783],[140.49196,39.37884],[140.48938,39.38345],[140.48108,39.37546],[140.474,39.37345],[140.46826,39.36514],[140.46098,39.36571],[140.46245,39.3772],[140.46165,39.38573],[140.46261,39.39232],[140.46681,39.40194],[140.46104,39.40419],[140.46122,39.40917],[140.44957,39.40596],[140.44778,39.40894],[140.44001,39.40901],[140.42979,39.40631],[140.42377,39.40002],[140.41397,39.39987],[140.4114,39.39757],[140.4013,39.39629],[140.39009,39.39864],[140.38478,39.39809],[140.38283,39.3946],[140.38957,39.38635],[140.38748,39.38429],[140.37864,39.38624],[140.3696,39.38548],[140.3648,39.39099],[140.36378,39.39615],[140.35661,39.39559],[140.34573,39.38996],[140.34345,39.38128],[140.34004,39.37778],[140.33202,39.37557],[140.32474,39.3777],[140.32019,39.38259],[140.31194,39.37873],[140.30746,39.38012],[140.29737,39.37893],[140.29078,39.37663],[140.27645,39.37494],[140.27015,39.37668],[140.26417,39.37364],[140.2675,39.37031],[140.27005,39.36114],[140.26886,39.35596],[140.28085,39.35767],[140.28419,39.35483],[140.29849,39.35464],[140.30033,39.34863],[140.31064,39.34757],[140.31591,39.34971],[140.32087,39.3445],[140.32812,39.34139],[140.33007,39.33578],[140.32662,39.33233],[140.33381,39.32501],[140.3405,39.32745],[140.34204,39.31745],[140.34056,39.31245],[140.35206,39.30559],[140.35409,39.2956],[140.34231,39.29517],[140.33948,39.29142],[140.33969,39.28104],[140.33311,39.27374],[140.32945,39.26503],[140.32987,39.26148],[140.3402,39.25919],[140.34158,39.25424],[140.34676,39.25049],[140.36188,39.26039],[140.37405,39.26209],[140.3795,39.25946],[140.4017,39.26014],[140.40179,39.25618],[140.41006,39.25151],[140.41203,39.24783],[140.42529,39.24256],[140.42144,39.23962],[140.42203,39.23035],[140.42623,39.23024],[140.43016,39.2252],[140.4418,39.22575],[140.44223,39.21954],[140.4456,39.21632],[140.45726,39.2184],[140.4676,39.21764],[140.49208,39.21007],[140.50872,39.21059],[140.52574,39.20196],[140.52879,39.19741],[140.52225,39.19485],[140.52138,39.18853],[140.52571,39.17839],[140.53551,39.17296],[140.5449,39.18034],[140.54294,39.18944],[140.55995,39.1896],[140.56804,39.19353],[140.57468,39.19247],[140.58837,39.18738],[140.59413,39.18352],[140.60033,39.18399],[140.60719,39.17182],[140.60882,39.16305],[140.61438,39.16024],[140.6159,39.1528],[140.61013,39.14977],[140.61235,39.14047],[140.61705,39.13813],[140.61321,39.13291],[140.61163,39.1263],[140.61627,39.12151],[140.62171,39.12124],[140.62526,39.11218],[140.63066,39.10525],[140.63581,39.10734],[140.64499,39.10665],[140.65123,39.09929],[140.66306,39.09828],[140.67632,39.09337],[140.68213,39.09246],[140.68711,39.09977],[140.69031,39.10787],[140.68167,39.12911],[140.6856,39.13222],[140.68784,39.13881],[140.6789,39.14869],[140.66945,39.14889],[140.66468,39.15385],[140.65583,39.14723],[140.64963,39.14464],[140.64235,39.14844],[140.63987,39.15167],[140.64346,39.15619],[140.63639,39.17351],[140.62142,39.18555],[140.62286,39.19166],[140.62654,39.19588],[140.63738,39.19447],[140.63989,39.20143],[140.63854,39.20466],[140.64704,39.20675],[140.66072,39.2061],[140.66499,39.20927],[140.67562,39.20204],[140.67778,39.19874],[140.6916,39.18816],[140.69875,39.18676],[140.70929,39.18771],[140.71776,39.19064],[140.72221,39.1969],[140.72822,39.19948],[140.73664,39.19581],[140.7532,39.19833],[140.75977,39.20199],[140.76079,39.20589],[140.76662,39.20853],[140.76305,39.21323],[140.77047,39.22346],[140.77446,39.22315],[140.78762,39.22679],[140.78646,39.23456],[140.78866,39.23843],[140.77717,39.24157],[140.76892,39.25246],[140.75692,39.25504],[140.75135,39.26281],[140.74589,39.2615],[140.73306,39.26641],[140.72303,39.27217],[140.71783,39.27261],[140.71733,39.29651],[140.70849,39.29694],[140.70235,39.30013],[140.69359,39.29959],[140.69289,39.30305],[140.69723,39.31029],[140.69287,39.31344],[140.69404,39.31976],[140.69752,39.32176],[140.69859,39.32843],[140.70918,39.32988],[140.70324,39.34359],[140.68845,39.34752],[140.68798,39.35118],[140.69295,39.35812],[140.68841,39.35933],[140.67564,39.36834],[140.6781,39.37308],[140.67897,39.38318],[140.67543,39.3858],[140.6655,39.3843],[140.65617,39.38915]]]},"properties":{"pref":"秋田県","city":"横手市","code5":"05203","code6":"052035"}},
{"type":"Feature","geometry":{"type":"Polygon","coordinates":[[[140.34781,40.46755],[140.34337,40.46166],[140.34378,40.4522],[140.33915,40.44114],[140.33522,40.43938],[140.33571,40.43333],[140.3334,40.42732],[140.33641,40.4242],[140.33268,40.41968],[140.33654,40.41173],[140.33651,40.40572],[140.33316,40.4032],[140.33481,40.39311],[140.33442,40.38576],[140.33776,40.38341],[140.33828,40.37846],[140.35028,40.3734],[140.35643,40.36656],[140.35348,40.36124],[140.35315,40.35489],[140.35911,40.35194],[140.36692,40.35162],[140.36761,40.34852],[140.37535,40.34393],[140.3749,40.33574],[140.37679,40.32067],[140.38408,40.31397],[140.38325,40.30893],[140.3933,40.29956],[140.39377,40.29514],[140.40174,40.28779],[140.40468,40.28054],[140.40881,40.27891],[140.41615,40.27156],[140.41099,40.26724],[140.41447,40.25752],[140.42044,40.25433],[140.44384,40.25745],[140.44666,40.25648],[140.44821,40.24776],[140.45916,40.24202],[140.47152,40.24108],[140.47225,40.23303],[140.46919,40.22889],[140.4684,40.22254],[140.47404,40.21826],[140.48491,40.21389],[140.48713,40.20191],[140.48026,40.19611],[140.4795,40.19158],[140.48459,40.18764],[140.48814,40.17849],[140.49513,40.17402],[140.48968,40.16785],[140.50202,40.1645],[140.50161,40.16034],[140.49623,40.15389],[140.50766,40.15484],[140.51685,40.15087],[140.51925,40.14744],[140.53072,40.15185],[140.53511,40.15836],[140.53853,40.15939],[140.54497,40.1536],[140.54319,40.15042],[140.54348,40.14296],[140.54935,40.14202],[140.55296,40.13495],[140.56093,40.13487],[140.59022,40.12959],[140.59746,40.12291],[140.60107,40.12204],[140.60149,40.11152],[140.59881,40.10003],[140.6015,40.09638],[140.60006,40.08736],[140.60617,40.0871],[140.61651,40.08036],[140.62787,40.08788],[140.63732,40.09121],[140.63961,40.08499],[140.64955,40.08758],[140.66175,40.08287],[140.66624,40.07459],[140.67471,40.07377],[140.67966,40.07493],[140.68987,40.07025],[140.68962,40.05932],[140.69712,40.04838],[140.69823,40.05289],[140.70582,40.05967],[140.70622,40.0634],[140.71113,40.06821],[140.71165,40.07441],[140.71686,40.07833],[140.71455,40.08683],[140.71671,40.09155],[140.71526,40.09612],[140.71645,40.11167],[140.72377,40.11918],[140.72134,40.12771],[140.72289,40.12969],[140.73607,40.13276],[140.73662,40.13776],[140.74358,40.14704],[140.7442,40.15136],[140.73802,40.15371],[140.7276,40.15318],[140.72335,40.15672],[140.71313,40.1551],[140.71023,40.16123],[140.70417,40.16104],[140.70316,40.17084],[140.69905,40.17864],[140.70112,40.19412],[140.71671,40.19273],[140.72601,40.18928],[140.72912,40.19385],[140.72623,40.20198],[140.71056,40.22547],[140.72424,40.22568],[140.72451,40.2392],[140.726,40.24802],[140.72094,40.25222],[140.72684,40.25533],[140.72208,40.2595],[140.72276,40.26555],[140.72581,40.27131],[140.7189,40.27952],[140.72256,40.28769],[140.72549,40.28882],[140.7185,40.30342],[140.71361,40.30838],[140.7135,40.3154],[140.71141,40.32083],[140.71978,40.32456],[140.72081,40.33148],[140.71803,40.33633],[140.71154,40.341],[140.70904,40.34945],[140.70173,40.35049],[140.70446,40.35448],[140.70275,40.36037],[140.69781,40.36283],[140.69266,40.37026],[140.68353,40.3726],[140.68256,40.38252],[140.67715,40.38652],[140.67784,40.39123],[140.6754,40.40057],[140.67587,40.41288],[140.66645,40.41159],[140.66429,40.40687],[140.65369,40.4036],[140.64523,40.40309],[140.64104,40.40518],[140.63248,40.40386],[140.63629,40.40948],[140.63293,40.41771],[140.62361,40.42452],[140.61204,40.42368],[140.60589,40.426],[140.60359,40.42992],[140.59446,40.4351],[140.58973,40.43611],[140.58871,40.4302],[140.57561,40.42892],[140.5741,40.42614],[140.55764,40.42569],[140.55321,40.41998],[140.55936,40.41134],[140.56597,40.40647],[140.56707,40.39864],[140.55915,40.39706],[140.54735,40.40391],[140.54078,40.40268],[140.53589,40.40952],[140.53218,40.41128],[140.52381,40.41021],[140.52439,40.41895],[140.52981,40.42026],[140.53081,40.42671],[140.52788,40.43133],[140.51883,40.43079],[140.50845,40.42853],[140.50257,40.43145],[140.49801,40.43645],[140.48516,40.44087],[140.48432,40.44622],[140.47765,40.45307],[140.46589,40.45398],[140.45941,40.45645],[140.44382,40.45063],[140.43755,40.45527],[140.43702,40.46547],[140.43346,40.4677],[140.43385,40.47273],[140.43721,40.47826],[140.42708,40.48259],[140.4175,40.47995],[140.40612,40.47464],[140.39672,40.47823],[140.39567,40.48204],[140.38696,40.48706],[140.38375,40.48513],[140.37795,40.47654],[140.37258,40.47619],[140.3613,40.47839],[140.34781,40.46755]]]},"properties":{"pref":"秋田県","city":"大館市","code5":"05204","code6":"052043"}},
{"type":"Feature","geometry":{"type":"MultiPolygon","coordinates":[[[[139.94537,40.07303],[139.92377,40.0411],[139.90183,40.01584],[139.8852,39.99949],[139.87274,39.98877],[139.85898,39.9793],[139.84515,39.97094],[139.83145,39.96471],[139.80945,39.95783],[139.79774,39.9568],[139.78601,39.96085],[139.783,39.96713],[139.77107,39.97019],[139.76572,39.97487],[139.74068,39.97904],[139.73429,39.98387],[139.72815,39.98111],[139.72347,39.98163],[139.71629,39.98728],[139.71319,39.99345],[139.70504,40.00409],[139.70503,40.00412],[139.70177,40.0068],[139.69572,39.99934],[139.69775,39.99637],[139.69585,39.98797],[139.69638,39.9835],[139.69634,39.98344],[139.69623,39.98271],[139.69524,39.98231],[139.69479,39.98218],[139.69518,39.98178],[139.69494,39.981],[139.69487,39.98086],[139.69473,39.98079],[139.69472,39.98075],[139.69475,39.98078],[139.69458,39.97926],[139.69708,39.97796],[139.7014,39.97623],[139.70111,39.97423],[139.70109,39.97404],[139.7011,39.97403],[139.70125,39.97391],[139.70061,39.97283],[139.70061,39.9728],[139.70067,39.97281],[139.70149,39.97202],[139.70127,39.97032],[139.70124,39.97033],[139.70069,39.96983],[139.70144,39.96211],[139.70619,39.95911],[139.70619,39.95865],[139.71442,39.96044],[139.72117,39.95427],[139.71907,39.94615],[139.71224,39.94655],[139.70201,39.94247],[139.70519,39.94037],[139.70544,39.94025],[139.70621,39.93878],[139.70617,39.93876],[139.70606,39.93545],[139.705,39.93402],[139.7063,39.93353],[139.707,39.93053],[139.70698,39.93055],[139.70618,39.92827],[139.70745,39.92841],[139.70986,39.92752],[139.7106,39.92325],[139.71864,39.91293],[139.71844,39.9097],[139.72534,39.90762],[139.72837,39.91002],[139.73492,39.90535],[139.73409,39.89657],[139.73613,39.89386],[139.7374,39.87983],[139.74098,39.87686],[139.74061,39.87136],[139.7469,39.86553],[139.75517,39.86321],[139.75527,39.85766],[139.75642,39.85768],[139.76007,39.85904],[139.76009,39.85905],[139.76086,39.86043],[139.76517,39.86254],[139.7663,39.86295],[139.76974,39.86403],[139.77449,39.86031],[139.77919,39.86456],[139.79485,39.86752],[139.80055,39.86523],[139.80862,39.8586],[139.81482,39.85734],[139.82117,39.85874],[139.82161,39.86365],[139.83077,39.86893],[139.83788,39.86664],[139.83795,39.86296],[139.84965,39.86342],[139.86125,39.86633],[139.85875,39.87231],[139.85158,39.87062],[139.84721,39.87748],[139.85949,39.88535],[139.85314,39.88705],[139.85971,39.89451],[139.86373,39.89048],[139.85871,39.89565],[139.86607,39.89761],[139.88316,39.8995],[139.89152,39.89895],[139.89752,39.9023],[139.91323,39.90174],[139.92492,39.8995],[139.9504,39.88981],[139.96789,39.88],[139.96799,39.88461],[139.95368,39.89789],[139.9608,39.90503],[139.96288,39.90911],[139.96312,39.92106],[139.97633,39.92781],[139.94747,39.94219],[139.9414,39.94602],[139.92621,39.95299],[139.92244,39.9588],[139.93347,39.99024],[139.93623,39.99514],[139.94302,40.00152],[139.94183,40.00786],[139.93658,40.01039],[139.93033,40.0233],[139.93583,40.03098],[139.9507,40.03627],[139.95364,40.04333],[139.95921,40.05031],[139.96204,40.05752],[139.95318,40.0616],[139.95803,40.0663],[139.95732,40.07002],[139.94537,40.07303]]],[[[139.69835,40.01623],[139.69684,40.01441],[139.69686,40.01441],[139.69801,40.01344],[139.70116,40.013],[139.69835,40.01623]]],[[[139.70102,39.9707],[139.70098,39.97063],[139.7011,39.97067],[139.70102,39.9707]]],[[[139.70301,39.93405],[139.703,39.93398],[139.70302,39.93404],[139.70301,39.93405]]]]},"properties":{"pref":"秋田県","city":"男鹿市","code5":"05206","code6":"052060"}},
{"type":"Feature","geometry":{"type":"Polygon","coordinates":[[[140.75563,38.95821],[140.7499,38.96603],[140.73282,38.98],[140.72681,38.98585],[140.72339,38.98634],[140.71567,38.99559],[140.71872,39.00551],[140.70921,39.01197],[140.7029,39.01253],[140.70071,39.01792],[140.70502,39.02054],[140.70723,39.02562],[140.70263,39.02713],[140.70768,39.0337],[140.70569,39.05004],[140.69351,39.0572],[140.69011,39.06332],[140.68357,39.06528],[140.68698,39.08488],[140.68213,39.09246],[140.67632,39.09337],[140.66306,39.09828],[140.65123,39.09929],[140.64499,39.10665],[140.63581,39.10734],[140.63066,39.10525],[140.62526,39.11218],[140.62171,39.12124],[140.61627,39.12151],[140.61163,39.1263],[140.61321,39.13291],[140.61705,39.13813],[140.61235,39.14047],[140.61013,39.14977],[140.6159,39.1528],[140.61438,39.16024],[140.60882,39.16305],[140.60719,39.17182],[140.60033,39.18399],[140.59413,39.18352],[140.58837,39.18738],[140.57468,39.19247],[140.56804,39.19353],[140.55995,39.1896],[140.54294,39.18944],[140.5449,39.18034],[140.53551,39.17296],[140.52571,39.17839],[140.52138,39.18853],[140.52225,39.19485],[140.52879,39.19741],[140.52574,39.20196],[140.50872,39.21059],[140.49208,39.21007],[140.4676,39.21764],[140.45726,39.2184],[140.4456,39.21632],[140.44265,39.21119],[140.44404,39.20492],[140.44997,39.19064],[140.45896,39.17986],[140.4602,39.17551],[140.44619,39.1636],[140.43816,39.16939],[140.43106,39.1636],[140.42748,39.14617],[140.41849,39.13663],[140.41066,39.13705],[140.40662,39.13263],[140.40737,39.12262],[140.40418,39.1211],[140.39268,39.10503],[140.37822,39.10023],[140.36612,39.09849],[140.36528,39.09353],[140.3577,39.09282],[140.35391,39.08486],[140.34501,39.08236],[140.34194,39.0836],[140.34327,39.07387],[140.33373,39.0645],[140.33518,39.05523],[140.34135,39.05074],[140.34272,39.04562],[140.33204,39.04026],[140.3291,39.0348],[140.33206,39.03059],[140.33938,39.02891],[140.34425,39.02582],[140.35417,39.02385],[140.36143,39.02438],[140.36403,39.0095],[140.37052,39.00432],[140.37458,38.99571],[140.38696,38.99441],[140.39409,38.99128],[140.40532,38.99174],[140.41084,38.99385],[140.41387,38.99004],[140.42058,38.99234],[140.43186,38.9919],[140.43774,38.98209],[140.44553,38.98041],[140.44644,38.97311],[140.45123,38.97177],[140.44983,38.96332],[140.45369,38.95859],[140.45355,38.95181],[140.44958,38.9456],[140.45172,38.9375],[140.45831,38.93388],[140.46197,38.92538],[140.46171,38.92036],[140.46664,38.91636],[140.47985,38.91468],[140.49226,38.90649],[140.49229,38.90221],[140.49432,38.899],[140.49978,38.89506],[140.50521,38.89494],[140.51582,38.90036],[140.52424,38.89963],[140.526,38.89745],[140.5355,38.90072],[140.54747,38.89107],[140.54712,38.88921],[140.55306,38.88281],[140.55426,38.87621],[140.56217,38.87316],[140.56979,38.87478],[140.57287,38.87844],[140.59315,38.887],[140.59868,38.88517],[140.60714,38.8866],[140.60955,38.89243],[140.61564,38.8937],[140.62036,38.89039],[140.63,38.88928],[140.64034,38.8839],[140.64501,38.88863],[140.66047,38.89422],[140.67111,38.89713],[140.67302,38.90361],[140.67908,38.9082],[140.68018,38.91333],[140.68565,38.9176],[140.69416,38.91955],[140.70039,38.92382],[140.70739,38.92036],[140.72334,38.93437],[140.72322,38.93752],[140.73209,38.94927],[140.74331,38.95368],[140.74525,38.95637],[140.75563,38.95821]]]},"properties":{"pref":"秋田県","city":"湯沢市","code5":"05207","code6":"052078"}},
{"type":"Feature","geometry":{"type":"Polygon","coordinates":[[[140.92677,40.42111],[140.92148,40.42019],[140.92077,40.41606],[140.90385,40.41331],[140.90033,40.41506],[140.89179,40.41148],[140.88896,40.40849],[140.86388,40.40624],[140.85206,40.40975],[140.84874,40.41444],[140.84641,40.42193],[140.84191,40.42562],[140.82826,40.42089],[140.82676,40.41078],[140.81769,40.4012],[140.82084,40.39693],[140.82157,40.3883],[140.82376,40.3851],[140.81777,40.38036],[140.81447,40.3732],[140.81045,40.37014],[140.81063,40.36576],[140.80422,40.35954],[140.78694,40.3552],[140.79264,40.35061],[140.78818,40.34125],[140.78949,40.33682],[140.78577,40.33313],[140.79302,40.32422],[140.78726,40.31859],[140.77889,40.3163],[140.78039,40.32295],[140.77468,40.32317],[140.77237,40.31855],[140.77571,40.31257],[140.76927,40.30295],[140.77331,40.29724],[140.76866,40.29041],[140.76718,40.28427],[140.75904,40.28379],[140.75397,40.29188],[140.74595,40.28236],[140.72549,40.28882],[140.72256,40.28769],[140.7189,40.27952],[140.72581,40.27131],[140.72276,40.26555],[140.72208,40.2595],[140.72684,40.25533],[140.72094,40.25222],[140.726,40.24802],[140.72451,40.2392],[140.72424,40.22568],[140.71056,40.22547],[140.72623,40.20198],[140.72912,40.19385],[140.72601,40.18928],[140.71671,40.19273],[140.70112,40.19412],[140.69905,40.17864],[140.70316,40.17084],[140.70417,40.16104],[140.71023,40.16123],[140.71313,40.1551],[140.72335,40.15672],[140.7276,40.15318],[140.73802,40.15371],[140.7442,40.15136],[140.74358,40.14704],[140.73662,40.13776],[140.73607,40.13276],[140.72289,40.12969],[140.72134,40.12771],[140.72377,40.11918],[140.71645,40.11167],[140.71526,40.09612],[140.71671,40.09155],[140.71455,40.08683],[140.71686,40.07833],[140.71165,40.07441],[140.71113,40.06821],[140.70622,40.0634],[140.70582,40.05967],[140.69823,40.05289],[140.69712,40.04838],[140.70013,40.03266],[140.70644,40.02833],[140.70677,40.0253],[140.71338,40.02232],[140.71548,40.01822],[140.72106,40.01695],[140.72424,40.01202],[140.73258,40.00939],[140.73216,39.99981],[140.73851,39.99719],[140.7455,39.98816],[140.7495,39.98811],[140.75508,39.98133],[140.75065,39.97775],[140.7512,39.97171],[140.75682,39.96958],[140.75672,39.96403],[140.76352,39.9623],[140.77033,39.96496],[140.78133,39.96407],[140.79254,39.97067],[140.80137,39.96961],[140.80336,39.97334],[140.81177,39.97578],[140.81977,39.97173],[140.82653,39.97005],[140.832,39.96603],[140.83805,39.96541],[140.84794,39.95933],[140.84688,39.97617],[140.84815,39.98781],[140.85081,39.99375],[140.849,40.00807],[140.85547,40.01392],[140.85316,40.01841],[140.8556,40.02219],[140.85169,40.02573],[140.85041,40.03171],[140.85462,40.03622],[140.85537,40.0467],[140.85114,40.05342],[140.85097,40.0615],[140.84723,40.0652],[140.84448,40.07459],[140.85132,40.07785],[140.85164,40.08128],[140.85753,40.0862],[140.86331,40.08495],[140.87209,40.09117],[140.87733,40.09809],[140.87938,40.10572],[140.87867,40.11503],[140.8715,40.11581],[140.87404,40.12239],[140.8672,40.13063],[140.87454,40.1431],[140.88315,40.15358],[140.8824,40.159],[140.87548,40.16078],[140.86911,40.15948],[140.8615,40.16591],[140.85926,40.17158],[140.8685,40.17783],[140.87251,40.17828],[140.89236,40.19228],[140.88953,40.20054],[140.8983,40.20899],[140.89579,40.21365],[140.90426,40.21815],[140.90548,40.22214],[140.91776,40.22343],[140.92423,40.22587],[140.93411,40.22607],[140.94221,40.22869],[140.94009,40.24024],[140.94677,40.24695],[140.95507,40.24763],[140.94571,40.25807],[140.94727,40.26445],[140.95278,40.27125],[140.95428,40.27974],[140.95758,40.28204],[140.95239,40.28742],[140.9446,40.28814],[140.94397,40.29626],[140.9463,40.29913],[140.95342,40.30105],[140.95758,40.30651],[140.95729,40.31506],[140.95891,40.32162],[140.96258,40.32316],[140.96255,40.32817],[140.96856,40.33749],[140.96295,40.34669],[140.96539,40.35029],[140.97393,40.34414],[140.98122,40.34337],[140.99316,40.35229],[140.99524,40.35524],[140.99117,40.36734],[140.99501,40.37017],[140.9936,40.37697],[140.99045,40.37821],[140.98441,40.38843],[140.98728,40.39503],[140.98576,40.40319],[140.9814,40.40565],[140.98254,40.41204],[140.9797,40.41771],[140.98555,40.42171],[140.98517,40.42708],[140.97221,40.43085],[140.96188,40.42693],[140.95126,40.42631],[140.94195,40.4302],[140.93296,40.42127],[140.92677,40.42111]]]},"properties":{"pref":"秋田県","city":"鹿角市","code5":"05209","code6":"052094"}},
{"type":"Feature","geometry":{"type":"Polygon","coordinates":[[[140.05966,39.59779],[140.05613,39.56622],[140.05353,39.55932],[140.05386,39.55374],[140.04979,39.54195],[140.05077,39.53237],[140.04503,39.4987],[140.0336,39.45133],[140.02438,39.41526],[140.02152,39.40563],[140.01835,39.40135],[140.01507,39.39171],[140.01313,39.38114],[140.00497,39.35995],[139.99681,39.34221],[139.9929,39.33698],[139.98576,39.32201],[139.98012,39.31309],[139.99032,39.30681],[139.98992,39.30364],[139.99604,39.29623],[139.99571,39.28913],[140.00165,39.27749],[140.0139,39.26696],[140.02184,39.2692],[140.03796,39.25953],[140.0329,39.24952],[140.03895,39.2443],[140.042,39.23911],[140.05234,39.23388],[140.05836,39.2266],[140.05407,39.21193],[140.05288,39.19843],[140.05394,39.1938],[140.04563,39.18494],[140.04263,39.17452],[140.04757,39.17031],[140.0534,39.16828],[140.06388,39.16159],[140.06346,39.1503],[140.06595,39.14372],[140.06244,39.1335],[140.06146,39.11339],[140.06287,39.10694],[140.06714,39.09979],[140.06246,39.09289],[140.07351,39.08687],[140.08353,39.08511],[140.10272,39.0831],[140.1149,39.07778],[140.11686,39.06823],[140.12479,39.06384],[140.12984,39.063],[140.13743,39.06549],[140.14389,39.06134],[140.1508,39.04918],[140.1575,39.0491],[140.1625,39.05426],[140.17116,39.05103],[140.17492,39.05731],[140.18792,39.05857],[140.18877,39.06149],[140.20115,39.05968],[140.20477,39.0535],[140.2006,39.0357],[140.22193,39.03105],[140.2275,39.02706],[140.23686,39.02757],[140.24586,39.03077],[140.25288,39.02823],[140.25717,39.03319],[140.26211,39.03473],[140.26621,39.03129],[140.27029,39.03254],[140.28452,39.02809],[140.29206,39.0239],[140.29439,39.01811],[140.30216,39.0171],[140.31072,39.01359],[140.31868,39.02503],[140.3188,39.03126],[140.3291,39.0348],[140.33204,39.04026],[140.34272,39.04562],[140.34135,39.05074],[140.33518,39.05523],[140.33373,39.0645],[140.34327,39.07387],[140.34194,39.0836],[140.34097,39.08933],[140.33034,39.10052],[140.32178,39.09995],[140.31698,39.10148],[140.31587,39.10971],[140.31268,39.11631],[140.3045,39.1235],[140.30305,39.13356],[140.29628,39.13858],[140.29204,39.14553],[140.28164,39.151],[140.27968,39.1634],[140.27375,39.17149],[140.26626,39.17325],[140.26026,39.18101],[140.25678,39.18308],[140.25782,39.18811],[140.24892,39.19683],[140.23912,39.19363],[140.23369,39.1981],[140.23005,39.20368],[140.22974,39.21103],[140.22713,39.21555],[140.22179,39.21813],[140.22271,39.22688],[140.22968,39.22908],[140.23291,39.2255],[140.23775,39.22729],[140.24168,39.22491],[140.2484,39.22456],[140.25492,39.2313],[140.26062,39.23479],[140.2704,39.2375],[140.27044,39.24019],[140.28191,39.2403],[140.28413,39.24334],[140.29515,39.24492],[140.30157,39.24458],[140.30967,39.24807],[140.31261,39.2468],[140.32558,39.24801],[140.33146,39.24612],[140.33697,39.24888],[140.34118,39.24449],[140.34676,39.25049],[140.34158,39.25424],[140.3402,39.25919],[140.32987,39.26148],[140.32945,39.26503],[140.33311,39.27374],[140.33969,39.28104],[140.33948,39.29142],[140.34231,39.29517],[140.35409,39.2956],[140.35206,39.30559],[140.34056,39.31245],[140.34204,39.31745],[140.3405,39.32745],[140.33381,39.32501],[140.32662,39.33233],[140.33007,39.33578],[140.32812,39.34139],[140.32087,39.3445],[140.31591,39.34971],[140.31064,39.34757],[140.30033,39.34863],[140.29849,39.35464],[140.28419,39.35483],[140.28085,39.35767],[140.26886,39.35596],[140.27005,39.36114],[140.2675,39.37031],[140.26417,39.37364],[140.27015,39.37668],[140.27645,39.37494],[140.29078,39.37663],[140.29737,39.37893],[140.30746,39.38012],[140.31194,39.37873],[140.32019,39.38259],[140.31584,39.39041],[140.29785,39.39357],[140.28902,39.39403],[140.28824,39.39979],[140.29684,39.40039],[140.30475,39.40693],[140.30642,39.41664],[140.29886,39.42082],[140.29412,39.41981],[140.2785,39.42423],[140.26964,39.43446],[140.27176,39.43797],[140.26897,39.44957],[140.26191,39.45178],[140.25881,39.44888],[140.24983,39.45421],[140.24055,39.45467],[140.23442,39.46003],[140.2392,39.46695],[140.23242,39.47001],[140.223,39.46754],[140.22291,39.4743],[140.22079,39.4816],[140.22231,39.48733],[140.22887,39.49056],[140.21979,39.49382],[140.21571,39.49798],[140.21142,39.49571],[140.19823,39.49744],[140.18701,39.50324],[140.181,39.50365],[140.17811,39.51244],[140.18098,39.51574],[140.17948,39.52022],[140.18403,39.52139],[140.18524,39.52841],[140.18861,39.53406],[140.18586,39.53842],[140.17121,39.53483],[140.16826,39.53265],[140.15613,39.5378],[140.16495,39.54256],[140.16739,39.54799],[140.16096,39.55178],[140.15949,39.55859],[140.14857,39.57037],[140.13809,39.56858],[140.12263,39.57033],[140.12204,39.57607],[140.11275,39.57727],[140.10794,39.58201],[140.10906,39.5844],[140.09921,39.58599],[140.08667,39.57995],[140.07765,39.58802],[140.07565,39.59479],[140.0681,39.5983],[140.05966,39.59779]]]},"properties":{"pref":"秋田県","city":"由利本荘市","code5":"05210","code6":"052108"}},
{"type":"Feature","geometry":{"type":"Polygon","coordinates":[[[140.19778,39.85979],[140.18603,39.85438],[140.16955,39.85513],[140.16346,39.85779],[140.15407,39.86718],[140.14838,39.8645],[140.14287,39.86859],[140.13447,39.86576],[140.13045,39.86678],[140.12987,39.87138],[140.11563,39.87647],[140.11051,39.88511],[140.10643,39.88574],[140.10014,39.89515],[140.08736,39.90538],[140.06976,39.90444],[140.03354,39.90559],[140.016,39.91985],[140.01149,39.92035],[139.97633,39.92781],[139.96312,39.92106],[139.96288,39.90911],[139.9608,39.90503],[139.95368,39.89789],[139.96799,39.88461],[139.96789,39.88],[139.97949,39.87155],[139.99318,39.86021],[140.00416,39.84933],[140.01932,39.83061],[140.02886,39.8155],[140.03404,39.80449],[140.05569,39.80704],[140.05493,39.82876],[140.04873,39.84459],[140.04921,39.84914],[140.05628,39.85158],[140.05946,39.8473],[140.06617,39.85041],[140.06634,39.85574],[140.07249,39.85751],[140.07765,39.85386],[140.07605,39.85049],[140.08088,39.8446],[140.08612,39.84547],[140.09352,39.83529],[140.09873,39.84113],[140.10797,39.84225],[140.11753,39.8507],[140.12456,39.84908],[140.1329,39.8449],[140.14055,39.84653],[140.14716,39.84469],[140.15525,39.84958],[140.16665,39.84469],[140.17519,39.84475],[140.18629,39.8483],[140.1926,39.8475],[140.19314,39.85161],[140.19904,39.85558],[140.19778,39.85979]]]},"properties":{"pref":"秋田県","city":"潟上市","code5":"05211","code6":"052116"}},
{"type":"Feature","geometry":{"type":"Polygon","coordinates":[[[140.73036,39.56584],[140.7275,39.57537],[140.71986,39.57843],[140.71548,39.58265],[140.70801,39.58095],[140.70178,39.58357],[140.69519,39.58909],[140.68661,39.57781],[140.67348,39.57824],[140.66441,39.58298],[140.65502,39.579],[140.65097,39.58011],[140.63603,39.56949],[140.63111,39.57121],[140.62805,39.57574],[140.60907,39.5841],[140.60143,39.58611],[140.5954,39.57345],[140.58316,39.57555],[140.57633,39.5749],[140.55977,39.58417],[140.55317,39.58459],[140.55157,39.58129],[140.55349,39.57616],[140.55123,39.56999],[140.53971,39.56367],[140.54079,39.55802],[140.53502,39.55272],[140.52944,39.55098],[140.52697,39.55763],[140.51803,39.55611],[140.50705,39.55898],[140.49977,39.56901],[140.50254,39.57344],[140.49882,39.57768],[140.4995,39.58558],[140.49469,39.58869],[140.49251,39.59479],[140.48338,39.59442],[140.47672,39.59704],[140.46916,39.60234],[140.47131,39.60656],[140.46629,39.61115],[140.46404,39.6171],[140.46771,39.61878],[140.46852,39.63192],[140.4717,39.63832],[140.47337,39.64761],[140.47963,39.65658],[140.48832,39.66114],[140.49148,39.66518],[140.49535,39.68653],[140.50455,39.69255],[140.50045,39.69764],[140.49965,39.70403],[140.49669,39.70718],[140.49748,39.71159],[140.49443,39.71786],[140.49649,39.72373],[140.49228,39.72358],[140.48326,39.71754],[140.47478,39.7169],[140.46305,39.71098],[140.46091,39.71137],[140.44712,39.70514],[140.43229,39.70748],[140.4309,39.71047],[140.41928,39.71506],[140.41417,39.71451],[140.40699,39.70686],[140.39533,39.70441],[140.39242,39.69992],[140.38544,39.69917],[140.38294,39.69628],[140.37235,39.69291],[140.36401,39.69515],[140.35897,39.69457],[140.35273,39.69079],[140.34771,39.69129],[140.34215,39.68365],[140.34347,39.67674],[140.33826,39.67645],[140.32553,39.6806],[140.3223,39.67634],[140.31119,39.67287],[140.30661,39.66741],[140.30789,39.65885],[140.31033,39.65563],[140.30905,39.6476],[140.29529,39.64881],[140.2922,39.65544],[140.28606,39.65401],[140.27083,39.65351],[140.26726,39.64443],[140.27153,39.63976],[140.28437,39.64054],[140.2857,39.63714],[140.28418,39.62515],[140.27749,39.62195],[140.27693,39.61572],[140.26756,39.60985],[140.26815,39.60155],[140.26197,39.59413],[140.25804,39.59342],[140.25435,39.58699],[140.25618,39.57801],[140.25438,39.57543],[140.24349,39.57315],[140.24108,39.57056],[140.23944,39.56259],[140.23297,39.55999],[140.23274,39.5509],[140.22731,39.54793],[140.2282,39.54349],[140.24149,39.54389],[140.24673,39.53845],[140.24699,39.52956],[140.24886,39.51943],[140.25224,39.51326],[140.26312,39.51208],[140.26535,39.5073],[140.27046,39.50371],[140.26847,39.49909],[140.27064,39.49448],[140.27539,39.49186],[140.26609,39.48555],[140.27113,39.47869],[140.2764,39.47488],[140.28142,39.46765],[140.28181,39.45546],[140.2789,39.451],[140.26897,39.44957],[140.27176,39.43797],[140.26964,39.43446],[140.2785,39.42423],[140.29412,39.41981],[140.29886,39.42082],[140.30642,39.41664],[140.30475,39.40693],[140.29684,39.40039],[140.28824,39.39979],[140.28902,39.39403],[140.29785,39.39357],[140.31584,39.39041],[140.32019,39.38259],[140.32474,39.3777],[140.33202,39.37557],[140.34004,39.37778],[140.34345,39.38128],[140.34573,39.38996],[140.35661,39.39559],[140.36378,39.39615],[140.3648,39.39099],[140.3696,39.38548],[140.37864,39.38624],[140.38748,39.38429],[140.38957,39.38635],[140.38283,39.3946],[140.38478,39.39809],[140.39009,39.39864],[140.4013,39.39629],[140.4114,39.39757],[140.41397,39.39987],[140.42377,39.40002],[140.42979,39.40631],[140.44001,39.40901],[140.44778,39.40894],[140.44957,39.40596],[140.46122,39.40917],[140.46104,39.40419],[140.46681,39.40194],[140.46261,39.39232],[140.46165,39.38573],[140.46245,39.3772],[140.46098,39.36571],[140.46826,39.36514],[140.474,39.37345],[140.48108,39.37546],[140.48938,39.38345],[140.48708,39.38836],[140.48832,39.39536],[140.48444,39.39828],[140.48644,39.40206],[140.49362,39.39804],[140.49804,39.40217],[140.50332,39.39771],[140.51071,39.39795],[140.5101,39.4053],[140.50532,39.41504],[140.51422,39.4133],[140.5178,39.42146],[140.51065,39.43186],[140.51298,39.43711],[140.52192,39.43707],[140.52378,39.44121],[140.53238,39.44436],[140.53414,39.44756],[140.55799,39.45377],[140.55422,39.45813],[140.55517,39.46798],[140.55278,39.47062],[140.55749,39.4751],[140.56003,39.48346],[140.56454,39.48425],[140.57556,39.48266],[140.57551,39.47955],[140.58942,39.48169],[140.59177,39.48678],[140.59635,39.48889],[140.61588,39.4918],[140.62383,39.49534],[140.63916,39.49814],[140.64769,39.49753],[140.6506,39.4938],[140.66097,39.49448],[140.66711,39.48891],[140.66972,39.48998],[140.67834,39.48124],[140.69011,39.47906],[140.69815,39.46778],[140.71646,39.47854],[140.7244,39.48053],[140.7189,39.48499],[140.71327,39.49406],[140.71368,39.4992],[140.71977,39.5048],[140.7228,39.50407],[140.72465,39.51846],[140.73217,39.52239],[140.73656,39.52144],[140.73919,39.53349],[140.74136,39.53619],[140.73952,39.54685],[140.72915,39.55298],[140.72727,39.55897],[140.73036,39.56584]]]},"properties":{"pref":"秋田県","city":"大仙市","code5":"05212","code6":"052124"}},
{"type":"Feature","geometry":{"type":"Polygon","coordinates":[[[140.48037,39.79653],[140.48837,39.80529],[140.49153,39.8044],[140.50824,39.80977],[140.51268,39.81009],[140.51711,39.81656],[140.51376,39.83021],[140.51013,39.83484],[140.5096,39.83998],[140.51414,39.84657],[140.5236,39.8478],[140.52782,39.85042],[140.52882,39.8563],[140.53693,39.86111],[140.53583,39.87156],[140.53781,39.88113],[140.5464,39.88114],[140.55711,39.88401],[140.56113,39.88889],[140.56996,39.89406],[140.58263,39.89463],[140.58561,39.8905],[140.59071,39.8889],[140.59419,39.88463],[140.59925,39.88614],[140.61337,39.88426],[140.61935,39.88888],[140.62535,39.88991],[140.63296,39.89878],[140.63597,39.9055],[140.63483,39.91388],[140.62978,39.92752],[140.63441,39.93225],[140.64701,39.93316],[140.65939,39.9408],[140.65954,39.94462],[140.66467,39.95239],[140.67293,39.95535],[140.6773,39.95933],[140.67302,39.96347],[140.69152,39.96737],[140.69545,39.97129],[140.69724,39.98162],[140.69989,39.98445],[140.71398,39.98933],[140.71462,39.99731],[140.72257,39.99642],[140.73216,39.99981],[140.73258,40.00939],[140.72424,40.01202],[140.72106,40.01695],[140.71548,40.01822],[140.71338,40.02232],[140.70677,40.0253],[140.70644,40.02833],[140.70013,40.03266],[140.69712,40.04838],[140.68962,40.05932],[140.68987,40.07025],[140.67966,40.07493],[140.67471,40.07377],[140.66624,40.07459],[140.66175,40.08287],[140.64955,40.08758],[140.63961,40.08499],[140.63732,40.09121],[140.62787,40.08788],[140.61651,40.08036],[140.60617,40.0871],[140.60006,40.08736],[140.6015,40.09638],[140.59881,40.10003],[140.60149,40.11152],[140.60107,40.12204],[140.59746,40.12291],[140.59022,40.12959],[140.56093,40.13487],[140.55296,40.13495],[140.54935,40.14202],[140.54348,40.14296],[140.54319,40.15042],[140.54497,40.1536],[140.53853,40.15939],[140.53511,40.15836],[140.53072,40.15185],[140.51925,40.14744],[140.51685,40.15087],[140.50766,40.15484],[140.49623,40.15389],[140.50161,40.16034],[140.50202,40.1645],[140.48968,40.16785],[140.49513,40.17402],[140.48814,40.17849],[140.48459,40.18764],[140.4795,40.19158],[140.48026,40.19611],[140.48713,40.20191],[140.48491,40.21389],[140.47404,40.21826],[140.4684,40.22254],[140.46919,40.22889],[140.47225,40.23303],[140.47152,40.24108],[140.45916,40.24202],[140.44821,40.24776],[140.44666,40.25648],[140.44384,40.25745],[140.42044,40.25433],[140.41447,40.25752],[140.41099,40.26724],[140.41615,40.27156],[140.40881,40.27891],[140.40468,40.28054],[140.40174,40.28779],[140.39377,40.29514],[140.3933,40.29956],[140.38325,40.30893],[140.38408,40.31397],[140.37679,40.32067],[140.3749,40.33574],[140.37535,40.34393],[140.36761,40.34852],[140.36692,40.35162],[140.35911,40.35194],[140.35315,40.35489],[140.35093,40.34965],[140.3355,40.33172],[140.3362,40.32488],[140.33289,40.32276],[140.33337,40.31616],[140.32537,40.31166],[140.32276,40.30191],[140.32742,40.28948],[140.32234,40.27764],[140.32384,40.27476],[140.31466,40.2686],[140.31106,40.26448],[140.30989,40.25517],[140.29049,40.25214],[140.28756,40.25358],[140.27601,40.24171],[140.27353,40.23599],[140.28286,40.22458],[140.2786,40.21478],[140.27315,40.21174],[140.28634,40.21042],[140.29195,40.20629],[140.29937,40.20524],[140.2994,40.20119],[140.29487,40.19801],[140.28952,40.19814],[140.28303,40.19522],[140.2735,40.19633],[140.27095,40.18878],[140.26582,40.18349],[140.26091,40.18469],[140.2549,40.18289],[140.25302,40.16881],[140.25454,40.16056],[140.25731,40.15777],[140.25654,40.15212],[140.25246,40.14296],[140.24979,40.14253],[140.24796,40.13472],[140.25027,40.13156],[140.24704,40.12631],[140.24769,40.11741],[140.24293,40.11187],[140.25012,40.09921],[140.25297,40.09705],[140.24777,40.09282],[140.24685,40.08869],[140.25456,40.08617],[140.2544,40.0805],[140.25116,40.0726],[140.25423,40.07135],[140.25769,40.07242],[140.26712,40.0695],[140.28884,40.07027],[140.30121,40.08324],[140.30711,40.08173],[140.31636,40.08465],[140.31861,40.09126],[140.3262,40.08174],[140.33952,40.08594],[140.34801,40.09138],[140.35093,40.08987],[140.37404,40.09004],[140.37155,40.08607],[140.37201,40.07807],[140.37773,40.06554],[140.37389,40.05701],[140.37853,40.05021],[140.36925,40.03893],[140.36437,40.03089],[140.36117,40.0297],[140.35218,40.02151],[140.35784,40.01785],[140.35732,40.01222],[140.36462,40.00645],[140.36814,40.00144],[140.37324,39.99858],[140.37313,39.99376],[140.37594,39.98938],[140.36998,39.98568],[140.36745,39.98112],[140.35836,39.97848],[140.35252,39.97076],[140.35765,39.96209],[140.35603,39.95706],[140.35887,39.94988],[140.35561,39.94621],[140.35794,39.94011],[140.36188,39.93858],[140.35981,39.9337],[140.36043,39.92833],[140.36571,39.92749],[140.37156,39.92099],[140.37698,39.90784],[140.37236,39.89307],[140.37687,39.8886],[140.37875,39.88164],[140.38617,39.8755],[140.38643,39.86949],[140.38974,39.86266],[140.391,39.85549],[140.38928,39.85068],[140.39137,39.84478],[140.40079,39.83858],[140.40078,39.83485],[140.40399,39.82912],[140.41663,39.8287],[140.42443,39.82502],[140.43079,39.82409],[140.43123,39.82027],[140.4446,39.82214],[140.45236,39.82447],[140.45987,39.82246],[140.46079,39.81518],[140.46724,39.8103],[140.47535,39.79565],[140.48037,39.79653]]]},"properties":{"pref":"秋田県","city":"北秋田市","code5":"05213","code6":"052132"}},
{"type":"Feature","geometry":{"type":"Polygon","coordinates":[[[139.98012,39.31309],[139.97151,39.30076],[139.96604,39.29511],[139.95956,39.2926],[139.94499,39.28935],[139.93079,39.28922],[139.91909,39.27922],[139.90982,39.25911],[139.91474,39.24864],[139.90616,39.23354],[139.9029,39.22416],[139.89415,39.21288],[139.89253,39.20444],[139.90361,39.19966],[139.90616,39.19175],[139.90495,39.18152],[139.89816,39.16282],[139.89416,39.15505],[139.8857,39.14896],[139.88266,39.13953],[139.88508,39.13351],[139.87699,39.12459],[139.86959,39.11826],[139.90604,39.11883],[139.94565,39.11283],[139.94805,39.11717],[139.99445,39.10552],[139.99764,39.11584],[140.00777,39.12304],[140.06244,39.1335],[140.06595,39.14372],[140.06346,39.1503],[140.06388,39.16159],[140.0534,39.16828],[140.04757,39.17031],[140.04263,39.17452],[140.04563,39.18494],[140.05394,39.1938],[140.05288,39.19843],[140.05407,39.21193],[140.05836,39.2266],[140.05234,39.23388],[140.042,39.23911],[140.03895,39.2443],[140.0329,39.24952],[140.03796,39.25953],[140.02184,39.2692],[140.0139,39.26696],[140.00165,39.27749],[139.99571,39.28913],[139.99604,39.29623],[139.98992,39.30364],[139.99032,39.30681],[139.98012,39.31309]]]},"properties":{"pref":"秋田県","city":"にかほ市","code5":"05214","code6":"052141"}},
{"type":"Feature","geometry":{"type":"Polygon","coordinates":[[[140.84794,39.95933],[140.83805,39.96541],[140.832,39.96603],[140.82653,39.97005],[140.81977,39.97173],[140.81177,39.97578],[140.80336,39.97334],[140.80137,39.96961],[140.79254,39.97067],[140.78133,39.96407],[140.77033,39.96496],[140.76352,39.9623],[140.75672,39.96403],[140.75682,39.96958],[140.7512,39.97171],[140.75065,39.97775],[140.75508,39.98133],[140.7495,39.98811],[140.7455,39.98816],[140.73851,39.99719],[140.73216,39.99981],[140.72257,39.99642],[140.71462,39.99731],[140.71398,39.98933],[140.69989,39.98445],[140.69724,39.98162],[140.69545,39.97129],[140.69152,39.96737],[140.67302,39.96347],[140.6773,39.95933],[140.67293,39.95535],[140.66467,39.95239],[140.65954,39.94462],[140.65939,39.9408],[140.64701,39.93316],[140.63441,39.93225],[140.62978,39.92752],[140.63483,39.91388],[140.63597,39.9055],[140.63296,39.89878],[140.62535,39.88991],[140.61935,39.88888],[140.61337,39.88426],[140.59925,39.88614],[140.59419,39.88463],[140.59071,39.8889],[140.58561,39.8905],[140.58263,39.89463],[140.56996,39.89406],[140.56113,39.88889],[140.55711,39.88401],[140.5464,39.88114],[140.53781,39.88113],[140.53583,39.87156],[140.53693,39.86111],[140.52882,39.8563],[140.52782,39.85042],[140.5236,39.8478],[140.51414,39.84657],[140.5096,39.83998],[140.51013,39.83484],[140.51376,39.83021],[140.51711,39.81656],[140.51268,39.81009],[140.50824,39.80977],[140.49153,39.8044],[140.48837,39.80529],[140.48037,39.79653],[140.48351,39.79441],[140.49007,39.78074],[140.49772,39.7739],[140.50373,39.77174],[140.50628,39.76791],[140.51018,39.75467],[140.51561,39.74779],[140.5087,39.74043],[140.50879,39.7325],[140.5032,39.72622],[140.49649,39.72373],[140.49443,39.71786],[140.49748,39.71159],[140.49669,39.70718],[140.49965,39.70403],[140.50045,39.69764],[140.50455,39.69255],[140.49535,39.68653],[140.49148,39.66518],[140.48832,39.66114],[140.47963,39.65658],[140.47337,39.64761],[140.4717,39.63832],[140.46852,39.63192],[140.46771,39.61878],[140.46404,39.6171],[140.46629,39.61115],[140.47131,39.60656],[140.46916,39.60234],[140.47672,39.59704],[140.48338,39.59442],[140.49251,39.59479],[140.49469,39.58869],[140.4995,39.58558],[140.49882,39.57768],[140.50254,39.57344],[140.49977,39.56901],[140.50705,39.55898],[140.51803,39.55611],[140.52697,39.55763],[140.52944,39.55098],[140.53502,39.55272],[140.54079,39.55802],[140.53971,39.56367],[140.55123,39.56999],[140.55349,39.57616],[140.55157,39.58129],[140.55317,39.58459],[140.55977,39.58417],[140.57633,39.5749],[140.58316,39.57555],[140.5954,39.57345],[140.60143,39.58611],[140.60907,39.5841],[140.62805,39.57574],[140.63111,39.57121],[140.63603,39.56949],[140.65097,39.58011],[140.65502,39.579],[140.66441,39.58298],[140.67348,39.57824],[140.68661,39.57781],[140.69519,39.58909],[140.70178,39.58357],[140.70801,39.58095],[140.71548,39.58265],[140.71986,39.57843],[140.7275,39.57537],[140.73036,39.56584],[140.74026,39.56534],[140.74688,39.56885],[140.7543,39.57072],[140.7567,39.57612],[140.76218,39.58262],[140.76427,39.58785],[140.77533,39.591],[140.78248,39.60409],[140.79531,39.60299],[140.80501,39.61281],[140.80257,39.61885],[140.80839,39.62426],[140.80701,39.63134],[140.81172,39.6367],[140.81535,39.64612],[140.82226,39.6503],[140.82022,39.65276],[140.82298,39.66545],[140.82191,39.6731],[140.81841,39.6801],[140.82259,39.68788],[140.81571,39.69097],[140.80989,39.69844],[140.8099,39.70802],[140.8053,39.7108],[140.79446,39.7096],[140.79192,39.71553],[140.78347,39.72545],[140.78195,39.7313],[140.77482,39.73455],[140.78082,39.73799],[140.78828,39.73824],[140.79752,39.74118],[140.80607,39.74761],[140.80533,39.75665],[140.81577,39.76253],[140.81953,39.77185],[140.82558,39.77433],[140.83463,39.78088],[140.84004,39.78851],[140.84827,39.79325],[140.8472,39.79826],[140.84165,39.80492],[140.82461,39.81007],[140.82252,39.81478],[140.81309,39.81785],[140.80339,39.81527],[140.79437,39.82126],[140.78677,39.82335],[140.78302,39.83124],[140.78617,39.83516],[140.78859,39.85234],[140.78394,39.85647],[140.78224,39.86785],[140.78809,39.8742],[140.79132,39.87428],[140.79951,39.88168],[140.80659,39.87945],[140.81398,39.8791],[140.82851,39.8848],[140.84309,39.87148],[140.85292,39.86579],[140.85734,39.86961],[140.86335,39.87139],[140.87015,39.87101],[140.87788,39.87429],[140.87963,39.88333],[140.87483,39.89411],[140.86765,39.89964],[140.86805,39.91166],[140.8647,39.9168],[140.85469,39.92329],[140.85707,39.93107],[140.85227,39.9364],[140.85316,39.94164],[140.85692,39.9442],[140.85721,39.95303],[140.84794,39.95933]]]},"properties":{"pref":"秋田県","city":"仙北市","code5":"05215","code6":"052159"}},
{"type":"Feature","geometry":{"type":"Polygon","coordinates":[[[140.88006,40.51025],[140.8523,40.50526],[140.84502,40.50736],[140.83654,40.50412],[140.82639,40.49592],[140.82003,40.49533],[140.81468,40.48844],[140.81063,40.48713],[140.81149,40.47856],[140.80856,40.46979],[140.80772,40.45781],[140.8034,40.44859],[140.79354,40.44935],[140.79101,40.45448],[140.78685,40.45723],[140.77241,40.45123],[140.76938,40.45391],[140.76271,40.45125],[140.75685,40.44558],[140.7527,40.43917],[140.74129,40.43794],[140.73409,40.43968],[140.7344,40.43452],[140.73162,40.4305],[140.73586,40.42786],[140.73357,40.4158],[140.72302,40.41661],[140.71747,40.42111],[140.71607,40.42756],[140.70265,40.42713],[140.69923,40.42942],[140.68752,40.42702],[140.68726,40.41842],[140.67861,40.41549],[140.67587,40.41288],[140.6754,40.40057],[140.67784,40.39123],[140.67715,40.38652],[140.68256,40.38252],[140.68353,40.3726],[140.69266,40.37026],[140.69781,40.36283],[140.70275,40.36037],[140.70446,40.35448],[140.70173,40.35049],[140.70904,40.34945],[140.71154,40.341],[140.71803,40.33633],[140.72081,40.33148],[140.71978,40.32456],[140.71141,40.32083],[140.7135,40.3154],[140.71361,40.30838],[140.7185,40.30342],[140.72549,40.28882],[140.74595,40.28236],[140.75397,40.29188],[140.75904,40.28379],[140.76718,40.28427],[140.76866,40.29041],[140.77331,40.29724],[140.76927,40.30295],[140.77571,40.31257],[140.77237,40.31855],[140.77468,40.32317],[140.78039,40.32295],[140.77889,40.3163],[140.78726,40.31859],[140.79302,40.32422],[140.78577,40.33313],[140.78949,40.33682],[140.78818,40.34125],[140.79264,40.35061],[140.78694,40.3552],[140.80422,40.35954],[140.81063,40.36576],[140.81045,40.37014],[140.81447,40.3732],[140.81777,40.38036],[140.82376,40.3851],[140.82157,40.3883],[140.82084,40.39693],[140.81769,40.4012],[140.82676,40.41078],[140.82826,40.42089],[140.84191,40.42562],[140.84641,40.42193],[140.84874,40.41444],[140.85206,40.40975],[140.86388,40.40624],[140.88896,40.40849],[140.89179,40.41148],[140.90033,40.41506],[140.90385,40.41331],[140.92077,40.41606],[140.92148,40.42019],[140.92677,40.42111],[140.91922,40.42732],[140.91095,40.4233],[140.90672,40.42527],[140.89678,40.4252],[140.89233,40.42335],[140.86132,40.44063],[140.87811,40.49842],[140.88006,40.51025]]]},"properties":{"pref":"秋田県","county":"鹿角郡","city":"小坂町","code5":"05303","code6":"053031"}},
{"type":"Feature","geometry":{"type":"Polygon","coordinates":[[[140.40078,39.83485],[140.40079,39.83858],[140.39137,39.84478],[140.38928,39.85068],[140.391,39.85549],[140.38974,39.86266],[140.38643,39.86949],[140.38617,39.8755],[140.37875,39.88164],[140.37687,39.8886],[140.37236,39.89307],[140.37698,39.90784],[140.37156,39.92099],[140.36571,39.92749],[140.36043,39.92833],[140.35981,39.9337],[140.36188,39.93858],[140.35794,39.94011],[140.35561,39.94621],[140.35887,39.94988],[140.35603,39.95706],[140.35765,39.96209],[140.35252,39.97076],[140.35836,39.97848],[140.36745,39.98112],[140.36998,39.98568],[140.37594,39.98938],[140.37313,39.99376],[140.37324,39.99858],[140.36814,40.00144],[140.36462,40.00645],[140.35732,40.01222],[140.35784,40.01785],[140.35218,40.02151],[140.36117,40.0297],[140.36437,40.03089],[140.36925,40.03893],[140.37853,40.05021],[140.37389,40.05701],[140.37773,40.06554],[140.37201,40.07807],[140.37155,40.08607],[140.37404,40.09004],[140.35093,40.08987],[140.34801,40.09138],[140.33952,40.08594],[140.3262,40.08174],[140.31861,40.09126],[140.31636,40.08465],[140.30711,40.08173],[140.30121,40.08324],[140.28884,40.07027],[140.26712,40.0695],[140.25769,40.07242],[140.25423,40.07135],[140.25005,40.0688],[140.2502,40.06345],[140.24038,40.06046],[140.23939,40.05533],[140.24241,40.05174],[140.23667,40.0475],[140.24178,40.03819],[140.24012,40.03165],[140.24502,40.02937],[140.24146,40.02144],[140.24389,40.01711],[140.23864,40.01362],[140.23538,40.00767],[140.23667,40.00076],[140.23435,39.99182],[140.24319,39.98544],[140.25043,39.98361],[140.25268,39.97013],[140.24755,39.96015],[140.25153,39.95474],[140.26127,39.94972],[140.26695,39.94176],[140.26582,39.9378],[140.27422,39.93198],[140.27535,39.92797],[140.28275,39.92941],[140.28563,39.92669],[140.29243,39.92748],[140.29564,39.91988],[140.2928,39.91192],[140.29786,39.899],[140.29678,39.88828],[140.30223,39.87803],[140.29827,39.86589],[140.305,39.86068],[140.30466,39.85197],[140.30648,39.8474],[140.30178,39.83787],[140.29646,39.83295],[140.30673,39.82994],[140.31068,39.82031],[140.30864,39.81674],[140.31358,39.81317],[140.31439,39.80752],[140.31093,39.79718],[140.32056,39.79648],[140.32539,39.79988],[140.3404,39.80458],[140.34914,39.81148],[140.34678,39.81589],[140.35568,39.82622],[140.36358,39.82789],[140.37221,39.83582],[140.37863,39.83397],[140.39069,39.83504],[140.39395,39.83334],[140.40078,39.83485]]]},"properties":{"pref":"秋田県","county":"北秋田郡","city":"上小阿仁村","code5":"05327","code6":"053279"}},
{"type":"Feature","geometry":{"type":"Polygon","coordinates":[[[140.10762,40.4359],[140.10324,40.43374],[140.10281,40.42362],[140.10025,40.41737],[140.10755,40.41607],[140.1081,40.4072],[140.1147,40.40171],[140.11996,40.40482],[140.12828,40.40558],[140.1396,40.40074],[140.15107,40.40337],[140.15605,40.40079],[140.15373,40.39288],[140.15709,40.38791],[140.16396,40.38474],[140.1594,40.38076],[140.15617,40.37411],[140.16768,40.36966],[140.17179,40.36109],[140.17513,40.36202],[140.1829,40.35598],[140.19351,40.35023],[140.19775,40.34243],[140.19546,40.339],[140.19499,40.31977],[140.20187,40.31285],[140.20161,40.30186],[140.20446,40.2973],[140.21347,40.29755],[140.21377,40.28709],[140.21763,40.28478],[140.21621,40.2759],[140.21105,40.27419],[140.21298,40.26867],[140.22262,40.26727],[140.21914,40.25871],[140.22622,40.25417],[140.23195,40.24775],[140.2357,40.24917],[140.24465,40.24589],[140.25235,40.2403],[140.25872,40.24281],[140.2718,40.24475],[140.27601,40.24171],[140.28756,40.25358],[140.29049,40.25214],[140.30989,40.25517],[140.31106,40.26448],[140.31466,40.2686],[140.32384,40.27476],[140.32234,40.27764],[140.32742,40.28948],[140.32276,40.30191],[140.32537,40.31166],[140.33337,40.31616],[140.33289,40.32276],[140.3362,40.32488],[140.3355,40.33172],[140.35093,40.34965],[140.35315,40.35489],[140.35348,40.36124],[140.35643,40.36656],[140.35028,40.3734],[140.33828,40.37846],[140.33776,40.38341],[140.33442,40.38576],[140.33481,40.39311],[140.33316,40.4032],[140.33651,40.40572],[140.33654,40.41173],[140.33268,40.41968],[140.33641,40.4242],[140.3334,40.42732],[140.33571,40.43333],[140.33522,40.43938],[140.32097,40.4386],[140.30954,40.43657],[140.30763,40.44189],[140.30196,40.44284],[140.29887,40.44625],[140.28814,40.44489],[140.27934,40.44605],[140.26687,40.44074],[140.2515,40.44191],[140.2425,40.43728],[140.22017,40.43115],[140.21158,40.43592],[140.2101,40.43843],[140.19696,40.43462],[140.18748,40.43957],[140.18038,40.44115],[140.16242,40.43936],[140.15141,40.43502],[140.14724,40.43813],[140.13673,40.43962],[140.13325,40.43796],[140.12094,40.4364],[140.10762,40.4359]]]},"properties":{"pref":"秋田県","county":"山本郡","city":"藤里町","code5":"05346","code6":"053465"}},
{"type":"Feature","geometry":{"type":"Polygon","coordinates":[[[139.97258,40.12514],[139.96522,40.10922],[139.94896,40.0787],[139.94537,40.07303],[139.95732,40.07002],[139.95803,40.0663],[139.95318,40.0616],[139.96204,40.05752],[139.9672,40.06226],[139.97901,40.06698],[139.98092,40.07119],[139.97636,40.07632],[139.98096,40.07837],[139.98369,40.08421],[139.98541,40.09338],[139.9995,40.09337],[140.00184,40.08753],[140.01662,40.08216],[140.02023,40.07839],[140.05173,40.06606],[140.05899,40.06154],[140.0664,40.05085],[140.0713,40.0401],[140.07048,40.00981],[140.06861,39.98683],[140.07859,39.98592],[140.07846,39.98266],[140.08928,39.97472],[140.11705,39.97933],[140.12104,39.97834],[140.12158,39.98122],[140.11628,39.98629],[140.12143,39.9893],[140.12694,39.98931],[140.12769,39.99347],[140.13186,39.99775],[140.13908,39.99697],[140.14621,40.00214],[140.15251,40.00447],[140.15824,40.01067],[140.1708,40.01055],[140.17651,40.00424],[140.18747,40.01062],[140.19374,40.01036],[140.19792,40.01291],[140.21169,40.01158],[140.21973,40.00599],[140.23085,40.00446],[140.23538,40.00767],[140.23864,40.01362],[140.24389,40.01711],[140.24146,40.02144],[140.24502,40.02937],[140.24012,40.03165],[140.24178,40.03819],[140.23667,40.0475],[140.23034,40.04937],[140.2162,40.06068],[140.21489,40.06923],[140.2066,40.07059],[140.19978,40.06777],[140.19008,40.0676],[140.19312,40.08056],[140.18436,40.08251],[140.18488,40.08607],[140.18173,40.09378],[140.17469,40.09785],[140.17703,40.10546],[140.17716,40.11209],[140.18472,40.11823],[140.1846,40.123],[140.18821,40.12888],[140.17813,40.13199],[140.16172,40.13156],[140.15518,40.12786],[140.14562,40.12773],[140.13365,40.13199],[140.12133,40.12899],[140.11283,40.13563],[140.10871,40.14267],[140.09791,40.14603],[140.09312,40.14968],[140.0864,40.14837],[140.06845,40.15727],[140.04805,40.14955],[140.04137,40.15348],[140.03162,40.13681],[140.02634,40.13265],[140.02634,40.12494],[140.01896,40.12579],[140.00669,40.12224],[139.98145,40.12378],[139.97258,40.12514]]]},"properties":{"pref":"秋田県","county":"山本郡","city":"三種町","code5":"05348","code6":"053481"}},
{"type":"Feature","geometry":{"type":"Polygon","coordinates":[[[140.06835,40.46886],[140.05924,40.46723],[140.04735,40.46072],[140.03836,40.46078],[140.03126,40.45775],[140.02485,40.45309],[140.02021,40.44655],[140.02534,40.43958],[140.02163,40.42947],[140.01126,40.42596],[140.00642,40.42735],[140.00103,40.43289],[139.99373,40.43254],[139.9852,40.42791],[139.97352,40.4266],[139.96411,40.43028],[139.95977,40.43483],[139.95087,40.43092],[139.93631,40.4282],[139.94421,40.42263],[139.94803,40.41335],[139.9675,40.40378],[139.96942,40.40008],[139.97842,40.39829],[139.9802,40.39577],[139.98016,40.38782],[139.98736,40.38317],[139.99908,40.37981],[140.00349,40.37565],[140.00939,40.37523],[140.01344,40.3717],[140.01472,40.36359],[140.02301,40.35759],[140.02575,40.34985],[140.02609,40.33868],[140.02411,40.31439],[140.02144,40.29563],[140.01566,40.26446],[140.02972,40.26307],[140.03347,40.27096],[140.04117,40.27507],[140.04717,40.27003],[140.06685,40.26905],[140.06725,40.26414],[140.07582,40.26401],[140.07911,40.25428],[140.08349,40.2548],[140.08334,40.25969],[140.0924,40.25722],[140.09253,40.25236],[140.09866,40.25171],[140.10308,40.25646],[140.1232,40.26099],[140.13128,40.26169],[140.13457,40.26588],[140.1339,40.27073],[140.1386,40.28193],[140.13426,40.28782],[140.14161,40.29388],[140.13703,40.30106],[140.1329,40.30429],[140.13588,40.30719],[140.1347,40.31575],[140.14069,40.32415],[140.13567,40.32975],[140.13487,40.33786],[140.13793,40.34278],[140.14535,40.34885],[140.15046,40.35779],[140.15232,40.36791],[140.15073,40.37425],[140.15617,40.37411],[140.1594,40.38076],[140.16396,40.38474],[140.15709,40.38791],[140.15373,40.39288],[140.15605,40.40079],[140.15107,40.40337],[140.1396,40.40074],[140.12828,40.40558],[140.11996,40.40482],[140.1147,40.40171],[140.1081,40.4072],[140.10755,40.41607],[140.10025,40.41737],[140.10281,40.42362],[140.10324,40.43374],[140.10762,40.4359],[140.10509,40.4408],[140.09917,40.44397],[140.09737,40.44924],[140.0995,40.45296],[140.09358,40.45892],[140.07845,40.4669],[140.07413,40.46462],[140.06835,40.46886]]]},"properties":{"pref":"秋田県","county":"山本郡","city":"八峰町","code5":"05349","code6":"053490"}},
{"type":"Feature","geometry":{"type":"MultiPolygon","coordinates":[[[[140.29646,39.83295],[140.30178,39.83787],[140.30648,39.8474],[140.30466,39.85197],[140.305,39.86068],[140.29827,39.86589],[140.30223,39.87803],[140.29678,39.88828],[140.29786,39.899],[140.2928,39.91192],[140.29564,39.91988],[140.29243,39.92748],[140.28563,39.92669],[140.28275,39.92941],[140.27535,39.92797],[140.27422,39.93198],[140.26582,39.9378],[140.26695,39.94176],[140.26127,39.94972],[140.25153,39.95474],[140.24755,39.96015],[140.25268,39.97013],[140.25043,39.98361],[140.24319,39.98544],[140.23435,39.99182],[140.23667,40.00076],[140.23538,40.00767],[140.23085,40.00446],[140.21973,40.00599],[140.21169,40.01158],[140.19792,40.01291],[140.19374,40.01036],[140.18747,40.01062],[140.17651,40.00424],[140.1708,40.01055],[140.15824,40.01067],[140.15251,40.00447],[140.14621,40.00214],[140.13908,39.99697],[140.13186,39.99775],[140.12769,39.99347],[140.12694,39.98931],[140.12143,39.9893],[140.11628,39.98629],[140.12158,39.98122],[140.12104,39.97834],[140.11868,39.97508],[140.11922,39.96684],[140.11514,39.96417],[140.11521,39.95949],[140.10969,39.95973],[140.0949,39.96772],[140.09035,39.95891],[140.09762,39.95365],[140.09204,39.95142],[140.09309,39.94538],[140.10684,39.94475],[140.10386,39.94198],[140.08868,39.94233],[140.08062,39.93867],[140.07554,39.94005],[140.06857,39.93661],[140.06221,39.9365],[140.05938,39.93341],[140.07691,39.93053],[140.08046,39.92832],[140.09498,39.92736],[140.10162,39.92503],[140.10656,39.92791],[140.11934,39.92422],[140.11922,39.91975],[140.13303,39.91681],[140.13323,39.91205],[140.13857,39.90456],[140.14755,39.90297],[140.15036,39.89806],[140.14931,39.89322],[140.15681,39.89041],[140.1634,39.89245],[140.16813,39.89129],[140.17625,39.89402],[140.18372,39.88837],[140.18596,39.88284],[140.2061,39.88025],[140.21096,39.88068],[140.21692,39.87748],[140.21591,39.86314],[140.22272,39.86097],[140.22266,39.85501],[140.22659,39.85355],[140.23379,39.84156],[140.23931,39.83898],[140.24295,39.83193],[140.25072,39.82757],[140.25889,39.83001],[140.26602,39.82776],[140.27377,39.82738],[140.28178,39.83497],[140.28817,39.83077],[140.29646,39.83295]]],[[[140.05893,39.93314],[140.05666,39.93587],[140.0504,39.93623],[140.04412,39.94023],[140.03859,39.93573],[140.016,39.91985],[140.04778,39.92654],[140.05893,39.93314]]]]},"properties":{"pref":"秋田県","county":"南秋田郡","city":"五城目町","code5":"05361","code6":"053619"}},
{"type":"Feature","geometry":{"type":"Polygon","coordinates":[[[140.06861,39.98683],[140.06821,39.98211],[140.06109,39.96283],[140.05112,39.94604],[140.04412,39.94023],[140.0504,39.93623],[140.05666,39.93587],[140.05893,39.93314],[140.05938,39.93341],[140.06221,39.9365],[140.06857,39.93661],[140.07554,39.94005],[140.08062,39.93867],[140.08868,39.94233],[140.10386,39.94198],[140.10684,39.94475],[140.09309,39.94538],[140.09204,39.95142],[140.09762,39.95365],[140.09035,39.95891],[140.0949,39.96772],[140.10969,39.95973],[140.11521,39.95949],[140.11514,39.96417],[140.11922,39.96684],[140.11868,39.97508],[140.12104,39.97834],[140.11705,39.97933],[140.08928,39.97472],[140.07846,39.98266],[140.07859,39.98592],[140.06861,39.98683]]]},"properties":{"pref":"秋田県","county":"南秋田郡","city":"八郎潟町","code5":"05363","code6":"053635"}},
{"type":"Feature","geometry":{"type":"Polygon","coordinates":[[[140.21591,39.86314],[140.21692,39.87748],[140.21096,39.88068],[140.2061,39.88025],[140.18596,39.88284],[140.18372,39.88837],[140.17625,39.89402],[140.16813,39.89129],[140.1634,39.89245],[140.15681,39.89041],[140.14931,39.89322],[140.15036,39.89806],[140.14755,39.90297],[140.13857,39.90456],[140.13323,39.91205],[140.13303,39.91681],[140.11922,39.91975],[140.11934,39.92422],[140.10656,39.92791],[140.10162,39.92503],[140.09498,39.92736],[140.08046,39.92832],[140.07691,39.93053],[140.05938,39.93341],[140.05893,39.93314],[140.04778,39.92654],[140.016,39.91985],[140.03354,39.90559],[140.06976,39.90444],[140.08736,39.90538],[140.10014,39.89515],[140.10643,39.88574],[140.11051,39.88511],[140.11563,39.87647],[140.12987,39.87138],[140.13045,39.86678],[140.13447,39.86576],[140.14287,39.86859],[140.14838,39.8645],[140.15407,39.86718],[140.16346,39.85779],[140.16955,39.85513],[140.18603,39.85438],[140.19778,39.85979],[140.20045,39.86394],[140.20805,39.86503],[140.21591,39.86314]]]},"properties":{"pref":"秋田県","county":"南秋田郡","city":"井川町","code5":"05366","code6":"053660"}},
{"type":"Feature","geometry":{"type":"Polygon","coordinates":[[[139.97633,39.92781],[140.01149,39.92035],[140.016,39.91985],[140.03859,39.93573],[140.04412,39.94023],[140.05112,39.94604],[140.06109,39.96283],[140.06821,39.98211],[140.06861,39.98683],[140.07048,40.00981],[140.0713,40.0401],[140.0664,40.05085],[140.05899,40.06154],[140.05173,40.06606],[140.02023,40.07839],[140.01662,40.08216],[140.00184,40.08753],[139.9995,40.09337],[139.98541,40.09338],[139.98369,40.08421],[139.98096,40.07837],[139.97636,40.07632],[139.98092,40.07119],[139.97901,40.06698],[139.9672,40.06226],[139.96204,40.05752],[139.95921,40.05031],[139.95364,40.04333],[139.9507,40.03627],[139.93583,40.03098],[139.93033,40.0233],[139.93658,40.01039],[139.94183,40.00786],[139.94302,40.00152],[139.93623,39.99514],[139.93347,39.99024],[139.92244,39.9588],[139.92621,39.95299],[139.9414,39.94602],[139.94747,39.94219],[139.97633,39.92781]]]},"properties":{"pref":"秋田県","county":"南秋田郡","city":"大潟村","code5":"05368","code6":"053686"}},
{"type":"Feature","geometry":{"type":"Polygon","coordinates":[[[140.69815,39.46778],[140.69011,39.47906],[140.67834,39.48124],[140.66972,39.48998],[140.66711,39.48891],[140.66097,39.49448],[140.6506,39.4938],[140.64769,39.49753],[140.63916,39.49814],[140.62383,39.49534],[140.61588,39.4918],[140.59635,39.48889],[140.59177,39.48678],[140.58942,39.48169],[140.57551,39.47955],[140.57556,39.48266],[140.56454,39.48425],[140.56003,39.48346],[140.55749,39.4751],[140.55278,39.47062],[140.55517,39.46798],[140.55422,39.45813],[140.55799,39.45377],[140.53414,39.44756],[140.53238,39.44436],[140.52378,39.44121],[140.52192,39.43707],[140.51298,39.43711],[140.51065,39.43186],[140.5178,39.42146],[140.51422,39.4133],[140.50532,39.41504],[140.5101,39.4053],[140.51071,39.39795],[140.50332,39.39771],[140.49804,39.40217],[140.49362,39.39804],[140.48644,39.40206],[140.48444,39.39828],[140.48832,39.39536],[140.48708,39.38836],[140.48938,39.38345],[140.49196,39.37884],[140.4979,39.3783],[140.50139,39.37295],[140.50784,39.36952],[140.51258,39.3625],[140.52613,39.35757],[140.53018,39.35326],[140.54007,39.35135],[140.54009,39.35454],[140.53333,39.35648],[140.53066,39.36289],[140.53972,39.36373],[140.54826,39.35698],[140.55024,39.36062],[140.55139,39.3715],[140.55499,39.37604],[140.57047,39.37671],[140.57229,39.38031],[140.59528,39.37821],[140.59968,39.37572],[140.61134,39.3812],[140.61567,39.38004],[140.61751,39.37442],[140.62726,39.37106],[140.6304,39.37259],[140.63209,39.37862],[140.64333,39.38163],[140.64431,39.3837],[140.65345,39.38588],[140.65617,39.38915],[140.65323,39.3908],[140.6589,39.40058],[140.66369,39.40375],[140.65882,39.40925],[140.65824,39.41415],[140.67089,39.41766],[140.6811,39.41839],[140.68512,39.42467],[140.6856,39.43726],[140.67775,39.44521],[140.67699,39.4484],[140.68953,39.46481],[140.69815,39.46778]]]},"properties":{"pref":"秋田県","county":"仙北郡","city":"美郷町","code5":"05434","code6":"054348"}},
{"type":"Feature","geometry":{"type":"Polygon","coordinates":[[[140.34676,39.25049],[140.34118,39.24449],[140.33697,39.24888],[140.33146,39.24612],[140.32558,39.24801],[140.31261,39.2468],[140.30967,39.24807],[140.30157,39.24458],[140.29515,39.24492],[140.28413,39.24334],[140.28191,39.2403],[140.27044,39.24019],[140.2704,39.2375],[140.26062,39.23479],[140.25492,39.2313],[140.2484,39.22456],[140.24168,39.22491],[140.23775,39.22729],[140.23291,39.2255],[140.22968,39.22908],[140.22271,39.22688],[140.22179,39.21813],[140.22713,39.21555],[140.22974,39.21103],[140.23005,39.20368],[140.23369,39.1981],[140.23912,39.19363],[140.24892,39.19683],[140.25782,39.18811],[140.25678,39.18308],[140.26026,39.18101],[140.26626,39.17325],[140.27375,39.17149],[140.27968,39.1634],[140.28164,39.151],[140.29204,39.14553],[140.29628,39.13858],[140.30305,39.13356],[140.3045,39.1235],[140.31268,39.11631],[140.31587,39.10971],[140.31698,39.10148],[140.32178,39.09995],[140.33034,39.10052],[140.34097,39.08933],[140.34194,39.0836],[140.34501,39.08236],[140.35391,39.08486],[140.3577,39.09282],[140.36528,39.09353],[140.36612,39.09849],[140.37822,39.10023],[140.39268,39.10503],[140.40418,39.1211],[140.40737,39.12262],[140.40662,39.13263],[140.41066,39.13705],[140.41849,39.13663],[140.42748,39.14617],[140.43106,39.1636],[140.43816,39.16939],[140.44619,39.1636],[140.4602,39.17551],[140.45896,39.17986],[140.44997,39.19064],[140.44404,39.20492],[140.44265,39.21119],[140.4456,39.21632],[140.44223,39.21954],[140.4418,39.22575],[140.43016,39.2252],[140.42623,39.23024],[140.42203,39.23035],[140.42144,39.23962],[140.42529,39.24256],[140.41203,39.24783],[140.41006,39.25151],[140.40179,39.25618],[140.4017,39.26014],[140.3795,39.25946],[140.37405,39.26209],[140.36188,39.26039],[140.34676,39.25049]]]},"properties":{"pref":"秋田県","county":"雄勝郡","city":"羽後町","code5":"05463","code6":"054631"}},
{"type":"Feature","geometry":{"type":"Polygon","coordinates":[[[140.78493,39.01971],[140.79076,39.02409],[140.79508,39.03066],[140.79609,39.03602],[140.79353,39.04172],[140.79942,39.04453],[140.80083,39.04944],[140.80518,39.05202],[140.80529,39.05785],[140.79945,39.06284],[140.80443,39.07057],[140.79998,39.07654],[140.78547,39.0791],[140.77885,39.08207],[140.77197,39.07868],[140.76322,39.08059],[140.75853,39.08538],[140.75291,39.08602],[140.75593,39.09677],[140.76325,39.10886],[140.75593,39.11219],[140.75587,39.11805],[140.76661,39.12022],[140.76998,39.12416],[140.75787,39.1329],[140.75108,39.13326],[140.74973,39.14041],[140.75614,39.14368],[140.76555,39.15231],[140.77074,39.15938],[140.77388,39.16759],[140.7786,39.16856],[140.78623,39.16678],[140.78833,39.17251],[140.79621,39.17657],[140.7989,39.17517],[140.80786,39.17838],[140.80595,39.18332],[140.79739,39.18996],[140.78852,39.1886],[140.7808,39.19198],[140.77872,39.19476],[140.77086,39.19353],[140.76485,39.19776],[140.76756,39.2045],[140.76662,39.20853],[140.76079,39.20589],[140.75977,39.20199],[140.7532,39.19833],[140.73664,39.19581],[140.72822,39.19948],[140.72221,39.1969],[140.71776,39.19064],[140.70929,39.18771],[140.69875,39.18676],[140.6916,39.18816],[140.67778,39.19874],[140.67562,39.20204],[140.66499,39.20927],[140.66072,39.2061],[140.64704,39.20675],[140.63854,39.20466],[140.63989,39.20143],[140.63738,39.19447],[140.62654,39.19588],[140.62286,39.19166],[140.62142,39.18555],[140.63639,39.17351],[140.64346,39.15619],[140.63987,39.15167],[140.64235,39.14844],[140.64963,39.14464],[140.65583,39.14723],[140.66468,39.15385],[140.66945,39.14889],[140.6789,39.14869],[140.68784,39.13881],[140.6856,39.13222],[140.68167,39.12911],[140.69031,39.10787],[140.68711,39.09977],[140.68213,39.09246],[140.68698,39.08488],[140.68357,39.06528],[140.69011,39.06332],[140.69351,39.0572],[140.70569,39.05004],[140.70768,39.0337],[140.70263,39.02713],[140.70723,39.02562],[140.70502,39.02054],[140.70071,39.01792],[140.7029,39.01253],[140.70921,39.01197],[140.71872,39.00551],[140.71567,38.99559],[140.72339,38.98634],[140.72681,38.98585],[140.73282,38.98],[140.7499,38.96603],[140.75563,38.95821],[140.76317,38.95708],[140.77359,38.95808],[140.77225,38.9635],[140.77475,38.96899],[140.77015,38.9762],[140.76911,38.98145],[140.76449,38.98565],[140.7639,38.9894],[140.7679,38.99471],[140.76441,39.00037],[140.77885,39.00839],[140.77998,39.01441],[140.78493,39.01971]]]},"properties":{"pref":"秋田県","county":"雄勝郡","city":"東成瀬村","code5":"05464","code6":"054640"}}
]}