{"type":"FeatureCollection", "features": [
{"type":"Feature","geometry":{"type":"Polygon","coordinates":[[[140.52167,38.34967],[140.51494,38.35199],[140.50524,38.34677],[140.48259,38.34285],[140.47043,38.33688],[140.45278,38.33721],[140.44699,38.33868],[140.4416,38.33399],[140.44024,38.32573],[140.43164,38.31981],[140.42536,38.31896],[140.41817,38.31247],[140.40973,38.31824],[140.40466,38.31301],[140.39352,38.31279],[140.37698,38.31658],[140.36095,38.31926],[140.34953,38.32341],[140.33178,38.32517],[140.33,38.33157],[140.3247,38.33197],[140.32467,38.33758],[140.31218,38.34152],[140.30578,38.33776],[140.30689,38.33338],[140.30491,38.32402],[140.30023,38.31544],[140.29716,38.31638],[140.28419,38.31242],[140.28445,38.30817],[140.28834,38.3058],[140.28518,38.29701],[140.27606,38.28857],[140.27886,38.28465],[140.27651,38.27752],[140.26568,38.27348],[140.25402,38.27227],[140.25179,38.26867],[140.24392,38.26956],[140.23649,38.27226],[140.22789,38.26989],[140.22065,38.27413],[140.20924,38.27414],[140.20539,38.27172],[140.20741,38.26695],[140.21348,38.26357],[140.20707,38.25247],[140.21462,38.24839],[140.21082,38.24002],[140.21423,38.23779],[140.20868,38.23376],[140.20415,38.23739],[140.19797,38.23714],[140.18923,38.23274],[140.18011,38.2233],[140.18554,38.22259],[140.19071,38.22211],[140.19664,38.2243],[140.2007,38.21726],[140.21078,38.21064],[140.22305,38.21078],[140.23102,38.21214],[140.236,38.20744],[140.2405,38.2105],[140.24489,38.20916],[140.24691,38.20464],[140.24264,38.20112],[140.24494,38.19674],[140.2494,38.19448],[140.24564,38.18878],[140.24994,38.17871],[140.2557,38.17367],[140.26096,38.17364],[140.26462,38.17791],[140.27114,38.18063],[140.27408,38.18813],[140.28174,38.1874],[140.28576,38.17879],[140.28921,38.17849],[140.29616,38.18547],[140.30101,38.18477],[140.30485,38.18919],[140.31446,38.18442],[140.31547,38.18059],[140.31197,38.17402],[140.32264,38.17038],[140.34659,38.1668],[140.35957,38.1625],[140.3671,38.1584],[140.38569,38.16365],[140.38984,38.16153],[140.38897,38.15761],[140.397,38.15281],[140.41058,38.15122],[140.42006,38.14801],[140.4359,38.15021],[140.4396,38.14392],[140.44591,38.1436],[140.45201,38.15106],[140.46766,38.15698],[140.46965,38.17064],[140.48015,38.18214],[140.47763,38.19184],[140.4773,38.20079],[140.47233,38.2062],[140.47095,38.21457],[140.47429,38.22448],[140.46933,38.22833],[140.47107,38.23478],[140.46921,38.24292],[140.47253,38.25223],[140.4695,38.25641],[140.47281,38.2614],[140.47118,38.26936],[140.47301,38.27182],[140.48788,38.2745],[140.49199,38.28012],[140.49695,38.28314],[140.49253,38.29276],[140.49259,38.30269],[140.50069,38.30381],[140.50428,38.30807],[140.50431,38.31414],[140.51174,38.31116],[140.52028,38.30952],[140.52391,38.3168],[140.52974,38.3207],[140.53066,38.3252],[140.52511,38.33268],[140.52167,38.34967]]]},"properties":{"pref":"山形県","city":"山形市","code5":"06201","code6":"062014"}},
{"type":"Feature","geometry":{"type":"Polygon","coordinates":[[[140.26713,37.91758],[140.26211,37.9226],[140.2512,37.92],[140.24654,37.91715],[140.23851,37.91924],[140.23054,37.91663],[140.22332,37.90861],[140.22606,37.90703],[140.22187,37.90093],[140.21204,37.89614],[140.20264,37.89771],[140.19453,37.90065],[140.19552,37.90795],[140.18998,37.9131],[140.18738,37.92105],[140.19025,37.9254],[140.1845,37.92913],[140.18724,37.93309],[140.18504,37.93873],[140.17899,37.93501],[140.17608,37.93685],[140.16448,37.93903],[140.16635,37.94349],[140.16482,37.95145],[140.1608,37.95747],[140.16034,37.96267],[140.15227,37.96452],[140.15094,37.96834],[140.14484,37.97118],[140.14789,37.97903],[140.13685,37.97765],[140.13801,37.97433],[140.12807,37.96572],[140.12373,37.96549],[140.12816,37.97426],[140.12669,37.97585],[140.13212,37.98488],[140.12714,37.98707],[140.12204,37.98241],[140.11837,37.97373],[140.11152,37.97542],[140.10697,37.97449],[140.10477,37.96979],[140.09196,37.97718],[140.07998,37.97402],[140.06733,37.96846],[140.05866,37.96256],[140.052,37.95506],[140.05062,37.94934],[140.05767,37.94746],[140.0522,37.94149],[140.04656,37.9394],[140.03871,37.94244],[140.03405,37.9401],[140.03151,37.93133],[140.03449,37.9202],[140.02261,37.91482],[140.01776,37.90973],[140.0123,37.90068],[140.0062,37.89762],[139.99289,37.89727],[139.99092,37.8945],[139.97987,37.89572],[139.98234,37.88898],[139.97431,37.88376],[139.96685,37.88394],[139.95997,37.88182],[139.95831,37.87752],[139.94953,37.87483],[139.94314,37.86845],[139.9388,37.86663],[139.93628,37.86042],[139.93494,37.84454],[139.93925,37.83229],[139.93726,37.8282],[139.94088,37.82174],[139.94988,37.81637],[139.95792,37.81486],[139.96213,37.8058],[139.96015,37.79565],[139.96882,37.78747],[139.96726,37.78381],[139.97339,37.77578],[139.97876,37.77375],[139.97804,37.76624],[139.9865,37.76041],[139.99257,37.7587],[139.99855,37.76136],[140.00199,37.7594],[140.01023,37.76399],[140.01928,37.76196],[140.02186,37.7653],[140.03087,37.76769],[140.0375,37.76798],[140.0447,37.77399],[140.04848,37.77905],[140.0646,37.7678],[140.06904,37.7579],[140.08032,37.75609],[140.08678,37.758],[140.09622,37.74693],[140.09649,37.74376],[140.10228,37.73761],[140.10708,37.73818],[140.11537,37.73436],[140.12737,37.73392],[140.1327,37.73812],[140.14008,37.73943],[140.14601,37.75272],[140.15402,37.7534],[140.16156,37.75672],[140.17194,37.75604],[140.17826,37.7565],[140.19156,37.7531],[140.1996,37.75281],[140.20439,37.7477],[140.21555,37.7482],[140.21868,37.74618],[140.23725,37.74647],[140.24437,37.75841],[140.25495,37.76462],[140.25541,37.76817],[140.26048,37.77097],[140.26618,37.77918],[140.27629,37.78177],[140.27861,37.7882],[140.28234,37.79197],[140.28221,37.79823],[140.29034,37.80126],[140.2988,37.80781],[140.29058,37.8151],[140.28658,37.81523],[140.27831,37.82107],[140.26878,37.82409],[140.26212,37.83442],[140.26218,37.84039],[140.2673,37.84768],[140.2653,37.85482],[140.26563,37.86255],[140.26993,37.86668],[140.26993,37.87429],[140.26492,37.87952],[140.26494,37.88623],[140.27072,37.89074],[140.26706,37.89672],[140.26464,37.90622],[140.26457,37.91209],[140.26713,37.91758]]]},"properties":{"pref":"山形県","city":"米沢市","code5":"06202","code6":"062022"}},
{"type":"Feature","geometry":{"type":"Polygon","coordinates":[[[140.0262,38.54681],[140.02929,38.55277],[140.03009,38.55912],[140.0223,38.57248],[140.02076,38.5866],[140.01911,38.58934],[140.0001,38.59673],[139.992,38.60502],[139.9888,38.61652],[139.99148,38.62715],[139.99665,38.63548],[139.99625,38.63838],[139.98772,38.65149],[139.98355,38.6628],[139.98739,38.67119],[139.98679,38.67742],[139.98942,38.68546],[139.9878,38.696],[139.99166,38.70131],[139.98638,38.70751],[139.9894,38.71447],[139.99517,38.71823],[139.99969,38.72466],[139.99593,38.73102],[139.99441,38.7378],[139.99595,38.74266],[139.99411,38.74728],[139.9746,38.75353],[139.97286,38.75153],[139.96459,38.75283],[139.95945,38.75008],[139.94501,38.7541],[139.94545,38.7604],[139.94871,38.76474],[139.94696,38.77232],[139.94174,38.77312],[139.92709,38.78704],[139.92029,38.78787],[139.91713,38.7984],[139.90859,38.80222],[139.89903,38.80887],[139.89592,38.81665],[139.88435,38.82069],[139.87466,38.82097],[139.8696,38.82662],[139.86141,38.81699],[139.86698,38.8138],[139.8765,38.79502],[139.88341,38.79417],[139.8885,38.79129],[139.88882,38.78609],[139.88366,38.77899],[139.87994,38.77039],[139.87577,38.76525],[139.87144,38.76544],[139.86953,38.76037],[139.87071,38.75366],[139.86719,38.74936],[139.8555,38.74929],[139.84865,38.75392],[139.85379,38.76351],[139.85133,38.77097],[139.84538,38.775],[139.84346,38.78266],[139.83431,38.78126],[139.83168,38.78457],[139.8207,38.78387],[139.81683,38.78723],[139.81087,38.78529],[139.81033,38.79417],[139.81912,38.79313],[139.82309,38.7992],[139.82075,38.80294],[139.82485,38.80949],[139.82368,38.81732],[139.82342,38.81108],[139.8127,38.81319],[139.80406,38.81237],[139.79321,38.81395],[139.78738,38.80376],[139.76861,38.80387],[139.76177,38.80024],[139.7534,38.78543],[139.74643,38.77519],[139.74417,38.77427],[139.7395,38.77117],[139.73951,38.77115],[139.73781,38.77035],[139.73349,38.76832],[139.73033,38.7638],[139.72391,38.76295],[139.72339,38.76304],[139.72344,38.76294],[139.72426,38.76126],[139.70768,38.75018],[139.70579,38.74447],[139.69667,38.73417],[139.69878,38.73119],[139.69183,38.72487],[139.68527,38.72232],[139.68121,38.71757],[139.673,38.71911],[139.66255,38.71174],[139.66062,38.7043],[139.65228,38.70152],[139.65008,38.69555],[139.64191,38.69079],[139.63525,38.68466],[139.62856,38.68673],[139.62438,38.68463],[139.62113,38.67848],[139.61016,38.66949],[139.61124,38.66432],[139.60603,38.66118],[139.60034,38.65113],[139.59533,38.64584],[139.59483,38.64208],[139.58865,38.62843],[139.57695,38.61163],[139.5701,38.59957],[139.56396,38.59519],[139.56431,38.59066],[139.55961,38.58651],[139.55755,38.57547],[139.54582,38.56245],[139.54822,38.55978],[139.54385,38.55623],[139.54781,38.55295],[139.55134,38.55197],[139.5566,38.54524],[139.56509,38.54256],[139.57176,38.53851],[139.57714,38.53962],[139.58283,38.53253],[139.59547,38.52682],[139.59945,38.52222],[139.61389,38.52625],[139.62168,38.5254],[139.63139,38.52178],[139.64052,38.51083],[139.64736,38.51059],[139.65306,38.50697],[139.66203,38.50846],[139.66711,38.5065],[139.68288,38.50496],[139.69291,38.50683],[139.70162,38.5016],[139.72072,38.49635],[139.72083,38.49216],[139.72576,38.48656],[139.71605,38.47903],[139.71227,38.47921],[139.71204,38.47173],[139.71597,38.46721],[139.71515,38.45944],[139.72013,38.45069],[139.71651,38.43213],[139.71856,38.42922],[139.71704,38.42099],[139.71204,38.4127],[139.70589,38.40758],[139.70339,38.40022],[139.7048,38.39356],[139.71233,38.38694],[139.72206,38.39402],[139.72581,38.39164],[139.72624,38.38735],[139.73112,38.38145],[139.72894,38.37684],[139.73288,38.37142],[139.75228,38.35897],[139.76163,38.36106],[139.77072,38.35291],[139.77502,38.35397],[139.78394,38.35297],[139.78964,38.34871],[139.79816,38.35157],[139.80357,38.35507],[139.81649,38.35601],[139.81997,38.3519],[139.82545,38.35034],[139.82724,38.345],[139.83872,38.34279],[139.84838,38.3428],[139.84773,38.33658],[139.85689,38.33228],[139.86532,38.32577],[139.86688,38.32163],[139.87481,38.31677],[139.88292,38.32625],[139.89256,38.33203],[139.89513,38.33091],[139.90296,38.33992],[139.90462,38.3458],[139.90233,38.34833],[139.91048,38.35684],[139.91738,38.36681],[139.91275,38.37227],[139.91,38.37906],[139.91326,38.3867],[139.91653,38.38739],[139.92127,38.39344],[139.91658,38.4034],[139.9145,38.41079],[139.91842,38.41878],[139.92704,38.42023],[139.9296,38.42676],[139.93448,38.43349],[139.93345,38.44806],[139.92516,38.44985],[139.92503,38.45455],[139.92918,38.45996],[139.92762,38.46528],[139.93124,38.46889],[139.9262,38.47956],[139.93231,38.48441],[139.94071,38.4868],[139.94202,38.48979],[139.93477,38.49435],[139.93201,38.50222],[139.93443,38.50437],[139.94737,38.50639],[139.95179,38.5101],[139.95431,38.51535],[139.96461,38.51837],[139.98008,38.52672],[139.98885,38.53461],[140.00307,38.54136],[140.00755,38.53929],[140.01642,38.54463],[140.0262,38.54681]]]},"properties":{"pref":"山形県","city":"鶴岡市","code5":"06203","code6":"062031"}},
{"type":"Feature","geometry":{"type":"MultiPolygon","coordinates":[[[[140.06246,39.09289],[140.06,39.08276],[140.04334,39.07057],[140.04012,39.06932],[140.03747,39.05848],[140.03852,39.04635],[140.03079,39.04467],[140.01994,39.02425],[140.01693,39.02169],[140.01546,39.01073],[140.01235,39.00844],[139.99302,39.00761],[139.98705,39.00652],[139.97674,39.00115],[139.97068,39.00239],[139.96328,38.99638],[139.95916,38.99641],[139.94757,38.99304],[139.94676,38.9906],[139.93883,38.9875],[139.92307,38.98588],[139.91784,38.98932],[139.90859,38.98888],[139.89991,38.99149],[139.90127,38.99994],[139.89633,38.99837],[139.87635,39.00116],[139.87044,38.99963],[139.87207,38.99492],[139.86796,38.99108],[139.867,38.9801],[139.85714,38.97598],[139.85097,38.97761],[139.84878,38.98086],[139.84023,38.98511],[139.83276,38.97355],[139.82601,38.97486],[139.81889,38.96052],[139.82945,38.95797],[139.83374,38.96398],[139.83753,38.96286],[139.83153,38.95465],[139.82401,38.95326],[139.82177,38.94923],[139.81429,38.95034],[139.81156,38.94488],[139.81777,38.94299],[139.816,38.93684],[139.80793,38.93615],[139.80523,38.93073],[139.81026,38.9292],[139.80494,38.91135],[139.80362,38.90239],[139.79507,38.87892],[139.79287,38.87088],[139.78103,38.84315],[139.7774,38.83235],[139.76177,38.80024],[139.76861,38.80387],[139.78738,38.80376],[139.79321,38.81395],[139.80406,38.81237],[139.8127,38.81319],[139.82342,38.81108],[139.82368,38.81732],[139.82306,38.81988],[139.81516,38.82141],[139.81613,38.82818],[139.81464,38.83843],[139.82123,38.83899],[139.8258,38.83346],[139.83265,38.83139],[139.84009,38.82657],[139.84701,38.82451],[139.86323,38.8261],[139.86427,38.82922],[139.86114,38.82923],[139.85681,38.84586],[139.8578,38.85318],[139.84864,38.85735],[139.84874,38.86367],[139.86632,38.85837],[139.87285,38.85418],[139.87447,38.85044],[139.88329,38.84862],[139.88975,38.8515],[139.88581,38.85633],[139.88428,38.86565],[139.90016,38.86955],[139.9055,38.87627],[139.8996,38.88298],[139.9026,38.88453],[139.9166,38.88463],[139.91616,38.88065],[139.93746,38.87319],[139.94515,38.8649],[139.94053,38.85646],[139.93403,38.85408],[139.94812,38.84514],[139.94335,38.8411],[139.95132,38.83414],[139.96858,38.82864],[139.96705,38.81599],[139.9736,38.81437],[139.97939,38.81634],[139.98956,38.81058],[139.99341,38.80659],[139.99603,38.79333],[139.99874,38.79178],[140.00981,38.79446],[140.01891,38.79372],[140.02769,38.78826],[140.03217,38.77712],[140.0382,38.77588],[140.04277,38.78153],[140.04644,38.7818],[140.05534,38.78904],[140.06561,38.78868],[140.07347,38.79773],[140.08321,38.79937],[140.08535,38.8021],[140.08024,38.80548],[140.07692,38.81427],[140.08953,38.81908],[140.09185,38.81809],[140.10729,38.81837],[140.11159,38.81743],[140.11721,38.82087],[140.11747,38.83113],[140.11287,38.8354],[140.10252,38.83693],[140.08771,38.84239],[140.09033,38.85366],[140.08869,38.85802],[140.09259,38.86337],[140.101,38.86708],[140.10484,38.86651],[140.11406,38.86901],[140.12067,38.87344],[140.11457,38.87732],[140.11851,38.88243],[140.11775,38.88682],[140.11943,38.89711],[140.12865,38.90424],[140.13302,38.90577],[140.13885,38.91114],[140.14025,38.91569],[140.13034,38.91628],[140.12205,38.92474],[140.12277,38.93209],[140.12139,38.94135],[140.12671,38.94554],[140.13758,38.94366],[140.14233,38.94744],[140.1408,38.95549],[140.13761,38.96063],[140.14711,38.96982],[140.14399,38.97635],[140.13753,38.98153],[140.13084,38.98325],[140.12451,38.98072],[140.11595,38.9818],[140.11155,38.98501],[140.11025,38.99307],[140.11726,38.99467],[140.12095,39.00232],[140.12162,39.00971],[140.11866,39.01872],[140.11453,39.02467],[140.11943,39.02626],[140.12289,39.03089],[140.13126,39.03379],[140.13496,39.04275],[140.13988,39.04596],[140.1508,39.04918],[140.14389,39.06134],[140.13743,39.06549],[140.12984,39.063],[140.12479,39.06384],[140.11686,39.06823],[140.1149,39.07778],[140.10272,39.0831],[140.08353,39.08511],[140.07351,39.08687],[140.06246,39.09289]]],[[[139.55039,39.20855],[139.55019,39.20288],[139.54724,39.19853],[139.54152,39.19501],[139.5398,39.18921],[139.54214,39.18229],[139.54475,39.18139],[139.55019,39.1905],[139.55415,39.19338],[139.56309,39.19561],[139.56477,39.19867],[139.55039,39.20855]]]]},"properties":{"pref":"山形県","city":"酒田市","code5":"06204","code6":"062049"}},
{"type":"Feature","geometry":{"type":"Polygon","coordinates":[[[140.49229,38.90221],[140.48677,38.90275],[140.4608,38.8876],[140.44341,38.87846],[140.43423,38.86893],[140.4268,38.86432],[140.41966,38.86663],[140.41361,38.8638],[140.40748,38.86613],[140.4037,38.86408],[140.40329,38.85815],[140.39763,38.85613],[140.39525,38.85083],[140.38726,38.84611],[140.38392,38.84725],[140.37596,38.84314],[140.36805,38.84581],[140.35835,38.8455],[140.35371,38.84373],[140.34524,38.84714],[140.32712,38.84969],[140.32085,38.84949],[140.31421,38.84529],[140.31045,38.84732],[140.30198,38.84695],[140.29415,38.84876],[140.29227,38.84082],[140.30216,38.83927],[140.30255,38.83398],[140.31279,38.83384],[140.3136,38.82458],[140.3022,38.82388],[140.29953,38.81854],[140.29288,38.81869],[140.28741,38.81616],[140.28742,38.81298],[140.28056,38.80486],[140.27343,38.80271],[140.26162,38.79111],[140.27237,38.78599],[140.26915,38.77684],[140.26012,38.77295],[140.25291,38.77239],[140.24662,38.7667],[140.24081,38.77037],[140.22996,38.76896],[140.22619,38.76613],[140.21993,38.76818],[140.21577,38.76531],[140.20802,38.7588],[140.19918,38.75692],[140.20763,38.74217],[140.20268,38.73698],[140.20384,38.73047],[140.2021,38.72538],[140.19323,38.72233],[140.19802,38.71525],[140.2047,38.71246],[140.21146,38.71875],[140.22219,38.72049],[140.22968,38.72347],[140.24397,38.71954],[140.25743,38.71731],[140.26027,38.71497],[140.26288,38.70736],[140.25738,38.70588],[140.261,38.69819],[140.26731,38.70059],[140.28115,38.69878],[140.28923,38.70455],[140.30232,38.70104],[140.30468,38.7045],[140.31287,38.70959],[140.31354,38.7148],[140.32477,38.7188],[140.3271,38.72263],[140.34296,38.72567],[140.34987,38.72863],[140.35915,38.73723],[140.36002,38.74267],[140.36976,38.74746],[140.38523,38.74639],[140.38938,38.7518],[140.39032,38.75568],[140.39929,38.76122],[140.40936,38.77135],[140.4133,38.77727],[140.41851,38.77854],[140.42513,38.78994],[140.42528,38.79532],[140.41881,38.80306],[140.42414,38.8099],[140.42945,38.81964],[140.43643,38.8212],[140.44235,38.83019],[140.44943,38.83249],[140.44715,38.83767],[140.45098,38.8425],[140.45954,38.84542],[140.46331,38.84918],[140.47176,38.85403],[140.47576,38.85879],[140.48557,38.86289],[140.4847,38.87888],[140.48698,38.88609],[140.49028,38.88967],[140.49432,38.899],[140.49229,38.90221]]]},"properties":{"pref":"山形県","city":"新庄市","code5":"06205","code6":"062057"}},
{"type":"Feature","geometry":{"type":"Polygon","coordinates":[[[140.20807,38.53303],[140.18962,38.53312],[140.18373,38.53176],[140.17921,38.53531],[140.16699,38.53023],[140.16196,38.53063],[140.16049,38.52644],[140.15095,38.51769],[140.15118,38.51405],[140.15405,38.51011],[140.16371,38.50499],[140.17461,38.49546],[140.17944,38.48703],[140.18852,38.476],[140.18254,38.47102],[140.18009,38.46125],[140.18546,38.4517],[140.18545,38.44131],[140.19312,38.43572],[140.20049,38.4343],[140.19769,38.42154],[140.19315,38.4112],[140.19946,38.40697],[140.20222,38.40249],[140.19599,38.40164],[140.18831,38.40374],[140.18136,38.39975],[140.18165,38.39686],[140.19074,38.39111],[140.20785,38.3929],[140.21852,38.387],[140.21743,38.38129],[140.20982,38.37613],[140.21348,38.36958],[140.21826,38.36873],[140.22579,38.35692],[140.22279,38.3421],[140.23108,38.34616],[140.2498,38.34968],[140.25702,38.35407],[140.26166,38.35379],[140.26241,38.35449],[140.26417,38.35956],[140.26828,38.35954],[140.27213,38.35558],[140.26979,38.34914],[140.27065,38.34525],[140.2831,38.34221],[140.29208,38.34522],[140.29335,38.35426],[140.30637,38.35069],[140.30689,38.34537],[140.3102,38.34838],[140.30925,38.35918],[140.31755,38.36513],[140.32199,38.37533],[140.31955,38.38078],[140.30652,38.38314],[140.30102,38.38918],[140.28985,38.39453],[140.28797,38.40513],[140.28299,38.41206],[140.26819,38.41028],[140.27036,38.41752],[140.26538,38.42443],[140.26112,38.42545],[140.26096,38.43101],[140.25779,38.43445],[140.25523,38.44279],[140.25441,38.45096],[140.26101,38.45671],[140.26333,38.46471],[140.25649,38.46803],[140.25446,38.4721],[140.24805,38.47643],[140.24636,38.49278],[140.23951,38.50292],[140.24032,38.50777],[140.2369,38.51661],[140.23214,38.51999],[140.22646,38.51935],[140.2207,38.52164],[140.21043,38.52947],[140.20807,38.53303]],[[140.2376,38.38185],[140.24262,38.38314],[140.24439,38.37616],[140.23612,38.37916],[140.2376,38.38185]]]},"properties":{"pref":"山形県","city":"寒河江市","code5":"06206","code6":"062065"}},
{"type":"Feature","geometry":{"type":"Polygon","coordinates":[[[140.44591,38.1436],[140.4396,38.14392],[140.4359,38.15021],[140.42006,38.14801],[140.41058,38.15122],[140.397,38.15281],[140.38897,38.15761],[140.38984,38.16153],[140.38569,38.16365],[140.3671,38.1584],[140.35957,38.1625],[140.34659,38.1668],[140.32264,38.17038],[140.31197,38.17402],[140.31547,38.18059],[140.31446,38.18442],[140.30485,38.18919],[140.30101,38.18477],[140.29616,38.18547],[140.28921,38.17849],[140.28576,38.17879],[140.28174,38.1874],[140.27408,38.18813],[140.27114,38.18063],[140.26462,38.17791],[140.26096,38.17364],[140.2557,38.17367],[140.24994,38.17871],[140.24564,38.18878],[140.2494,38.19448],[140.24494,38.19674],[140.24264,38.20112],[140.24691,38.20464],[140.24489,38.20916],[140.2405,38.2105],[140.236,38.20744],[140.23102,38.21214],[140.22305,38.21078],[140.21078,38.21064],[140.2007,38.21726],[140.19664,38.2243],[140.19071,38.22211],[140.18554,38.22259],[140.19291,38.21037],[140.19388,38.20471],[140.19272,38.19572],[140.19644,38.18562],[140.20193,38.18269],[140.19853,38.16832],[140.20627,38.16438],[140.20555,38.15817],[140.20224,38.15141],[140.20997,38.14276],[140.20634,38.13722],[140.18292,38.13333],[140.18533,38.12461],[140.19091,38.1187],[140.19953,38.11363],[140.21048,38.11059],[140.2108,38.10285],[140.21313,38.09868],[140.22366,38.09842],[140.22929,38.09535],[140.23806,38.09387],[140.23769,38.08786],[140.23352,38.0825],[140.24793,38.08153],[140.25295,38.07566],[140.26143,38.07234],[140.26851,38.06294],[140.26918,38.05926],[140.27709,38.05616],[140.28193,38.05952],[140.28908,38.05934],[140.29212,38.05581],[140.29661,38.05715],[140.30448,38.05402],[140.30843,38.05768],[140.315,38.05839],[140.3176,38.05606],[140.32498,38.05501],[140.3317,38.05624],[140.3446,38.05337],[140.35005,38.05399],[140.35564,38.05848],[140.36454,38.05631],[140.37498,38.05744],[140.3824,38.06436],[140.38016,38.06947],[140.39184,38.07101],[140.39655,38.06936],[140.40345,38.07072],[140.40419,38.07373],[140.41767,38.08034],[140.42066,38.08526],[140.41741,38.10292],[140.42561,38.11492],[140.42387,38.11939],[140.43104,38.12686],[140.44569,38.12985],[140.44263,38.13576],[140.44591,38.1436]]]},"properties":{"pref":"山形県","city":"上山市","code5":"06207","code6":"062073"}},
{"type":"Feature","geometry":{"type":"Polygon","coordinates":[[[140.25446,38.4721],[140.26472,38.47357],[140.2887,38.46934],[140.29712,38.46424],[140.31799,38.45746],[140.32906,38.45543],[140.33275,38.4578],[140.34586,38.45541],[140.35947,38.46317],[140.3583,38.46651],[140.35166,38.46612],[140.34614,38.46022],[140.34092,38.4636],[140.34531,38.46653],[140.34713,38.47344],[140.35339,38.47079],[140.36676,38.47047],[140.36678,38.47233],[140.38243,38.47222],[140.38291,38.4694],[140.39526,38.46795],[140.40034,38.4691],[140.41138,38.4676],[140.42153,38.4706],[140.42685,38.46902],[140.43221,38.47015],[140.4391,38.47414],[140.44313,38.48348],[140.45164,38.4872],[140.46148,38.48729],[140.46051,38.48994],[140.46392,38.4969],[140.46149,38.50309],[140.45114,38.51029],[140.44439,38.51064],[140.43604,38.51521],[140.43022,38.52417],[140.43624,38.53503],[140.43757,38.54068],[140.43748,38.55104],[140.43549,38.56111],[140.42913,38.55864],[140.42033,38.56127],[140.42091,38.55469],[140.41676,38.55279],[140.41209,38.55743],[140.4119,38.5663],[140.40373,38.56924],[140.39491,38.56619],[140.38839,38.56763],[140.38432,38.56221],[140.37834,38.54468],[140.36894,38.54665],[140.36772,38.55102],[140.35941,38.55221],[140.35355,38.55554],[140.34124,38.55811],[140.33579,38.56244],[140.32831,38.56327],[140.32584,38.56881],[140.3189,38.57246],[140.31402,38.57898],[140.3099,38.57638],[140.30353,38.5787],[140.29757,38.57488],[140.29226,38.57765],[140.2786,38.56717],[140.26773,38.56819],[140.25874,38.57248],[140.24635,38.56992],[140.24106,38.5685],[140.23711,38.56188],[140.23521,38.55091],[140.22899,38.55032],[140.22244,38.54592],[140.21727,38.54546],[140.21293,38.54018],[140.21148,38.53503],[140.20807,38.53303],[140.21043,38.52947],[140.2207,38.52164],[140.22646,38.51935],[140.23214,38.51999],[140.2369,38.51661],[140.24032,38.50777],[140.23951,38.50292],[140.24636,38.49278],[140.24805,38.47643],[140.25446,38.4721]]]},"properties":{"pref":"山形県","city":"村山市","code5":"06208","code6":"062081"}},
{"type":"Feature","geometry":{"type":"Polygon","coordinates":[[[139.91657,38.24642],[139.91165,38.24552],[139.90206,38.23491],[139.90271,38.2253],[139.89911,38.21661],[139.8913,38.21278],[139.87729,38.19965],[139.88269,38.18938],[139.88069,38.1868],[139.87901,38.16896],[139.88442,38.16196],[139.8819,38.15806],[139.88504,38.15478],[139.89254,38.15322],[139.89506,38.14682],[139.89174,38.14003],[139.88732,38.13705],[139.8874,38.13105],[139.89435,38.12156],[139.89516,38.11271],[139.8985,38.10724],[139.90392,38.10614],[139.90693,38.09967],[139.91429,38.0986],[139.91642,38.10104],[139.92996,38.10059],[139.94582,38.09114],[139.94769,38.08687],[139.95434,38.0857],[139.96772,38.08859],[139.97648,38.08824],[139.98466,38.09082],[139.99876,38.08395],[140.01142,38.08141],[140.01519,38.07927],[140.01409,38.07138],[140.02402,38.06998],[140.02206,38.06552],[140.024,38.06193],[140.02088,38.05361],[140.02332,38.04818],[140.02965,38.04252],[140.03264,38.04147],[140.04303,38.04996],[140.05551,38.04972],[140.05691,38.05581],[140.06463,38.06639],[140.07058,38.06519],[140.07348,38.06879],[140.07915,38.07085],[140.08862,38.07908],[140.09107,38.08456],[140.09677,38.09072],[140.09662,38.09764],[140.10067,38.10153],[140.10871,38.11274],[140.10627,38.11481],[140.10533,38.12302],[140.10993,38.1291],[140.10438,38.13203],[140.09727,38.13834],[140.09411,38.13678],[140.09064,38.12926],[140.0822,38.1314],[140.07654,38.13631],[140.06817,38.13696],[140.05564,38.14177],[140.05054,38.14524],[140.05221,38.15501],[140.04061,38.15915],[140.02269,38.17103],[140.01444,38.17496],[140.00221,38.1766],[139.99246,38.17987],[139.98389,38.17869],[139.97755,38.17968],[139.97452,38.18433],[139.96993,38.18507],[139.96712,38.18988],[139.9579,38.19856],[139.96051,38.20374],[139.95164,38.2069],[139.94791,38.20599],[139.94073,38.20878],[139.94194,38.21504],[139.94523,38.22084],[139.94093,38.22388],[139.94416,38.23049],[139.93196,38.23412],[139.93025,38.23721],[139.92395,38.23931],[139.91657,38.24642]]]},"properties":{"pref":"山形県","city":"長井市","code5":"06209","code6":"062090"}},
{"type":"Feature","geometry":{"type":"Polygon","coordinates":[[[140.51494,38.35199],[140.50762,38.35495],[140.5007,38.35334],[140.49498,38.35873],[140.48652,38.36178],[140.47828,38.36811],[140.47096,38.3691],[140.4651,38.37749],[140.4563,38.38398],[140.4485,38.38709],[140.44304,38.3928],[140.43559,38.39698],[140.43488,38.40323],[140.42531,38.40467],[140.40531,38.399],[140.40246,38.39513],[140.39272,38.39646],[140.38577,38.39519],[140.37346,38.39695],[140.36587,38.40169],[140.34933,38.39642],[140.34012,38.39765],[140.33336,38.40027],[140.32904,38.39231],[140.33425,38.38734],[140.33157,38.38366],[140.32563,38.38297],[140.32199,38.37533],[140.31755,38.36513],[140.30925,38.35918],[140.3102,38.34838],[140.30689,38.34537],[140.31218,38.34152],[140.32467,38.33758],[140.3247,38.33197],[140.33,38.33157],[140.33178,38.32517],[140.34953,38.32341],[140.36095,38.31926],[140.37698,38.31658],[140.39352,38.31279],[140.40466,38.31301],[140.40973,38.31824],[140.41817,38.31247],[140.42536,38.31896],[140.43164,38.31981],[140.44024,38.32573],[140.4416,38.33399],[140.44699,38.33868],[140.45278,38.33721],[140.47043,38.33688],[140.48259,38.34285],[140.50524,38.34677],[140.51494,38.35199]]]},"properties":{"pref":"山形県","city":"天童市","code5":"06210","code6":"062103"}},
{"type":"Feature","geometry":{"type":"Polygon","coordinates":[[[140.58615,38.44053],[140.58561,38.44622],[140.58044,38.4471],[140.57794,38.45251],[140.56702,38.45011],[140.55692,38.45416],[140.55395,38.45912],[140.54602,38.45813],[140.53952,38.46085],[140.52982,38.45728],[140.52137,38.4722],[140.51597,38.47644],[140.51891,38.48005],[140.51573,38.4832],[140.4975,38.48497],[140.49164,38.48635],[140.48039,38.4854],[140.47351,38.48117],[140.46603,38.48205],[140.46148,38.48729],[140.45164,38.4872],[140.44313,38.48348],[140.4391,38.47414],[140.43221,38.47015],[140.42685,38.46902],[140.42153,38.4706],[140.41138,38.4676],[140.40034,38.4691],[140.39526,38.46795],[140.38291,38.4694],[140.38243,38.47222],[140.36678,38.47233],[140.36676,38.47047],[140.35339,38.47079],[140.34713,38.47344],[140.34531,38.46653],[140.34092,38.4636],[140.34614,38.46022],[140.35166,38.46612],[140.3583,38.46651],[140.35947,38.46317],[140.34586,38.45541],[140.34593,38.45273],[140.33791,38.44848],[140.34001,38.44208],[140.33894,38.43507],[140.34596,38.43037],[140.34342,38.42591],[140.32783,38.42494],[140.32704,38.42248],[140.337,38.41896],[140.33744,38.41262],[140.34107,38.41171],[140.3412,38.40582],[140.33336,38.40027],[140.34012,38.39765],[140.34933,38.39642],[140.36587,38.40169],[140.37346,38.39695],[140.38577,38.39519],[140.39272,38.39646],[140.40246,38.39513],[140.40531,38.399],[140.42531,38.40467],[140.43488,38.40323],[140.43559,38.39698],[140.44304,38.3928],[140.4485,38.38709],[140.4563,38.38398],[140.4651,38.37749],[140.47096,38.3691],[140.47828,38.36811],[140.48652,38.36178],[140.49498,38.35873],[140.5007,38.35334],[140.50762,38.35495],[140.51494,38.35199],[140.52167,38.34967],[140.52631,38.35753],[140.53374,38.36209],[140.54086,38.36209],[140.5454,38.36407],[140.55258,38.37653],[140.56324,38.3772],[140.56757,38.38533],[140.57823,38.39296],[140.57453,38.39668],[140.57204,38.41516],[140.57831,38.42035],[140.5817,38.43344],[140.58063,38.43744],[140.58615,38.44053]]]},"properties":{"pref":"山形県","city":"東根市","code5":"06211","code6":"062111"}},
{"type":"Feature","geometry":{"type":"Polygon","coordinates":[[[140.61968,38.45469],[140.62004,38.4552],[140.60821,38.4584],[140.60629,38.46329],[140.60816,38.46882],[140.60272,38.47886],[140.60435,38.48205],[140.59765,38.48737],[140.58372,38.49101],[140.57369,38.49491],[140.56741,38.5013],[140.56933,38.50435],[140.56346,38.51064],[140.5703,38.5153],[140.56778,38.51917],[140.57196,38.52564],[140.56835,38.52779],[140.56252,38.5267],[140.55442,38.53512],[140.55408,38.54076],[140.56474,38.54586],[140.56634,38.55166],[140.56985,38.55518],[140.56663,38.55956],[140.57864,38.56807],[140.571,38.58026],[140.572,38.58662],[140.56789,38.59001],[140.56955,38.59422],[140.55845,38.59764],[140.55827,38.60227],[140.56228,38.60491],[140.56034,38.60945],[140.55222,38.61334],[140.54687,38.62196],[140.54326,38.62405],[140.54242,38.62927],[140.53764,38.63384],[140.54414,38.64814],[140.54653,38.64968],[140.54392,38.65671],[140.54912,38.66122],[140.54508,38.66916],[140.54709,38.67104],[140.54369,38.67948],[140.5394,38.68544],[140.53016,38.68808],[140.52532,38.6938],[140.51534,38.69002],[140.51151,38.69053],[140.50511,38.69717],[140.49537,38.69765],[140.49123,38.69175],[140.48231,38.69514],[140.47141,38.69721],[140.47176,38.70341],[140.46427,38.70246],[140.46498,38.70806],[140.46113,38.71322],[140.45972,38.72137],[140.45235,38.71929],[140.44612,38.71434],[140.43836,38.71334],[140.4361,38.70954],[140.42508,38.70428],[140.41939,38.69973],[140.41676,38.70367],[140.40098,38.70324],[140.39288,38.70065],[140.3907,38.69594],[140.38302,38.69417],[140.37434,38.68513],[140.36787,38.68497],[140.35675,38.68861],[140.34957,38.68813],[140.34372,38.68324],[140.32531,38.67867],[140.31831,38.68232],[140.31274,38.67783],[140.32015,38.66381],[140.3185,38.65175],[140.31557,38.64755],[140.32695,38.64983],[140.33241,38.647],[140.33891,38.64624],[140.34213,38.64901],[140.35379,38.65022],[140.3515,38.64506],[140.3463,38.64207],[140.3577,38.63874],[140.36665,38.63933],[140.36928,38.63655],[140.37187,38.62856],[140.37697,38.62944],[140.38073,38.62405],[140.37581,38.6181],[140.37928,38.61508],[140.37761,38.60999],[140.3808,38.60625],[140.37906,38.59843],[140.38431,38.58925],[140.39357,38.59009],[140.40133,38.58834],[140.40092,38.57758],[140.40362,38.57588],[140.40373,38.56924],[140.4119,38.5663],[140.41209,38.55743],[140.41676,38.55279],[140.42091,38.55469],[140.42033,38.56127],[140.42913,38.55864],[140.43549,38.56111],[140.43748,38.55104],[140.43757,38.54068],[140.43624,38.53503],[140.43022,38.52417],[140.43604,38.51521],[140.44439,38.51064],[140.45114,38.51029],[140.46149,38.50309],[140.46392,38.4969],[140.46051,38.48994],[140.46148,38.48729],[140.46603,38.48205],[140.47351,38.48117],[140.48039,38.4854],[140.49164,38.48635],[140.4975,38.48497],[140.51573,38.4832],[140.51891,38.48005],[140.51597,38.47644],[140.52137,38.4722],[140.52982,38.45728],[140.53952,38.46085],[140.54602,38.45813],[140.55395,38.45912],[140.55692,38.45416],[140.56702,38.45011],[140.57794,38.45251],[140.58044,38.4471],[140.58561,38.44622],[140.58615,38.44053],[140.59236,38.44172],[140.59776,38.43653],[140.60443,38.44404],[140.60962,38.44644],[140.61258,38.4527],[140.61968,38.45469]]]},"properties":{"pref":"山形県","city":"尾花沢市","code5":"06212","code6":"062120"}},
{"type":"Feature","geometry":{"type":"Polygon","coordinates":[[[140.18011,38.2233],[140.17316,38.2227],[140.1687,38.21886],[140.16841,38.21524],[140.16138,38.19889],[140.15806,38.19657],[140.15807,38.19076],[140.15349,38.19058],[140.1481,38.17925],[140.14466,38.17671],[140.14704,38.1725],[140.13978,38.16654],[140.13439,38.15942],[140.13265,38.15234],[140.12613,38.14592],[140.12932,38.13694],[140.11739,38.13511],[140.11475,38.12889],[140.10993,38.1291],[140.10533,38.12302],[140.10627,38.11481],[140.10871,38.11274],[140.10067,38.10153],[140.09662,38.09764],[140.09677,38.09072],[140.09107,38.08456],[140.08862,38.07908],[140.07915,38.07085],[140.07348,38.06879],[140.07058,38.06519],[140.0698,38.05577],[140.07525,38.04925],[140.08148,38.04629],[140.09024,38.04776],[140.10003,38.04539],[140.10584,38.04013],[140.09978,38.03586],[140.10208,38.03094],[140.10748,38.0319],[140.10823,38.0258],[140.11699,38.02708],[140.11737,38.02318],[140.12166,38.02092],[140.12623,38.02293],[140.12898,38.02289],[140.13037,38.02323],[140.13533,38.02528],[140.15693,38.01944],[140.15851,38.02342],[140.16582,38.02582],[140.17021,38.03249],[140.18089,38.04118],[140.19452,38.03764],[140.19739,38.04021],[140.20408,38.04065],[140.21237,38.04331],[140.21122,38.04678],[140.2019,38.04865],[140.19948,38.05537],[140.20708,38.06058],[140.20822,38.06829],[140.21653,38.07548],[140.22656,38.07864],[140.23352,38.0825],[140.23769,38.08786],[140.23806,38.09387],[140.22929,38.09535],[140.22366,38.09842],[140.21313,38.09868],[140.2108,38.10285],[140.21048,38.11059],[140.19953,38.11363],[140.19091,38.1187],[140.18533,38.12461],[140.18292,38.13333],[140.20634,38.13722],[140.20997,38.14276],[140.20224,38.15141],[140.20555,38.15817],[140.20627,38.16438],[140.19853,38.16832],[140.20193,38.18269],[140.19644,38.18562],[140.19272,38.19572],[140.19388,38.20471],[140.19291,38.21037],[140.18554,38.22259],[140.18011,38.2233]]]},"properties":{"pref":"山形県","city":"南陽市","code5":"06213","code6":"062138"}},
{"type":"Feature","geometry":{"type":"Polygon","coordinates":[[[140.28419,38.31242],[140.27976,38.3187],[140.26643,38.31719],[140.25289,38.3117],[140.24425,38.31066],[140.23679,38.3071],[140.22553,38.3073],[140.21937,38.31632],[140.21228,38.31908],[140.20931,38.32533],[140.20413,38.32901],[140.19907,38.32791],[140.19396,38.32309],[140.18918,38.31551],[140.18912,38.31127],[140.19393,38.30636],[140.19099,38.30259],[140.19486,38.29231],[140.18759,38.29069],[140.18288,38.29477],[140.17743,38.28688],[140.17074,38.28363],[140.16514,38.27434],[140.16245,38.27347],[140.16019,38.26526],[140.1539,38.25622],[140.15633,38.25084],[140.15342,38.24265],[140.16038,38.24349],[140.16974,38.23966],[140.1735,38.22756],[140.17316,38.2227],[140.18011,38.2233],[140.18923,38.23274],[140.19797,38.23714],[140.20415,38.23739],[140.20868,38.23376],[140.21423,38.23779],[140.21082,38.24002],[140.21462,38.24839],[140.20707,38.25247],[140.21348,38.26357],[140.20741,38.26695],[140.20539,38.27172],[140.20924,38.27414],[140.22065,38.27413],[140.22789,38.26989],[140.23649,38.27226],[140.24392,38.26956],[140.25179,38.26867],[140.25402,38.27227],[140.26568,38.27348],[140.27651,38.27752],[140.27886,38.28465],[140.27606,38.28857],[140.28518,38.29701],[140.28834,38.3058],[140.28445,38.30817],[140.28419,38.31242]]]},"properties":{"pref":"山形県","county":"東村山郡","city":"山辺町","code5":"06301","code6":"063011"}},
{"type":"Feature","geometry":{"type":"Polygon","coordinates":[[[140.31218,38.34152],[140.30689,38.34537],[140.30637,38.35069],[140.29335,38.35426],[140.29208,38.34522],[140.2831,38.34221],[140.27065,38.34525],[140.26979,38.34914],[140.27213,38.35558],[140.26828,38.35954],[140.26417,38.35956],[140.26241,38.35449],[140.26166,38.35379],[140.25702,38.35407],[140.2498,38.34968],[140.23108,38.34616],[140.22279,38.3421],[140.22236,38.3361],[140.2187,38.32933],[140.20774,38.33412],[140.20413,38.32901],[140.20931,38.32533],[140.21228,38.31908],[140.21937,38.31632],[140.22553,38.3073],[140.23679,38.3071],[140.24425,38.31066],[140.25289,38.3117],[140.26643,38.31719],[140.27976,38.3187],[140.28419,38.31242],[140.29716,38.31638],[140.30023,38.31544],[140.30491,38.32402],[140.30689,38.33338],[140.30578,38.33776],[140.31218,38.34152]]]},"properties":{"pref":"山形県","county":"東村山郡","city":"中山町","code5":"06302","code6":"063029"}},
{"type":"Feature","geometry":{"type":"Polygon","coordinates":[[[140.32199,38.37533],[140.32563,38.38297],[140.33157,38.38366],[140.33425,38.38734],[140.32904,38.39231],[140.33336,38.40027],[140.3412,38.40582],[140.34107,38.41171],[140.33744,38.41262],[140.337,38.41896],[140.32704,38.42248],[140.32783,38.42494],[140.34342,38.42591],[140.34596,38.43037],[140.33894,38.43507],[140.34001,38.44208],[140.33791,38.44848],[140.34593,38.45273],[140.34586,38.45541],[140.33275,38.4578],[140.32906,38.45543],[140.31799,38.45746],[140.29712,38.46424],[140.2887,38.46934],[140.26472,38.47357],[140.25446,38.4721],[140.25649,38.46803],[140.26333,38.46471],[140.26101,38.45671],[140.25441,38.45096],[140.25523,38.44279],[140.25779,38.43445],[140.26096,38.43101],[140.26112,38.42545],[140.26538,38.42443],[140.27036,38.41752],[140.26819,38.41028],[140.28299,38.41206],[140.28797,38.40513],[140.28985,38.39453],[140.30102,38.38918],[140.30652,38.38314],[140.31955,38.38078],[140.32199,38.37533]]]},"properties":{"pref":"山形県","county":"西村山郡","city":"河北町","code5":"06321","code6":"063215"}},
{"type":"Feature","geometry":{"type":"Polygon","coordinates":[[[139.87481,38.31677],[139.87933,38.30343],[139.88852,38.30096],[139.89889,38.29315],[139.89982,38.28744],[139.89802,38.27804],[139.8999,38.27581],[139.91135,38.27259],[139.91573,38.26704],[139.92145,38.26288],[139.92377,38.26576],[139.93919,38.26991],[139.94508,38.27338],[139.94703,38.28163],[139.94573,38.28398],[139.95165,38.29338],[139.95116,38.3005],[139.95459,38.3076],[139.96218,38.31162],[139.96281,38.31577],[139.97221,38.3142],[139.97508,38.31651],[139.98684,38.32112],[139.98834,38.32858],[140.00597,38.33308],[140.01039,38.33727],[140.00667,38.35118],[140.01131,38.36583],[140.00863,38.36962],[140.01173,38.37414],[140.0054,38.38024],[140.00957,38.3865],[140.01349,38.39976],[140.01975,38.40391],[140.02615,38.40261],[140.03905,38.39688],[140.04596,38.39155],[140.04855,38.38624],[140.05639,38.38445],[140.06226,38.38089],[140.06716,38.38487],[140.07046,38.39513],[140.07815,38.39865],[140.08115,38.40259],[140.08877,38.40638],[140.1054,38.40718],[140.11641,38.40163],[140.12794,38.40433],[140.1322,38.40279],[140.14028,38.40762],[140.14417,38.40378],[140.15034,38.40183],[140.16313,38.40326],[140.16618,38.40051],[140.17335,38.40189],[140.18136,38.39975],[140.18831,38.40374],[140.19599,38.40164],[140.20222,38.40249],[140.19946,38.40697],[140.19315,38.4112],[140.19769,38.42154],[140.20049,38.4343],[140.19312,38.43572],[140.18545,38.44131],[140.18546,38.4517],[140.18009,38.46125],[140.18254,38.47102],[140.18852,38.476],[140.17944,38.48703],[140.17461,38.49546],[140.16371,38.50499],[140.15405,38.51011],[140.15118,38.51405],[140.14305,38.50945],[140.12504,38.50423],[140.12258,38.49382],[140.11501,38.49365],[140.09658,38.50866],[140.08968,38.51221],[140.0803,38.51125],[140.07468,38.50507],[140.0655,38.50383],[140.06302,38.50019],[140.05019,38.49635],[140.04175,38.49931],[140.035,38.50568],[140.03738,38.51087],[140.03545,38.51341],[140.03693,38.52129],[140.03576,38.53274],[140.03237,38.53958],[140.0262,38.54681],[140.01642,38.54463],[140.00755,38.53929],[140.00307,38.54136],[139.98885,38.53461],[139.98008,38.52672],[139.96461,38.51837],[139.95431,38.51535],[139.95179,38.5101],[139.94737,38.50639],[139.93443,38.50437],[139.93201,38.50222],[139.93477,38.49435],[139.94202,38.48979],[139.94071,38.4868],[139.93231,38.48441],[139.9262,38.47956],[139.93124,38.46889],[139.92762,38.46528],[139.92918,38.45996],[139.92503,38.45455],[139.92516,38.44985],[139.93345,38.44806],[139.93448,38.43349],[139.9296,38.42676],[139.92704,38.42023],[139.91842,38.41878],[139.9145,38.41079],[139.91658,38.4034],[139.92127,38.39344],[139.91653,38.38739],[139.91326,38.3867],[139.91,38.37906],[139.91275,38.37227],[139.91738,38.36681],[139.91048,38.35684],[139.90233,38.34833],[139.90462,38.3458],[139.90296,38.33992],[139.89513,38.33091],[139.89256,38.33203],[139.88292,38.32625],[139.87481,38.31677]]]},"properties":{"pref":"山形県","county":"西村山郡","city":"西川町","code5":"06322","code6":"063223"}},
{"type":"Feature","geometry":{"type":"Polygon","coordinates":[[[139.97755,38.17968],[139.98255,38.18331],[139.99276,38.18782],[139.99478,38.1912],[139.98872,38.19825],[139.99607,38.21197],[139.99587,38.21649],[140.00037,38.22492],[140.00701,38.2283],[140.00924,38.23696],[140.01253,38.24297],[140.02217,38.24383],[140.03127,38.24772],[140.04248,38.24455],[140.04582,38.2467],[140.04923,38.25573],[140.05582,38.26172],[140.06284,38.26576],[140.07141,38.26695],[140.0745,38.26132],[140.08642,38.25007],[140.08658,38.2444],[140.09009,38.24121],[140.09493,38.24582],[140.1059,38.25131],[140.11318,38.24763],[140.1253,38.25691],[140.13719,38.25374],[140.14468,38.25338],[140.15048,38.24399],[140.15342,38.24265],[140.15633,38.25084],[140.1539,38.25622],[140.16019,38.26526],[140.16245,38.27347],[140.16514,38.27434],[140.17074,38.28363],[140.17743,38.28688],[140.18288,38.29477],[140.18759,38.29069],[140.19486,38.29231],[140.19099,38.30259],[140.19393,38.30636],[140.18912,38.31127],[140.18918,38.31551],[140.19396,38.32309],[140.19907,38.32791],[140.19211,38.32821],[140.182,38.32483],[140.18821,38.33966],[140.18617,38.34567],[140.19748,38.34876],[140.19866,38.35314],[140.19286,38.35471],[140.18854,38.35196],[140.17167,38.35787],[140.15977,38.35849],[140.15109,38.36069],[140.14161,38.35266],[140.13397,38.35426],[140.11982,38.34945],[140.11258,38.34913],[140.10541,38.34558],[140.10287,38.34027],[140.09786,38.34],[140.09843,38.33538],[140.08811,38.32572],[140.08774,38.31903],[140.08028,38.31524],[140.07252,38.31901],[140.06803,38.32317],[140.0539,38.32],[140.04742,38.31253],[140.04467,38.30713],[140.04023,38.30374],[140.02913,38.29902],[140.02338,38.30468],[140.02229,38.31148],[140.01513,38.31446],[140.01051,38.30786],[139.99819,38.29442],[139.98013,38.28807],[139.97616,38.28409],[139.9711,38.27236],[139.96582,38.26989],[139.95749,38.26877],[139.94508,38.27338],[139.93919,38.26991],[139.92377,38.26576],[139.92145,38.26288],[139.92227,38.26075],[139.91637,38.25374],[139.91657,38.24642],[139.92395,38.23931],[139.93025,38.23721],[139.93196,38.23412],[139.94416,38.23049],[139.94093,38.22388],[139.94523,38.22084],[139.94194,38.21504],[139.94073,38.20878],[139.94791,38.20599],[139.95164,38.2069],[139.96051,38.20374],[139.9579,38.19856],[139.96712,38.18988],[139.96993,38.18507],[139.97452,38.18433],[139.97755,38.17968]]]},"properties":{"pref":"山形県","county":"西村山郡","city":"朝日町","code5":"06323","code6":"063231"}},
{"type":"Feature","geometry":{"type":"MultiPolygon","coordinates":[[[[140.18136,38.39975],[140.17335,38.40189],[140.16618,38.40051],[140.16313,38.40326],[140.15034,38.40183],[140.14417,38.40378],[140.14028,38.40762],[140.1322,38.40279],[140.12794,38.40433],[140.11641,38.40163],[140.1054,38.40718],[140.08877,38.40638],[140.08115,38.40259],[140.07815,38.39865],[140.07046,38.39513],[140.06716,38.38487],[140.06226,38.38089],[140.05639,38.38445],[140.04855,38.38624],[140.04596,38.39155],[140.03905,38.39688],[140.02615,38.40261],[140.01975,38.40391],[140.01349,38.39976],[140.00957,38.3865],[140.0054,38.38024],[140.01173,38.37414],[140.00863,38.36962],[140.01131,38.36583],[140.00667,38.35118],[140.01039,38.33727],[140.00597,38.33308],[139.98834,38.32858],[139.98684,38.32112],[139.97508,38.31651],[139.97221,38.3142],[139.96281,38.31577],[139.96218,38.31162],[139.95459,38.3076],[139.95116,38.3005],[139.95165,38.29338],[139.94573,38.28398],[139.94703,38.28163],[139.94508,38.27338],[139.95749,38.26877],[139.96582,38.26989],[139.9711,38.27236],[139.97616,38.28409],[139.98013,38.28807],[139.99819,38.29442],[140.01051,38.30786],[140.01513,38.31446],[140.02229,38.31148],[140.02338,38.30468],[140.02913,38.29902],[140.04023,38.30374],[140.04467,38.30713],[140.04742,38.31253],[140.0539,38.32],[140.06803,38.32317],[140.07252,38.31901],[140.08028,38.31524],[140.08774,38.31903],[140.08811,38.32572],[140.09843,38.33538],[140.09786,38.34],[140.10287,38.34027],[140.10541,38.34558],[140.11258,38.34913],[140.11982,38.34945],[140.13397,38.35426],[140.14161,38.35266],[140.15109,38.36069],[140.15977,38.35849],[140.17167,38.35787],[140.18854,38.35196],[140.19286,38.35471],[140.19866,38.35314],[140.19748,38.34876],[140.18617,38.34567],[140.18821,38.33966],[140.182,38.32483],[140.19211,38.32821],[140.19907,38.32791],[140.20413,38.32901],[140.20774,38.33412],[140.2187,38.32933],[140.22236,38.3361],[140.22279,38.3421],[140.22579,38.35692],[140.21826,38.36873],[140.21348,38.36958],[140.20982,38.37613],[140.21743,38.38129],[140.21852,38.387],[140.20785,38.3929],[140.19074,38.39111],[140.18165,38.39686],[140.18136,38.39975]]],[[[140.2376,38.38185],[140.23612,38.37916],[140.24439,38.37616],[140.24262,38.38314],[140.2376,38.38185]]]]},"properties":{"pref":"山形県","county":"西村山郡","city":"大江町","code5":"06324","code6":"063240"}},
{"type":"Feature","geometry":{"type":"Polygon","coordinates":[[[140.40373,38.56924],[140.40362,38.57588],[140.40092,38.57758],[140.40133,38.58834],[140.39357,38.59009],[140.38431,38.58925],[140.37906,38.59843],[140.3808,38.60625],[140.37761,38.60999],[140.37928,38.61508],[140.37581,38.6181],[140.38073,38.62405],[140.37697,38.62944],[140.37187,38.62856],[140.36928,38.63655],[140.36665,38.63933],[140.3577,38.63874],[140.3463,38.64207],[140.3515,38.64506],[140.35379,38.65022],[140.34213,38.64901],[140.33891,38.64624],[140.33241,38.647],[140.32695,38.64983],[140.31557,38.64755],[140.30789,38.64273],[140.29974,38.64116],[140.3004,38.62459],[140.30254,38.61498],[140.2885,38.6063],[140.27586,38.60324],[140.27309,38.59618],[140.26706,38.58951],[140.26543,38.58464],[140.25657,38.57955],[140.25486,38.57458],[140.24709,38.57281],[140.24635,38.56992],[140.25874,38.57248],[140.26773,38.56819],[140.2786,38.56717],[140.29226,38.57765],[140.29757,38.57488],[140.30353,38.5787],[140.3099,38.57638],[140.31402,38.57898],[140.3189,38.57246],[140.32584,38.56881],[140.32831,38.56327],[140.33579,38.56244],[140.34124,38.55811],[140.35355,38.55554],[140.35941,38.55221],[140.36772,38.55102],[140.36894,38.54665],[140.37834,38.54468],[140.38432,38.56221],[140.38839,38.56763],[140.39491,38.56619],[140.40373,38.56924]]]},"properties":{"pref":"山形県","county":"北村山郡","city":"大石田町","code5":"06341","code6":"063410"}},
{"type":"Feature","geometry":{"type":"Polygon","coordinates":[[[140.44958,38.9456],[140.43689,38.94007],[140.42839,38.93312],[140.42425,38.93491],[140.42269,38.94074],[140.41754,38.94288],[140.41726,38.94845],[140.40898,38.95216],[140.40443,38.95002],[140.39311,38.95849],[140.38352,38.95689],[140.38062,38.95962],[140.36629,38.96356],[140.35738,38.96446],[140.34401,38.95599],[140.33671,38.95775],[140.33072,38.95582],[140.32671,38.95738],[140.32004,38.95621],[140.30871,38.94935],[140.30147,38.94027],[140.29083,38.93337],[140.28785,38.91954],[140.29243,38.91168],[140.29534,38.91146],[140.28935,38.8938],[140.28501,38.88998],[140.28532,38.88302],[140.28129,38.87541],[140.28579,38.86951],[140.2981,38.86403],[140.28978,38.86053],[140.29399,38.85506],[140.29415,38.84876],[140.30198,38.84695],[140.31045,38.84732],[140.31421,38.84529],[140.32085,38.84949],[140.32712,38.84969],[140.34524,38.84714],[140.35371,38.84373],[140.35835,38.8455],[140.36805,38.84581],[140.37596,38.84314],[140.38392,38.84725],[140.38726,38.84611],[140.39525,38.85083],[140.39763,38.85613],[140.40329,38.85815],[140.4037,38.86408],[140.40748,38.86613],[140.41361,38.8638],[140.41966,38.86663],[140.4268,38.86432],[140.43423,38.86893],[140.44341,38.87846],[140.4608,38.8876],[140.48677,38.90275],[140.49229,38.90221],[140.49226,38.90649],[140.47985,38.91468],[140.46664,38.91636],[140.46171,38.92036],[140.46197,38.92538],[140.45831,38.93388],[140.45172,38.9375],[140.44958,38.9456]]]},"properties":{"pref":"山形県","county":"最上郡","city":"金山町","code5":"06361","code6":"063614"}},
{"type":"Feature","geometry":{"type":"Polygon","coordinates":[[[140.54712,38.88921],[140.54747,38.89107],[140.5355,38.90072],[140.526,38.89745],[140.52424,38.89963],[140.51582,38.90036],[140.50521,38.89494],[140.49978,38.89506],[140.49432,38.899],[140.49028,38.88967],[140.48698,38.88609],[140.4847,38.87888],[140.48557,38.86289],[140.47576,38.85879],[140.47176,38.85403],[140.46331,38.84918],[140.45954,38.84542],[140.45098,38.8425],[140.44715,38.83767],[140.44943,38.83249],[140.44235,38.83019],[140.43643,38.8212],[140.42945,38.81964],[140.42414,38.8099],[140.41881,38.80306],[140.42528,38.79532],[140.42513,38.78994],[140.41851,38.77854],[140.4133,38.77727],[140.40936,38.77135],[140.39929,38.76122],[140.39032,38.75568],[140.38938,38.7518],[140.39522,38.74547],[140.40487,38.74138],[140.41301,38.7407],[140.42119,38.74231],[140.4266,38.7397],[140.43556,38.74128],[140.43937,38.73772],[140.4468,38.73997],[140.4516,38.73632],[140.45071,38.73175],[140.45419,38.72613],[140.45972,38.72137],[140.46113,38.71322],[140.46498,38.70806],[140.46427,38.70246],[140.47176,38.70341],[140.47141,38.69721],[140.48231,38.69514],[140.49123,38.69175],[140.49537,38.69765],[140.50511,38.69717],[140.51151,38.69053],[140.51534,38.69002],[140.52532,38.6938],[140.53016,38.68808],[140.5394,38.68544],[140.54369,38.67948],[140.54709,38.67104],[140.54508,38.66916],[140.54912,38.66122],[140.54392,38.65671],[140.54653,38.64968],[140.55454,38.64712],[140.56275,38.64806],[140.5694,38.63821],[140.57594,38.63921],[140.57979,38.63567],[140.58994,38.63382],[140.59643,38.63884],[140.60202,38.6406],[140.6058,38.64878],[140.60606,38.65549],[140.61244,38.66226],[140.61437,38.66933],[140.61889,38.67296],[140.62199,38.68123],[140.62131,38.68489],[140.62399,38.69144],[140.61636,38.70048],[140.607,38.7033],[140.6091,38.70956],[140.60704,38.72131],[140.62089,38.73155],[140.62304,38.74169],[140.63134,38.74711],[140.63129,38.75226],[140.63636,38.76216],[140.64339,38.76485],[140.64646,38.76952],[140.6416,38.77576],[140.63685,38.77743],[140.62743,38.77388],[140.61359,38.77865],[140.61302,38.78141],[140.60353,38.78371],[140.60269,38.78941],[140.5991,38.79168],[140.59888,38.79974],[140.59574,38.80219],[140.59775,38.80873],[140.59514,38.81092],[140.59941,38.81739],[140.59855,38.82596],[140.59294,38.82779],[140.59073,38.83604],[140.58628,38.83634],[140.58003,38.84138],[140.57352,38.84248],[140.56929,38.8468],[140.56304,38.84854],[140.55913,38.84725],[140.55655,38.85563],[140.55302,38.85913],[140.54132,38.86131],[140.53927,38.86394],[140.53878,38.87139],[140.54158,38.8763],[140.5477,38.88119],[140.54712,38.88921]]]},"properties":{"pref":"山形県","county":"最上郡","city":"最上町","code5":"06362","code6":"063622"}},
{"type":"Feature","geometry":{"type":"Polygon","coordinates":[[[140.261,38.69819],[140.2563,38.69736],[140.25743,38.69148],[140.26348,38.68641],[140.25109,38.67751],[140.25347,38.67121],[140.24813,38.66361],[140.25211,38.65698],[140.25755,38.6522],[140.25236,38.64984],[140.24163,38.63856],[140.23335,38.63314],[140.2352,38.62702],[140.24052,38.62294],[140.24995,38.62029],[140.25438,38.61024],[140.25466,38.60481],[140.25114,38.5986],[140.23894,38.59381],[140.23689,38.58936],[140.238,38.58495],[140.24322,38.57881],[140.24106,38.5685],[140.24635,38.56992],[140.24709,38.57281],[140.25486,38.57458],[140.25657,38.57955],[140.26543,38.58464],[140.26706,38.58951],[140.27309,38.59618],[140.27586,38.60324],[140.2885,38.6063],[140.30254,38.61498],[140.3004,38.62459],[140.29974,38.64116],[140.30789,38.64273],[140.31557,38.64755],[140.3185,38.65175],[140.32015,38.66381],[140.31274,38.67783],[140.31831,38.68232],[140.32531,38.67867],[140.34372,38.68324],[140.34957,38.68813],[140.35675,38.68861],[140.36787,38.68497],[140.37434,38.68513],[140.38302,38.69417],[140.3907,38.69594],[140.39288,38.70065],[140.40098,38.70324],[140.41676,38.70367],[140.41939,38.69973],[140.42508,38.70428],[140.4361,38.70954],[140.43836,38.71334],[140.44612,38.71434],[140.45235,38.71929],[140.45972,38.72137],[140.45419,38.72613],[140.45071,38.73175],[140.4516,38.73632],[140.4468,38.73997],[140.43937,38.73772],[140.43556,38.74128],[140.4266,38.7397],[140.42119,38.74231],[140.41301,38.7407],[140.40487,38.74138],[140.39522,38.74547],[140.38938,38.7518],[140.38523,38.74639],[140.36976,38.74746],[140.36002,38.74267],[140.35915,38.73723],[140.34987,38.72863],[140.34296,38.72567],[140.3271,38.72263],[140.32477,38.7188],[140.31354,38.7148],[140.31287,38.70959],[140.30468,38.7045],[140.30232,38.70104],[140.28923,38.70455],[140.28115,38.69878],[140.26731,38.70059],[140.261,38.69819]]]},"properties":{"pref":"山形県","county":"最上郡","city":"舟形町","code5":"06363","code6":"063631"}},
{"type":"Feature","geometry":{"type":"Polygon","coordinates":[[[140.3291,39.0348],[140.3188,39.03126],[140.31868,39.02503],[140.31072,39.01359],[140.30216,39.0171],[140.29439,39.01811],[140.29206,39.0239],[140.28452,39.02809],[140.27029,39.03254],[140.26621,39.03129],[140.26211,39.03473],[140.25717,39.03319],[140.25288,39.02823],[140.24586,39.03077],[140.23686,39.02757],[140.2275,39.02706],[140.22193,39.03105],[140.2006,39.0357],[140.20477,39.0535],[140.20115,39.05968],[140.18877,39.06149],[140.18792,39.05857],[140.17492,39.05731],[140.17116,39.05103],[140.1625,39.05426],[140.1575,39.0491],[140.1508,39.04918],[140.13988,39.04596],[140.13496,39.04275],[140.13126,39.03379],[140.12289,39.03089],[140.11943,39.02626],[140.11453,39.02467],[140.11866,39.01872],[140.12162,39.00971],[140.12095,39.00232],[140.11726,38.99467],[140.11025,38.99307],[140.11155,38.98501],[140.11595,38.9818],[140.12451,38.98072],[140.13084,38.98325],[140.13753,38.98153],[140.14399,38.97635],[140.14711,38.96982],[140.13761,38.96063],[140.1408,38.95549],[140.14233,38.94744],[140.13758,38.94366],[140.12671,38.94554],[140.12139,38.94135],[140.12277,38.93209],[140.12205,38.92474],[140.13034,38.91628],[140.14025,38.91569],[140.13885,38.91114],[140.13302,38.90577],[140.12865,38.90424],[140.11943,38.89711],[140.11775,38.88682],[140.11851,38.88243],[140.11457,38.87732],[140.12067,38.87344],[140.13977,38.87435],[140.15801,38.86809],[140.16096,38.87007],[140.17105,38.86934],[140.17579,38.87113],[140.18241,38.8694],[140.18682,38.87169],[140.19826,38.86794],[140.20736,38.86845],[140.21246,38.86629],[140.22465,38.85344],[140.23099,38.84459],[140.24044,38.83958],[140.25486,38.84256],[140.2611,38.84205],[140.26307,38.83384],[140.27738,38.83405],[140.28209,38.83995],[140.29227,38.84082],[140.29415,38.84876],[140.29399,38.85506],[140.28978,38.86053],[140.2981,38.86403],[140.28579,38.86951],[140.28129,38.87541],[140.28532,38.88302],[140.28501,38.88998],[140.28935,38.8938],[140.29534,38.91146],[140.29243,38.91168],[140.28785,38.91954],[140.29083,38.93337],[140.30147,38.94027],[140.30871,38.94935],[140.32004,38.95621],[140.32671,38.95738],[140.33072,38.95582],[140.33671,38.95775],[140.34401,38.95599],[140.35738,38.96446],[140.36629,38.96356],[140.38062,38.95962],[140.38352,38.95689],[140.39311,38.95849],[140.40443,38.95002],[140.40898,38.95216],[140.41726,38.94845],[140.41754,38.94288],[140.42269,38.94074],[140.42425,38.93491],[140.42839,38.93312],[140.43689,38.94007],[140.44958,38.9456],[140.45355,38.95181],[140.45369,38.95859],[140.44983,38.96332],[140.45123,38.97177],[140.44644,38.97311],[140.44553,38.98041],[140.43774,38.98209],[140.43186,38.9919],[140.42058,38.99234],[140.41387,38.99004],[140.41084,38.99385],[140.40532,38.99174],[140.39409,38.99128],[140.38696,38.99441],[140.37458,38.99571],[140.37052,39.00432],[140.36403,39.0095],[140.36143,39.02438],[140.35417,39.02385],[140.34425,39.02582],[140.33938,39.02891],[140.33206,39.03059],[140.3291,39.0348]]]},"properties":{"pref":"山形県","county":"最上郡","city":"真室川町","code5":"06364","code6":"063649"}},
{"type":"Feature","geometry":{"type":"Polygon","coordinates":[[[140.19802,38.71525],[140.20006,38.71229],[140.19192,38.70178],[140.19013,38.6765],[140.19917,38.66957],[140.19494,38.66098],[140.1938,38.65162],[140.18826,38.65176],[140.18657,38.6419],[140.17711,38.62966],[140.16625,38.63228],[140.16252,38.63068],[140.15264,38.63111],[140.15583,38.6265],[140.14806,38.62171],[140.14047,38.61888],[140.13567,38.61408],[140.12089,38.61729],[140.11106,38.6159],[140.11147,38.61251],[140.10641,38.60756],[140.10823,38.59406],[140.11177,38.58915],[140.11237,38.58311],[140.11635,38.58082],[140.10807,38.57618],[140.10764,38.57272],[140.09766,38.56652],[140.09927,38.56187],[140.09651,38.55682],[140.08304,38.55586],[140.07688,38.5507],[140.07841,38.54609],[140.06733,38.53637],[140.06305,38.53577],[140.05495,38.53102],[140.05512,38.52881],[140.04322,38.52757],[140.03576,38.53274],[140.03693,38.52129],[140.03545,38.51341],[140.03738,38.51087],[140.035,38.50568],[140.04175,38.49931],[140.05019,38.49635],[140.06302,38.50019],[140.0655,38.50383],[140.07468,38.50507],[140.0803,38.51125],[140.08968,38.51221],[140.09658,38.50866],[140.11501,38.49365],[140.12258,38.49382],[140.12504,38.50423],[140.14305,38.50945],[140.15118,38.51405],[140.15095,38.51769],[140.16049,38.52644],[140.16196,38.53063],[140.16699,38.53023],[140.17921,38.53531],[140.18373,38.53176],[140.18962,38.53312],[140.20807,38.53303],[140.21148,38.53503],[140.21293,38.54018],[140.21727,38.54546],[140.22244,38.54592],[140.22899,38.55032],[140.23521,38.55091],[140.23711,38.56188],[140.24106,38.5685],[140.24322,38.57881],[140.238,38.58495],[140.23689,38.58936],[140.23894,38.59381],[140.25114,38.5986],[140.25466,38.60481],[140.25438,38.61024],[140.24995,38.62029],[140.24052,38.62294],[140.2352,38.62702],[140.23335,38.63314],[140.24163,38.63856],[140.25236,38.64984],[140.25755,38.6522],[140.25211,38.65698],[140.24813,38.66361],[140.25347,38.67121],[140.25109,38.67751],[140.26348,38.68641],[140.25743,38.69148],[140.2563,38.69736],[140.261,38.69819],[140.25738,38.70588],[140.26288,38.70736],[140.26027,38.71497],[140.25743,38.71731],[140.24397,38.71954],[140.22968,38.72347],[140.22219,38.72049],[140.21146,38.71875],[140.2047,38.71246],[140.19802,38.71525]]]},"properties":{"pref":"山形県","county":"最上郡","city":"大蔵村","code5":"06365","code6":"063657"}},
{"type":"Feature","geometry":{"type":"Polygon","coordinates":[[[140.11721,38.82087],[140.12421,38.81639],[140.13033,38.80891],[140.13633,38.8085],[140.14541,38.80175],[140.15127,38.80785],[140.15649,38.80811],[140.16258,38.81225],[140.16845,38.81134],[140.16867,38.80653],[140.17265,38.79984],[140.1773,38.80023],[140.18237,38.79323],[140.19143,38.79274],[140.19623,38.79531],[140.20112,38.78923],[140.20516,38.78883],[140.20471,38.77732],[140.21053,38.76789],[140.21577,38.76531],[140.21993,38.76818],[140.22619,38.76613],[140.22996,38.76896],[140.24081,38.77037],[140.24662,38.7667],[140.25291,38.77239],[140.26012,38.77295],[140.26915,38.77684],[140.27237,38.78599],[140.26162,38.79111],[140.27343,38.80271],[140.28056,38.80486],[140.28742,38.81298],[140.28741,38.81616],[140.29288,38.81869],[140.29953,38.81854],[140.3022,38.82388],[140.3136,38.82458],[140.31279,38.83384],[140.30255,38.83398],[140.30216,38.83927],[140.29227,38.84082],[140.28209,38.83995],[140.27738,38.83405],[140.26307,38.83384],[140.2611,38.84205],[140.25486,38.84256],[140.24044,38.83958],[140.23099,38.84459],[140.22465,38.85344],[140.21246,38.86629],[140.20736,38.86845],[140.19826,38.86794],[140.18682,38.87169],[140.18241,38.8694],[140.17579,38.87113],[140.17105,38.86934],[140.16096,38.87007],[140.15801,38.86809],[140.13977,38.87435],[140.12067,38.87344],[140.11406,38.86901],[140.10484,38.86651],[140.101,38.86708],[140.09259,38.86337],[140.08869,38.85802],[140.09033,38.85366],[140.08771,38.84239],[140.10252,38.83693],[140.11287,38.8354],[140.11747,38.83113],[140.11721,38.82087]]]},"properties":{"pref":"山形県","county":"最上郡","city":"鮭川村","code5":"06366","code6":"063665"}},
{"type":"Feature","geometry":{"type":"Polygon","coordinates":[[[140.03217,38.77712],[140.02867,38.77023],[140.03523,38.76127],[140.04641,38.73069],[140.05622,38.72606],[140.0561,38.72204],[140.05221,38.71886],[140.05276,38.71493],[140.04967,38.70733],[140.0388,38.69974],[140.04272,38.69648],[140.04108,38.68248],[140.03204,38.67911],[140.04327,38.66565],[140.04285,38.66025],[140.04648,38.6577],[140.05429,38.65927],[140.05942,38.65374],[140.06424,38.64013],[140.0692,38.64094],[140.07205,38.63371],[140.07855,38.63447],[140.08124,38.62957],[140.09165,38.62811],[140.09769,38.62172],[140.10334,38.6213],[140.11106,38.6159],[140.12089,38.61729],[140.13567,38.61408],[140.14047,38.61888],[140.14806,38.62171],[140.15583,38.6265],[140.15264,38.63111],[140.16252,38.63068],[140.16625,38.63228],[140.17711,38.62966],[140.18657,38.6419],[140.18826,38.65176],[140.1938,38.65162],[140.19494,38.66098],[140.19917,38.66957],[140.19013,38.6765],[140.19192,38.70178],[140.20006,38.71229],[140.19802,38.71525],[140.19323,38.72233],[140.2021,38.72538],[140.20384,38.73047],[140.20268,38.73698],[140.20763,38.74217],[140.19918,38.75692],[140.20802,38.7588],[140.21577,38.76531],[140.21053,38.76789],[140.20471,38.77732],[140.20516,38.78883],[140.20112,38.78923],[140.19623,38.79531],[140.19143,38.79274],[140.18237,38.79323],[140.1773,38.80023],[140.17265,38.79984],[140.16867,38.80653],[140.16845,38.81134],[140.16258,38.81225],[140.15649,38.80811],[140.15127,38.80785],[140.14541,38.80175],[140.13633,38.8085],[140.13033,38.80891],[140.12421,38.81639],[140.11721,38.82087],[140.11159,38.81743],[140.10729,38.81837],[140.09185,38.81809],[140.08953,38.81908],[140.07692,38.81427],[140.08024,38.80548],[140.08535,38.8021],[140.08321,38.79937],[140.07347,38.79773],[140.06561,38.78868],[140.05534,38.78904],[140.04644,38.7818],[140.04277,38.78153],[140.0382,38.77588],[140.03217,38.77712]]]},"properties":{"pref":"山形県","county":"最上郡","city":"戸沢村","code5":"06367","code6":"063673"}},
{"type":"Feature","geometry":{"type":"Polygon","coordinates":[[[140.27709,38.05616],[140.26918,38.05926],[140.26851,38.06294],[140.26143,38.07234],[140.25295,38.07566],[140.24793,38.08153],[140.23352,38.0825],[140.22656,38.07864],[140.21653,38.07548],[140.20822,38.06829],[140.20708,38.06058],[140.19948,38.05537],[140.2019,38.04865],[140.21122,38.04678],[140.21237,38.04331],[140.20408,38.04065],[140.19739,38.04021],[140.19452,38.03764],[140.18089,38.04118],[140.17021,38.03249],[140.16582,38.02582],[140.15851,38.02342],[140.15693,38.01944],[140.13533,38.02528],[140.13037,38.02323],[140.12898,38.02289],[140.12623,38.02293],[140.12589,38.01778],[140.13124,38.01769],[140.13399,38.0079],[140.12228,37.99714],[140.11061,37.97869],[140.11152,37.97542],[140.11837,37.97373],[140.12204,37.98241],[140.12714,37.98707],[140.13212,37.98488],[140.12669,37.97585],[140.12816,37.97426],[140.12373,37.96549],[140.12807,37.96572],[140.13801,37.97433],[140.13685,37.97765],[140.14789,37.97903],[140.14484,37.97118],[140.15094,37.96834],[140.15227,37.96452],[140.16034,37.96267],[140.1608,37.95747],[140.16482,37.95145],[140.16635,37.94349],[140.16448,37.93903],[140.17608,37.93685],[140.17899,37.93501],[140.18504,37.93873],[140.18724,37.93309],[140.1845,37.92913],[140.19025,37.9254],[140.18738,37.92105],[140.18998,37.9131],[140.19552,37.90795],[140.19453,37.90065],[140.20264,37.89771],[140.21204,37.89614],[140.22187,37.90093],[140.22606,37.90703],[140.22332,37.90861],[140.23054,37.91663],[140.23851,37.91924],[140.24654,37.91715],[140.2512,37.92],[140.26211,37.9226],[140.26713,37.91758],[140.2722,37.92005],[140.27666,37.92663],[140.27934,37.93372],[140.27859,37.94254],[140.27529,37.94725],[140.27807,37.95263],[140.27336,37.95679],[140.27132,37.96664],[140.27724,37.97558],[140.28,37.97664],[140.275,37.98387],[140.27688,37.99418],[140.28274,38.00146],[140.28954,38.0071],[140.28175,38.02003],[140.28119,38.02588],[140.27659,38.02857],[140.27592,38.03598],[140.28188,38.04412],[140.28205,38.0491],[140.27709,38.05616]]]},"properties":{"pref":"山形県","county":"東置賜郡","city":"高畠町","code5":"06381","code6":"063819"}},
{"type":"Feature","geometry":{"type":"Polygon","coordinates":[[[140.11152,37.97542],[140.11061,37.97869],[140.12228,37.99714],[140.13399,38.0079],[140.13124,38.01769],[140.12589,38.01778],[140.12623,38.02293],[140.12166,38.02092],[140.11737,38.02318],[140.11699,38.02708],[140.10823,38.0258],[140.10748,38.0319],[140.10208,38.03094],[140.09978,38.03586],[140.10584,38.04013],[140.10003,38.04539],[140.09024,38.04776],[140.08148,38.04629],[140.07525,38.04925],[140.0698,38.05577],[140.07058,38.06519],[140.06463,38.06639],[140.05691,38.05581],[140.05551,38.04972],[140.04303,38.04996],[140.03264,38.04147],[140.02965,38.04252],[140.03536,38.03073],[140.036,38.02525],[140.0284,38.02314],[140.02618,38.01697],[140.01779,38.01068],[140.01255,38.00898],[140.00114,38.01064],[139.98978,38.00675],[139.98247,38.00879],[139.97622,38.0068],[139.97607,38.00096],[139.96907,37.99903],[139.96851,37.99596],[139.96243,37.98684],[139.9642,37.98402],[139.96153,37.97792],[139.96416,37.97015],[139.95918,37.96801],[139.95189,37.95868],[139.95218,37.94752],[139.93943,37.94748],[139.93391,37.94971],[139.93173,37.94571],[139.92401,37.94157],[139.92181,37.93656],[139.92361,37.93113],[139.9292,37.92705],[139.93694,37.92688],[139.94259,37.92365],[139.94202,37.91784],[139.94438,37.91506],[139.94632,37.90617],[139.93644,37.90328],[139.93555,37.89856],[139.93863,37.89538],[139.93878,37.88535],[139.94147,37.88134],[139.94953,37.87483],[139.95831,37.87752],[139.95997,37.88182],[139.96685,37.88394],[139.97431,37.88376],[139.98234,37.88898],[139.97987,37.89572],[139.99092,37.8945],[139.99289,37.89727],[140.0062,37.89762],[140.0123,37.90068],[140.01776,37.90973],[140.02261,37.91482],[140.03449,37.9202],[140.03151,37.93133],[140.03405,37.9401],[140.03871,37.94244],[140.04656,37.9394],[140.0522,37.94149],[140.05767,37.94746],[140.05062,37.94934],[140.052,37.95506],[140.05866,37.96256],[140.06733,37.96846],[140.07998,37.97402],[140.09196,37.97718],[140.10477,37.96979],[140.10697,37.97449],[140.11152,37.97542]]]},"properties":{"pref":"山形県","county":"東置賜郡","city":"川西町","code5":"06382","code6":"063827"}},
{"type":"Feature","geometry":{"type":"Polygon","coordinates":[[[139.91657,38.24642],[139.91637,38.25374],[139.92227,38.26075],[139.92145,38.26288],[139.91573,38.26704],[139.91135,38.27259],[139.8999,38.27581],[139.88869,38.26942],[139.88416,38.26502],[139.8766,38.26179],[139.87569,38.25213],[139.86858,38.24799],[139.86392,38.23886],[139.86385,38.23489],[139.86019,38.23107],[139.84698,38.22456],[139.83862,38.22355],[139.81928,38.21279],[139.81095,38.21152],[139.80689,38.20705],[139.8023,38.20657],[139.80019,38.20238],[139.7905,38.198],[139.78648,38.19417],[139.78117,38.19424],[139.77606,38.19815],[139.77008,38.19723],[139.76374,38.19896],[139.75824,38.19304],[139.7469,38.19637],[139.73865,38.2021],[139.73138,38.20083],[139.71322,38.20664],[139.70888,38.20431],[139.69864,38.20295],[139.70261,38.19948],[139.69837,38.19506],[139.69637,38.18659],[139.68751,38.17806],[139.68246,38.16961],[139.68553,38.16649],[139.68473,38.15942],[139.69052,38.15528],[139.69157,38.14524],[139.68837,38.13466],[139.69215,38.113],[139.68267,38.10807],[139.67479,38.09158],[139.67234,38.07693],[139.68181,38.07538],[139.68647,38.07689],[139.69157,38.07119],[139.68655,38.06598],[139.69273,38.05703],[139.69027,38.05243],[139.68205,38.04953],[139.68015,38.04327],[139.67483,38.04058],[139.66267,38.04001],[139.65756,38.0374],[139.65676,38.02852],[139.65239,38.02056],[139.65441,38.01474],[139.65263,38.00296],[139.65429,37.99651],[139.64351,37.99455],[139.64497,37.99189],[139.63934,37.98437],[139.64426,37.97978],[139.63861,37.96865],[139.64292,37.96711],[139.64525,37.96263],[139.6401,37.95234],[139.643,37.94683],[139.63939,37.93472],[139.63179,37.9303],[139.62705,37.92434],[139.62499,37.91839],[139.62861,37.91244],[139.62634,37.90917],[139.63197,37.89897],[139.62932,37.89366],[139.63795,37.88378],[139.63846,37.88002],[139.65045,37.87588],[139.6567,37.87174],[139.65713,37.86354],[139.679,37.85153],[139.68083,37.84695],[139.69598,37.84853],[139.70617,37.85593],[139.71564,37.85416],[139.716,37.84702],[139.71883,37.84506],[139.71921,37.84196],[139.72408,37.83692],[139.72746,37.83529],[139.73179,37.8308],[139.7358,37.83873],[139.74419,37.84504],[139.74944,37.85297],[139.75157,37.86028],[139.75867,37.85849],[139.76876,37.86703],[139.77585,37.86888],[139.7777,37.87851],[139.78634,37.87954],[139.78907,37.88354],[139.79812,37.8872],[139.81016,37.88896],[139.81221,37.89164],[139.81093,37.89858],[139.80585,37.90273],[139.81192,37.91191],[139.82574,37.91964],[139.82818,37.92527],[139.83381,37.92264],[139.83669,37.92672],[139.84587,37.92644],[139.84826,37.93519],[139.85377,37.9375],[139.85353,37.95055],[139.85807,37.95477],[139.85119,37.96526],[139.85653,37.97725],[139.86624,37.97962],[139.88233,37.97821],[139.8902,37.98171],[139.89839,37.98292],[139.89974,37.98916],[139.90335,37.99167],[139.90153,37.9981],[139.9106,38.00551],[139.91625,38.00559],[139.92266,38.01212],[139.92156,38.02068],[139.92199,38.02963],[139.91736,38.03867],[139.91698,38.04984],[139.90848,38.05221],[139.91048,38.06601],[139.89988,38.077],[139.89432,38.07752],[139.88651,38.08671],[139.889,38.08894],[139.88895,38.09942],[139.8935,38.10131],[139.8985,38.10724],[139.89516,38.11271],[139.89435,38.12156],[139.8874,38.13105],[139.88732,38.13705],[139.89174,38.14003],[139.89506,38.14682],[139.89254,38.15322],[139.88504,38.15478],[139.8819,38.15806],[139.88442,38.16196],[139.87901,38.16896],[139.88069,38.1868],[139.88269,38.18938],[139.87729,38.19965],[139.8913,38.21278],[139.89911,38.21661],[139.90271,38.2253],[139.90206,38.23491],[139.91165,38.24552],[139.91657,38.24642]]]},"properties":{"pref":"山形県","county":"西置賜郡","city":"小国町","code5":"06401","code6":"064017"}},
{"type":"Feature","geometry":{"type":"Polygon","coordinates":[[[140.10993,38.1291],[140.11475,38.12889],[140.11739,38.13511],[140.12932,38.13694],[140.12613,38.14592],[140.13265,38.15234],[140.13439,38.15942],[140.13978,38.16654],[140.14704,38.1725],[140.14466,38.17671],[140.1481,38.17925],[140.15349,38.19058],[140.15807,38.19076],[140.15806,38.19657],[140.16138,38.19889],[140.16841,38.21524],[140.1687,38.21886],[140.17316,38.2227],[140.1735,38.22756],[140.16974,38.23966],[140.16038,38.24349],[140.15342,38.24265],[140.15048,38.24399],[140.14468,38.25338],[140.13719,38.25374],[140.1253,38.25691],[140.11318,38.24763],[140.1059,38.25131],[140.09493,38.24582],[140.09009,38.24121],[140.08658,38.2444],[140.08642,38.25007],[140.0745,38.26132],[140.07141,38.26695],[140.06284,38.26576],[140.05582,38.26172],[140.04923,38.25573],[140.04582,38.2467],[140.04248,38.24455],[140.03127,38.24772],[140.02217,38.24383],[140.01253,38.24297],[140.00924,38.23696],[140.00701,38.2283],[140.00037,38.22492],[139.99587,38.21649],[139.99607,38.21197],[139.98872,38.19825],[139.99478,38.1912],[139.99276,38.18782],[139.98255,38.18331],[139.97755,38.17968],[139.98389,38.17869],[139.99246,38.17987],[140.00221,38.1766],[140.01444,38.17496],[140.02269,38.17103],[140.04061,38.15915],[140.05221,38.15501],[140.05054,38.14524],[140.05564,38.14177],[140.06817,38.13696],[140.07654,38.13631],[140.0822,38.1314],[140.09064,38.12926],[140.09411,38.13678],[140.09727,38.13834],[140.10438,38.13203],[140.10993,38.1291]]]},"properties":{"pref":"山形県","county":"西置賜郡","city":"白鷹町","code5":"06402","code6":"064025"}},
{"type":"Feature","geometry":{"type":"Polygon","coordinates":[[[139.94953,37.87483],[139.94147,37.88134],[139.93878,37.88535],[139.93863,37.89538],[139.93555,37.89856],[139.93644,37.90328],[139.94632,37.90617],[139.94438,37.91506],[139.94202,37.91784],[139.94259,37.92365],[139.93694,37.92688],[139.9292,37.92705],[139.92361,37.93113],[139.92181,37.93656],[139.92401,37.94157],[139.93173,37.94571],[139.93391,37.94971],[139.93943,37.94748],[139.95218,37.94752],[139.95189,37.95868],[139.95918,37.96801],[139.96416,37.97015],[139.96153,37.97792],[139.9642,37.98402],[139.96243,37.98684],[139.96851,37.99596],[139.96907,37.99903],[139.97607,38.00096],[139.97622,38.0068],[139.98247,38.00879],[139.98978,38.00675],[140.00114,38.01064],[140.01255,38.00898],[140.01779,38.01068],[140.02618,38.01697],[140.0284,38.02314],[140.036,38.02525],[140.03536,38.03073],[140.02965,38.04252],[140.02332,38.04818],[140.02088,38.05361],[140.024,38.06193],[140.02206,38.06552],[140.02402,38.06998],[140.01409,38.07138],[140.01519,38.07927],[140.01142,38.08141],[139.99876,38.08395],[139.98466,38.09082],[139.97648,38.08824],[139.96772,38.08859],[139.95434,38.0857],[139.94769,38.08687],[139.94582,38.09114],[139.92996,38.10059],[139.91642,38.10104],[139.91429,38.0986],[139.90693,38.09967],[139.90392,38.10614],[139.8985,38.10724],[139.8935,38.10131],[139.88895,38.09942],[139.889,38.08894],[139.88651,38.08671],[139.89432,38.07752],[139.89988,38.077],[139.91048,38.06601],[139.90848,38.05221],[139.91698,38.04984],[139.91736,38.03867],[139.92199,38.02963],[139.92156,38.02068],[139.92266,38.01212],[139.91625,38.00559],[139.9106,38.00551],[139.90153,37.9981],[139.90335,37.99167],[139.89974,37.98916],[139.89839,37.98292],[139.8902,37.98171],[139.88233,37.97821],[139.86624,37.97962],[139.85653,37.97725],[139.85119,37.96526],[139.85807,37.95477],[139.85353,37.95055],[139.85377,37.9375],[139.84826,37.93519],[139.84587,37.92644],[139.83669,37.92672],[139.83381,37.92264],[139.82818,37.92527],[139.82574,37.91964],[139.81192,37.91191],[139.80585,37.90273],[139.81093,37.89858],[139.81221,37.89164],[139.81016,37.88896],[139.79812,37.8872],[139.78907,37.88354],[139.78634,37.87954],[139.7777,37.87851],[139.77585,37.86888],[139.76876,37.86703],[139.75867,37.85849],[139.75157,37.86028],[139.74944,37.85297],[139.74419,37.84504],[139.7358,37.83873],[139.73179,37.8308],[139.73622,37.82811],[139.74131,37.82029],[139.75542,37.82213],[139.7579,37.82462],[139.77317,37.83004],[139.78241,37.83204],[139.78831,37.8265],[139.78887,37.82332],[139.79496,37.81764],[139.80258,37.81411],[139.80413,37.80627],[139.80824,37.80365],[139.8133,37.804],[139.82161,37.81199],[139.83086,37.81513],[139.83833,37.8147],[139.8452,37.81987],[139.85059,37.8213],[139.85599,37.82588],[139.86368,37.82479],[139.88007,37.81011],[139.88923,37.81106],[139.89808,37.81018],[139.90251,37.8137],[139.92546,37.81416],[139.92795,37.82163],[139.9326,37.82939],[139.93726,37.8282],[139.93925,37.83229],[139.93494,37.84454],[139.93628,37.86042],[139.9388,37.86663],[139.94314,37.86845],[139.94953,37.87483]]]},"properties":{"pref":"山形県","county":"西置賜郡","city":"飯豊町","code5":"06403","code6":"064033"}},
{"type":"Feature","geometry":{"type":"Polygon","coordinates":[[[139.8696,38.82662],[139.86427,38.82922],[139.86323,38.8261],[139.84701,38.82451],[139.84009,38.82657],[139.83265,38.83139],[139.8258,38.83346],[139.82123,38.83899],[139.81464,38.83843],[139.81613,38.82818],[139.81516,38.82141],[139.82306,38.81988],[139.82368,38.81732],[139.82485,38.80949],[139.82075,38.80294],[139.82309,38.7992],[139.81912,38.79313],[139.81033,38.79417],[139.81087,38.78529],[139.81683,38.78723],[139.8207,38.78387],[139.83168,38.78457],[139.83431,38.78126],[139.84346,38.78266],[139.84538,38.775],[139.85133,38.77097],[139.85379,38.76351],[139.84865,38.75392],[139.8555,38.74929],[139.86719,38.74936],[139.87071,38.75366],[139.86953,38.76037],[139.87144,38.76544],[139.87577,38.76525],[139.87994,38.77039],[139.88366,38.77899],[139.88882,38.78609],[139.8885,38.79129],[139.88341,38.79417],[139.8765,38.79502],[139.86698,38.8138],[139.86141,38.81699],[139.8696,38.82662]]]},"properties":{"pref":"山形県","county":"東田川郡","city":"三川町","code5":"06426","code6":"064262"}},
{"type":"Feature","geometry":{"type":"Polygon","coordinates":[[[140.0262,38.54681],[140.03237,38.53958],[140.03576,38.53274],[140.04322,38.52757],[140.05512,38.52881],[140.05495,38.53102],[140.06305,38.53577],[140.06733,38.53637],[140.07841,38.54609],[140.07688,38.5507],[140.08304,38.55586],[140.09651,38.55682],[140.09927,38.56187],[140.09766,38.56652],[140.10764,38.57272],[140.10807,38.57618],[140.11635,38.58082],[140.11237,38.58311],[140.11177,38.58915],[140.10823,38.59406],[140.10641,38.60756],[140.11147,38.61251],[140.11106,38.6159],[140.10334,38.6213],[140.09769,38.62172],[140.09165,38.62811],[140.08124,38.62957],[140.07855,38.63447],[140.07205,38.63371],[140.0692,38.64094],[140.06424,38.64013],[140.05942,38.65374],[140.05429,38.65927],[140.04648,38.6577],[140.04285,38.66025],[140.04327,38.66565],[140.03204,38.67911],[140.04108,38.68248],[140.04272,38.69648],[140.0388,38.69974],[140.04967,38.70733],[140.05276,38.71493],[140.05221,38.71886],[140.0561,38.72204],[140.05622,38.72606],[140.04641,38.73069],[140.03523,38.76127],[140.02867,38.77023],[140.03217,38.77712],[140.02769,38.78826],[140.01891,38.79372],[140.00981,38.79446],[139.99874,38.79178],[139.99603,38.79333],[139.99341,38.80659],[139.98956,38.81058],[139.97939,38.81634],[139.9736,38.81437],[139.96705,38.81599],[139.96858,38.82864],[139.95132,38.83414],[139.94335,38.8411],[139.94812,38.84514],[139.93403,38.85408],[139.94053,38.85646],[139.94515,38.8649],[139.93746,38.87319],[139.91616,38.88065],[139.9166,38.88463],[139.9026,38.88453],[139.8996,38.88298],[139.9055,38.87627],[139.90016,38.86955],[139.88428,38.86565],[139.88581,38.85633],[139.88975,38.8515],[139.88329,38.84862],[139.87447,38.85044],[139.87285,38.85418],[139.86632,38.85837],[139.84874,38.86367],[139.84864,38.85735],[139.8578,38.85318],[139.85681,38.84586],[139.86114,38.82923],[139.86427,38.82922],[139.8696,38.82662],[139.87466,38.82097],[139.88435,38.82069],[139.89592,38.81665],[139.89903,38.80887],[139.90859,38.80222],[139.91713,38.7984],[139.92029,38.78787],[139.92709,38.78704],[139.94174,38.77312],[139.94696,38.77232],[139.94871,38.76474],[139.94545,38.7604],[139.94501,38.7541],[139.95945,38.75008],[139.96459,38.75283],[139.97286,38.75153],[139.9746,38.75353],[139.99411,38.74728],[139.99595,38.74266],[139.99441,38.7378],[139.99593,38.73102],[139.99969,38.72466],[139.99517,38.71823],[139.9894,38.71447],[139.98638,38.70751],[139.99166,38.70131],[139.9878,38.696],[139.98942,38.68546],[139.98679,38.67742],[139.98739,38.67119],[139.98355,38.6628],[139.98772,38.65149],[139.99625,38.63838],[139.99665,38.63548],[139.99148,38.62715],[139.9888,38.61652],[139.992,38.60502],[140.0001,38.59673],[140.01911,38.58934],[140.02076,38.5866],[140.0223,38.57248],[140.03009,38.55912],[140.02929,38.55277],[140.0262,38.54681]]]},"properties":{"pref":"山形県","county":"東田川郡","city":"庄内町","code5":"06428","code6":"064289"}},
{"type":"Feature","geometry":{"type":"Polygon","coordinates":[[[140.06244,39.1335],[140.00777,39.12304],[139.99764,39.11584],[139.99445,39.10552],[139.94805,39.11717],[139.94565,39.11283],[139.90604,39.11883],[139.86959,39.11826],[139.86916,39.11332],[139.87772,39.10529],[139.87936,39.09671],[139.87728,39.09006],[139.87345,39.08792],[139.87231,39.07711],[139.86813,39.07256],[139.87053,39.06731],[139.86707,39.05213],[139.85791,39.02985],[139.85159,39.01275],[139.8481,39.00582],[139.84023,38.98511],[139.84878,38.98086],[139.85097,38.97761],[139.85714,38.97598],[139.867,38.9801],[139.86796,38.99108],[139.87207,38.99492],[139.87044,38.99963],[139.87635,39.00116],[139.89633,38.99837],[139.90127,38.99994],[139.89991,38.99149],[139.90859,38.98888],[139.91784,38.98932],[139.92307,38.98588],[139.93883,38.9875],[139.94676,38.9906],[139.94757,38.99304],[139.95916,38.99641],[139.96328,38.99638],[139.97068,39.00239],[139.97674,39.00115],[139.98705,39.00652],[139.99302,39.00761],[140.01235,39.00844],[140.01546,39.01073],[140.01693,39.02169],[140.01994,39.02425],[140.03079,39.04467],[140.03852,39.04635],[140.03747,39.05848],[140.04012,39.06932],[140.04334,39.07057],[140.06,39.08276],[140.06246,39.09289],[140.06714,39.09979],[140.06287,39.10694],[140.06146,39.11339],[140.06244,39.1335]]]},"properties":{"pref":"山形県","county":"飽海郡","city":"遊佐町","code5":"06461","code6":"064611"}}
]}