{"type":"FeatureCollection", "features": [
{"type":"Feature","geometry":{"type":"Polygon","coordinates":[[[140.41445,36.46087],[140.40896,36.45807],[140.41171,36.45218],[140.40827,36.45112],[140.40395,36.45512],[140.39696,36.45739],[140.39456,36.46197],[140.38771,36.4644],[140.38134,36.46428],[140.38535,36.45574],[140.38603,36.45105],[140.39524,36.44741],[140.39831,36.44317],[140.39423,36.4384],[140.38312,36.43683],[140.37406,36.42652],[140.37,36.43223],[140.36028,36.42881],[140.3585,36.43201],[140.34418,36.43196],[140.33714,36.42914],[140.3409,36.42234],[140.34759,36.42065],[140.34999,36.41035],[140.35552,36.4041],[140.35456,36.40006],[140.3453,36.3943],[140.33832,36.39624],[140.32433,36.39393],[140.322,36.38379],[140.32464,36.38063],[140.33609,36.37475],[140.34171,36.36405],[140.34193,36.35959],[140.33728,36.35606],[140.33309,36.34428],[140.33373,36.33996],[140.3418,36.32996],[140.3443,36.32405],[140.35662,36.31733],[140.36943,36.31314],[140.37599,36.3122],[140.38438,36.31345],[140.39086,36.31248],[140.39514,36.31658],[140.38912,36.31904],[140.38568,36.32588],[140.39144,36.32875],[140.39455,36.33272],[140.39991,36.32944],[140.40342,36.33515],[140.40698,36.3456],[140.41145,36.34479],[140.40972,36.33888],[140.41887,36.33089],[140.42384,36.32191],[140.42509,36.31548],[140.43481,36.31707],[140.44279,36.31594],[140.44248,36.32058],[140.45126,36.31767],[140.45753,36.31742],[140.46119,36.32187],[140.46563,36.31607],[140.47147,36.31512],[140.4791,36.32072],[140.48405,36.32242],[140.49337,36.31997],[140.49309,36.314],[140.49748,36.30564],[140.50694,36.30072],[140.51442,36.30188],[140.52059,36.30643],[140.53088,36.3052],[140.54441,36.31905],[140.54946,36.31923],[140.55251,36.3143],[140.55912,36.31329],[140.56113,36.32011],[140.56708,36.32252],[140.57096,36.32741],[140.57513,36.3273],[140.58158,36.33528],[140.58681,36.33668],[140.57689,36.34445],[140.56357,36.35014],[140.55542,36.35802],[140.54406,36.36319],[140.5259,36.36643],[140.51467,36.37175],[140.50114,36.38256],[140.49277,36.37467],[140.48729,36.38677],[140.48461,36.39012],[140.48852,36.39772],[140.48354,36.40008],[140.48391,36.40755],[140.47456,36.39907],[140.4694,36.40482],[140.46162,36.4105],[140.45445,36.42302],[140.46051,36.42605],[140.45696,36.42973],[140.45906,36.43502],[140.45421,36.4367],[140.45471,36.44155],[140.44867,36.45079],[140.4323,36.45002],[140.42593,36.44828],[140.41632,36.45506],[140.41445,36.46087]]]},"properties":{"pref":"茨城県","city":"水戸市","code5":"08201","code6":"082015"}},
{"type":"Feature","geometry":{"type":"Polygon","coordinates":[[[140.71641,36.69272],[140.71352,36.69503],[140.69809,36.69904],[140.68999,36.69656],[140.67818,36.70002],[140.67038,36.69939],[140.66339,36.70564],[140.65506,36.70366],[140.65181,36.70587],[140.64484,36.70257],[140.63543,36.7006],[140.63268,36.70489],[140.62798,36.70436],[140.62066,36.71003],[140.61075,36.70655],[140.60739,36.70003],[140.59902,36.70334],[140.58855,36.70302],[140.58637,36.70476],[140.57703,36.70431],[140.57054,36.7085],[140.55477,36.71355],[140.54096,36.70913],[140.5428,36.70123],[140.5375,36.69727],[140.53947,36.68943],[140.54436,36.68506],[140.54359,36.68138],[140.5499,36.67867],[140.54979,36.66753],[140.54091,36.66594],[140.54106,36.65452],[140.53424,36.656],[140.531,36.65103],[140.51937,36.65116],[140.51673,36.64958],[140.51928,36.64143],[140.52382,36.64084],[140.53318,36.62854],[140.53759,36.62637],[140.53804,36.61954],[140.54519,36.615],[140.54796,36.62078],[140.55491,36.62041],[140.55886,36.62225],[140.56587,36.62159],[140.57614,36.62433],[140.58328,36.62089],[140.58558,36.61472],[140.58288,36.61135],[140.58836,36.60703],[140.58187,36.59155],[140.57799,36.58596],[140.58022,36.58052],[140.57836,36.57356],[140.58328,36.57397],[140.58235,36.5653],[140.58591,36.55943],[140.59239,36.5535],[140.58998,36.54348],[140.59675,36.53645],[140.60158,36.52528],[140.6,36.52136],[140.59052,36.51809],[140.59306,36.51571],[140.5833,36.51272],[140.5782,36.51781],[140.57357,36.51396],[140.57458,36.50695],[140.56457,36.50781],[140.56163,36.50437],[140.56209,36.49802],[140.5598,36.49462],[140.56629,36.49428],[140.5771,36.49584],[140.58209,36.49365],[140.5906,36.49405],[140.59118,36.48939],[140.5954,36.48811],[140.60415,36.48197],[140.61391,36.48165],[140.61923,36.48018],[140.62341,36.48193],[140.6207,36.48645],[140.62648,36.49689],[140.62608,36.49999],[140.63326,36.5093],[140.6334,36.52121],[140.63706,36.53051],[140.63872,36.53846],[140.64616,36.54423],[140.64438,36.55166],[140.65284,36.57294],[140.66258,36.58141],[140.66445,36.59123],[140.67288,36.60028],[140.68021,36.61499],[140.68944,36.6209],[140.68972,36.62861],[140.69204,36.64067],[140.69667,36.64896],[140.70414,36.6558],[140.7084,36.65489],[140.71584,36.66245],[140.71381,36.67314],[140.71641,36.69272]]]},"properties":{"pref":"茨城県","city":"日立市","code5":"08202","code6":"082023"}},
{"type":"Feature","geometry":{"type":"Polygon","coordinates":[[[140.17654,36.1718],[140.16831,36.17064],[140.15696,36.17536],[140.1539,36.17283],[140.14318,36.17191],[140.13734,36.17538],[140.13006,36.16751],[140.13122,36.16411],[140.13845,36.16101],[140.14151,36.15624],[140.1425,36.14877],[140.13936,36.14405],[140.135,36.14212],[140.13877,36.13678],[140.14445,36.13341],[140.13752,36.13098],[140.12753,36.13699],[140.12708,36.12308],[140.1387,36.11371],[140.15025,36.11346],[140.15887,36.10853],[140.15657,36.09791],[140.15102,36.0969],[140.15091,36.09164],[140.15631,36.08889],[140.15609,36.07423],[140.16095,36.07381],[140.16635,36.06929],[140.17163,36.06756],[140.16903,36.06076],[140.16313,36.06272],[140.15772,36.05915],[140.1523,36.05304],[140.14682,36.05123],[140.14356,36.04523],[140.13823,36.04553],[140.1443,36.02797],[140.14593,36.02806],[140.15639,36.01509],[140.15861,36.01476],[140.16258,36.02104],[140.16681,36.02009],[140.16782,36.02562],[140.1729,36.02714],[140.17078,36.03117],[140.17305,36.04038],[140.18874,36.03093],[140.19122,36.04124],[140.19952,36.0406],[140.20206,36.04419],[140.20932,36.04735],[140.20884,36.05232],[140.214,36.05546],[140.24213,36.05534],[140.26229,36.0522],[140.26574,36.07039],[140.26644,36.08611],[140.26117,36.08808],[140.25969,36.09341],[140.27028,36.09796],[140.27738,36.09456],[140.28033,36.10253],[140.28432,36.10504],[140.28037,36.10908],[140.27269,36.11246],[140.25481,36.11687],[140.25584,36.11966],[140.24733,36.12172],[140.22922,36.12374],[140.22361,36.12321],[140.22042,36.12565],[140.19367,36.12933],[140.2018,36.13889],[140.20575,36.14122],[140.20288,36.15384],[140.20037,36.15867],[140.1951,36.16232],[140.18074,36.16489],[140.176,36.16789],[140.17654,36.1718]]]},"properties":{"pref":"茨城県","city":"土浦市","code5":"08203","code6":"082031"}},
{"type":"Feature","geometry":{"type":"Polygon","coordinates":[[[139.85395,36.21338],[139.84927,36.21363],[139.84467,36.21857],[139.84042,36.21988],[139.82844,36.21748],[139.83126,36.20453],[139.83077,36.20088],[139.82251,36.20508],[139.81594,36.21647],[139.81649,36.22506],[139.81936,36.22752],[139.82253,36.23566],[139.82161,36.2397],[139.7857,36.2278],[139.76004,36.21924],[139.74828,36.21109],[139.72902,36.20229],[139.72754,36.20584],[139.71603,36.20987],[139.70749,36.21084],[139.70647,36.20186],[139.69362,36.20649],[139.68885,36.20207],[139.68794,36.19968],[139.68786,36.19636],[139.69365,36.19168],[139.69089,36.17526],[139.69612,36.1564],[139.70303,36.1451],[139.71013,36.13594],[139.72055,36.13231],[139.73274,36.13268],[139.74643,36.13197],[139.75906,36.1261],[139.76217,36.13847],[139.76636,36.13544],[139.78024,36.1339],[139.78206,36.13818],[139.78078,36.14506],[139.77688,36.14906],[139.77637,36.15357],[139.79655,36.15454],[139.80229,36.15583],[139.80648,36.15121],[139.80628,36.13872],[139.8139,36.13678],[139.82456,36.14096],[139.82936,36.14127],[139.82854,36.14686],[139.83069,36.15206],[139.83555,36.15023],[139.84531,36.14968],[139.84902,36.14554],[139.8563,36.14718],[139.85669,36.15165],[139.85077,36.1619],[139.85427,36.16878],[139.85061,36.18253],[139.85637,36.17944],[139.86084,36.18371],[139.86596,36.1919],[139.86308,36.19848],[139.85369,36.20621],[139.85395,36.21338]]]},"properties":{"pref":"茨城県","city":"古河市","code5":"08204","code6":"082040"}},
{"type":"Feature","geometry":{"type":"Polygon","coordinates":[[[140.17654,36.1718],[140.18339,36.17386],[140.19324,36.18185],[140.20723,36.18566],[140.20919,36.19188],[140.22314,36.19252],[140.22429,36.19474],[140.21141,36.20202],[140.21011,36.20902],[140.21743,36.20943],[140.22001,36.20674],[140.23663,36.20547],[140.24026,36.20224],[140.23957,36.19687],[140.24412,36.19445],[140.24616,36.1901],[140.25706,36.18523],[140.25953,36.18167],[140.26817,36.1787],[140.27606,36.1716],[140.27875,36.16557],[140.273,36.16186],[140.26714,36.15087],[140.25853,36.14572],[140.24802,36.13284],[140.26496,36.13447],[140.2934,36.13253],[140.30146,36.13362],[140.31197,36.12972],[140.32464,36.12736],[140.33148,36.1274],[140.34581,36.13068],[140.3359,36.14212],[140.33027,36.14723],[140.32066,36.15005],[140.30975,36.15589],[140.3071,36.16528],[140.30957,36.17431],[140.30771,36.18055],[140.30859,36.18568],[140.31577,36.18377],[140.32134,36.1863],[140.32711,36.18581],[140.33419,36.18803],[140.34107,36.18484],[140.34409,36.18886],[140.33628,36.19346],[140.32758,36.19154],[140.31952,36.19894],[140.31415,36.20107],[140.31176,36.20956],[140.30026,36.21033],[140.29645,36.21373],[140.29038,36.21537],[140.28491,36.22042],[140.2749,36.22346],[140.27193,36.2313],[140.28061,36.25488],[140.29308,36.25553],[140.29714,36.26284],[140.3046,36.26518],[140.31567,36.26481],[140.30853,36.27109],[140.3041,36.27303],[140.29392,36.26884],[140.27384,36.27048],[140.26807,36.26797],[140.26488,36.27133],[140.25884,36.27204],[140.25362,36.27959],[140.24744,36.2842],[140.23681,36.28427],[140.23514,36.28696],[140.224,36.29595],[140.2225,36.30445],[140.21564,36.31066],[140.21234,36.3172],[140.205,36.31902],[140.20206,36.32209],[140.19282,36.31764],[140.18054,36.32107],[140.17114,36.32144],[140.16233,36.31763],[140.15464,36.31615],[140.14568,36.30669],[140.14378,36.29852],[140.14988,36.29385],[140.15236,36.28746],[140.14084,36.27007],[140.13435,36.26705],[140.13531,36.2599],[140.12948,36.25079],[140.13232,36.24298],[140.12676,36.24357],[140.11034,36.23135],[140.11809,36.2265],[140.11586,36.22279],[140.1227,36.21717],[140.12178,36.21166],[140.12852,36.20314],[140.12736,36.19872],[140.13065,36.19272],[140.12803,36.18943],[140.13485,36.18221],[140.13734,36.17538],[140.14318,36.17191],[140.1539,36.17283],[140.15696,36.17536],[140.16831,36.17064],[140.17654,36.1718]]]},"properties":{"pref":"茨城県","city":"石岡市","code5":"08205","code6":"082058"}},
{"type":"Feature","geometry":{"type":"Polygon","coordinates":[[[139.85395,36.21338],[139.85609,36.21991],[139.8648,36.21505],[139.86876,36.2197],[139.88505,36.21229],[139.8907,36.21482],[139.88756,36.22338],[139.89191,36.22693],[139.89613,36.22347],[139.90026,36.22852],[139.89786,36.23343],[139.90568,36.23462],[139.9049,36.23864],[139.89857,36.24506],[139.89132,36.24917],[139.88827,36.25295],[139.89452,36.26118],[139.89961,36.2635],[139.9035,36.26973],[139.90285,36.27373],[139.90841,36.27973],[139.90647,36.2853],[139.90168,36.2875],[139.90057,36.29661],[139.90301,36.29864],[139.89429,36.30193],[139.89905,36.30631],[139.89664,36.30975],[139.89167,36.30909],[139.88721,36.3115],[139.88185,36.30978],[139.87852,36.31401],[139.88241,36.31971],[139.88144,36.32263],[139.87467,36.32316],[139.87248,36.31508],[139.8626,36.31308],[139.85687,36.31049],[139.84995,36.31179],[139.83954,36.30023],[139.83521,36.2918],[139.84173,36.27733],[139.83186,36.26506],[139.82682,36.24757],[139.82161,36.2397],[139.82253,36.23566],[139.81936,36.22752],[139.81649,36.22506],[139.81594,36.21647],[139.82251,36.20508],[139.83077,36.20088],[139.83126,36.20453],[139.82844,36.21748],[139.84042,36.21988],[139.84467,36.21857],[139.84927,36.21363],[139.85395,36.21338]]]},"properties":{"pref":"茨城県","city":"結城市","code5":"08207","code6":"082074"}},
{"type":"Feature","geometry":{"type":"Polygon","coordinates":[[[140.11473,35.97981],[140.11321,35.98487],[140.10556,35.98816],[140.11134,35.97797],[140.11112,35.96724],[140.1097,35.96458],[140.11509,35.95895],[140.11636,35.952],[140.10646,35.95299],[140.1019,35.9555],[140.09583,35.9643],[140.09071,35.96807],[140.0923,35.97329],[140.08883,35.98305],[140.08752,35.98003],[140.08902,35.96818],[140.09647,35.95709],[140.11437,35.94791],[140.13245,35.93605],[140.13297,35.9313],[140.12826,35.92654],[140.12793,35.91988],[140.14198,35.91054],[140.14581,35.9104],[140.15192,35.90299],[140.14926,35.89733],[140.14463,35.89308],[140.12738,35.8821],[140.13424,35.87972],[140.14416,35.88045],[140.16124,35.8792],[140.16419,35.88693],[140.17676,35.88681],[140.18554,35.88498],[140.19624,35.87235],[140.20165,35.87468],[140.19869,35.87783],[140.21553,35.88444],[140.21562,35.88962],[140.22296,35.89233],[140.23597,35.90224],[140.24847,35.90677],[140.24899,35.91618],[140.25333,35.92824],[140.26102,35.93059],[140.25588,35.93782],[140.2551,35.94048],[140.24102,35.94881],[140.22675,35.94822],[140.21576,35.95531],[140.19518,35.96335],[140.19362,35.95476],[140.18696,35.95664],[140.18356,35.94598],[140.17485,35.93571],[140.17351,35.9415],[140.16894,35.9466],[140.1577,35.95169],[140.15287,35.94437],[140.14726,35.94512],[140.12921,35.95298],[140.12761,35.95935],[140.11987,35.95908],[140.11599,35.96454],[140.11473,35.97981]]]},"properties":{"pref":"茨城県","city":"龍ケ崎市","code5":"08208","code6":"082082"}},
{"type":"Feature","geometry":{"type":"Polygon","coordinates":[[[140.0364,36.19956],[140.02575,36.19886],[140.02495,36.20386],[140.02147,36.20717],[140.01498,36.20366],[140.01223,36.20662],[140.00591,36.20501],[140.00266,36.20783],[140.00354,36.22049],[139.99988,36.22255],[139.99835,36.23004],[139.99304,36.22911],[139.98121,36.23343],[139.979,36.23087],[139.9699,36.2294],[139.9676,36.22209],[139.95998,36.22694],[139.958,36.23026],[139.9508,36.228],[139.94267,36.23107],[139.93935,36.24418],[139.92775,36.24336],[139.91862,36.2365],[139.91511,36.23154],[139.90547,36.23043],[139.91674,36.21854],[139.91521,36.20833],[139.92285,36.19545],[139.9301,36.19667],[139.93492,36.19542],[139.93715,36.19027],[139.93432,36.17512],[139.94412,36.16805],[139.94407,36.16104],[139.94124,36.16072],[139.94061,36.15362],[139.92659,36.15149],[139.92515,36.1541],[139.92804,36.16002],[139.93304,36.16299],[139.92348,36.16976],[139.91725,36.16538],[139.91419,36.16085],[139.91976,36.15756],[139.91845,36.14578],[139.92213,36.14058],[139.9219,36.13377],[139.93721,36.13447],[139.93982,36.13746],[139.9488,36.13689],[139.95212,36.13831],[139.95207,36.14436],[139.95778,36.14555],[139.96062,36.14293],[139.97048,36.14181],[139.99012,36.13576],[139.99805,36.13573],[140.00348,36.14258],[140.00528,36.15268],[140.00251,36.15652],[140.00687,36.1614],[140.0074,36.17147],[140.01726,36.17649],[140.02214,36.1756],[140.02464,36.17924],[140.01944,36.18717],[140.0235,36.19416],[140.03195,36.1956],[140.0364,36.19956]]]},"properties":{"pref":"茨城県","city":"下妻市","code5":"08210","code6":"082104"}},
{"type":"Feature","geometry":{"type":"Polygon","coordinates":[[[139.91845,36.14578],[139.9158,36.13891],[139.91656,36.13294],[139.90188,36.13699],[139.8941,36.13171],[139.89912,36.12586],[139.89559,36.12107],[139.8955,36.11804],[139.90655,36.11125],[139.91256,36.1042],[139.91809,36.10191],[139.93128,36.08995],[139.93875,36.08836],[139.93856,36.07518],[139.93547,36.0692],[139.94754,36.05677],[139.9536,36.05699],[139.95805,36.05324],[139.95832,36.04708],[139.95286,36.03541],[139.94733,36.03505],[139.94942,36.02681],[139.94254,36.02811],[139.91965,36.02174],[139.92109,36.01789],[139.91706,36.01525],[139.91644,36.0102],[139.92049,35.99991],[139.91929,35.99542],[139.92234,35.99067],[139.92366,35.97044],[139.93404,35.96838],[139.93537,35.97502],[139.94161,35.97872],[139.9569,35.97752],[139.96383,35.97476],[139.97141,35.97752],[139.97471,35.98075],[139.9729,35.99138],[139.97648,35.99463],[139.97337,35.99943],[139.98062,36.00589],[139.98304,35.99776],[139.98861,35.99719],[139.99292,36.00139],[140.00189,36.00098],[139.99139,36.01201],[139.99403,36.0147],[140.01054,36.023],[140.01216,36.02696],[140.01989,36.02717],[140.02926,36.03363],[140.02568,36.04234],[140.02678,36.04551],[140.02286,36.05279],[140.01588,36.05921],[140.00574,36.06274],[140.00874,36.07104],[140.00426,36.08117],[139.99969,36.08572],[139.99838,36.09028],[140.00725,36.09504],[140.00851,36.10078],[140.00275,36.10208],[139.99889,36.10752],[140.00209,36.1137],[140.00217,36.12312],[139.99793,36.12399],[139.99581,36.12827],[139.99969,36.13165],[139.99805,36.13573],[139.99012,36.13576],[139.97048,36.14181],[139.96062,36.14293],[139.95778,36.14555],[139.95207,36.14436],[139.95212,36.13831],[139.9488,36.13689],[139.93982,36.13746],[139.93721,36.13447],[139.9219,36.13377],[139.92213,36.14058],[139.91845,36.14578]]]},"properties":{"pref":"茨城県","city":"常総市","code5":"08211","code6":"082112"}},
{"type":"Feature","geometry":{"type":"Polygon","coordinates":[[[140.46372,36.7916],[140.46315,36.78616],[140.46577,36.77255],[140.46806,36.76906],[140.46973,36.75941],[140.46083,36.7529],[140.45144,36.75005],[140.44755,36.74672],[140.45098,36.7397],[140.44984,36.73215],[140.44151,36.72898],[140.43579,36.73365],[140.42711,36.73497],[140.41524,36.73227],[140.41889,36.72455],[140.42417,36.72382],[140.43029,36.71232],[140.43728,36.71161],[140.44299,36.7037],[140.44505,36.69426],[140.45228,36.69248],[140.45287,36.68688],[140.44987,36.68049],[140.44318,36.67559],[140.44644,36.67046],[140.45291,36.66709],[140.45229,36.66081],[140.44765,36.65947],[140.44609,36.65443],[140.4376,36.65036],[140.43453,36.65441],[140.42976,36.6472],[140.42489,36.6473],[140.41692,36.63921],[140.41458,36.63183],[140.42393,36.6267],[140.42481,36.62166],[140.43491,36.61449],[140.43481,36.60649],[140.43046,36.60433],[140.4273,36.59239],[140.42853,36.58629],[140.43178,36.58534],[140.43511,36.57924],[140.43475,36.57558],[140.44029,36.5709],[140.43933,36.56706],[140.43191,36.56735],[140.43472,36.55962],[140.43936,36.55966],[140.44203,36.55283],[140.44092,36.55008],[140.44682,36.54514],[140.44406,36.54345],[140.4441,36.53433],[140.44875,36.52799],[140.44894,36.52457],[140.45789,36.52038],[140.45979,36.50992],[140.46939,36.5035],[140.48216,36.4988],[140.48931,36.49363],[140.49947,36.49737],[140.50442,36.49402],[140.51019,36.50127],[140.5159,36.50339],[140.52965,36.50315],[140.53551,36.49996],[140.54252,36.50407],[140.55306,36.50315],[140.55671,36.49573],[140.5598,36.49462],[140.56209,36.49802],[140.56163,36.50437],[140.56457,36.50781],[140.57458,36.50695],[140.57357,36.51396],[140.5782,36.51781],[140.5833,36.51272],[140.59306,36.51571],[140.59052,36.51809],[140.6,36.52136],[140.60158,36.52528],[140.59675,36.53645],[140.58998,36.54348],[140.59239,36.5535],[140.58591,36.55943],[140.58235,36.5653],[140.58328,36.57397],[140.57836,36.57356],[140.58022,36.58052],[140.57799,36.58596],[140.58187,36.59155],[140.58836,36.60703],[140.58288,36.61135],[140.58558,36.61472],[140.58328,36.62089],[140.57614,36.62433],[140.56587,36.62159],[140.55886,36.62225],[140.55491,36.62041],[140.54796,36.62078],[140.54519,36.615],[140.53804,36.61954],[140.53759,36.62637],[140.53318,36.62854],[140.52382,36.64084],[140.51928,36.64143],[140.51673,36.64958],[140.51937,36.65116],[140.531,36.65103],[140.53424,36.656],[140.54106,36.65452],[140.54091,36.66594],[140.54979,36.66753],[140.5499,36.67867],[140.54359,36.68138],[140.54436,36.68506],[140.53947,36.68943],[140.5375,36.69727],[140.5428,36.70123],[140.54096,36.70913],[140.55477,36.71355],[140.55925,36.72578],[140.55635,36.72986],[140.56201,36.73439],[140.56115,36.73816],[140.55513,36.74528],[140.5548,36.75105],[140.55763,36.76176],[140.5521,36.76463],[140.54596,36.76306],[140.54142,36.77131],[140.53624,36.77247],[140.53754,36.77933],[140.54382,36.78494],[140.54174,36.78769],[140.54182,36.79512],[140.53974,36.79723],[140.54077,36.80542],[140.54681,36.8084],[140.54454,36.81264],[140.55482,36.82668],[140.56033,36.83011],[140.55981,36.84091],[140.55596,36.84251],[140.56112,36.84998],[140.56706,36.8551],[140.56985,36.8598],[140.56747,36.8632],[140.56037,36.86336],[140.54547,36.85814],[140.53797,36.85877],[140.53717,36.85476],[140.53285,36.85018],[140.52811,36.84856],[140.5282,36.84364],[140.52848,36.83999],[140.51905,36.83615],[140.51668,36.82656],[140.51137,36.82211],[140.50476,36.82329],[140.50293,36.81903],[140.48892,36.81871],[140.48918,36.80935],[140.48059,36.80374],[140.48014,36.79982],[140.46652,36.79185],[140.46372,36.7916]]]},"properties":{"pref":"茨城県","city":"常陸太田市","code5":"08212","code6":"082121"}},
{"type":"Feature","geometry":{"type":"Polygon","coordinates":[[[140.56747,36.8632],[140.56985,36.8598],[140.56706,36.8551],[140.56112,36.84998],[140.55596,36.84251],[140.55981,36.84091],[140.56033,36.83011],[140.55482,36.82668],[140.54454,36.81264],[140.54681,36.8084],[140.54077,36.80542],[140.53974,36.79723],[140.54182,36.79512],[140.54174,36.78769],[140.54382,36.78494],[140.53754,36.77933],[140.53624,36.77247],[140.54142,36.77131],[140.54596,36.76306],[140.5521,36.76463],[140.55763,36.76176],[140.5548,36.75105],[140.55513,36.74528],[140.56115,36.73816],[140.56201,36.73439],[140.55635,36.72986],[140.55925,36.72578],[140.55477,36.71355],[140.57054,36.7085],[140.57703,36.70431],[140.58637,36.70476],[140.58855,36.70302],[140.59902,36.70334],[140.60739,36.70003],[140.61075,36.70655],[140.62066,36.71003],[140.62798,36.70436],[140.63268,36.70489],[140.63543,36.7006],[140.64484,36.70257],[140.65181,36.70587],[140.65506,36.70366],[140.66339,36.70564],[140.67038,36.69939],[140.67818,36.70002],[140.68999,36.69656],[140.69809,36.69904],[140.71352,36.69503],[140.71641,36.69272],[140.71853,36.69974],[140.72575,36.71478],[140.7291,36.71681],[140.72841,36.7308],[140.72977,36.73893],[140.73315,36.74866],[140.72436,36.752],[140.71056,36.75041],[140.70321,36.75328],[140.69194,36.74979],[140.68831,36.7504],[140.68258,36.75638],[140.67558,36.75758],[140.67159,36.76452],[140.66061,36.77167],[140.65136,36.77231],[140.64902,36.77522],[140.64856,36.7818],[140.65433,36.78425],[140.66314,36.78528],[140.66317,36.78968],[140.67049,36.79693],[140.67801,36.79852],[140.6799,36.8012],[140.67435,36.80779],[140.65749,36.81131],[140.65316,36.81947],[140.64184,36.83048],[140.63996,36.8352],[140.6352,36.83397],[140.63098,36.83975],[140.62394,36.84525],[140.6131,36.84719],[140.60402,36.85267],[140.60475,36.85555],[140.5984,36.87061],[140.59188,36.87292],[140.58603,36.87315],[140.58047,36.86689],[140.5755,36.86911],[140.5726,36.86429],[140.56747,36.8632]]]},"properties":{"pref":"茨城県","city":"高萩市","code5":"08214","code6":"082147"}},
{"type":"Feature","geometry":{"type":"Polygon","coordinates":[[[140.58611,36.94528],[140.58321,36.9431],[140.5747,36.94208],[140.56815,36.93737],[140.57054,36.93113],[140.56566,36.91643],[140.57406,36.91068],[140.58077,36.90441],[140.57938,36.89614],[140.59329,36.87984],[140.59188,36.87292],[140.5984,36.87061],[140.60475,36.85555],[140.60402,36.85267],[140.6131,36.84719],[140.62394,36.84525],[140.63098,36.83975],[140.6352,36.83397],[140.63996,36.8352],[140.64184,36.83048],[140.65316,36.81947],[140.65749,36.81131],[140.67435,36.80779],[140.6799,36.8012],[140.67801,36.79852],[140.67049,36.79693],[140.66317,36.78968],[140.66314,36.78528],[140.65433,36.78425],[140.64856,36.7818],[140.64902,36.77522],[140.65136,36.77231],[140.66061,36.77167],[140.67159,36.76452],[140.67558,36.75758],[140.68258,36.75638],[140.68831,36.7504],[140.69194,36.74979],[140.70321,36.75328],[140.71056,36.75041],[140.72436,36.752],[140.73315,36.74866],[140.73801,36.75877],[140.74654,36.78042],[140.75434,36.79343],[140.75749,36.79472],[140.75882,36.80023],[140.76849,36.81833],[140.77326,36.82297],[140.78227,36.82542],[140.79132,36.82974],[140.79704,36.82656],[140.80225,36.83285],[140.80178,36.83868],[140.79714,36.84281],[140.79814,36.85349],[140.79339,36.85921],[140.78582,36.85644],[140.78643,36.86195],[140.77721,36.86738],[140.76683,36.86155],[140.75556,36.86955],[140.74586,36.87124],[140.7405,36.87556],[140.73421,36.87159],[140.72936,36.87441],[140.71993,36.87232],[140.71414,36.87283],[140.70549,36.87839],[140.70222,36.88351],[140.68372,36.89063],[140.6801,36.89338],[140.6734,36.89317],[140.66461,36.89643],[140.65587,36.89729],[140.64738,36.901],[140.63728,36.89756],[140.62269,36.90323],[140.6147,36.90451],[140.61247,36.91067],[140.60719,36.91277],[140.60289,36.91996],[140.59804,36.92505],[140.59296,36.92646],[140.59387,36.93428],[140.58611,36.94528]]]},"properties":{"pref":"茨城県","city":"北茨城市","code5":"08215","code6":"082155"}},
{"type":"Feature","geometry":{"type":"Polygon","coordinates":[[[140.33714,36.42914],[140.32816,36.43339],[140.32688,36.43646],[140.31874,36.4406],[140.31323,36.43897],[140.30751,36.44463],[140.29838,36.44472],[140.29691,36.44864],[140.29134,36.44618],[140.29155,36.44183],[140.28668,36.43709],[140.28081,36.43724],[140.26865,36.43477],[140.25776,36.43465],[140.25373,36.43085],[140.23777,36.4314],[140.23259,36.43916],[140.22299,36.43035],[140.21958,36.4352],[140.2117,36.43539],[140.20994,36.43302],[140.20204,36.43281],[140.20326,36.42074],[140.1983,36.41558],[140.19249,36.40458],[140.1861,36.40112],[140.18516,36.39834],[140.18513,36.395],[140.18956,36.38563],[140.17986,36.37611],[140.17777,36.37096],[140.18034,36.36812],[140.17895,36.36156],[140.16903,36.36096],[140.16821,36.35346],[140.16318,36.34558],[140.16431,36.33696],[140.1732,36.33729],[140.18295,36.32534],[140.18054,36.32107],[140.19282,36.31764],[140.20206,36.32209],[140.205,36.31902],[140.21234,36.3172],[140.21564,36.31066],[140.2225,36.30445],[140.224,36.29595],[140.23514,36.28696],[140.23681,36.28427],[140.24744,36.2842],[140.25362,36.27959],[140.25884,36.27204],[140.26488,36.27133],[140.26807,36.26797],[140.27384,36.27048],[140.29392,36.26884],[140.3041,36.27303],[140.30802,36.27454],[140.31247,36.28085],[140.31609,36.27612],[140.33313,36.26927],[140.33557,36.27068],[140.34294,36.26583],[140.34246,36.26973],[140.34941,36.27796],[140.35559,36.29205],[140.35514,36.29745],[140.35922,36.3006],[140.35679,36.30707],[140.36395,36.31294],[140.36943,36.31314],[140.35662,36.31733],[140.3443,36.32405],[140.3418,36.32996],[140.33373,36.33996],[140.33309,36.34428],[140.33728,36.35606],[140.34193,36.35959],[140.34171,36.36405],[140.33609,36.37475],[140.32464,36.38063],[140.322,36.38379],[140.32433,36.39393],[140.33832,36.39624],[140.3453,36.3943],[140.35456,36.40006],[140.35552,36.4041],[140.34999,36.41035],[140.34759,36.42065],[140.3409,36.42234],[140.33714,36.42914]]]},"properties":{"pref":"茨城県","city":"笠間市","code5":"08216","code6":"082163"}},
{"type":"Feature","geometry":{"type":"Polygon","coordinates":[[[140.11437,35.94791],[140.11068,35.94299],[140.10239,35.94593],[140.09415,35.94189],[140.08245,35.94468],[140.07368,35.94316],[140.06573,35.93726],[140.05638,35.93773],[140.04463,35.93156],[140.0379,35.93708],[140.02886,35.94211],[140.02628,35.94869],[140.02001,35.95421],[140.01691,35.94961],[140.01949,35.94286],[140.01614,35.93211],[140.01325,35.92956],[140.00786,35.93051],[140.00337,35.92655],[139.9952,35.90957],[139.99869,35.90915],[140.01322,35.9111],[140.01886,35.91005],[140.03111,35.90061],[140.04754,35.89196],[140.0556,35.8907],[140.06112,35.88806],[140.0666,35.88087],[140.07433,35.87663],[140.08813,35.88403],[140.09282,35.88386],[140.10276,35.88074],[140.11173,35.87604],[140.12173,35.87366],[140.12714,35.87086],[140.12567,35.87999],[140.12738,35.8821],[140.14463,35.89308],[140.14926,35.89733],[140.15192,35.90299],[140.14581,35.9104],[140.14198,35.91054],[140.12793,35.91988],[140.12826,35.92654],[140.13297,35.9313],[140.13245,35.93605],[140.11437,35.94791]]]},"properties":{"pref":"茨城県","city":"取手市","code5":"08217","code6":"082171"}},
{"type":"Feature","geometry":{"type":"Polygon","coordinates":[[[140.1443,36.02797],[140.14272,36.02122],[140.1453,36.00606],[140.13711,36.00573],[140.13293,36.00083],[140.14105,35.98813],[140.13868,35.98584],[140.13193,35.98558],[140.12716,35.97721],[140.11973,35.98151],[140.11473,35.97981],[140.11599,35.96454],[140.11987,35.95908],[140.12761,35.95935],[140.12921,35.95298],[140.14726,35.94512],[140.15287,35.94437],[140.1577,35.95169],[140.16894,35.9466],[140.17351,35.9415],[140.17485,35.93571],[140.18356,35.94598],[140.18696,35.95664],[140.19362,35.95476],[140.19518,35.96335],[140.21576,35.95531],[140.22675,35.94822],[140.24102,35.94881],[140.2551,35.94048],[140.25588,35.93782],[140.25943,35.94055],[140.27293,35.94343],[140.26737,35.96161],[140.26173,35.97753],[140.25755,35.97913],[140.25375,35.98579],[140.25027,35.98648],[140.23511,35.98084],[140.22807,35.97608],[140.22429,35.98122],[140.21748,35.98346],[140.20869,35.96868],[140.20506,35.96849],[140.20241,35.97321],[140.18925,35.97861],[140.17927,35.98634],[140.17974,35.99321],[140.17574,36.00149],[140.15861,36.01476],[140.15639,36.01509],[140.14593,36.02806],[140.1443,36.02797]]]},"properties":{"pref":"茨城県","city":"牛久市","code5":"08219","code6":"082198"}},
{"type":"Feature","geometry":{"type":"Polygon","coordinates":[[[140.13734,36.17538],[140.13485,36.18221],[140.12803,36.18943],[140.13065,36.19272],[140.12736,36.19872],[140.12852,36.20314],[140.12178,36.21166],[140.1227,36.21717],[140.11586,36.22279],[140.11809,36.2265],[140.11034,36.23135],[140.09907,36.23089],[140.09209,36.2267],[140.08259,36.22808],[140.06021,36.22567],[140.06041,36.23465],[140.05493,36.23648],[140.05296,36.22818],[140.05943,36.21285],[140.04897,36.21164],[140.04975,36.20396],[140.04486,36.20046],[140.0364,36.19956],[140.03195,36.1956],[140.0235,36.19416],[140.01944,36.18717],[140.02464,36.17924],[140.02214,36.1756],[140.01726,36.17649],[140.0074,36.17147],[140.00687,36.1614],[140.00251,36.15652],[140.00528,36.15268],[140.00348,36.14258],[139.99805,36.13573],[139.99969,36.13165],[139.99581,36.12827],[139.99793,36.12399],[140.00217,36.12312],[140.00209,36.1137],[139.99889,36.10752],[140.00275,36.10208],[140.00851,36.10078],[140.00725,36.09504],[139.99838,36.09028],[139.99969,36.08572],[140.00426,36.08117],[140.00874,36.07104],[140.00574,36.06274],[140.01588,36.05921],[140.02286,36.05279],[140.02678,36.04551],[140.03775,36.03914],[140.0425,36.04112],[140.04976,36.03162],[140.05,36.02831],[140.04507,36.02001],[140.04518,36.01225],[140.0507,36.00851],[140.06515,36.01301],[140.06824,36.00757],[140.07183,36.00627],[140.08202,35.99808],[140.08883,35.98305],[140.0923,35.97329],[140.09071,35.96807],[140.09583,35.9643],[140.1019,35.9555],[140.10646,35.95299],[140.11636,35.952],[140.11509,35.95895],[140.1097,35.96458],[140.11112,35.96724],[140.11134,35.97797],[140.10556,35.98816],[140.11321,35.98487],[140.11473,35.97981],[140.11973,35.98151],[140.12716,35.97721],[140.13193,35.98558],[140.13868,35.98584],[140.14105,35.98813],[140.13293,36.00083],[140.13711,36.00573],[140.1453,36.00606],[140.14272,36.02122],[140.1443,36.02797],[140.13823,36.04553],[140.14356,36.04523],[140.14682,36.05123],[140.1523,36.05304],[140.15772,36.05915],[140.16313,36.06272],[140.16903,36.06076],[140.17163,36.06756],[140.16635,36.06929],[140.16095,36.07381],[140.15609,36.07423],[140.15631,36.08889],[140.15091,36.09164],[140.15102,36.0969],[140.15657,36.09791],[140.15887,36.10853],[140.15025,36.11346],[140.1387,36.11371],[140.12708,36.12308],[140.12753,36.13699],[140.13752,36.13098],[140.14445,36.13341],[140.13877,36.13678],[140.135,36.14212],[140.13936,36.14405],[140.1425,36.14877],[140.14151,36.15624],[140.13845,36.16101],[140.13122,36.16411],[140.13006,36.16751],[140.13734,36.17538]]]},"properties":{"pref":"茨城県","city":"つくば市","code5":"08220","code6":"082201"}},
{"type":"Feature","geometry":{"type":"Polygon","coordinates":[[[140.58681,36.33668],[140.59432,36.33631],[140.59659,36.3417],[140.60098,36.33963],[140.60681,36.34595],[140.61132,36.35467],[140.62108,36.35963],[140.62293,36.3672],[140.62732,36.37716],[140.62376,36.38488],[140.61849,36.38434],[140.6124,36.39494],[140.61255,36.41777],[140.62565,36.41768],[140.62605,36.42475],[140.62147,36.42708],[140.61012,36.42724],[140.60811,36.42446],[140.59568,36.42933],[140.59075,36.42972],[140.58643,36.43343],[140.57981,36.43504],[140.57205,36.43447],[140.55438,36.43884],[140.55172,36.44763],[140.54489,36.44749],[140.54247,36.45918],[140.53646,36.45921],[140.52992,36.46318],[140.52945,36.45335],[140.51764,36.45019],[140.51463,36.44566],[140.51498,36.43805],[140.51717,36.43628],[140.5187,36.42794],[140.50926,36.42665],[140.51063,36.41997],[140.50146,36.42099],[140.49474,36.41315],[140.49095,36.41472],[140.48391,36.40755],[140.48354,36.40008],[140.48852,36.39772],[140.48461,36.39012],[140.48729,36.38677],[140.49277,36.37467],[140.50114,36.38256],[140.51467,36.37175],[140.5259,36.36643],[140.54406,36.36319],[140.55542,36.35802],[140.56357,36.35014],[140.57689,36.34445],[140.58681,36.33668]]]},"properties":{"pref":"茨城県","city":"ひたちなか市","code5":"08221","code6":"082210"}},
{"type":"Feature","geometry":{"type":"Polygon","coordinates":[[[140.69405,35.93341],[140.69759,35.93487],[140.69787,35.93498],[140.701,35.93782],[140.6849,35.96443],[140.69604,35.96637],[140.6935,35.96911],[140.68191,35.96885],[140.67833,35.96747],[140.67057,35.97287],[140.65811,35.99246],[140.63887,36.0294],[140.63144,36.0423],[140.61994,36.06603],[140.61126,36.08215],[140.60324,36.07995],[140.59636,36.08008],[140.58955,36.077],[140.58766,36.0707],[140.57913,36.07147],[140.57617,36.06773],[140.56898,36.06756],[140.56802,36.06445],[140.56195,36.06181],[140.55386,36.0617],[140.55386,36.05494],[140.56288,36.0498],[140.56248,36.03974],[140.5654,36.03611],[140.56767,36.02018],[140.56658,36.01209],[140.57246,36.00483],[140.58255,35.99862],[140.58852,35.99075],[140.59616,35.98285],[140.59435,35.97778],[140.5891,35.97376],[140.59248,35.96514],[140.59981,35.9649],[140.60923,35.95783],[140.61397,35.94797],[140.6239,35.94049],[140.62042,35.93574],[140.62937,35.9304],[140.64593,35.92793],[140.65353,35.92831],[140.65579,35.92923],[140.65977,35.92889],[140.69234,35.93269],[140.69405,35.93341]]]},"properties":{"pref":"茨城県","city":"鹿嶋市","code5":"08222","code6":"082228"}},
{"type":"Feature","geometry":{"type":"Polygon","coordinates":[[[140.56658,36.01209],[140.5481,36.00886],[140.54067,36.00263],[140.53886,35.99896],[140.53818,35.98971],[140.52956,35.99762],[140.52841,36.00265],[140.51099,36.003],[140.51359,35.98554],[140.51277,35.98],[140.50666,35.97649],[140.48528,35.96996],[140.49828,35.95792],[140.51124,35.95874],[140.52693,35.94786],[140.53241,35.94178],[140.53735,35.93872],[140.55726,35.93079],[140.57063,35.92406],[140.58124,35.91645],[140.58854,35.90603],[140.59886,35.90317],[140.60227,35.90888],[140.60112,35.9177],[140.61192,35.92356],[140.61663,35.92471],[140.61754,35.93215],[140.62042,35.93574],[140.6239,35.94049],[140.61397,35.94797],[140.60923,35.95783],[140.59981,35.9649],[140.59248,35.96514],[140.5891,35.97376],[140.59435,35.97778],[140.59616,35.98285],[140.58852,35.99075],[140.58255,35.99862],[140.57246,36.00483],[140.56658,36.01209]]]},"properties":{"pref":"茨城県","city":"潮来市","code5":"08223","code6":"082236"}},
{"type":"Feature","geometry":{"type":"Polygon","coordinates":[[[139.93404,35.96838],[139.93804,35.96201],[139.93166,35.95077],[139.93864,35.94057],[139.9519,35.93585],[139.96546,35.92673],[139.97746,35.92271],[139.98579,35.91481],[139.9952,35.90957],[140.00337,35.92655],[140.00786,35.93051],[140.01325,35.92956],[140.01614,35.93211],[140.01949,35.94286],[140.01691,35.94961],[140.02001,35.95421],[140.01137,35.95697],[140.00602,35.96078],[140.00321,35.95884],[139.9972,35.96357],[139.9786,35.969],[139.97141,35.97752],[139.96383,35.97476],[139.9569,35.97752],[139.94161,35.97872],[139.93537,35.97502],[139.93404,35.96838]]]},"properties":{"pref":"茨城県","city":"守谷市","code5":"08224","code6":"082244"}},
{"type":"Feature","geometry":{"type":"Polygon","coordinates":[[[140.44299,36.7037],[140.43527,36.70246],[140.43451,36.69944],[140.42867,36.69553],[140.43105,36.69269],[140.42791,36.68604],[140.41729,36.68985],[140.41598,36.68503],[140.40448,36.68415],[140.39929,36.6874],[140.39241,36.68459],[140.38735,36.68512],[140.37463,36.68914],[140.37063,36.69364],[140.36702,36.69369],[140.35927,36.70029],[140.35254,36.69926],[140.34556,36.70577],[140.33341,36.70816],[140.33351,36.71235],[140.32683,36.72161],[140.31664,36.72278],[140.31331,36.7132],[140.30344,36.70971],[140.29216,36.71266],[140.28598,36.7125],[140.28231,36.70811],[140.27105,36.70673],[140.26782,36.70227],[140.25844,36.70157],[140.24669,36.70227],[140.24418,36.69779],[140.23339,36.70025],[140.22988,36.69883],[140.22681,36.69239],[140.22042,36.68715],[140.22502,36.67778],[140.22157,36.67429],[140.23142,36.67012],[140.23273,36.66547],[140.22931,36.66228],[140.23569,36.65722],[140.24093,36.65092],[140.23911,36.64556],[140.24271,36.63656],[140.23431,36.63463],[140.2347,36.62385],[140.23954,36.62501],[140.24527,36.6175],[140.24839,36.61094],[140.24914,36.5994],[140.24609,36.59438],[140.24337,36.58458],[140.24557,36.58246],[140.24469,36.5761],[140.24697,36.56753],[140.24378,36.56282],[140.25154,36.55458],[140.24697,36.54802],[140.24816,36.54481],[140.24775,36.53449],[140.25338,36.52717],[140.25455,36.5224],[140.26389,36.52448],[140.2669,36.52972],[140.27923,36.52101],[140.28981,36.52546],[140.29651,36.52504],[140.29964,36.53659],[140.30692,36.53501],[140.31493,36.53632],[140.31869,36.54644],[140.32497,36.54972],[140.33214,36.54662],[140.34292,36.54379],[140.36804,36.52807],[140.36614,36.52609],[140.37311,36.52155],[140.38427,36.50172],[140.39158,36.49612],[140.39456,36.49066],[140.40184,36.49727],[140.4082,36.49743],[140.41278,36.50025],[140.41394,36.5071],[140.4103,36.51073],[140.41861,36.51532],[140.425,36.51298],[140.43645,36.51578],[140.45979,36.50992],[140.45789,36.52038],[140.44894,36.52457],[140.44875,36.52799],[140.4441,36.53433],[140.44406,36.54345],[140.44682,36.54514],[140.44092,36.55008],[140.44203,36.55283],[140.43936,36.55966],[140.43472,36.55962],[140.43191,36.56735],[140.43933,36.56706],[140.44029,36.5709],[140.43475,36.57558],[140.43511,36.57924],[140.43178,36.58534],[140.42853,36.58629],[140.4273,36.59239],[140.43046,36.60433],[140.43481,36.60649],[140.43491,36.61449],[140.42481,36.62166],[140.42393,36.6267],[140.41458,36.63183],[140.41692,36.63921],[140.42489,36.6473],[140.42976,36.6472],[140.43453,36.65441],[140.4376,36.65036],[140.44609,36.65443],[140.44765,36.65947],[140.45229,36.66081],[140.45291,36.66709],[140.44644,36.67046],[140.44318,36.67559],[140.44987,36.68049],[140.45287,36.68688],[140.45228,36.69248],[140.44505,36.69426],[140.44299,36.7037]]]},"properties":{"pref":"茨城県","city":"常陸大宮市","code5":"08225","code6":"082252"}},
{"type":"Feature","geometry":{"type":"Polygon","coordinates":[[[140.48391,36.40755],[140.49095,36.41472],[140.49474,36.41315],[140.50146,36.42099],[140.51063,36.41997],[140.50926,36.42665],[140.5187,36.42794],[140.51717,36.43628],[140.51498,36.43805],[140.51463,36.44566],[140.51764,36.45019],[140.52945,36.45335],[140.52992,36.46318],[140.53646,36.45921],[140.54247,36.45918],[140.53943,36.46549],[140.54416,36.47055],[140.54168,36.47518],[140.5479,36.47685],[140.54992,36.4853],[140.55608,36.48715],[140.56629,36.49428],[140.5598,36.49462],[140.55671,36.49573],[140.55306,36.50315],[140.54252,36.50407],[140.53551,36.49996],[140.52965,36.50315],[140.5159,36.50339],[140.51019,36.50127],[140.50442,36.49402],[140.49947,36.49737],[140.48931,36.49363],[140.48216,36.4988],[140.46939,36.5035],[140.45979,36.50992],[140.43645,36.51578],[140.425,36.51298],[140.41861,36.51532],[140.4103,36.51073],[140.41394,36.5071],[140.41278,36.50025],[140.4082,36.49743],[140.40184,36.49727],[140.39456,36.49066],[140.39446,36.48283],[140.40042,36.48706],[140.4057,36.48492],[140.40965,36.4796],[140.40796,36.46545],[140.41445,36.46087],[140.41632,36.45506],[140.42593,36.44828],[140.4323,36.45002],[140.44867,36.45079],[140.45471,36.44155],[140.45421,36.4367],[140.45906,36.43502],[140.45696,36.42973],[140.46051,36.42605],[140.45445,36.42302],[140.46162,36.4105],[140.4694,36.40482],[140.47456,36.39907],[140.48391,36.40755]]]},"properties":{"pref":"茨城県","city":"那珂市","code5":"08226","code6":"082261"}},
{"type":"Feature","geometry":{"type":"Polygon","coordinates":[[[139.90568,36.23462],[139.90547,36.23043],[139.91511,36.23154],[139.91862,36.2365],[139.92775,36.24336],[139.93935,36.24418],[139.94267,36.23107],[139.9508,36.228],[139.958,36.23026],[139.95998,36.22694],[139.9676,36.22209],[139.9699,36.2294],[139.979,36.23087],[139.98121,36.23343],[139.99304,36.22911],[139.99835,36.23004],[139.99988,36.22255],[140.00354,36.22049],[140.00266,36.20783],[140.00591,36.20501],[140.01223,36.20662],[140.01498,36.20366],[140.02147,36.20717],[140.02495,36.20386],[140.02575,36.19886],[140.0364,36.19956],[140.04486,36.20046],[140.04975,36.20396],[140.04897,36.21164],[140.05943,36.21285],[140.05296,36.22818],[140.05493,36.23648],[140.06041,36.23465],[140.06101,36.24545],[140.06316,36.25924],[140.06596,36.26631],[140.06336,36.27092],[140.06744,36.27579],[140.06059,36.27915],[140.05407,36.27448],[140.04941,36.28324],[140.05066,36.29392],[140.04759,36.29652],[140.05092,36.30098],[140.05397,36.31623],[140.05035,36.32865],[140.05072,36.33672],[140.0404,36.35001],[140.03848,36.35518],[140.04266,36.3565],[140.04778,36.35433],[140.05019,36.35991],[140.04062,36.36295],[140.04147,36.37523],[140.03552,36.37776],[140.02616,36.37543],[140.01278,36.37642],[140.00904,36.37509],[140.00043,36.37663],[140.00385,36.3706],[140.00156,36.36807],[139.99131,36.36949],[139.98993,36.36721],[139.97924,36.36977],[139.97457,36.37454],[139.96528,36.36748],[139.96573,36.36021],[139.9645,36.35094],[139.94617,36.34919],[139.93514,36.34349],[139.92265,36.34158],[139.91303,36.33498],[139.91256,36.32504],[139.91031,36.30982],[139.91478,36.30786],[139.91075,36.3012],[139.90301,36.29864],[139.90057,36.29661],[139.90168,36.2875],[139.90647,36.2853],[139.90841,36.27973],[139.90285,36.27373],[139.9035,36.26973],[139.89961,36.2635],[139.89452,36.26118],[139.88827,36.25295],[139.89132,36.24917],[139.89857,36.24506],[139.9049,36.23864],[139.90568,36.23462]]]},"properties":{"pref":"茨城県","city":"筑西市","code5":"08227","code6":"082279"}},
{"type":"Feature","geometry":{"type":"Polygon","coordinates":[[[139.82936,36.14127],[139.83344,36.14197],[139.83414,36.13595],[139.83765,36.13125],[139.84715,36.13088],[139.84402,36.12698],[139.84176,36.11386],[139.84157,36.10276],[139.8431,36.09767],[139.83826,36.08935],[139.84028,36.07734],[139.84941,36.07394],[139.84337,36.06327],[139.835,36.06063],[139.83075,36.06193],[139.82017,36.05718],[139.83724,36.0411],[139.84736,36.03386],[139.85708,36.02943],[139.87824,36.0076],[139.88233,35.99145],[139.88416,35.98883],[139.89938,35.97752],[139.91672,35.97033],[139.92366,35.97044],[139.92234,35.99067],[139.91929,35.99542],[139.92049,35.99991],[139.91644,36.0102],[139.91706,36.01525],[139.92109,36.01789],[139.91965,36.02174],[139.94254,36.02811],[139.94942,36.02681],[139.94733,36.03505],[139.95286,36.03541],[139.95832,36.04708],[139.95805,36.05324],[139.9536,36.05699],[139.94754,36.05677],[139.93547,36.0692],[139.93856,36.07518],[139.93875,36.08836],[139.93128,36.08995],[139.91809,36.10191],[139.91256,36.1042],[139.90655,36.11125],[139.8955,36.11804],[139.89559,36.12107],[139.88359,36.13245],[139.88092,36.13817],[139.87019,36.14562],[139.8563,36.14718],[139.84902,36.14554],[139.84531,36.14968],[139.83555,36.15023],[139.83069,36.15206],[139.82854,36.14686],[139.82936,36.14127]]]},"properties":{"pref":"茨城県","city":"坂東市","code5":"08228","code6":"082287"}},
{"type":"Feature","geometry":{"type":"Polygon","coordinates":[[[140.24847,35.90677],[140.25012,35.90725],[140.2584,35.89857],[140.26788,35.90006],[140.27069,35.89552],[140.28293,35.89761],[140.28192,35.89219],[140.29773,35.89152],[140.29575,35.88441],[140.30569,35.8848],[140.32199,35.88878],[140.32583,35.90485],[140.3319,35.89655],[140.36425,35.91122],[140.37212,35.91569],[140.37608,35.9104],[140.37896,35.90313],[140.39648,35.90901],[140.40764,35.90922],[140.41796,35.90638],[140.42611,35.9077],[140.4348,35.91175],[140.44847,35.91502],[140.45844,35.92654],[140.47113,35.91972],[140.47423,35.91613],[140.48454,35.90965],[140.49759,35.90626],[140.49813,35.90919],[140.49064,35.9154],[140.48718,35.92859],[140.49063,35.9319],[140.49725,35.93388],[140.4997,35.9444],[140.50388,35.95101],[140.51124,35.95874],[140.49828,35.95792],[140.48528,35.96996],[140.47614,35.97178],[140.46611,35.97522],[140.45343,35.99192],[140.43126,36.00808],[140.4095,36.0233],[140.38791,35.99619],[140.38009,35.99306],[140.36424,35.98998],[140.35766,35.99123],[140.35878,35.99836],[140.33031,36.00513],[140.32414,35.99837],[140.32594,35.99636],[140.32155,35.98946],[140.31792,35.98836],[140.31096,35.982],[140.30656,35.9757],[140.30256,35.9748],[140.29751,35.97858],[140.28781,35.9826],[140.27493,35.98173],[140.27062,35.97953],[140.26364,35.98202],[140.25755,35.97913],[140.26173,35.97753],[140.26737,35.96161],[140.27293,35.94343],[140.25943,35.94055],[140.25588,35.93782],[140.26102,35.93059],[140.25333,35.92824],[140.24899,35.91618],[140.24847,35.90677]]]},"properties":{"pref":"茨城県","city":"稲敷市","code5":"08229","code6":"082295"}},
{"type":"Feature","geometry":{"type":"Polygon","coordinates":[[[140.26229,36.0522],[140.26988,36.05114],[140.29836,36.04443],[140.31055,36.04896],[140.32278,36.04647],[140.33868,36.04504],[140.35863,36.04475],[140.39599,36.03748],[140.39638,36.0549],[140.39826,36.06318],[140.4047,36.08263],[140.39779,36.09183],[140.39106,36.09832],[140.38596,36.11413],[140.36664,36.13051],[140.34581,36.13068],[140.33148,36.1274],[140.32464,36.12736],[140.31197,36.12972],[140.30146,36.13362],[140.2934,36.13253],[140.26496,36.13447],[140.24802,36.13284],[140.25853,36.14572],[140.26714,36.15087],[140.273,36.16186],[140.27875,36.16557],[140.27606,36.1716],[140.26817,36.1787],[140.25953,36.18167],[140.25706,36.18523],[140.24616,36.1901],[140.24412,36.19445],[140.23957,36.19687],[140.24026,36.20224],[140.23663,36.20547],[140.22001,36.20674],[140.21743,36.20943],[140.21011,36.20902],[140.21141,36.20202],[140.22429,36.19474],[140.22314,36.19252],[140.20919,36.19188],[140.20723,36.18566],[140.19324,36.18185],[140.18339,36.17386],[140.17654,36.1718],[140.176,36.16789],[140.18074,36.16489],[140.1951,36.16232],[140.20037,36.15867],[140.20288,36.15384],[140.20575,36.14122],[140.2018,36.13889],[140.19367,36.12933],[140.22042,36.12565],[140.22361,36.12321],[140.22922,36.12374],[140.24733,36.12172],[140.25584,36.11966],[140.25481,36.11687],[140.27269,36.11246],[140.28037,36.10908],[140.28432,36.10504],[140.28033,36.10253],[140.27738,36.09456],[140.27028,36.09796],[140.25969,36.09341],[140.26117,36.08808],[140.26644,36.08611],[140.26574,36.07039],[140.26229,36.0522]]]},"properties":{"pref":"茨城県","city":"かすみがうら市","code5":"08230","code6":"082309"}},
{"type":"Feature","geometry":{"type":"Polygon","coordinates":[[[140.18054,36.32107],[140.18295,36.32534],[140.1732,36.33729],[140.16431,36.33696],[140.16318,36.34558],[140.16821,36.35346],[140.16903,36.36096],[140.17895,36.36156],[140.18034,36.36812],[140.17777,36.37096],[140.17986,36.37611],[140.18956,36.38563],[140.18513,36.395],[140.18516,36.39834],[140.1656,36.40011],[140.1562,36.39815],[140.14857,36.40666],[140.14426,36.41404],[140.14143,36.41209],[140.13183,36.41492],[140.1141,36.41081],[140.10958,36.4073],[140.11122,36.39806],[140.10169,36.39701],[140.09229,36.40164],[140.08795,36.39828],[140.0831,36.40288],[140.07649,36.40418],[140.0665,36.40381],[140.0652,36.39687],[140.06914,36.38903],[140.06361,36.38206],[140.04817,36.37558],[140.04147,36.37523],[140.04062,36.36295],[140.05019,36.35991],[140.04778,36.35433],[140.04266,36.3565],[140.03848,36.35518],[140.0404,36.35001],[140.05072,36.33672],[140.05035,36.32865],[140.05397,36.31623],[140.05092,36.30098],[140.04759,36.29652],[140.05066,36.29392],[140.04941,36.28324],[140.05407,36.27448],[140.06059,36.27915],[140.06744,36.27579],[140.06336,36.27092],[140.06596,36.26631],[140.06316,36.25924],[140.06101,36.24545],[140.06041,36.23465],[140.06021,36.22567],[140.08259,36.22808],[140.09209,36.2267],[140.09907,36.23089],[140.11034,36.23135],[140.12676,36.24357],[140.13232,36.24298],[140.12948,36.25079],[140.13531,36.2599],[140.13435,36.26705],[140.14084,36.27007],[140.15236,36.28746],[140.14988,36.29385],[140.14378,36.29852],[140.14568,36.30669],[140.15464,36.31615],[140.16233,36.31763],[140.17114,36.32144],[140.18054,36.32107]]]},"properties":{"pref":"茨城県","city":"桜川市","code5":"08231","code6":"082317"}},
{"type":"Feature","geometry":{"type":"MultiPolygon","coordinates":[[[[140.62042,35.93574],[140.61754,35.93215],[140.61663,35.92471],[140.61192,35.92356],[140.60112,35.9177],[140.60227,35.90888],[140.59886,35.90317],[140.60799,35.89581],[140.6133,35.88888],[140.61649,35.88138],[140.62878,35.86466],[140.63069,35.85912],[140.64783,35.85571],[140.66639,35.8532],[140.68684,35.84776],[140.69718,35.84238],[140.70658,35.83626],[140.71305,35.82942],[140.71723,35.82277],[140.7207,35.81347],[140.72587,35.80075],[140.72895,35.79665],[140.74167,35.78515],[140.75151,35.77903],[140.7882,35.75842],[140.80098,35.74966],[140.81535,35.74151],[140.82196,35.73945],[140.83766,35.73914],[140.846,35.73989],[140.85197,35.74467],[140.84767,35.74668],[140.84946,35.75056],[140.8462,35.75381],[140.84936,35.75051],[140.84762,35.7467],[140.84279,35.74649],[140.83663,35.75247],[140.82532,35.76048],[140.81058,35.77705],[140.79799,35.79371],[140.79515,35.79619],[140.77981,35.81618],[140.74192,35.8671],[140.74167,35.87408],[140.72009,35.90382],[140.70788,35.92136],[140.7104,35.92674],[140.71155,35.94064],[140.71131,35.94054],[140.71023,35.92688],[140.7046,35.92429],[140.70003,35.9257],[140.67753,35.91228],[140.67862,35.90118],[140.69103,35.88313],[140.68524,35.88575],[140.67724,35.89669],[140.67466,35.897],[140.67347,35.91246],[140.66891,35.91917],[140.65237,35.92662],[140.65353,35.92831],[140.64593,35.92793],[140.62937,35.9304],[140.62042,35.93574]]],[[[140.65579,35.92923],[140.66122,35.92564],[140.67689,35.91913],[140.69391,35.92881],[140.69405,35.93341],[140.69234,35.93269],[140.65977,35.92889],[140.65579,35.92923]]]]},"properties":{"pref":"茨城県","city":"神栖市","code5":"08232","code6":"082325"}},
{"type":"Feature","geometry":{"type":"Polygon","coordinates":[[[140.55386,36.0617],[140.5504,36.06614],[140.54375,36.06892],[140.54381,36.07269],[140.53989,36.07822],[140.54055,36.08614],[140.53727,36.09076],[140.52891,36.0965],[140.53325,36.10002],[140.53281,36.10393],[140.52765,36.10769],[140.53071,36.11578],[140.52395,36.12376],[140.51988,36.12125],[140.51272,36.12469],[140.50749,36.1324],[140.49157,36.12688],[140.49006,36.12332],[140.48049,36.12642],[140.46406,36.12325],[140.45016,36.13107],[140.44787,36.13671],[140.45321,36.14509],[140.45571,36.15156],[140.45578,36.15856],[140.44995,36.15813],[140.44374,36.16051],[140.43656,36.16598],[140.4344,36.15493],[140.42031,36.14279],[140.41413,36.1422],[140.40676,36.13759],[140.40226,36.14685],[140.39473,36.15595],[140.38515,36.15477],[140.37865,36.15691],[140.37313,36.15427],[140.36326,36.15714],[140.36321,36.14111],[140.36664,36.13051],[140.38596,36.11413],[140.39106,36.09832],[140.39779,36.09183],[140.4047,36.08263],[140.39826,36.06318],[140.39638,36.0549],[140.39599,36.03748],[140.4095,36.0233],[140.43126,36.00808],[140.45343,35.99192],[140.46611,35.97522],[140.47614,35.97178],[140.48528,35.96996],[140.50666,35.97649],[140.51277,35.98],[140.51359,35.98554],[140.51099,36.003],[140.52841,36.00265],[140.52956,35.99762],[140.53818,35.98971],[140.53886,35.99896],[140.54067,36.00263],[140.5481,36.00886],[140.56658,36.01209],[140.56767,36.02018],[140.5654,36.03611],[140.56248,36.03974],[140.56288,36.0498],[140.55386,36.05494],[140.55386,36.0617]]]},"properties":{"pref":"茨城県","city":"行方市","code5":"08233","code6":"082333"}},
{"type":"Feature","geometry":{"type":"Polygon","coordinates":[[[140.61126,36.08215],[140.60377,36.09714],[140.59451,36.11781],[140.58362,36.1462],[140.57383,36.17729],[140.56944,36.19427],[140.56331,36.2214],[140.55955,36.25578],[140.55698,36.26035],[140.53802,36.26206],[140.53508,36.26466],[140.52658,36.26691],[140.52241,36.27823],[140.49623,36.27597],[140.49643,36.26512],[140.49417,36.26169],[140.49369,36.25007],[140.49633,36.24597],[140.4872,36.24503],[140.4769,36.23858],[140.45601,36.23526],[140.44728,36.22882],[140.44114,36.23885],[140.43235,36.22814],[140.42069,36.23186],[140.41462,36.21986],[140.41918,36.2125],[140.43295,36.20827],[140.4422,36.20289],[140.44792,36.19455],[140.44953,36.18683],[140.44379,36.1845],[140.44033,36.17811],[140.43656,36.16598],[140.44374,36.16051],[140.44995,36.15813],[140.45578,36.15856],[140.45571,36.15156],[140.45321,36.14509],[140.44787,36.13671],[140.45016,36.13107],[140.46406,36.12325],[140.48049,36.12642],[140.49006,36.12332],[140.49157,36.12688],[140.50749,36.1324],[140.51272,36.12469],[140.51988,36.12125],[140.52395,36.12376],[140.53071,36.11578],[140.52765,36.10769],[140.53281,36.10393],[140.53325,36.10002],[140.52891,36.0965],[140.53727,36.09076],[140.54055,36.08614],[140.53989,36.07822],[140.54381,36.07269],[140.54375,36.06892],[140.5504,36.06614],[140.55386,36.0617],[140.56195,36.06181],[140.56802,36.06445],[140.56898,36.06756],[140.57617,36.06773],[140.57913,36.07147],[140.58766,36.0707],[140.58955,36.077],[140.59636,36.08008],[140.60324,36.07995],[140.61126,36.08215]]]},"properties":{"pref":"茨城県","city":"鉾田市","code5":"08234","code6":"082341"}},
{"type":"Feature","geometry":{"type":"Polygon","coordinates":[[[140.08883,35.98305],[140.08202,35.99808],[140.07183,36.00627],[140.06824,36.00757],[140.06515,36.01301],[140.0507,36.00851],[140.04518,36.01225],[140.04507,36.02001],[140.05,36.02831],[140.04976,36.03162],[140.0425,36.04112],[140.03775,36.03914],[140.02678,36.04551],[140.02568,36.04234],[140.02926,36.03363],[140.01989,36.02717],[140.01216,36.02696],[140.01054,36.023],[139.99403,36.0147],[139.99139,36.01201],[140.00189,36.00098],[139.99292,36.00139],[139.98861,35.99719],[139.98304,35.99776],[139.98062,36.00589],[139.97337,35.99943],[139.97648,35.99463],[139.9729,35.99138],[139.97471,35.98075],[139.97141,35.97752],[139.9786,35.969],[139.9972,35.96357],[140.00321,35.95884],[140.00602,35.96078],[140.01137,35.95697],[140.02001,35.95421],[140.02628,35.94869],[140.02886,35.94211],[140.0379,35.93708],[140.04463,35.93156],[140.05638,35.93773],[140.06573,35.93726],[140.07368,35.94316],[140.08245,35.94468],[140.09415,35.94189],[140.10239,35.94593],[140.11068,35.94299],[140.11437,35.94791],[140.09647,35.95709],[140.08902,35.96818],[140.08752,35.98003],[140.08883,35.98305]]]},"properties":{"pref":"茨城県","city":"つくばみらい市","code5":"08235","code6":"082350"}},
{"type":"Feature","geometry":{"type":"Polygon","coordinates":[[[140.34581,36.13068],[140.36664,36.13051],[140.36321,36.14111],[140.36326,36.15714],[140.37313,36.15427],[140.37865,36.15691],[140.38515,36.15477],[140.39473,36.15595],[140.40226,36.14685],[140.40676,36.13759],[140.41413,36.1422],[140.42031,36.14279],[140.4344,36.15493],[140.43656,36.16598],[140.44033,36.17811],[140.44379,36.1845],[140.44953,36.18683],[140.44792,36.19455],[140.4422,36.20289],[140.43295,36.20827],[140.41918,36.2125],[140.41462,36.21986],[140.40249,36.2287],[140.39489,36.23681],[140.3844,36.2399],[140.38371,36.24362],[140.38639,36.2504],[140.38442,36.25645],[140.35666,36.26805],[140.34953,36.2698],[140.34294,36.26583],[140.33557,36.27068],[140.33313,36.26927],[140.31609,36.27612],[140.31247,36.28085],[140.30802,36.27454],[140.3041,36.27303],[140.30853,36.27109],[140.31567,36.26481],[140.3046,36.26518],[140.29714,36.26284],[140.29308,36.25553],[140.28061,36.25488],[140.27193,36.2313],[140.2749,36.22346],[140.28491,36.22042],[140.29038,36.21537],[140.29645,36.21373],[140.30026,36.21033],[140.31176,36.20956],[140.31415,36.20107],[140.31952,36.19894],[140.32758,36.19154],[140.33628,36.19346],[140.34409,36.18886],[140.34107,36.18484],[140.33419,36.18803],[140.32711,36.18581],[140.32134,36.1863],[140.31577,36.18377],[140.30859,36.18568],[140.30771,36.18055],[140.30957,36.17431],[140.3071,36.16528],[140.30975,36.15589],[140.32066,36.15005],[140.33027,36.14723],[140.3359,36.14212],[140.34581,36.13068]]]},"properties":{"pref":"茨城県","city":"小美玉市","code5":"08236","code6":"082368"}},
{"type":"Feature","geometry":{"type":"Polygon","coordinates":[[[140.36943,36.31314],[140.36395,36.31294],[140.35679,36.30707],[140.35922,36.3006],[140.35514,36.29745],[140.35559,36.29205],[140.34941,36.27796],[140.34246,36.26973],[140.34294,36.26583],[140.34953,36.2698],[140.35666,36.26805],[140.38442,36.25645],[140.38639,36.2504],[140.38371,36.24362],[140.3844,36.2399],[140.39489,36.23681],[140.40249,36.2287],[140.41462,36.21986],[140.42069,36.23186],[140.43235,36.22814],[140.44114,36.23885],[140.44728,36.22882],[140.45601,36.23526],[140.4769,36.23858],[140.4872,36.24503],[140.49633,36.24597],[140.49369,36.25007],[140.49417,36.26169],[140.49643,36.26512],[140.49623,36.27597],[140.52241,36.27823],[140.53124,36.29534],[140.5329,36.30189],[140.53088,36.3052],[140.52059,36.30643],[140.51442,36.30188],[140.50694,36.30072],[140.49748,36.30564],[140.49309,36.314],[140.49337,36.31997],[140.48405,36.32242],[140.4791,36.32072],[140.47147,36.31512],[140.46563,36.31607],[140.46119,36.32187],[140.45753,36.31742],[140.45126,36.31767],[140.44248,36.32058],[140.44279,36.31594],[140.43481,36.31707],[140.42509,36.31548],[140.42384,36.32191],[140.41887,36.33089],[140.40972,36.33888],[140.41145,36.34479],[140.40698,36.3456],[140.40342,36.33515],[140.39991,36.32944],[140.39455,36.33272],[140.39144,36.32875],[140.38568,36.32588],[140.38912,36.31904],[140.39514,36.31658],[140.39086,36.31248],[140.38438,36.31345],[140.37599,36.3122],[140.36943,36.31314]]]},"properties":{"pref":"茨城県","county":"東茨城郡","city":"茨城町","code5":"08302","code6":"083020"}},
{"type":"Feature","geometry":{"type":"Polygon","coordinates":[[[140.53088,36.3052],[140.5329,36.30189],[140.53124,36.29534],[140.52241,36.27823],[140.52658,36.26691],[140.53508,36.26466],[140.53802,36.26206],[140.55698,36.26035],[140.55955,36.25578],[140.55818,36.2731],[140.55848,36.28526],[140.56056,36.29176],[140.56554,36.29768],[140.57291,36.30267],[140.5774,36.3107],[140.58525,36.3106],[140.58858,36.31332],[140.59385,36.32155],[140.59432,36.33631],[140.58681,36.33668],[140.58158,36.33528],[140.57513,36.3273],[140.57096,36.32741],[140.56708,36.32252],[140.56113,36.32011],[140.55912,36.31329],[140.55251,36.3143],[140.54946,36.31923],[140.54441,36.31905],[140.53088,36.3052]]]},"properties":{"pref":"茨城県","county":"東茨城郡","city":"大洗町","code5":"08309","code6":"083097"}},
{"type":"Feature","geometry":{"type":"Polygon","coordinates":[[[140.41445,36.46087],[140.40796,36.46545],[140.40965,36.4796],[140.4057,36.48492],[140.40042,36.48706],[140.39446,36.48283],[140.39456,36.49066],[140.39158,36.49612],[140.38427,36.50172],[140.37311,36.52155],[140.36614,36.52609],[140.36804,36.52807],[140.34292,36.54379],[140.33214,36.54662],[140.32497,36.54972],[140.31869,36.54644],[140.31493,36.53632],[140.30692,36.53501],[140.29964,36.53659],[140.29651,36.52504],[140.28981,36.52546],[140.27923,36.52101],[140.2669,36.52972],[140.26389,36.52448],[140.25455,36.5224],[140.26018,36.51763],[140.24761,36.51507],[140.24893,36.50766],[140.24244,36.50753],[140.24151,36.50315],[140.23064,36.50297],[140.22957,36.49088],[140.2234,36.48167],[140.21662,36.47898],[140.21207,36.47071],[140.2129,36.46704],[140.2083,36.46443],[140.20736,36.45703],[140.20288,36.45444],[140.20619,36.44648],[140.20135,36.43814],[140.20204,36.43281],[140.20994,36.43302],[140.2117,36.43539],[140.21958,36.4352],[140.22299,36.43035],[140.23259,36.43916],[140.23777,36.4314],[140.25373,36.43085],[140.25776,36.43465],[140.26865,36.43477],[140.28081,36.43724],[140.28668,36.43709],[140.29155,36.44183],[140.29134,36.44618],[140.29691,36.44864],[140.29838,36.44472],[140.30751,36.44463],[140.31323,36.43897],[140.31874,36.4406],[140.32688,36.43646],[140.32816,36.43339],[140.33714,36.42914],[140.34418,36.43196],[140.3585,36.43201],[140.36028,36.42881],[140.37,36.43223],[140.37406,36.42652],[140.38312,36.43683],[140.39423,36.4384],[140.39831,36.44317],[140.39524,36.44741],[140.38603,36.45105],[140.38535,36.45574],[140.38134,36.46428],[140.38771,36.4644],[140.39456,36.46197],[140.39696,36.45739],[140.40395,36.45512],[140.40827,36.45112],[140.41171,36.45218],[140.40896,36.45807],[140.41445,36.46087]]]},"properties":{"pref":"茨城県","county":"東茨城郡","city":"城里町","code5":"08310","code6":"083101"}},
{"type":"Feature","geometry":{"type":"Polygon","coordinates":[[[140.56629,36.49428],[140.55608,36.48715],[140.54992,36.4853],[140.5479,36.47685],[140.54168,36.47518],[140.54416,36.47055],[140.53943,36.46549],[140.54247,36.45918],[140.54489,36.44749],[140.55172,36.44763],[140.55438,36.43884],[140.57205,36.43447],[140.57981,36.43504],[140.58643,36.43343],[140.59075,36.42972],[140.59568,36.42933],[140.60811,36.42446],[140.61012,36.42724],[140.61003,36.4313],[140.6272,36.4312],[140.62733,36.44146],[140.61501,36.44174],[140.6104,36.44342],[140.60837,36.45201],[140.611,36.47498],[140.61391,36.48165],[140.60415,36.48197],[140.5954,36.48811],[140.59118,36.48939],[140.5906,36.49405],[140.58209,36.49365],[140.5771,36.49584],[140.56629,36.49428]]]},"properties":{"pref":"茨城県","county":"那珂郡","city":"東海村","code5":"08341","code6":"083411"}},
{"type":"Feature","geometry":{"type":"Polygon","coordinates":[[[140.26426,36.93332],[140.25777,36.93268],[140.25347,36.92969],[140.24839,36.92131],[140.2501,36.91729],[140.24872,36.90886],[140.25428,36.89114],[140.25288,36.88566],[140.25427,36.87701],[140.25671,36.8731],[140.25418,36.86927],[140.25431,36.86008],[140.25154,36.85246],[140.25668,36.8481],[140.25499,36.84191],[140.26148,36.83789],[140.26226,36.8329],[140.26569,36.82898],[140.26662,36.81311],[140.26371,36.81129],[140.2646,36.80413],[140.26704,36.79952],[140.26454,36.79456],[140.26644,36.79106],[140.26161,36.78656],[140.25381,36.78366],[140.25742,36.77723],[140.25367,36.77452],[140.26107,36.76759],[140.25686,36.76611],[140.25494,36.76022],[140.25963,36.75477],[140.26221,36.74828],[140.26912,36.7421],[140.27746,36.73875],[140.28333,36.73414],[140.28767,36.72537],[140.28726,36.71799],[140.29216,36.71266],[140.30344,36.70971],[140.31331,36.7132],[140.31664,36.72278],[140.32683,36.72161],[140.33351,36.71235],[140.33341,36.70816],[140.34556,36.70577],[140.35254,36.69926],[140.35927,36.70029],[140.36702,36.69369],[140.37063,36.69364],[140.37463,36.68914],[140.38735,36.68512],[140.39241,36.68459],[140.39929,36.6874],[140.40448,36.68415],[140.41598,36.68503],[140.41729,36.68985],[140.42791,36.68604],[140.43105,36.69269],[140.42867,36.69553],[140.43451,36.69944],[140.43527,36.70246],[140.44299,36.7037],[140.43728,36.71161],[140.43029,36.71232],[140.42417,36.72382],[140.41889,36.72455],[140.41524,36.73227],[140.42711,36.73497],[140.43579,36.73365],[140.44151,36.72898],[140.44984,36.73215],[140.45098,36.7397],[140.44755,36.74672],[140.45144,36.75005],[140.46083,36.7529],[140.46973,36.75941],[140.46806,36.76906],[140.46577,36.77255],[140.46315,36.78616],[140.46372,36.7916],[140.46195,36.79692],[140.45334,36.80298],[140.45056,36.80845],[140.44713,36.80979],[140.43949,36.82049],[140.43622,36.82139],[140.43093,36.8173],[140.41584,36.82857],[140.4135,36.83212],[140.40298,36.83137],[140.38713,36.83417],[140.37721,36.83792],[140.3777,36.84297],[140.3749,36.85079],[140.37058,36.85522],[140.36841,36.86123],[140.36859,36.86709],[140.37191,36.87018],[140.36521,36.88432],[140.34661,36.88502],[140.33333,36.88889],[140.32405,36.89334],[140.32186,36.90778],[140.31762,36.91293],[140.30773,36.91919],[140.30272,36.92703],[140.29733,36.92892],[140.2927,36.9332],[140.28357,36.93525],[140.27297,36.93015],[140.26426,36.93332]]]},"properties":{"pref":"茨城県","county":"久慈郡","city":"大子町","code5":"08364","code6":"083640"}},
{"type":"Feature","geometry":{"type":"Polygon","coordinates":[[[140.4095,36.0233],[140.39599,36.03748],[140.35863,36.04475],[140.33868,36.04504],[140.32278,36.04647],[140.31055,36.04896],[140.29836,36.04443],[140.26988,36.05114],[140.26967,36.03289],[140.27193,36.02245],[140.27689,36.02012],[140.27528,36.01673],[140.28084,36.0011],[140.27671,35.99608],[140.28096,35.98763],[140.28781,35.9826],[140.29751,35.97858],[140.30256,35.9748],[140.30656,35.9757],[140.31096,35.982],[140.31792,35.98836],[140.32155,35.98946],[140.32594,35.99636],[140.32414,35.99837],[140.33031,36.00513],[140.35878,35.99836],[140.35766,35.99123],[140.36424,35.98998],[140.38009,35.99306],[140.38791,35.99619],[140.4095,36.0233]]]},"properties":{"pref":"茨城県","county":"稲敷郡","city":"美浦村","code5":"08442","code6":"084425"}},
{"type":"Feature","geometry":{"type":"Polygon","coordinates":[[[140.15861,36.01476],[140.17574,36.00149],[140.17974,35.99321],[140.17927,35.98634],[140.18925,35.97861],[140.20241,35.97321],[140.20506,35.96849],[140.20869,35.96868],[140.21748,35.98346],[140.22429,35.98122],[140.22807,35.97608],[140.23511,35.98084],[140.25027,35.98648],[140.25375,35.98579],[140.25755,35.97913],[140.26364,35.98202],[140.27062,35.97953],[140.27493,35.98173],[140.28781,35.9826],[140.28096,35.98763],[140.27671,35.99608],[140.28084,36.0011],[140.27528,36.01673],[140.27689,36.02012],[140.27193,36.02245],[140.26967,36.03289],[140.26988,36.05114],[140.26229,36.0522],[140.24213,36.05534],[140.214,36.05546],[140.20884,36.05232],[140.20932,36.04735],[140.20206,36.04419],[140.19952,36.0406],[140.19122,36.04124],[140.18874,36.03093],[140.17305,36.04038],[140.17078,36.03117],[140.1729,36.02714],[140.16782,36.02562],[140.16681,36.02009],[140.16258,36.02104],[140.15861,36.01476]]]},"properties":{"pref":"茨城県","county":"稲敷郡","city":"阿見町","code5":"08443","code6":"084433"}},
{"type":"Feature","geometry":{"type":"Polygon","coordinates":[[[140.20165,35.87468],[140.20699,35.87703],[140.2091,35.87271],[140.2174,35.87424],[140.21693,35.86838],[140.21365,35.86201],[140.22779,35.85536],[140.23259,35.85411],[140.24362,35.8554],[140.26569,35.86931],[140.27624,35.87355],[140.28115,35.87411],[140.28936,35.87143],[140.29996,35.86669],[140.30829,35.86449],[140.31705,35.86433],[140.32305,35.86606],[140.33497,35.87239],[140.34839,35.88321],[140.35308,35.89194],[140.36372,35.89939],[140.37589,35.90237],[140.37896,35.90313],[140.37608,35.9104],[140.37212,35.91569],[140.36425,35.91122],[140.3319,35.89655],[140.32583,35.90485],[140.32199,35.88878],[140.30569,35.8848],[140.29575,35.88441],[140.29773,35.89152],[140.28192,35.89219],[140.28293,35.89761],[140.27069,35.89552],[140.26788,35.90006],[140.2584,35.89857],[140.25012,35.90725],[140.24847,35.90677],[140.23597,35.90224],[140.22296,35.89233],[140.21562,35.88962],[140.21553,35.88444],[140.19869,35.87783],[140.20165,35.87468]]]},"properties":{"pref":"茨城県","county":"稲敷郡","city":"河内町","code5":"08447","code6":"084476"}},
{"type":"Feature","geometry":{"type":"Polygon","coordinates":[[[139.8563,36.14718],[139.87019,36.14562],[139.88092,36.13817],[139.88359,36.13245],[139.89559,36.12107],[139.89912,36.12586],[139.8941,36.13171],[139.90188,36.13699],[139.91656,36.13294],[139.9158,36.13891],[139.91845,36.14578],[139.91976,36.15756],[139.91419,36.16085],[139.91725,36.16538],[139.92348,36.16976],[139.93304,36.16299],[139.92804,36.16002],[139.92515,36.1541],[139.92659,36.15149],[139.94061,36.15362],[139.94124,36.16072],[139.94407,36.16104],[139.94412,36.16805],[139.93432,36.17512],[139.93715,36.19027],[139.93492,36.19542],[139.9301,36.19667],[139.92285,36.19545],[139.91521,36.20833],[139.91674,36.21854],[139.90547,36.23043],[139.90568,36.23462],[139.89786,36.23343],[139.90026,36.22852],[139.89613,36.22347],[139.89191,36.22693],[139.88756,36.22338],[139.8907,36.21482],[139.88505,36.21229],[139.86876,36.2197],[139.8648,36.21505],[139.85609,36.21991],[139.85395,36.21338],[139.85369,36.20621],[139.86308,36.19848],[139.86596,36.1919],[139.86084,36.18371],[139.85637,36.17944],[139.85061,36.18253],[139.85427,36.16878],[139.85077,36.1619],[139.85669,36.15165],[139.8563,36.14718]]]},"properties":{"pref":"茨城県","county":"結城郡","city":"八千代町","code5":"08521","code6":"085219"}},
{"type":"Feature","geometry":{"type":"Polygon","coordinates":[[[139.71013,36.13594],[139.71358,36.12625],[139.72638,36.11252],[139.72706,36.10754],[139.72831,36.09014],[139.73177,36.08652],[139.74676,36.08708],[139.75647,36.08256],[139.76576,36.08043],[139.77186,36.08224],[139.77314,36.0889],[139.77622,36.09077],[139.77797,36.09856],[139.78678,36.1041],[139.77437,36.11132],[139.76475,36.12166],[139.75906,36.1261],[139.74643,36.13197],[139.73274,36.13268],[139.72055,36.13231],[139.71013,36.13594]]]},"properties":{"pref":"茨城県","county":"猿島郡","city":"五霞町","code5":"08542","code6":"085421"}},
{"type":"Feature","geometry":{"type":"Polygon","coordinates":[[[139.75906,36.1261],[139.76475,36.12166],[139.77437,36.11132],[139.78678,36.1041],[139.79745,36.09636],[139.80379,36.08686],[139.80833,36.07041],[139.81367,36.06243],[139.82017,36.05718],[139.83075,36.06193],[139.835,36.06063],[139.84337,36.06327],[139.84941,36.07394],[139.84028,36.07734],[139.83826,36.08935],[139.8431,36.09767],[139.84157,36.10276],[139.84176,36.11386],[139.84402,36.12698],[139.84715,36.13088],[139.83765,36.13125],[139.83414,36.13595],[139.83344,36.14197],[139.82936,36.14127],[139.82456,36.14096],[139.8139,36.13678],[139.80628,36.13872],[139.80648,36.15121],[139.80229,36.15583],[139.79655,36.15454],[139.77637,36.15357],[139.77688,36.14906],[139.78078,36.14506],[139.78206,36.13818],[139.78024,36.1339],[139.76636,36.13544],[139.76217,36.13847],[139.75906,36.1261]]]},"properties":{"pref":"茨城県","county":"猿島郡","city":"境町","code5":"08546","code6":"085464"}},
{"type":"Feature","geometry":{"type":"Polygon","coordinates":[[[140.12738,35.8821],[140.12567,35.87999],[140.12714,35.87086],[140.13424,35.85892],[140.14647,35.84572],[140.15675,35.84271],[140.16778,35.84546],[140.18663,35.85176],[140.19912,35.85911],[140.20543,35.86132],[140.21365,35.86201],[140.21693,35.86838],[140.2174,35.87424],[140.2091,35.87271],[140.20699,35.87703],[140.20165,35.87468],[140.19624,35.87235],[140.18554,35.88498],[140.17676,35.88681],[140.16419,35.88693],[140.16124,35.8792],[140.14416,35.88045],[140.13424,35.87972],[140.12738,35.8821]]]},"properties":{"pref":"茨城県","county":"北相馬郡","city":"利根町","code5":"08564","code6":"085642"}}
]}