{"type":"FeatureCollection", "features": [
{"type":"Feature","geometry":{"type":"Polygon","coordinates":[[[139.90688,36.72143],[139.89353,36.72268],[139.8878,36.72457],[139.88174,36.72262],[139.87556,36.72396],[139.86033,36.73008],[139.85278,36.72454],[139.84706,36.72004],[139.84229,36.71963],[139.84111,36.70581],[139.83792,36.70397],[139.82349,36.70604],[139.81767,36.71578],[139.80811,36.71313],[139.80379,36.70838],[139.79662,36.70393],[139.78882,36.70509],[139.78602,36.70262],[139.78351,36.67935],[139.79183,36.66833],[139.79422,36.65315],[139.79243,36.64122],[139.78174,36.64176],[139.77966,36.63789],[139.76831,36.63449],[139.77062,36.62775],[139.75634,36.62724],[139.75236,36.62557],[139.74918,36.61982],[139.74307,36.61646],[139.74768,36.60679],[139.75332,36.60215],[139.75671,36.60326],[139.7628,36.59514],[139.77346,36.59991],[139.78016,36.59517],[139.79239,36.59071],[139.79815,36.59188],[139.80758,36.58639],[139.79419,36.5815],[139.79721,36.5703],[139.80389,36.56984],[139.80237,36.56392],[139.80503,36.55997],[139.81187,36.55588],[139.8251,36.55954],[139.8265,36.55517],[139.81988,36.54669],[139.82054,36.54056],[139.82928,36.5352],[139.83229,36.53113],[139.8318,36.52564],[139.82795,36.51839],[139.82028,36.51901],[139.81755,36.51482],[139.8213,36.51114],[139.83062,36.50998],[139.83109,36.50389],[139.83402,36.50172],[139.83453,36.4963],[139.84141,36.49304],[139.84193,36.48735],[139.85183,36.47907],[139.85863,36.47591],[139.86737,36.47477],[139.86735,36.47051],[139.87351,36.46945],[139.87409,36.46502],[139.88464,36.46458],[139.89302,36.46991],[139.89786,36.47586],[139.90638,36.47965],[139.90506,36.48351],[139.91161,36.49084],[139.91907,36.4869],[139.92969,36.48322],[139.93676,36.48529],[139.94159,36.48308],[139.94729,36.48363],[139.94836,36.4777],[139.96305,36.47183],[139.96328,36.48089],[139.96662,36.49052],[139.96248,36.49659],[139.9678,36.49782],[139.97237,36.50307],[139.98725,36.50439],[139.9971,36.50261],[140.00041,36.49678],[140.00732,36.50411],[140.00625,36.51327],[140.00979,36.51747],[140.01062,36.52464],[140.00611,36.53057],[140.00966,36.53392],[139.9984,36.55085],[139.99738,36.55723],[140.00207,36.56037],[140.0027,36.56508],[139.99842,36.57859],[139.99728,36.58809],[139.99338,36.60169],[139.98967,36.60474],[139.99078,36.60865],[139.97075,36.60757],[139.96961,36.61675],[139.96626,36.61772],[139.95847,36.63036],[139.95537,36.64007],[139.95346,36.64401],[139.95204,36.65998],[139.95467,36.66936],[139.94602,36.68468],[139.93984,36.69221],[139.93116,36.7],[139.91848,36.71319],[139.90688,36.72143]]]},"properties":{"pref":"栃木県","city":"宇都宮市","code5":"09201","code6":"092011"}},
{"type":"Feature","geometry":{"type":"Polygon","coordinates":[[[139.53646,36.28173],[139.52791,36.28908],[139.51818,36.29358],[139.52385,36.30043],[139.52413,36.30438],[139.53198,36.30899],[139.53896,36.30584],[139.54386,36.30555],[139.54299,36.31511],[139.54465,36.32632],[139.54853,36.33151],[139.548,36.3372],[139.5287,36.33457],[139.51399,36.33475],[139.50965,36.34094],[139.50568,36.34229],[139.50642,36.35619],[139.50897,36.35727],[139.51225,36.36424],[139.50763,36.37018],[139.50813,36.37505],[139.50514,36.37798],[139.50591,36.38248],[139.50274,36.39059],[139.49144,36.39643],[139.48661,36.40071],[139.48575,36.40675],[139.47939,36.41258],[139.47822,36.42241],[139.46566,36.43349],[139.4615,36.43291],[139.45877,36.43917],[139.45131,36.44483],[139.43942,36.43883],[139.43041,36.43652],[139.42585,36.43838],[139.42211,36.44503],[139.4065,36.44571],[139.40253,36.43682],[139.39439,36.43422],[139.39503,36.43092],[139.39174,36.42431],[139.38587,36.42152],[139.37864,36.41456],[139.37686,36.41103],[139.37546,36.40031],[139.36994,36.39777],[139.36814,36.3928],[139.36098,36.38368],[139.36632,36.37942],[139.37035,36.36608],[139.37815,36.35999],[139.38844,36.35464],[139.39151,36.34943],[139.39694,36.34582],[139.41351,36.33771],[139.41794,36.33656],[139.42279,36.33226],[139.42656,36.32435],[139.42047,36.32312],[139.41486,36.32432],[139.4157,36.31587],[139.42672,36.30395],[139.43152,36.30101],[139.43036,36.29569],[139.43711,36.29701],[139.44353,36.29369],[139.44365,36.28836],[139.45707,36.28919],[139.46746,36.28049],[139.45878,36.2771],[139.46388,36.27152],[139.48255,36.27203],[139.48558,36.27522],[139.49286,36.27379],[139.50012,36.27609],[139.50322,36.28107],[139.509,36.27868],[139.51507,36.28115],[139.52055,36.2809],[139.52561,36.2847],[139.53459,36.27902],[139.53646,36.28173]]]},"properties":{"pref":"栃木県","city":"足利市","code5":"09202","code6":"092029"}},
{"type":"Feature","geometry":{"type":"Polygon","coordinates":[[[139.68885,36.20207],[139.68444,36.21583],[139.68914,36.21819],[139.69732,36.21315],[139.6983,36.22052],[139.69542,36.22331],[139.6921,36.22587],[139.68957,36.23273],[139.69029,36.23788],[139.69969,36.2442],[139.69971,36.25059],[139.69716,36.25174],[139.7001,36.25931],[139.70401,36.25752],[139.70964,36.26378],[139.71506,36.26241],[139.71692,36.25855],[139.72286,36.26227],[139.72635,36.26836],[139.72156,36.2741],[139.72798,36.28676],[139.73273,36.29288],[139.72547,36.29647],[139.72442,36.30921],[139.7333,36.31183],[139.73049,36.32347],[139.73357,36.32972],[139.73781,36.32668],[139.7466,36.32641],[139.74304,36.3355],[139.74525,36.33849],[139.74472,36.34706],[139.75349,36.34665],[139.75489,36.35383],[139.76158,36.35534],[139.76556,36.35309],[139.76771,36.3671],[139.77368,36.37035],[139.77919,36.37596],[139.79628,36.37683],[139.79555,36.38478],[139.79719,36.38876],[139.79824,36.39262],[139.80338,36.39793],[139.81243,36.40196],[139.80429,36.40536],[139.80379,36.40067],[139.7982,36.40153],[139.7941,36.40607],[139.79024,36.41929],[139.78391,36.42154],[139.76709,36.44198],[139.76744,36.44843],[139.75808,36.45986],[139.75679,36.46729],[139.75159,36.47156],[139.74674,36.48101],[139.72658,36.48766],[139.72088,36.48707],[139.71451,36.48225],[139.70815,36.48514],[139.70485,36.48388],[139.6991,36.48661],[139.69469,36.48479],[139.68808,36.48698],[139.68543,36.49085],[139.67665,36.49395],[139.6674,36.49545],[139.65675,36.49162],[139.65458,36.48893],[139.64481,36.48913],[139.64269,36.4864],[139.63065,36.48899],[139.62413,36.47818],[139.62252,36.47027],[139.6247,36.46598],[139.61829,36.46232],[139.61488,36.46701],[139.61234,36.45774],[139.60791,36.45649],[139.6003,36.46457],[139.60181,36.46932],[139.60566,36.47158],[139.60101,36.4762],[139.59591,36.48518],[139.58694,36.49274],[139.57404,36.49677],[139.56385,36.49627],[139.56595,36.49039],[139.57338,36.48365],[139.57497,36.47966],[139.58223,36.47142],[139.58607,36.47202],[139.58861,36.4665],[139.59414,36.4639],[139.59869,36.46552],[139.61307,36.45024],[139.61908,36.44909],[139.62527,36.44322],[139.63134,36.44389],[139.63275,36.43772],[139.63604,36.43545],[139.63748,36.42089],[139.64629,36.41468],[139.63642,36.39831],[139.63352,36.39643],[139.63045,36.38919],[139.63061,36.38109],[139.6261,36.37815],[139.61695,36.37763],[139.61589,36.3729],[139.6101,36.37078],[139.6089,36.36357],[139.61316,36.3598],[139.61315,36.34546],[139.61793,36.34355],[139.61652,36.33434],[139.61705,36.32725],[139.62045,36.32413],[139.6342,36.32748],[139.6334,36.31956],[139.62692,36.31336],[139.62572,36.30287],[139.62176,36.30141],[139.6203,36.29499],[139.61358,36.2877],[139.61483,36.27738],[139.61695,36.27404],[139.63391,36.27023],[139.63653,36.26188],[139.63072,36.25484],[139.6356,36.2508],[139.64239,36.24135],[139.65057,36.23914],[139.65894,36.23141],[139.6612,36.22412],[139.66488,36.22347],[139.66957,36.21513],[139.66443,36.20706],[139.67491,36.20829],[139.67734,36.20148],[139.68794,36.19968],[139.68885,36.20207]]]},"properties":{"pref":"栃木県","city":"栃木市","code5":"09203","code6":"092037"}},
{"type":"Feature","geometry":{"type":"MultiPolygon","coordinates":[[[[139.53646,36.28173],[139.54403,36.27578],[139.54917,36.28045],[139.55592,36.27662],[139.55353,36.27388],[139.56127,36.26713],[139.57038,36.26809],[139.57814,36.26696],[139.58457,36.26922],[139.58975,36.26862],[139.6086,36.2681],[139.61695,36.27404],[139.61483,36.27738],[139.61358,36.2877],[139.6203,36.29499],[139.62176,36.30141],[139.62572,36.30287],[139.62692,36.31336],[139.6334,36.31956],[139.6342,36.32748],[139.62045,36.32413],[139.61705,36.32725],[139.61652,36.33434],[139.61793,36.34355],[139.61315,36.34546],[139.61316,36.3598],[139.6089,36.36357],[139.6101,36.37078],[139.61589,36.3729],[139.61695,36.37763],[139.6261,36.37815],[139.63061,36.38109],[139.63045,36.38919],[139.63352,36.39643],[139.63642,36.39831],[139.64629,36.41468],[139.63748,36.42089],[139.63604,36.43545],[139.63275,36.43772],[139.63134,36.44389],[139.62527,36.44322],[139.61908,36.44909],[139.61307,36.45024],[139.59869,36.46552],[139.59414,36.4639],[139.58861,36.4665],[139.58607,36.47202],[139.58223,36.47142],[139.57497,36.47966],[139.57338,36.48365],[139.56595,36.49039],[139.56385,36.49627],[139.55617,36.49912],[139.54926,36.50386],[139.5444,36.5101],[139.53583,36.51673],[139.53514,36.52522],[139.53147,36.52987],[139.5305,36.53818],[139.52492,36.54152],[139.51858,36.55296],[139.51314,36.55612],[139.5136,36.56346],[139.50654,36.56902],[139.48824,36.57417],[139.48263,36.57816],[139.47391,36.57313],[139.47403,36.56673],[139.46562,36.56362],[139.46076,36.55325],[139.4511,36.54971],[139.44391,36.55251],[139.4393,36.55096],[139.43629,36.53807],[139.43747,36.53246],[139.44151,36.5306],[139.43991,36.5254],[139.42768,36.51064],[139.42168,36.50874],[139.42299,36.50442],[139.41903,36.50228],[139.41793,36.49464],[139.42147,36.49052],[139.42808,36.49042],[139.42594,36.48452],[139.42966,36.48195],[139.43171,36.47216],[139.43769,36.47434],[139.43647,36.46598],[139.42784,36.45911],[139.4204,36.45707],[139.41474,36.46186],[139.4111,36.45843],[139.41231,36.4507],[139.4065,36.44571],[139.42211,36.44503],[139.42585,36.43838],[139.43041,36.43652],[139.43942,36.43883],[139.45131,36.44483],[139.45877,36.43917],[139.4615,36.43291],[139.46566,36.43349],[139.47822,36.42241],[139.47939,36.41258],[139.48575,36.40675],[139.48661,36.40071],[139.49144,36.39643],[139.50274,36.39059],[139.50591,36.38248],[139.50514,36.37798],[139.50813,36.37505],[139.50763,36.37018],[139.51225,36.36424],[139.50897,36.35727],[139.50642,36.35619],[139.50568,36.34229],[139.50965,36.34094],[139.51399,36.33475],[139.5287,36.33457],[139.548,36.3372],[139.54853,36.33151],[139.54465,36.32632],[139.54299,36.31511],[139.54386,36.30555],[139.53896,36.30584],[139.53198,36.30899],[139.52413,36.30438],[139.52385,36.30043],[139.51818,36.29358],[139.52791,36.28908],[139.53646,36.28173]]],[[[139.61488,36.46701],[139.60566,36.47158],[139.60181,36.46932],[139.6003,36.46457],[139.60791,36.45649],[139.61234,36.45774],[139.61488,36.46701]]]]},"properties":{"pref":"栃木県","city":"佐野市","code5":"09204","code6":"092045"}},
{"type":"Feature","geometry":{"type":"Polygon","coordinates":[[[139.74307,36.61646],[139.73769,36.61955],[139.72567,36.61637],[139.71763,36.61788],[139.71272,36.62316],[139.71473,36.62853],[139.7133,36.63292],[139.72103,36.63802],[139.72111,36.64121],[139.70875,36.6471],[139.70996,36.6534],[139.70783,36.66274],[139.69472,36.66252],[139.6815,36.65642],[139.67538,36.66274],[139.66763,36.66395],[139.66215,36.66168],[139.65156,36.66519],[139.64884,36.66759],[139.64399,36.66269],[139.6414,36.65607],[139.65073,36.65579],[139.65613,36.64954],[139.64925,36.64414],[139.64856,36.64109],[139.64195,36.63584],[139.63687,36.63643],[139.63085,36.64023],[139.61972,36.64427],[139.61576,36.64835],[139.6037,36.64982],[139.59967,36.65477],[139.5926,36.65763],[139.5872,36.66447],[139.57888,36.66768],[139.57604,36.67611],[139.57342,36.67666],[139.57408,36.68535],[139.57187,36.6976],[139.57452,36.70487],[139.56979,36.70982],[139.56021,36.71436],[139.5562,36.71127],[139.54777,36.71503],[139.53932,36.70914],[139.53672,36.71015],[139.52282,36.70794],[139.525,36.7013],[139.52266,36.69365],[139.52654,36.68818],[139.52448,36.68255],[139.51571,36.68061],[139.50773,36.6682],[139.49975,36.66461],[139.49555,36.65415],[139.49727,36.64606],[139.50861,36.63189],[139.50487,36.62874],[139.49783,36.62748],[139.49137,36.62362],[139.48817,36.62413],[139.48472,36.61733],[139.47775,36.61842],[139.46694,36.61285],[139.46536,36.60649],[139.47145,36.60289],[139.4747,36.59465],[139.47384,36.59046],[139.48304,36.58328],[139.48263,36.57816],[139.48824,36.57417],[139.50654,36.56902],[139.5136,36.56346],[139.51314,36.55612],[139.51858,36.55296],[139.52492,36.54152],[139.5305,36.53818],[139.53147,36.52987],[139.53514,36.52522],[139.53583,36.51673],[139.5444,36.5101],[139.54926,36.50386],[139.55617,36.49912],[139.56385,36.49627],[139.57404,36.49677],[139.58694,36.49274],[139.59591,36.48518],[139.60101,36.4762],[139.60566,36.47158],[139.61488,36.46701],[139.61829,36.46232],[139.6247,36.46598],[139.62252,36.47027],[139.62413,36.47818],[139.63065,36.48899],[139.64269,36.4864],[139.64481,36.48913],[139.65458,36.48893],[139.65675,36.49162],[139.6674,36.49545],[139.67665,36.49395],[139.68543,36.49085],[139.68808,36.48698],[139.69469,36.48479],[139.6991,36.48661],[139.70485,36.48388],[139.70815,36.48514],[139.71451,36.48225],[139.72088,36.48707],[139.72658,36.48766],[139.74674,36.48101],[139.75159,36.47156],[139.75679,36.46729],[139.76723,36.47122],[139.77075,36.47856],[139.76879,36.48684],[139.77884,36.49317],[139.78324,36.49287],[139.78886,36.48701],[139.7938,36.49077],[139.79258,36.49845],[139.80056,36.50539],[139.8056,36.50217],[139.80991,36.50507],[139.81769,36.50701],[139.8213,36.51114],[139.81755,36.51482],[139.82028,36.51901],[139.82795,36.51839],[139.8318,36.52564],[139.83229,36.53113],[139.82928,36.5352],[139.82054,36.54056],[139.81988,36.54669],[139.8265,36.55517],[139.8251,36.55954],[139.81187,36.55588],[139.80503,36.55997],[139.80237,36.56392],[139.80389,36.56984],[139.79721,36.5703],[139.79419,36.5815],[139.80758,36.58639],[139.79815,36.59188],[139.79239,36.59071],[139.78016,36.59517],[139.77346,36.59991],[139.7628,36.59514],[139.75671,36.60326],[139.75332,36.60215],[139.74768,36.60679],[139.74307,36.61646]]]},"properties":{"pref":"栃木県","city":"鹿沼市","code5":"09205","code6":"092053"}},
{"type":"Feature","geometry":{"type":"Polygon","coordinates":[[[139.39329,36.9108],[139.3939,36.90328],[139.37942,36.89799],[139.37063,36.8896],[139.37189,36.88282],[139.36787,36.87718],[139.36241,36.87751],[139.35821,36.87221],[139.35563,36.85844],[139.34871,36.85256],[139.35262,36.84907],[139.36382,36.84732],[139.36646,36.84205],[139.38667,36.83552],[139.39092,36.83266],[139.39734,36.83469],[139.40451,36.83144],[139.4067,36.82694],[139.40125,36.82152],[139.39441,36.81838],[139.39107,36.81443],[139.3937,36.80968],[139.38861,36.80527],[139.37793,36.80445],[139.37568,36.80041],[139.37804,36.79207],[139.37433,36.78429],[139.36755,36.78379],[139.36228,36.78073],[139.35991,36.77516],[139.35306,36.77361],[139.35445,36.76909],[139.35082,36.76345],[139.35528,36.76025],[139.35608,36.75045],[139.36577,36.74792],[139.37028,36.74495],[139.36799,36.74138],[139.36751,36.73481],[139.36481,36.72906],[139.36693,36.72459],[139.36487,36.71973],[139.35974,36.71674],[139.35543,36.70986],[139.35634,36.7071],[139.34875,36.69983],[139.33692,36.69213],[139.33913,36.68499],[139.33926,36.67833],[139.33493,36.67451],[139.33452,36.66569],[139.33065,36.6638],[139.3267,36.65711],[139.32657,36.6507],[139.33053,36.64226],[139.32815,36.63342],[139.32965,36.62759],[139.3387,36.62719],[139.34573,36.62335],[139.35229,36.61509],[139.36323,36.61433],[139.37178,36.61195],[139.37944,36.61312],[139.38669,36.61198],[139.39516,36.6035],[139.3987,36.60219],[139.41237,36.60812],[139.415,36.60582],[139.42686,36.60113],[139.43627,36.60173],[139.44504,36.60729],[139.46536,36.60649],[139.46694,36.61285],[139.47775,36.61842],[139.48472,36.61733],[139.48817,36.62413],[139.49137,36.62362],[139.49783,36.62748],[139.50487,36.62874],[139.50861,36.63189],[139.49727,36.64606],[139.49555,36.65415],[139.49975,36.66461],[139.50773,36.6682],[139.51571,36.68061],[139.52448,36.68255],[139.52654,36.68818],[139.52266,36.69365],[139.525,36.7013],[139.52282,36.70794],[139.53672,36.71015],[139.53932,36.70914],[139.54777,36.71503],[139.5562,36.71127],[139.56021,36.71436],[139.56979,36.70982],[139.57452,36.70487],[139.57187,36.6976],[139.57408,36.68535],[139.57342,36.67666],[139.57604,36.67611],[139.57888,36.66768],[139.5872,36.66447],[139.5926,36.65763],[139.59967,36.65477],[139.6037,36.64982],[139.61576,36.64835],[139.61972,36.64427],[139.63085,36.64023],[139.63687,36.63643],[139.64195,36.63584],[139.64856,36.64109],[139.64925,36.64414],[139.65613,36.64954],[139.65073,36.65579],[139.6414,36.65607],[139.64399,36.66269],[139.64884,36.66759],[139.65156,36.66519],[139.66215,36.66168],[139.66763,36.66395],[139.67538,36.66274],[139.6815,36.65642],[139.69472,36.66252],[139.70783,36.66274],[139.70996,36.6534],[139.70875,36.6471],[139.72111,36.64121],[139.72103,36.63802],[139.7133,36.63292],[139.71473,36.62853],[139.71272,36.62316],[139.71763,36.61788],[139.72567,36.61637],[139.73769,36.61955],[139.74307,36.61646],[139.74918,36.61982],[139.75236,36.62557],[139.75634,36.62724],[139.77062,36.62775],[139.76831,36.63449],[139.77966,36.63789],[139.78174,36.64176],[139.79243,36.64122],[139.79422,36.65315],[139.79183,36.66833],[139.78351,36.67935],[139.78602,36.70262],[139.78882,36.70509],[139.79662,36.70393],[139.80379,36.70838],[139.80811,36.71313],[139.81767,36.71578],[139.82349,36.70604],[139.83792,36.70397],[139.84111,36.70581],[139.84229,36.71963],[139.84706,36.72004],[139.85278,36.72454],[139.83891,36.73476],[139.825,36.73622],[139.81202,36.73892],[139.80097,36.74441],[139.77949,36.75242],[139.77404,36.75606],[139.76446,36.75914],[139.76174,36.76315],[139.75152,36.76808],[139.73708,36.76724],[139.73505,36.76886],[139.73336,36.78077],[139.73553,36.78542],[139.73372,36.79451],[139.72968,36.79635],[139.72892,36.81171],[139.72704,36.81419],[139.73164,36.82174],[139.72788,36.83307],[139.73681,36.83337],[139.74299,36.8382],[139.74218,36.8428],[139.75045,36.8434],[139.77146,36.85509],[139.7734,36.86849],[139.77061,36.88728],[139.77146,36.89478],[139.77633,36.90136],[139.76947,36.90683],[139.77179,36.92067],[139.74806,36.937],[139.74284,36.94301],[139.7451,36.94833],[139.73724,36.94929],[139.73795,36.95259],[139.74685,36.96281],[139.74437,36.96665],[139.74377,36.97361],[139.74734,36.9781],[139.74586,36.98356],[139.74083,36.98857],[139.75005,36.99456],[139.75095,36.9988],[139.75508,37.00273],[139.75493,37.01504],[139.75848,37.01775],[139.75488,37.02712],[139.75855,37.03836],[139.76273,37.03997],[139.77838,37.04102],[139.78076,37.03911],[139.79166,37.04153],[139.80043,37.04641],[139.80633,37.05564],[139.81398,37.06359],[139.81731,37.07267],[139.82331,37.08093],[139.82209,37.08514],[139.80951,37.08484],[139.78795,37.0907],[139.77786,37.08883],[139.77491,37.09189],[139.77065,37.08351],[139.76352,37.07821],[139.76286,37.07569],[139.75493,37.07429],[139.75271,37.07059],[139.73728,37.07203],[139.73296,37.06867],[139.72416,37.06991],[139.71101,37.06842],[139.70053,37.05938],[139.69206,37.06255],[139.67673,37.05674],[139.6726,37.05715],[139.67124,37.0482],[139.66495,37.04053],[139.65574,37.04192],[139.65163,37.03731],[139.64294,37.03554],[139.63565,37.03188],[139.631,37.03381],[139.62497,37.03272],[139.62552,37.02599],[139.61883,37.01973],[139.61932,37.01663],[139.61163,37.0138],[139.60284,37.01597],[139.59869,37.01204],[139.58805,37.01535],[139.58189,37.0149],[139.57953,37.00495],[139.56463,36.99688],[139.55672,36.99678],[139.55446,36.99249],[139.54473,36.99089],[139.53529,36.9806],[139.53272,36.98176],[139.51514,36.97784],[139.50386,36.96957],[139.49429,36.96793],[139.48433,36.97544],[139.47269,36.97135],[139.45993,36.96965],[139.45668,36.95384],[139.43445,36.94185],[139.43496,36.93587],[139.4269,36.92417],[139.42024,36.92412],[139.41219,36.92761],[139.40785,36.92651],[139.39914,36.92009],[139.39329,36.9108]]]},"properties":{"pref":"栃木県","city":"日光市","code5":"09206","code6":"092061"}},
{"type":"Feature","geometry":{"type":"Polygon","coordinates":[[[139.82161,36.2397],[139.82682,36.24757],[139.83186,36.26506],[139.84173,36.27733],[139.83521,36.2918],[139.83954,36.30023],[139.84995,36.31179],[139.85687,36.31049],[139.8626,36.31308],[139.87248,36.31508],[139.87467,36.32316],[139.88144,36.32263],[139.88241,36.31971],[139.87852,36.31401],[139.88185,36.30978],[139.88721,36.3115],[139.89167,36.30909],[139.89664,36.30975],[139.89905,36.30631],[139.89429,36.30193],[139.90301,36.29864],[139.91075,36.3012],[139.91478,36.30786],[139.91031,36.30982],[139.91256,36.32504],[139.91303,36.33498],[139.91009,36.33735],[139.91451,36.34782],[139.90925,36.35222],[139.90741,36.35651],[139.91231,36.36228],[139.9069,36.35866],[139.89912,36.3645],[139.89022,36.36469],[139.88887,36.35601],[139.88245,36.35154],[139.8727,36.3504],[139.86941,36.36009],[139.85991,36.35537],[139.85476,36.35826],[139.84849,36.35187],[139.84272,36.35178],[139.84274,36.36507],[139.84078,36.36812],[139.82471,36.37303],[139.81195,36.374],[139.81172,36.37742],[139.80405,36.38053],[139.80353,36.38697],[139.79719,36.38876],[139.79555,36.38478],[139.79628,36.37683],[139.77919,36.37596],[139.77368,36.37035],[139.76771,36.3671],[139.76556,36.35309],[139.76158,36.35534],[139.75489,36.35383],[139.75349,36.34665],[139.74472,36.34706],[139.74525,36.33849],[139.74304,36.3355],[139.7466,36.32641],[139.73781,36.32668],[139.73357,36.32972],[139.73049,36.32347],[139.7333,36.31183],[139.72442,36.30921],[139.72547,36.29647],[139.73273,36.29288],[139.72798,36.28676],[139.72156,36.2741],[139.72635,36.26836],[139.72286,36.26227],[139.71692,36.25855],[139.71506,36.26241],[139.70964,36.26378],[139.70401,36.25752],[139.7001,36.25931],[139.69716,36.25174],[139.69971,36.25059],[139.69969,36.2442],[139.69029,36.23788],[139.68957,36.23273],[139.6921,36.22587],[139.69542,36.22331],[139.69705,36.23013],[139.70213,36.23115],[139.70325,36.22587],[139.71001,36.23318],[139.70749,36.2359],[139.72065,36.24483],[139.72778,36.2479],[139.72938,36.2536],[139.72557,36.25756],[139.73225,36.26309],[139.73602,36.26107],[139.74405,36.26104],[139.74437,36.25541],[139.73787,36.2524],[139.7377,36.24835],[139.74541,36.2452],[139.75715,36.24495],[139.75879,36.24769],[139.76569,36.24453],[139.76503,36.24118],[139.77417,36.24118],[139.77426,36.24756],[139.77912,36.25383],[139.78597,36.25501],[139.78394,36.24203],[139.78814,36.23487],[139.7857,36.2278],[139.82161,36.2397]]]},"properties":{"pref":"栃木県","city":"小山市","code5":"09208","code6":"092088"}},
{"type":"Feature","geometry":{"type":"Polygon","coordinates":[[[140.04147,36.37523],[140.04817,36.37558],[140.06361,36.38206],[140.06914,36.38903],[140.0652,36.39687],[140.0665,36.40381],[140.06311,36.41245],[140.07,36.42199],[140.06544,36.42943],[140.06921,36.43758],[140.06633,36.44228],[140.07025,36.45395],[140.06814,36.45838],[140.06986,36.46611],[140.06782,36.47105],[140.07127,36.47469],[140.06966,36.48026],[140.07226,36.48626],[140.07215,36.4926],[140.06365,36.49832],[140.05702,36.4962],[140.05613,36.48782],[140.04642,36.48945],[140.04738,36.49614],[140.05205,36.49578],[140.05226,36.50314],[140.0494,36.50983],[140.04691,36.50918],[140.04496,36.49969],[140.04019,36.49654],[140.03624,36.48947],[140.02651,36.4885],[140.00376,36.49006],[140.00041,36.49678],[139.9971,36.50261],[139.98725,36.50439],[139.97237,36.50307],[139.9678,36.49782],[139.96248,36.49659],[139.96662,36.49052],[139.96328,36.48089],[139.96305,36.47183],[139.9617,36.46217],[139.95434,36.45385],[139.94904,36.4551],[139.94779,36.45092],[139.9373,36.43407],[139.93381,36.42709],[139.93259,36.41896],[139.93376,36.41506],[139.93107,36.40184],[139.92671,36.40218],[139.92229,36.39463],[139.9222,36.38906],[139.91806,36.37997],[139.919,36.37544],[139.91536,36.36611],[139.91231,36.36228],[139.90741,36.35651],[139.90925,36.35222],[139.91451,36.34782],[139.91009,36.33735],[139.91303,36.33498],[139.92265,36.34158],[139.93514,36.34349],[139.94617,36.34919],[139.9645,36.35094],[139.96573,36.36021],[139.96528,36.36748],[139.97457,36.37454],[139.97924,36.36977],[139.98993,36.36721],[139.99131,36.36949],[140.00156,36.36807],[140.00385,36.3706],[140.00043,36.37663],[140.00904,36.37509],[140.01278,36.37642],[140.02616,36.37543],[140.03552,36.37776],[140.04147,36.37523]]]},"properties":{"pref":"栃木県","city":"真岡市","code5":"09209","code6":"092096"}},
{"type":"Feature","geometry":{"type":"Polygon","coordinates":[[[140.24304,36.94349],[140.23456,36.94199],[140.22849,36.93798],[140.22444,36.94177],[140.2136,36.9454],[140.20214,36.94657],[140.19566,36.94444],[140.18539,36.94538],[140.18425,36.94835],[140.16843,36.94627],[140.15888,36.94399],[140.16055,36.93506],[140.15356,36.93209],[140.14442,36.93803],[140.13523,36.93465],[140.13469,36.92438],[140.13067,36.92288],[140.12655,36.91541],[140.11219,36.92662],[140.1115,36.93198],[140.10833,36.93476],[140.10325,36.9384],[140.10304,36.93042],[140.09295,36.92312],[140.0736,36.92347],[140.07054,36.9224],[140.06211,36.93155],[140.05157,36.92471],[140.04444,36.93345],[140.03663,36.92698],[140.03262,36.9212],[140.03189,36.91514],[140.03403,36.91103],[140.02869,36.90536],[140.02139,36.90615],[140.01021,36.901],[140.00516,36.89619],[140.01203,36.89064],[140.02011,36.88122],[140.01059,36.87615],[140.00613,36.87755],[140.00895,36.86695],[140.0019,36.86713],[139.99625,36.8645],[139.99256,36.85401],[139.99665,36.84707],[139.99104,36.84412],[139.98262,36.83691],[139.9743,36.83834],[139.9661,36.83811],[139.96116,36.84377],[139.96627,36.84619],[139.95546,36.85904],[139.95486,36.86259],[139.9425,36.87792],[139.92169,36.87093],[139.92748,36.8567],[139.93359,36.8513],[139.94045,36.84003],[139.95748,36.83111],[139.96515,36.8238],[139.97046,36.8207],[139.9872,36.8156],[139.98765,36.80938],[139.99296,36.80241],[139.99421,36.79748],[140.00081,36.79376],[140.00316,36.78812],[140.00951,36.78385],[140.0198,36.78319],[140.02015,36.77785],[140.03799,36.76802],[140.03854,36.7726],[140.04655,36.77444],[140.04528,36.78359],[140.04874,36.78759],[140.05664,36.78349],[140.06471,36.78573],[140.07284,36.78637],[140.07782,36.7842],[140.0833,36.78796],[140.07832,36.79071],[140.08069,36.79636],[140.09203,36.79756],[140.10127,36.79451],[140.11216,36.78913],[140.11563,36.78469],[140.13692,36.78465],[140.13999,36.78865],[140.1479,36.7933],[140.15188,36.80056],[140.15885,36.80094],[140.16355,36.80605],[140.16548,36.81414],[140.17042,36.81586],[140.17101,36.82293],[140.17422,36.82754],[140.17961,36.82717],[140.1871,36.81988],[140.19174,36.8237],[140.19788,36.82503],[140.20451,36.83362],[140.20413,36.83694],[140.21707,36.84284],[140.2218,36.83859],[140.23085,36.83764],[140.23195,36.8282],[140.22791,36.81709],[140.23326,36.80211],[140.24458,36.79155],[140.2443,36.78862],[140.25381,36.78366],[140.26161,36.78656],[140.26644,36.79106],[140.26454,36.79456],[140.26704,36.79952],[140.2646,36.80413],[140.26371,36.81129],[140.26662,36.81311],[140.26569,36.82898],[140.26226,36.8329],[140.26148,36.83789],[140.25499,36.84191],[140.25668,36.8481],[140.25154,36.85246],[140.25431,36.86008],[140.25418,36.86927],[140.25671,36.8731],[140.25427,36.87701],[140.25288,36.88566],[140.25428,36.89114],[140.24872,36.90886],[140.2501,36.91729],[140.24839,36.92131],[140.25347,36.92969],[140.25777,36.93268],[140.26426,36.93332],[140.26174,36.93753],[140.25534,36.93837],[140.25351,36.94123],[140.24304,36.94349]]]},"properties":{"pref":"栃木県","city":"大田原市","code5":"09210","code6":"092100"}},
{"type":"Feature","geometry":{"type":"Polygon","coordinates":[[[139.92169,36.87093],[139.92048,36.87373],[139.91276,36.87539],[139.90966,36.88312],[139.89214,36.88755],[139.87445,36.89704],[139.87371,36.89916],[139.85823,36.90402],[139.84891,36.91016],[139.846,36.92211],[139.83687,36.92753],[139.82621,36.92558],[139.8225,36.92167],[139.81719,36.92147],[139.8099,36.91781],[139.80273,36.90918],[139.79542,36.90655],[139.78842,36.90639],[139.78651,36.90251],[139.79191,36.89854],[139.79627,36.89068],[139.8026,36.88807],[139.80231,36.88394],[139.80664,36.88034],[139.80496,36.87693],[139.80908,36.87059],[139.8189,36.86354],[139.82745,36.85545],[139.83064,36.85082],[139.83017,36.84698],[139.84108,36.84507],[139.8452,36.84208],[139.85104,36.84131],[139.84971,36.83448],[139.85224,36.82803],[139.85744,36.82623],[139.86276,36.82052],[139.86258,36.81619],[139.86715,36.81379],[139.87252,36.80705],[139.87517,36.80778],[139.8784,36.79902],[139.87432,36.7981],[139.86843,36.78811],[139.8735,36.78402],[139.8798,36.77636],[139.88679,36.77722],[139.88811,36.77131],[139.90165,36.76698],[139.90466,36.75533],[139.91646,36.74477],[139.91491,36.7379],[139.91707,36.73354],[139.92662,36.73097],[139.93046,36.72808],[139.93858,36.72692],[139.95181,36.72875],[139.96422,36.72911],[139.96728,36.74262],[139.96184,36.74797],[139.97228,36.75344],[139.96928,36.75836],[139.97418,36.76298],[139.98143,36.76654],[139.98426,36.77037],[139.97997,36.77761],[139.97513,36.78168],[139.98138,36.79093],[139.9801,36.7931],[139.98496,36.80139],[139.99296,36.80241],[139.98765,36.80938],[139.9872,36.8156],[139.97046,36.8207],[139.96515,36.8238],[139.95748,36.83111],[139.94045,36.84003],[139.93359,36.8513],[139.92748,36.8567],[139.92169,36.87093]]]},"properties":{"pref":"栃木県","city":"矢板市","code5":"09211","code6":"092118"}},
{"type":"Feature","geometry":{"type":"Polygon","coordinates":[[[139.86629,37.14723],[139.86096,37.14082],[139.8518,37.13715],[139.84784,37.13945],[139.83977,37.13543],[139.83177,37.13364],[139.82793,37.12629],[139.81904,37.12178],[139.81519,37.11615],[139.81615,37.11116],[139.82113,37.10874],[139.81825,37.09667],[139.81973,37.08797],[139.82209,37.08514],[139.82331,37.08093],[139.81731,37.07267],[139.81398,37.06359],[139.80633,37.05564],[139.80043,37.04641],[139.79166,37.04153],[139.78076,37.03911],[139.77838,37.04102],[139.76273,37.03997],[139.75855,37.03836],[139.75488,37.02712],[139.75848,37.01775],[139.75493,37.01504],[139.75508,37.00273],[139.75095,36.9988],[139.75005,36.99456],[139.74083,36.98857],[139.74586,36.98356],[139.74734,36.9781],[139.74377,36.97361],[139.74437,36.96665],[139.74685,36.96281],[139.73795,36.95259],[139.73724,36.94929],[139.7451,36.94833],[139.74284,36.94301],[139.74806,36.937],[139.77179,36.92067],[139.76947,36.90683],[139.77633,36.90136],[139.77817,36.90469],[139.78383,36.90738],[139.78842,36.90639],[139.79542,36.90655],[139.80273,36.90918],[139.8099,36.91781],[139.81719,36.92147],[139.8225,36.92167],[139.82621,36.92558],[139.83687,36.92753],[139.846,36.92211],[139.84891,36.91016],[139.85823,36.90402],[139.87371,36.89916],[139.87445,36.89704],[139.89214,36.88755],[139.90966,36.88312],[139.91276,36.87539],[139.92048,36.87373],[139.92169,36.87093],[139.9425,36.87792],[139.95486,36.86259],[139.95546,36.85904],[139.96627,36.84619],[139.96116,36.84377],[139.9661,36.83811],[139.9743,36.83834],[139.98262,36.83691],[139.99104,36.84412],[139.99665,36.84707],[139.99256,36.85401],[139.99625,36.8645],[140.0019,36.86713],[140.00895,36.86695],[140.00613,36.87755],[140.01059,36.87615],[140.02011,36.88122],[140.01203,36.89064],[140.00516,36.89619],[140.01021,36.901],[140.02139,36.90615],[140.02869,36.90536],[140.03403,36.91103],[140.03189,36.91514],[140.03262,36.9212],[140.03663,36.92698],[140.04444,36.93345],[140.05157,36.92471],[140.06211,36.93155],[140.07054,36.9224],[140.0736,36.92347],[140.09295,36.92312],[140.10304,36.93042],[140.10325,36.9384],[140.10833,36.93476],[140.1098,36.93689],[140.1186,36.93751],[140.11607,36.941],[140.12121,36.947],[140.11671,36.95873],[140.12336,36.9659],[140.12995,36.96308],[140.13475,36.96455],[140.13818,36.96901],[140.13467,36.98035],[140.13995,36.98157],[140.13152,36.98694],[140.12309,36.98617],[140.11764,36.97659],[140.102,36.97648],[140.09168,36.98689],[140.08502,36.99049],[140.08023,36.98515],[140.08745,36.97381],[140.08155,36.9692],[140.07401,36.96979],[140.07201,36.97633],[140.06794,36.97584],[140.04978,36.9829],[140.03213,36.99189],[140.03379,37.00003],[140.02896,37.00537],[140.02393,37.0064],[140.02095,37.01333],[140.01328,37.02209],[140.00838,37.02381],[140.00067,37.03411],[139.99486,37.03366],[139.99504,37.03905],[139.98813,37.04038],[139.98581,37.03797],[139.9774,37.04467],[139.97237,37.04299],[139.96318,37.04634],[139.95697,37.04709],[139.94891,37.0507],[139.94745,37.06894],[139.94351,37.07863],[139.94568,37.08385],[139.95306,37.09108],[139.95311,37.0993],[139.94474,37.10573],[139.93276,37.10493],[139.93109,37.1253],[139.93356,37.12662],[139.93749,37.13729],[139.94286,37.14024],[139.95084,37.13995],[139.96732,37.14779],[139.96312,37.14848],[139.96126,37.1533],[139.95461,37.15494],[139.9437,37.15259],[139.9338,37.15374],[139.93046,37.15147],[139.92444,37.15188],[139.91634,37.14763],[139.90651,37.14953],[139.90243,37.15427],[139.89464,37.15326],[139.87757,37.14613],[139.86629,37.14723]]]},"properties":{"pref":"栃木県","city":"那須塩原市","code5":"09213","code6":"092134"}},
{"type":"Feature","geometry":{"type":"Polygon","coordinates":[[[139.95537,36.64007],[139.95997,36.64364],[139.96806,36.64686],[139.9711,36.65302],[139.96774,36.66072],[139.97549,36.66788],[139.9831,36.6663],[139.98576,36.67124],[139.99222,36.67162],[140.00554,36.66291],[140.01768,36.66308],[140.01698,36.66567],[140.02366,36.67385],[140.02976,36.67777],[140.03012,36.68131],[140.05768,36.7075],[140.05407,36.71384],[140.06396,36.71645],[140.06831,36.72166],[140.0732,36.73084],[140.06839,36.73716],[140.07165,36.74059],[140.08292,36.74469],[140.08208,36.74995],[140.07845,36.75637],[140.08435,36.76124],[140.08255,36.76583],[140.07758,36.76599],[140.06739,36.7734],[140.06101,36.76995],[140.04956,36.77582],[140.04655,36.77444],[140.03854,36.7726],[140.03799,36.76802],[140.02015,36.77785],[140.0198,36.78319],[140.00951,36.78385],[140.00316,36.78812],[140.00081,36.79376],[139.99421,36.79748],[139.99296,36.80241],[139.98496,36.80139],[139.9801,36.7931],[139.98138,36.79093],[139.97513,36.78168],[139.97997,36.77761],[139.98426,36.77037],[139.98143,36.76654],[139.97418,36.76298],[139.96928,36.75836],[139.97228,36.75344],[139.96184,36.74797],[139.96728,36.74262],[139.96422,36.72911],[139.95181,36.72875],[139.93858,36.72692],[139.93671,36.71999],[139.92605,36.71917],[139.91134,36.72021],[139.90688,36.72143],[139.91848,36.71319],[139.93116,36.7],[139.93984,36.69221],[139.94602,36.68468],[139.95467,36.66936],[139.95204,36.65998],[139.95346,36.64401],[139.95537,36.64007]]]},"properties":{"pref":"栃木県","city":"さくら市","code5":"09214","code6":"092142"}},
{"type":"Feature","geometry":{"type":"Polygon","coordinates":[[[140.22157,36.67429],[140.21554,36.6731],[140.20714,36.68285],[140.20083,36.68055],[140.18636,36.68216],[140.18199,36.67841],[140.17802,36.68139],[140.16734,36.68355],[140.16988,36.68799],[140.16073,36.69974],[140.16048,36.7115],[140.15424,36.71686],[140.14881,36.72441],[140.13834,36.72425],[140.13252,36.72043],[140.13064,36.71676],[140.12442,36.71462],[140.12135,36.7167],[140.11941,36.72443],[140.11594,36.72761],[140.10836,36.72649],[140.10367,36.73084],[140.09336,36.7311],[140.0854,36.73976],[140.08292,36.74469],[140.07165,36.74059],[140.06839,36.73716],[140.0732,36.73084],[140.06831,36.72166],[140.06396,36.71645],[140.05407,36.71384],[140.05768,36.7075],[140.03012,36.68131],[140.02976,36.67777],[140.03363,36.67416],[140.03981,36.67191],[140.04645,36.66574],[140.04919,36.65849],[140.05405,36.65885],[140.05437,36.66315],[140.05928,36.6631],[140.05917,36.65431],[140.06444,36.64605],[140.06443,36.64013],[140.05841,36.63578],[140.06242,36.62682],[140.06288,36.61826],[140.07139,36.62155],[140.07922,36.62052],[140.08467,36.6014],[140.09187,36.60526],[140.09395,36.60891],[140.09962,36.61158],[140.10388,36.61808],[140.10074,36.62072],[140.10603,36.62393],[140.12711,36.62178],[140.12805,36.62588],[140.14152,36.61913],[140.13913,36.61125],[140.14113,36.60901],[140.14786,36.61095],[140.15065,36.60866],[140.16198,36.60942],[140.16814,36.61122],[140.16935,36.60605],[140.17393,36.60066],[140.17509,36.59604],[140.18433,36.59061],[140.19144,36.5914],[140.1946,36.58744],[140.20134,36.5886],[140.19511,36.59338],[140.19433,36.59657],[140.20343,36.60024],[140.20469,36.60482],[140.20205,36.60777],[140.21461,36.61049],[140.2174,36.6133],[140.22754,36.61278],[140.22809,36.62019],[140.2347,36.62385],[140.23431,36.63463],[140.24271,36.63656],[140.23911,36.64556],[140.24093,36.65092],[140.23569,36.65722],[140.22931,36.66228],[140.23273,36.66547],[140.23142,36.67012],[140.22157,36.67429]]]},"properties":{"pref":"栃木県","city":"那須烏山市","code5":"09215","code6":"092151"}},
{"type":"Feature","geometry":{"type":"Polygon","coordinates":[[[139.84193,36.48735],[139.84037,36.48052],[139.84789,36.46971],[139.84608,36.4599],[139.84142,36.45742],[139.83385,36.45724],[139.83405,36.44857],[139.8308,36.44727],[139.82874,36.43877],[139.83268,36.43612],[139.83133,36.42491],[139.82834,36.42134],[139.82496,36.41266],[139.82884,36.40806],[139.82556,36.39921],[139.8155,36.39897],[139.81243,36.40196],[139.80338,36.39793],[139.79824,36.39262],[139.79719,36.38876],[139.80353,36.38697],[139.80405,36.38053],[139.81172,36.37742],[139.81195,36.374],[139.82471,36.37303],[139.84078,36.36812],[139.84274,36.36507],[139.84272,36.35178],[139.84849,36.35187],[139.85476,36.35826],[139.85991,36.35537],[139.86941,36.36009],[139.8727,36.3504],[139.88245,36.35154],[139.88887,36.35601],[139.89022,36.36469],[139.89912,36.3645],[139.9069,36.35866],[139.91231,36.36228],[139.91536,36.36611],[139.919,36.37544],[139.91806,36.37997],[139.9222,36.38906],[139.92229,36.39463],[139.92005,36.40036],[139.90962,36.4037],[139.89714,36.40322],[139.89807,36.40745],[139.89261,36.40913],[139.89435,36.41711],[139.88982,36.41888],[139.88344,36.41747],[139.88295,36.41262],[139.86625,36.41218],[139.86365,36.41542],[139.86864,36.43809],[139.86672,36.44545],[139.86858,36.45045],[139.86596,36.45787],[139.86728,36.46192],[139.87409,36.46502],[139.87351,36.46945],[139.86735,36.47051],[139.86737,36.47477],[139.85863,36.47591],[139.85183,36.47907],[139.84193,36.48735]]]},"properties":{"pref":"栃木県","city":"下野市","code5":"09216","code6":"092169"}},
{"type":"Feature","geometry":{"type":"Polygon","coordinates":[[[139.87409,36.46502],[139.86728,36.46192],[139.86596,36.45787],[139.86858,36.45045],[139.86672,36.44545],[139.86864,36.43809],[139.86365,36.41542],[139.86625,36.41218],[139.88295,36.41262],[139.88344,36.41747],[139.88982,36.41888],[139.89435,36.41711],[139.89261,36.40913],[139.89807,36.40745],[139.89714,36.40322],[139.90962,36.4037],[139.92005,36.40036],[139.92229,36.39463],[139.92671,36.40218],[139.93107,36.40184],[139.93376,36.41506],[139.93259,36.41896],[139.93381,36.42709],[139.9373,36.43407],[139.94779,36.45092],[139.94904,36.4551],[139.95434,36.45385],[139.9617,36.46217],[139.96305,36.47183],[139.94836,36.4777],[139.94729,36.48363],[139.94159,36.48308],[139.93676,36.48529],[139.92969,36.48322],[139.91907,36.4869],[139.91161,36.49084],[139.90506,36.48351],[139.90638,36.47965],[139.89786,36.47586],[139.89302,36.46991],[139.88464,36.46458],[139.87409,36.46502]]]},"properties":{"pref":"栃木県","county":"河内郡","city":"上三川町","code5":"09301","code6":"093017"}},
{"type":"Feature","geometry":{"type":"Polygon","coordinates":[[[140.14426,36.41404],[140.14273,36.41691],[140.1472,36.42533],[140.14871,36.4357],[140.15962,36.45257],[140.15834,36.45616],[140.16028,36.46332],[140.14922,36.48102],[140.15032,36.48579],[140.1476,36.49283],[140.15066,36.4983],[140.15005,36.50302],[140.13991,36.50373],[140.13919,36.51036],[140.1425,36.51228],[140.1403,36.51696],[140.15089,36.51632],[140.14985,36.52399],[140.14044,36.52508],[140.13389,36.52223],[140.12201,36.51959],[140.11188,36.5206],[140.10891,36.51655],[140.10265,36.51873],[140.098,36.51802],[140.09222,36.51223],[140.07863,36.51266],[140.07878,36.50903],[140.07433,36.50286],[140.07806,36.49748],[140.07215,36.4926],[140.07226,36.48626],[140.06966,36.48026],[140.07127,36.47469],[140.06782,36.47105],[140.06986,36.46611],[140.06814,36.45838],[140.07025,36.45395],[140.06633,36.44228],[140.06921,36.43758],[140.06544,36.42943],[140.07,36.42199],[140.06311,36.41245],[140.0665,36.40381],[140.07649,36.40418],[140.0831,36.40288],[140.08795,36.39828],[140.09229,36.40164],[140.10169,36.39701],[140.11122,36.39806],[140.10958,36.4073],[140.1141,36.41081],[140.13183,36.41492],[140.14143,36.41209],[140.14426,36.41404]]]},"properties":{"pref":"栃木県","county":"芳賀郡","city":"益子町","code5":"09342","code6":"093424"}},
{"type":"Feature","geometry":{"type":"Polygon","coordinates":[[[140.20204,36.43281],[140.20135,36.43814],[140.20619,36.44648],[140.20288,36.45444],[140.20736,36.45703],[140.2083,36.46443],[140.2129,36.46704],[140.21207,36.47071],[140.21662,36.47898],[140.2234,36.48167],[140.22957,36.49088],[140.23064,36.50297],[140.24151,36.50315],[140.24244,36.50753],[140.24893,36.50766],[140.24761,36.51507],[140.26018,36.51763],[140.25455,36.5224],[140.25338,36.52717],[140.24775,36.53449],[140.24816,36.54481],[140.24697,36.54802],[140.25154,36.55458],[140.24378,36.56282],[140.24697,36.56753],[140.24469,36.5761],[140.24557,36.58246],[140.24337,36.58458],[140.24609,36.59438],[140.24914,36.5994],[140.24839,36.61094],[140.24527,36.6175],[140.23954,36.62501],[140.2347,36.62385],[140.22809,36.62019],[140.22754,36.61278],[140.2174,36.6133],[140.21461,36.61049],[140.20205,36.60777],[140.20469,36.60482],[140.20343,36.60024],[140.19433,36.59657],[140.19511,36.59338],[140.20134,36.5886],[140.1946,36.58744],[140.19144,36.5914],[140.18433,36.59061],[140.17509,36.59604],[140.17393,36.60066],[140.16935,36.60605],[140.16814,36.61122],[140.16198,36.60942],[140.15065,36.60866],[140.14786,36.61095],[140.14113,36.60901],[140.13913,36.61125],[140.13273,36.60928],[140.13133,36.60488],[140.1391,36.60478],[140.14141,36.60158],[140.13979,36.59712],[140.14787,36.59351],[140.14683,36.58826],[140.1402,36.58222],[140.13098,36.58339],[140.12843,36.57843],[140.13624,36.57314],[140.13238,36.56116],[140.12927,36.55868],[140.13136,36.55319],[140.12908,36.54826],[140.14015,36.54029],[140.14421,36.54007],[140.14819,36.53545],[140.15581,36.53318],[140.15025,36.52916],[140.14556,36.53253],[140.14044,36.52508],[140.14985,36.52399],[140.15089,36.51632],[140.1403,36.51696],[140.1425,36.51228],[140.13919,36.51036],[140.13991,36.50373],[140.15005,36.50302],[140.15066,36.4983],[140.1476,36.49283],[140.15032,36.48579],[140.14922,36.48102],[140.16028,36.46332],[140.15834,36.45616],[140.15962,36.45257],[140.14871,36.4357],[140.1472,36.42533],[140.14273,36.41691],[140.14426,36.41404],[140.14857,36.40666],[140.1562,36.39815],[140.1656,36.40011],[140.18516,36.39834],[140.1861,36.40112],[140.19249,36.40458],[140.1983,36.41558],[140.20326,36.42074],[140.20204,36.43281]]]},"properties":{"pref":"栃木県","county":"芳賀郡","city":"茂木町","code5":"09343","code6":"093432"}},
{"type":"Feature","geometry":{"type":"Polygon","coordinates":[[[140.07215,36.4926],[140.07806,36.49748],[140.07433,36.50286],[140.07878,36.50903],[140.07863,36.51266],[140.09222,36.51223],[140.098,36.51802],[140.10265,36.51873],[140.10891,36.51655],[140.11188,36.5206],[140.12201,36.51959],[140.13389,36.52223],[140.14044,36.52508],[140.14556,36.53253],[140.15025,36.52916],[140.15581,36.53318],[140.14819,36.53545],[140.14421,36.54007],[140.14015,36.54029],[140.12908,36.54826],[140.13136,36.55319],[140.12927,36.55868],[140.13238,36.56116],[140.13624,36.57314],[140.12843,36.57843],[140.13098,36.58339],[140.1402,36.58222],[140.14683,36.58826],[140.14787,36.59351],[140.13979,36.59712],[140.14141,36.60158],[140.1391,36.60478],[140.13133,36.60488],[140.13273,36.60928],[140.13913,36.61125],[140.14152,36.61913],[140.12805,36.62588],[140.12711,36.62178],[140.10603,36.62393],[140.10074,36.62072],[140.10388,36.61808],[140.09962,36.61158],[140.09395,36.60891],[140.09187,36.60526],[140.08467,36.6014],[140.08524,36.5999],[140.08755,36.59459],[140.08902,36.58451],[140.08137,36.57952],[140.08048,36.57574],[140.08273,36.56261],[140.08457,36.55848],[140.08524,36.54726],[140.07818,36.54858],[140.0784,36.54458],[140.07484,36.53522],[140.07845,36.52939],[140.07982,36.52329],[140.07656,36.52128],[140.06668,36.52468],[140.06614,36.52864],[140.06869,36.53659],[140.06305,36.54364],[140.05895,36.53586],[140.05796,36.52552],[140.05469,36.52286],[140.05422,36.5146],[140.0494,36.50983],[140.05226,36.50314],[140.05205,36.49578],[140.04738,36.49614],[140.04642,36.48945],[140.05613,36.48782],[140.05702,36.4962],[140.06365,36.49832],[140.07215,36.4926]]]},"properties":{"pref":"栃木県","county":"芳賀郡","city":"市貝町","code5":"09344","code6":"093441"}},
{"type":"Feature","geometry":{"type":"Polygon","coordinates":[[[140.00041,36.49678],[140.00376,36.49006],[140.02651,36.4885],[140.03624,36.48947],[140.04019,36.49654],[140.04496,36.49969],[140.04691,36.50918],[140.0494,36.50983],[140.05422,36.5146],[140.05469,36.52286],[140.05796,36.52552],[140.05895,36.53586],[140.06305,36.54364],[140.06869,36.53659],[140.06614,36.52864],[140.06668,36.52468],[140.07656,36.52128],[140.07982,36.52329],[140.07845,36.52939],[140.07484,36.53522],[140.0784,36.54458],[140.07818,36.54858],[140.08524,36.54726],[140.08457,36.55848],[140.08273,36.56261],[140.08048,36.57574],[140.08137,36.57952],[140.08902,36.58451],[140.08755,36.59459],[140.08524,36.5999],[140.07617,36.60152],[140.07758,36.608],[140.0731,36.60924],[140.06704,36.61524],[140.06247,36.61341],[140.06415,36.60732],[140.06043,36.60555],[140.04447,36.6068],[140.04135,36.60435],[140.04763,36.5955],[140.04498,36.58615],[140.03915,36.58413],[140.03029,36.58502],[140.02487,36.58246],[140.01391,36.57971],[140.009,36.58421],[140.00275,36.59349],[140.00223,36.60042],[139.99789,36.60552],[139.99338,36.60169],[139.99728,36.58809],[139.99842,36.57859],[140.0027,36.56508],[140.00207,36.56037],[139.99738,36.55723],[139.9984,36.55085],[140.00966,36.53392],[140.00611,36.53057],[140.01062,36.52464],[140.00979,36.51747],[140.00625,36.51327],[140.00732,36.50411],[140.00041,36.49678]]]},"properties":{"pref":"栃木県","county":"芳賀郡","city":"芳賀町","code5":"09345","code6":"093459"}},
{"type":"Feature","geometry":{"type":"Polygon","coordinates":[[[139.8213,36.51114],[139.81769,36.50701],[139.80991,36.50507],[139.8056,36.50217],[139.80056,36.50539],[139.79258,36.49845],[139.7938,36.49077],[139.78886,36.48701],[139.78324,36.49287],[139.77884,36.49317],[139.76879,36.48684],[139.77075,36.47856],[139.76723,36.47122],[139.75679,36.46729],[139.75808,36.45986],[139.76744,36.44843],[139.76709,36.44198],[139.78391,36.42154],[139.79024,36.41929],[139.7941,36.40607],[139.7982,36.40153],[139.80379,36.40067],[139.80429,36.40536],[139.81243,36.40196],[139.8155,36.39897],[139.82556,36.39921],[139.82884,36.40806],[139.82496,36.41266],[139.82834,36.42134],[139.83133,36.42491],[139.83268,36.43612],[139.82874,36.43877],[139.8308,36.44727],[139.83405,36.44857],[139.83385,36.45724],[139.84142,36.45742],[139.84608,36.4599],[139.84789,36.46971],[139.84037,36.48052],[139.84193,36.48735],[139.84141,36.49304],[139.83453,36.4963],[139.83402,36.50172],[139.83109,36.50389],[139.83062,36.50998],[139.8213,36.51114]]]},"properties":{"pref":"栃木県","county":"下都賀郡","city":"壬生町","code5":"09361","code6":"093611"}},
{"type":"Feature","geometry":{"type":"Polygon","coordinates":[[[139.7857,36.2278],[139.78814,36.23487],[139.78394,36.24203],[139.78597,36.25501],[139.77912,36.25383],[139.77426,36.24756],[139.77417,36.24118],[139.76503,36.24118],[139.76569,36.24453],[139.75879,36.24769],[139.75715,36.24495],[139.74541,36.2452],[139.7377,36.24835],[139.73787,36.2524],[139.74437,36.25541],[139.74405,36.26104],[139.73602,36.26107],[139.73225,36.26309],[139.72557,36.25756],[139.72938,36.2536],[139.72778,36.2479],[139.72065,36.24483],[139.70749,36.2359],[139.71001,36.23318],[139.70325,36.22587],[139.70213,36.23115],[139.69705,36.23013],[139.69542,36.22331],[139.6983,36.22052],[139.69732,36.21315],[139.68914,36.21819],[139.68444,36.21583],[139.68885,36.20207],[139.69362,36.20649],[139.70647,36.20186],[139.70749,36.21084],[139.71603,36.20987],[139.72754,36.20584],[139.72902,36.20229],[139.74828,36.21109],[139.76004,36.21924],[139.7857,36.2278]]]},"properties":{"pref":"栃木県","county":"下都賀郡","city":"野木町","code5":"09364","code6":"093645"}},
{"type":"Feature","geometry":{"type":"Polygon","coordinates":[[[139.90688,36.72143],[139.91134,36.72021],[139.92605,36.71917],[139.93671,36.71999],[139.93858,36.72692],[139.93046,36.72808],[139.92662,36.73097],[139.91707,36.73354],[139.91491,36.7379],[139.91646,36.74477],[139.90466,36.75533],[139.90165,36.76698],[139.88811,36.77131],[139.88679,36.77722],[139.8798,36.77636],[139.8735,36.78402],[139.86843,36.78811],[139.87432,36.7981],[139.8784,36.79902],[139.87517,36.80778],[139.87252,36.80705],[139.86715,36.81379],[139.86258,36.81619],[139.86276,36.82052],[139.85744,36.82623],[139.85224,36.82803],[139.84971,36.83448],[139.85104,36.84131],[139.8452,36.84208],[139.84108,36.84507],[139.83017,36.84698],[139.83064,36.85082],[139.82745,36.85545],[139.8189,36.86354],[139.80908,36.87059],[139.80496,36.87693],[139.80664,36.88034],[139.80231,36.88394],[139.8026,36.88807],[139.79627,36.89068],[139.79191,36.89854],[139.78651,36.90251],[139.78842,36.90639],[139.78383,36.90738],[139.77817,36.90469],[139.77633,36.90136],[139.77146,36.89478],[139.77061,36.88728],[139.7734,36.86849],[139.77146,36.85509],[139.75045,36.8434],[139.74218,36.8428],[139.74299,36.8382],[139.73681,36.83337],[139.72788,36.83307],[139.73164,36.82174],[139.72704,36.81419],[139.72892,36.81171],[139.72968,36.79635],[139.73372,36.79451],[139.73553,36.78542],[139.73336,36.78077],[139.73505,36.76886],[139.73708,36.76724],[139.75152,36.76808],[139.76174,36.76315],[139.76446,36.75914],[139.77404,36.75606],[139.77949,36.75242],[139.80097,36.74441],[139.81202,36.73892],[139.825,36.73622],[139.83891,36.73476],[139.85278,36.72454],[139.86033,36.73008],[139.87556,36.72396],[139.88174,36.72262],[139.8878,36.72457],[139.89353,36.72268],[139.90688,36.72143]]]},"properties":{"pref":"栃木県","county":"塩谷郡","city":"塩谷町","code5":"09384","code6":"093840"}},
{"type":"Feature","geometry":{"type":"Polygon","coordinates":[[[139.99338,36.60169],[139.99789,36.60552],[140.00223,36.60042],[140.00275,36.59349],[140.009,36.58421],[140.01391,36.57971],[140.02487,36.58246],[140.03029,36.58502],[140.03915,36.58413],[140.04498,36.58615],[140.04763,36.5955],[140.04135,36.60435],[140.04447,36.6068],[140.06043,36.60555],[140.06415,36.60732],[140.06247,36.61341],[140.06704,36.61524],[140.0731,36.60924],[140.07758,36.608],[140.07617,36.60152],[140.08524,36.5999],[140.08467,36.6014],[140.07922,36.62052],[140.07139,36.62155],[140.06288,36.61826],[140.06242,36.62682],[140.05841,36.63578],[140.06443,36.64013],[140.06444,36.64605],[140.05917,36.65431],[140.05928,36.6631],[140.05437,36.66315],[140.05405,36.65885],[140.04919,36.65849],[140.04645,36.66574],[140.03981,36.67191],[140.03363,36.67416],[140.02976,36.67777],[140.02366,36.67385],[140.01698,36.66567],[140.01768,36.66308],[140.00554,36.66291],[139.99222,36.67162],[139.98576,36.67124],[139.9831,36.6663],[139.97549,36.66788],[139.96774,36.66072],[139.9711,36.65302],[139.96806,36.64686],[139.95997,36.64364],[139.95537,36.64007],[139.95847,36.63036],[139.96626,36.61772],[139.96961,36.61675],[139.97075,36.60757],[139.99078,36.60865],[139.98967,36.60474],[139.99338,36.60169]]]},"properties":{"pref":"栃木県","county":"塩谷郡","city":"高根沢町","code5":"09386","code6":"093866"}},
{"type":"Feature","geometry":{"type":"Polygon","coordinates":[[[140.15079,37.09433],[140.14647,37.09929],[140.13702,37.10646],[140.13484,37.10361],[140.12805,37.10417],[140.12588,37.10784],[140.11913,37.11003],[140.10267,37.12105],[140.09374,37.1242],[140.08936,37.12159],[140.06596,37.12734],[140.05751,37.12603],[140.04925,37.13144],[140.04707,37.13544],[140.03305,37.1402],[140.02699,37.14006],[140.02445,37.14301],[140.01455,37.14012],[139.99556,37.14388],[139.99049,37.14272],[139.97925,37.14688],[139.96732,37.14779],[139.95084,37.13995],[139.94286,37.14024],[139.93749,37.13729],[139.93356,37.12662],[139.93109,37.1253],[139.93276,37.10493],[139.94474,37.10573],[139.95311,37.0993],[139.95306,37.09108],[139.94568,37.08385],[139.94351,37.07863],[139.94745,37.06894],[139.94891,37.0507],[139.95697,37.04709],[139.96318,37.04634],[139.97237,37.04299],[139.9774,37.04467],[139.98581,37.03797],[139.98813,37.04038],[139.99504,37.03905],[139.99486,37.03366],[140.00067,37.03411],[140.00838,37.02381],[140.01328,37.02209],[140.02095,37.01333],[140.02393,37.0064],[140.02896,37.00537],[140.03379,37.00003],[140.03213,36.99189],[140.04978,36.9829],[140.06794,36.97584],[140.07201,36.97633],[140.07401,36.96979],[140.08155,36.9692],[140.08745,36.97381],[140.08023,36.98515],[140.08502,36.99049],[140.09168,36.98689],[140.102,36.97648],[140.11764,36.97659],[140.12309,36.98617],[140.13152,36.98694],[140.13995,36.98157],[140.13467,36.98035],[140.13818,36.96901],[140.13475,36.96455],[140.12995,36.96308],[140.12336,36.9659],[140.11671,36.95873],[140.12121,36.947],[140.11607,36.941],[140.1186,36.93751],[140.1098,36.93689],[140.10833,36.93476],[140.1115,36.93198],[140.11219,36.92662],[140.12655,36.91541],[140.13067,36.92288],[140.13469,36.92438],[140.13523,36.93465],[140.14442,36.93803],[140.15356,36.93209],[140.16055,36.93506],[140.15888,36.94399],[140.16843,36.94627],[140.18425,36.94835],[140.18539,36.94538],[140.19566,36.94444],[140.20214,36.94657],[140.2136,36.9454],[140.22444,36.94177],[140.22849,36.93798],[140.23456,36.94199],[140.24304,36.94349],[140.24063,36.94985],[140.2445,36.95697],[140.25309,36.96297],[140.25233,36.96667],[140.2439,36.97318],[140.2442,36.97899],[140.25098,36.98337],[140.24939,36.98847],[140.24403,36.99133],[140.24021,37.00028],[140.25139,37.00919],[140.24894,37.0185],[140.24893,37.02587],[140.24244,37.02388],[140.22465,37.0238],[140.21973,37.01851],[140.2119,37.01987],[140.20899,37.02295],[140.20333,37.02387],[140.19927,37.02841],[140.19849,37.0382],[140.19978,37.04769],[140.19065,37.05667],[140.1945,37.06001],[140.19306,37.0655],[140.18482,37.06921],[140.17283,37.07025],[140.16437,37.07941],[140.15835,37.08058],[140.15353,37.08713],[140.15623,37.09139],[140.15079,37.09433]]]},"properties":{"pref":"栃木県","county":"那須郡","city":"那須町","code5":"09407","code6":"094072"}},
{"type":"Feature","geometry":{"type":"Polygon","coordinates":[[[140.29216,36.71266],[140.28726,36.71799],[140.28767,36.72537],[140.28333,36.73414],[140.27746,36.73875],[140.26912,36.7421],[140.26221,36.74828],[140.25963,36.75477],[140.25494,36.76022],[140.25686,36.76611],[140.26107,36.76759],[140.25367,36.77452],[140.25742,36.77723],[140.25381,36.78366],[140.2443,36.78862],[140.24458,36.79155],[140.23326,36.80211],[140.22791,36.81709],[140.23195,36.8282],[140.23085,36.83764],[140.2218,36.83859],[140.21707,36.84284],[140.20413,36.83694],[140.20451,36.83362],[140.19788,36.82503],[140.19174,36.8237],[140.1871,36.81988],[140.17961,36.82717],[140.17422,36.82754],[140.17101,36.82293],[140.17042,36.81586],[140.16548,36.81414],[140.16355,36.80605],[140.15885,36.80094],[140.15188,36.80056],[140.1479,36.7933],[140.13999,36.78865],[140.13692,36.78465],[140.11563,36.78469],[140.11216,36.78913],[140.10127,36.79451],[140.09203,36.79756],[140.08069,36.79636],[140.07832,36.79071],[140.0833,36.78796],[140.07782,36.7842],[140.07284,36.78637],[140.06471,36.78573],[140.05664,36.78349],[140.04874,36.78759],[140.04528,36.78359],[140.04655,36.77444],[140.04956,36.77582],[140.06101,36.76995],[140.06739,36.7734],[140.07758,36.76599],[140.08255,36.76583],[140.08435,36.76124],[140.07845,36.75637],[140.08208,36.74995],[140.08292,36.74469],[140.0854,36.73976],[140.09336,36.7311],[140.10367,36.73084],[140.10836,36.72649],[140.11594,36.72761],[140.11941,36.72443],[140.12135,36.7167],[140.12442,36.71462],[140.13064,36.71676],[140.13252,36.72043],[140.13834,36.72425],[140.14881,36.72441],[140.15424,36.71686],[140.16048,36.7115],[140.16073,36.69974],[140.16988,36.68799],[140.16734,36.68355],[140.17802,36.68139],[140.18199,36.67841],[140.18636,36.68216],[140.20083,36.68055],[140.20714,36.68285],[140.21554,36.6731],[140.22157,36.67429],[140.22502,36.67778],[140.22042,36.68715],[140.22681,36.69239],[140.22988,36.69883],[140.23339,36.70025],[140.24418,36.69779],[140.24669,36.70227],[140.25844,36.70157],[140.26782,36.70227],[140.27105,36.70673],[140.28231,36.70811],[140.28598,36.7125],[140.29216,36.71266]]]},"properties":{"pref":"栃木県","county":"那須郡","city":"那珂川町","code5":"09411","code6":"094111"}}
]}