{"type":"FeatureCollection", "features": [
{"type":"Feature","geometry":{"type":"Polygon","coordinates":[[[139.19344,36.55943],[139.18819,36.5583],[139.17405,36.56233],[139.16934,36.5617],[139.1625,36.55543],[139.15188,36.55445],[139.13691,36.53821],[139.13512,36.53408],[139.11785,36.52551],[139.11452,36.52053],[139.10102,36.51697],[139.09829,36.51263],[139.07616,36.49404],[139.0636,36.47602],[139.05293,36.46829],[139.04932,36.45573],[139.04122,36.45191],[139.03875,36.44663],[139.03661,36.43546],[139.03045,36.42823],[139.03068,36.42088],[139.02347,36.41718],[139.0224,36.42195],[139.01856,36.42377],[139.01257,36.43271],[139.00602,36.43276],[139.00245,36.42703],[139.00243,36.41934],[139.00354,36.41404],[139.00733,36.41067],[139.0072,36.40679],[139.01428,36.40518],[139.02049,36.41212],[139.02819,36.40668],[139.02635,36.40281],[139.02999,36.39865],[139.03051,36.39436],[139.02211,36.39442],[139.02667,36.38865],[139.02548,36.38432],[139.03086,36.3746],[139.03812,36.36698],[139.0443,36.3639],[139.04465,36.35167],[139.05521,36.35137],[139.05651,36.35571],[139.06308,36.35282],[139.06906,36.35246],[139.07481,36.34408],[139.07734,36.33272],[139.09299,36.32431],[139.0947,36.32106],[139.10657,36.31624],[139.10875,36.32709],[139.12645,36.32737],[139.11999,36.33423],[139.13618,36.33434],[139.14168,36.3345],[139.14655,36.34051],[139.15117,36.34219],[139.16157,36.33761],[139.16414,36.34248],[139.17527,36.35273],[139.18708,36.36014],[139.19013,36.36546],[139.19163,36.37294],[139.19948,36.37617],[139.20297,36.37522],[139.20706,36.39078],[139.21561,36.3949],[139.21741,36.40166],[139.22654,36.4038],[139.2256,36.41516],[139.22995,36.41464],[139.2246,36.42627],[139.21964,36.42597],[139.21961,36.43492],[139.21723,36.44291],[139.21293,36.45171],[139.21362,36.45537],[139.2107,36.46624],[139.21106,36.47658],[139.20589,36.48817],[139.20181,36.4919],[139.19879,36.50743],[139.19637,36.51394],[139.18868,36.52607],[139.19262,36.52996],[139.18962,36.53272],[139.19018,36.53804],[139.19523,36.5438],[139.19269,36.54834],[139.19344,36.55943]]]},"properties":{"pref":"群馬県","city":"前橋市","code5":"10201","code6":"102016"}},
{"type":"Feature","geometry":{"type":"MultiPolygon","coordinates":[[[[139.00243,36.41934],[138.9937,36.42355],[138.98827,36.42046],[138.98177,36.41353],[138.97343,36.41328],[138.97009,36.41724],[138.96286,36.41213],[138.95702,36.41883],[138.96014,36.42396],[138.95437,36.42504],[138.94984,36.42965],[138.93777,36.43527],[138.92475,36.44805],[138.91933,36.44877],[138.90734,36.45731],[138.90192,36.45779],[138.89974,36.4623],[138.90463,36.46439],[138.90935,36.47173],[138.90623,36.47518],[138.90016,36.47458],[138.89929,36.48049],[138.89512,36.48224],[138.88296,36.47987],[138.87745,36.48299],[138.86579,36.48133],[138.86005,36.47346],[138.85075,36.47718],[138.84774,36.47508],[138.82633,36.47309],[138.82177,36.47505],[138.80791,36.47439],[138.80239,36.47691],[138.79177,36.47678],[138.78002,36.47342],[138.78079,36.46864],[138.77487,36.46838],[138.77595,36.47776],[138.7626,36.47905],[138.75451,36.47607],[138.74845,36.47583],[138.73782,36.47777],[138.73072,36.47761],[138.72323,36.48223],[138.70668,36.47848],[138.69767,36.47304],[138.68716,36.47349],[138.68419,36.46814],[138.67817,36.4638],[138.6703,36.46258],[138.66158,36.45353],[138.6552,36.45171],[138.64681,36.44366],[138.64329,36.43726],[138.64714,36.42469],[138.64442,36.41144],[138.64839,36.40747],[138.65329,36.40732],[138.66533,36.41186],[138.66956,36.41097],[138.68309,36.41592],[138.68706,36.41279],[138.69521,36.41171],[138.70143,36.40877],[138.70966,36.40866],[138.71696,36.41547],[138.7268,36.41206],[138.75208,36.40659],[138.76307,36.40044],[138.76825,36.39622],[138.77696,36.39172],[138.80421,36.38202],[138.81981,36.37746],[138.82366,36.37352],[138.83285,36.37441],[138.84301,36.37088],[138.85704,36.37428],[138.86203,36.37425],[138.86861,36.37069],[138.88632,36.36573],[138.9153,36.35026],[138.92255,36.35397],[138.92663,36.35283],[138.9385,36.34376],[138.93911,36.3386],[138.95059,36.3328],[138.93659,36.33358],[138.93846,36.32924],[138.94383,36.327],[138.95365,36.30577],[138.94966,36.30149],[138.94765,36.29679],[138.94986,36.29325],[138.94968,36.28691],[138.94261,36.27819],[138.93807,36.27035],[138.94414,36.26795],[138.95431,36.25933],[138.95716,36.25248],[138.95354,36.25132],[138.95612,36.23832],[138.95924,36.23589],[138.95827,36.22909],[138.96209,36.22649],[138.96304,36.22122],[138.95302,36.21829],[138.9468,36.20999],[138.94292,36.19926],[138.95399,36.19891],[138.96664,36.2036],[138.97367,36.20283],[138.98103,36.20594],[138.98218,36.21355],[138.9862,36.21694],[138.99025,36.21636],[138.9971,36.22372],[139.00994,36.22112],[139.01757,36.22232],[139.01735,36.2337],[139.02132,36.23606],[139.02316,36.24338],[139.0273,36.24682],[139.02314,36.25987],[139.0326,36.26044],[139.03718,36.26784],[139.0407,36.2704],[139.04927,36.2692],[139.05609,36.27235],[139.05595,36.28451],[139.07293,36.28817],[139.07649,36.29114],[139.08505,36.29118],[139.09667,36.28843],[139.09671,36.29499],[139.10074,36.29925],[139.09659,36.30216],[139.08766,36.31227],[139.08906,36.32057],[139.09299,36.32431],[139.07734,36.33272],[139.07481,36.34408],[139.06906,36.35246],[139.06308,36.35282],[139.05651,36.35571],[139.05521,36.35137],[139.04465,36.35167],[139.0443,36.3639],[139.03812,36.36698],[139.03086,36.3746],[139.02548,36.38432],[139.02667,36.38865],[139.02211,36.39442],[139.03051,36.39436],[139.02999,36.39865],[139.02635,36.40281],[139.02819,36.40668],[139.02049,36.41212],[139.01428,36.40518],[139.0072,36.40679],[139.00733,36.41067],[139.00354,36.41404],[139.00243,36.41934]]],[[[139.12966,36.2834],[139.11074,36.28207],[139.10406,36.27862],[139.10238,36.27417],[139.10573,36.27016],[139.10083,36.26434],[139.10771,36.26135],[139.11778,36.26876],[139.127,36.27854],[139.12966,36.2834]]]]},"properties":{"pref":"群馬県","city":"高崎市","code5":"10202","code6":"102024"}},
{"type":"Feature","geometry":{"type":"MultiPolygon","coordinates":[[[[139.4065,36.44571],[139.41231,36.4507],[139.4111,36.45843],[139.41474,36.46186],[139.4204,36.45707],[139.42784,36.45911],[139.43647,36.46598],[139.43769,36.47434],[139.43171,36.47216],[139.42966,36.48195],[139.42594,36.48452],[139.42808,36.49042],[139.42147,36.49052],[139.41793,36.49464],[139.41903,36.50228],[139.42299,36.50442],[139.42168,36.50874],[139.42768,36.51064],[139.43991,36.5254],[139.44151,36.5306],[139.43747,36.53246],[139.43629,36.53807],[139.4393,36.55096],[139.44391,36.55251],[139.4511,36.54971],[139.44306,36.55597],[139.43486,36.5558],[139.43007,36.55337],[139.42167,36.54282],[139.41571,36.53934],[139.41452,36.53371],[139.40784,36.52652],[139.40216,36.52397],[139.39614,36.52582],[139.38794,36.52445],[139.38437,36.51975],[139.37813,36.5211],[139.37618,36.51544],[139.36836,36.51562],[139.3595,36.5121],[139.35747,36.50708],[139.35902,36.50043],[139.34468,36.49649],[139.33431,36.49138],[139.33394,36.48356],[139.33156,36.47899],[139.32625,36.47693],[139.32033,36.47142],[139.32219,36.46747],[139.31796,36.46286],[139.30463,36.45934],[139.30111,36.45444],[139.30072,36.44747],[139.29469,36.44469],[139.29045,36.43648],[139.29187,36.43128],[139.28406,36.42787],[139.29253,36.4219],[139.29053,36.41802],[139.28348,36.41393],[139.28595,36.40967],[139.29274,36.4091],[139.31148,36.39831],[139.31509,36.39701],[139.31463,36.38669],[139.31611,36.38256],[139.31365,36.37758],[139.32756,36.37457],[139.33065,36.3688],[139.33522,36.3689],[139.34136,36.36062],[139.35477,36.35969],[139.35901,36.36441],[139.36888,36.36352],[139.37035,36.36608],[139.36632,36.37942],[139.36098,36.38368],[139.36814,36.3928],[139.36994,36.39777],[139.37546,36.40031],[139.37686,36.41103],[139.37864,36.41456],[139.38587,36.42152],[139.39174,36.42431],[139.39503,36.43092],[139.39439,36.43422],[139.40253,36.43682],[139.4065,36.44571]]],[[[139.22654,36.4038],[139.23415,36.4047],[139.2321,36.3976],[139.24078,36.39707],[139.24561,36.40555],[139.25576,36.40782],[139.27092,36.41675],[139.27075,36.425],[139.26024,36.43773],[139.26404,36.4392],[139.26551,36.44497],[139.26333,36.45294],[139.25831,36.45413],[139.25363,36.46108],[139.24722,36.46176],[139.2365,36.46877],[139.23495,36.48056],[139.23759,36.48252],[139.24913,36.48416],[139.25129,36.48049],[139.25873,36.47938],[139.26827,36.48019],[139.27176,36.48576],[139.27956,36.48844],[139.283,36.49298],[139.29803,36.49122],[139.29967,36.49689],[139.30447,36.50229],[139.29898,36.50306],[139.29683,36.50702],[139.28,36.51435],[139.28256,36.51834],[139.29019,36.51894],[139.29112,36.52656],[139.29697,36.53416],[139.30281,36.53645],[139.3081,36.54217],[139.31496,36.54412],[139.31606,36.55703],[139.31906,36.56062],[139.31184,36.56899],[139.30893,36.5701],[139.30775,36.57728],[139.29955,36.5844],[139.30044,36.58761],[139.29786,36.59515],[139.28861,36.58968],[139.28342,36.58931],[139.27312,36.59153],[139.26887,36.5898],[139.25768,36.59175],[139.25522,36.58852],[139.24179,36.58807],[139.23749,36.58161],[139.22398,36.57492],[139.21713,36.57556],[139.19086,36.56872],[139.18968,36.56526],[139.19344,36.55943],[139.19269,36.54834],[139.19523,36.5438],[139.19018,36.53804],[139.18962,36.53272],[139.19262,36.52996],[139.18868,36.52607],[139.19637,36.51394],[139.19879,36.50743],[139.20181,36.4919],[139.20589,36.48817],[139.21106,36.47658],[139.2107,36.46624],[139.21362,36.45537],[139.21293,36.45171],[139.21723,36.44291],[139.21961,36.43492],[139.21964,36.42597],[139.2246,36.42627],[139.22995,36.41464],[139.2256,36.41516],[139.22654,36.4038]]]]},"properties":{"pref":"群馬県","city":"桐生市","code5":"10203","code6":"102032"}},
{"type":"Feature","geometry":{"type":"Polygon","coordinates":[[[139.13618,36.33434],[139.13869,36.32644],[139.13886,36.31798],[139.14259,36.31049],[139.15502,36.30181],[139.16145,36.28802],[139.17174,36.27742],[139.17137,36.27372],[139.18055,36.2691],[139.198,36.26225],[139.20825,36.26246],[139.21215,36.25634],[139.224,36.2583],[139.23747,36.2462],[139.24375,36.24451],[139.25389,36.24584],[139.26169,36.2427],[139.26701,36.24262],[139.26682,36.25042],[139.27265,36.24924],[139.28168,36.25143],[139.2808,36.2564],[139.27195,36.25624],[139.26915,36.26474],[139.27195,36.26764],[139.27188,36.276],[139.27586,36.28009],[139.27359,36.28332],[139.26392,36.28821],[139.25576,36.29504],[139.25771,36.30306],[139.26745,36.30264],[139.26666,36.30999],[139.2687,36.31587],[139.26905,36.32421],[139.26417,36.32537],[139.26176,36.33035],[139.26544,36.33913],[139.26459,36.34755],[139.26738,36.34835],[139.27165,36.3603],[139.27308,36.36868],[139.27117,36.37369],[139.26633,36.37819],[139.26764,36.39245],[139.25018,36.39514],[139.25098,36.3997],[139.25576,36.40782],[139.24561,36.40555],[139.24078,36.39707],[139.2321,36.3976],[139.23415,36.4047],[139.22654,36.4038],[139.21741,36.40166],[139.21561,36.3949],[139.20706,36.39078],[139.20297,36.37522],[139.19948,36.37617],[139.19163,36.37294],[139.19013,36.36546],[139.18708,36.36014],[139.17527,36.35273],[139.16414,36.34248],[139.16157,36.33761],[139.15117,36.34219],[139.14655,36.34051],[139.14168,36.3345],[139.13618,36.33434]]]},"properties":{"pref":"群馬県","city":"伊勢崎市","code5":"10204","code6":"102041"}},
{"type":"Feature","geometry":{"type":"Polygon","coordinates":[[[139.37035,36.36608],[139.36888,36.36352],[139.35901,36.36441],[139.35477,36.35969],[139.34136,36.36062],[139.33522,36.3689],[139.33065,36.3688],[139.32756,36.37457],[139.31365,36.37758],[139.29861,36.37242],[139.27961,36.37324],[139.27935,36.3691],[139.27308,36.36868],[139.27165,36.3603],[139.26738,36.34835],[139.26459,36.34755],[139.26544,36.33913],[139.26176,36.33035],[139.26417,36.32537],[139.26905,36.32421],[139.2687,36.31587],[139.26666,36.30999],[139.26745,36.30264],[139.25771,36.30306],[139.25576,36.29504],[139.26392,36.28821],[139.27359,36.28332],[139.27586,36.28009],[139.27188,36.276],[139.27195,36.26764],[139.26915,36.26474],[139.27195,36.25624],[139.2808,36.2564],[139.28168,36.25143],[139.27265,36.24924],[139.28632,36.24513],[139.29498,36.24359],[139.30144,36.23979],[139.31515,36.23661],[139.32797,36.23736],[139.32788,36.23988],[139.34586,36.24898],[139.3473,36.25365],[139.35358,36.25151],[139.35823,36.25333],[139.36782,36.24681],[139.37667,36.2445],[139.38292,36.23787],[139.3842,36.24603],[139.38244,36.25254],[139.3893,36.26667],[139.40253,36.26454],[139.39866,36.26955],[139.40596,36.27645],[139.4139,36.27089],[139.42628,36.26994],[139.43489,36.26767],[139.4343,36.27322],[139.42972,36.27925],[139.43327,36.28699],[139.44365,36.28836],[139.44353,36.29369],[139.43711,36.29701],[139.43036,36.29569],[139.43152,36.30101],[139.42672,36.30395],[139.4157,36.31587],[139.41486,36.32432],[139.42047,36.32312],[139.42656,36.32435],[139.42279,36.33226],[139.41794,36.33656],[139.41351,36.33771],[139.39694,36.34582],[139.39151,36.34943],[139.38844,36.35464],[139.37815,36.35999],[139.37035,36.36608]]]},"properties":{"pref":"群馬県","city":"太田市","code5":"10205","code6":"102059"}},
{"type":"Feature","geometry":{"type":"Polygon","coordinates":[[[139.35306,36.77361],[139.34801,36.77642],[139.33241,36.7734],[139.33255,36.7698],[139.32089,36.76537],[139.31414,36.76514],[139.29975,36.7597],[139.28851,36.7538],[139.28741,36.75096],[139.27883,36.74652],[139.27721,36.74376],[139.27052,36.74109],[139.26494,36.74474],[139.25735,36.74349],[139.25292,36.746],[139.23933,36.74144],[139.23222,36.74286],[139.22482,36.73513],[139.22011,36.7272],[139.21394,36.72476],[139.21038,36.719],[139.20717,36.70964],[139.20215,36.71744],[139.19691,36.71773],[139.18776,36.71221],[139.18368,36.71236],[139.17585,36.70643],[139.17516,36.69969],[139.16871,36.69697],[139.1628,36.69797],[139.15699,36.69508],[139.15033,36.68876],[139.14423,36.68685],[139.13816,36.68936],[139.12885,36.68972],[139.11889,36.68644],[139.11016,36.68768],[139.10853,36.675],[139.10419,36.67131],[139.09741,36.67103],[139.09482,36.67391],[139.08427,36.66877],[139.07828,36.66326],[139.07656,36.66733],[139.08079,36.67307],[139.08401,36.6858],[139.07986,36.70135],[139.08386,36.7043],[139.08543,36.71952],[139.08292,36.72899],[139.08503,36.73341],[139.08435,36.73978],[139.09271,36.75862],[139.10098,36.76531],[139.10663,36.77268],[139.11642,36.77912],[139.11734,36.78752],[139.12114,36.79432],[139.11467,36.7967],[139.10809,36.79679],[139.09481,36.79305],[139.08776,36.79364],[139.08053,36.79022],[139.07452,36.79315],[139.07082,36.78971],[139.06503,36.79298],[139.05926,36.79333],[139.04704,36.78813],[139.04517,36.78277],[139.03821,36.78182],[139.03587,36.77879],[139.03744,36.7733],[139.03037,36.77049],[139.02466,36.7704],[139.02424,36.7652],[139.02962,36.75648],[139.02534,36.74994],[139.02528,36.74663],[139.03319,36.74164],[139.03201,36.73908],[139.02396,36.7346],[139.0263,36.73135],[139.01851,36.72196],[139.02347,36.71232],[139.0265,36.70998],[139.02366,36.70453],[139.02705,36.69921],[139.02872,36.69265],[139.02641,36.68846],[139.03028,36.68349],[139.02355,36.67937],[139.01952,36.66745],[139.00989,36.65795],[138.99872,36.65116],[138.99104,36.65244],[138.98528,36.64473],[138.98694,36.63809],[138.99112,36.63679],[138.99,36.62893],[138.98649,36.62543],[138.98976,36.61429],[138.99082,36.60176],[138.9889,36.5976],[138.99524,36.59156],[139.00165,36.58721],[139.00428,36.58291],[139.01394,36.58165],[139.01587,36.58396],[139.02943,36.58635],[139.03602,36.5889],[139.04409,36.58777],[139.05092,36.58483],[139.05799,36.58647],[139.05083,36.59169],[139.04985,36.60096],[139.04292,36.60991],[139.04252,36.61484],[139.04665,36.62179],[139.05257,36.62367],[139.06192,36.63033],[139.06565,36.64136],[139.0729,36.64802],[139.08016,36.64988],[139.08709,36.65491],[139.0942,36.65756],[139.1086,36.65683],[139.11699,36.65898],[139.12382,36.65357],[139.12721,36.65305],[139.12839,36.64714],[139.12457,36.6457],[139.13172,36.63038],[139.14295,36.62192],[139.14292,36.61393],[139.14953,36.59691],[139.15893,36.58645],[139.16291,36.5784],[139.16172,36.56957],[139.16934,36.5617],[139.17405,36.56233],[139.18819,36.5583],[139.19344,36.55943],[139.18968,36.56526],[139.19086,36.56872],[139.21713,36.57556],[139.22398,36.57492],[139.23749,36.58161],[139.24179,36.58807],[139.25522,36.58852],[139.25768,36.59175],[139.26887,36.5898],[139.27312,36.59153],[139.28342,36.58931],[139.28861,36.58968],[139.29786,36.59515],[139.29822,36.59954],[139.30183,36.60359],[139.3019,36.60803],[139.30557,36.616],[139.31233,36.62349],[139.31846,36.62602],[139.32559,36.6335],[139.32815,36.63342],[139.33053,36.64226],[139.32657,36.6507],[139.3267,36.65711],[139.33065,36.6638],[139.33452,36.66569],[139.33493,36.67451],[139.33926,36.67833],[139.33913,36.68499],[139.33692,36.69213],[139.34875,36.69983],[139.35634,36.7071],[139.35543,36.70986],[139.35974,36.71674],[139.36487,36.71973],[139.36693,36.72459],[139.36481,36.72906],[139.36751,36.73481],[139.36799,36.74138],[139.37028,36.74495],[139.36577,36.74792],[139.35608,36.75045],[139.35528,36.76025],[139.35082,36.76345],[139.35445,36.76909],[139.35306,36.77361]]]},"properties":{"pref":"群馬県","city":"沼田市","code5":"10206","code6":"102067"}},
{"type":"Feature","geometry":{"type":"Polygon","coordinates":[[[139.50012,36.27609],[139.49368,36.26163],[139.48861,36.25986],[139.4893,36.2528],[139.48338,36.24951],[139.47901,36.24168],[139.49162,36.23903],[139.49604,36.2289],[139.48755,36.22541],[139.48045,36.22599],[139.47642,36.21925],[139.47314,36.22459],[139.46304,36.22459],[139.46029,36.2197],[139.4605,36.21486],[139.479,36.21177],[139.48759,36.21211],[139.50116,36.21047],[139.50711,36.21634],[139.51154,36.21762],[139.52261,36.21648],[139.53247,36.21704],[139.53778,36.2215],[139.54507,36.21801],[139.5585,36.218],[139.5633,36.217],[139.57152,36.2213],[139.57624,36.22149],[139.58097,36.21848],[139.57969,36.23293],[139.57422,36.23874],[139.57594,36.24247],[139.58137,36.24272],[139.59109,36.24814],[139.59827,36.25546],[139.60167,36.24978],[139.61513,36.25178],[139.62191,36.24946],[139.62562,36.25273],[139.61349,36.25939],[139.60106,36.26233],[139.60102,36.26474],[139.59187,36.26627],[139.58975,36.26862],[139.58457,36.26922],[139.57814,36.26696],[139.57038,36.26809],[139.56127,36.26713],[139.55353,36.27388],[139.55592,36.27662],[139.54917,36.28045],[139.54403,36.27578],[139.53646,36.28173],[139.53459,36.27902],[139.52561,36.2847],[139.52055,36.2809],[139.51507,36.28115],[139.509,36.27868],[139.50322,36.28107],[139.50012,36.27609]]]},"properties":{"pref":"群馬県","city":"館林市","code5":"10207","code6":"102075"}},
{"type":"Feature","geometry":{"type":"Polygon","coordinates":[[[139.16934,36.5617],[139.16172,36.56957],[139.1578,36.57545],[139.14798,36.57741],[139.1436,36.57612],[139.13257,36.57844],[139.12253,36.57575],[139.1082,36.58051],[139.09543,36.57898],[139.08546,36.58308],[139.07645,36.58421],[139.075,36.57954],[139.07013,36.57979],[139.06386,36.58702],[139.05799,36.58647],[139.05092,36.58483],[139.04409,36.58777],[139.03602,36.5889],[139.02943,36.58635],[139.01587,36.58396],[139.01394,36.58165],[139.00428,36.58291],[139.00165,36.58721],[138.99524,36.59156],[138.98026,36.58423],[138.97032,36.58079],[138.95896,36.58148],[138.94744,36.58573],[138.94023,36.58474],[138.92743,36.58757],[138.9207,36.58623],[138.91742,36.58388],[138.91053,36.58413],[138.9049,36.58677],[138.898,36.58342],[138.89666,36.57795],[138.90425,36.57311],[138.90146,36.56968],[138.90266,36.56346],[138.89646,36.56196],[138.90046,36.55561],[138.90961,36.55576],[138.91135,36.55095],[138.91621,36.54963],[138.92165,36.55168],[138.92971,36.55069],[138.93631,36.54667],[138.94431,36.55028],[138.94531,36.54477],[138.94424,36.53715],[138.94111,36.53049],[138.9298,36.52289],[138.92968,36.52045],[138.92245,36.51337],[138.9174,36.51297],[138.90928,36.50877],[138.90417,36.50872],[138.89189,36.50179],[138.8854,36.49353],[138.88093,36.48308],[138.87745,36.48299],[138.88296,36.47987],[138.89512,36.48224],[138.89929,36.48049],[138.90016,36.47458],[138.90623,36.47518],[138.90935,36.47173],[138.91595,36.46639],[138.9222,36.46591],[138.92911,36.47016],[138.93213,36.47175],[138.94405,36.47292],[138.95016,36.47105],[138.95684,36.47434],[138.965,36.4729],[138.96759,36.46998],[138.97707,36.4661],[138.9937,36.46085],[139.00578,36.46356],[139.009,36.45997],[139.01472,36.46085],[139.01864,36.45079],[139.02547,36.44913],[139.02903,36.4515],[139.02651,36.45679],[139.02819,36.46031],[139.03942,36.45577],[139.04122,36.45191],[139.04932,36.45573],[139.05293,36.46829],[139.0636,36.47602],[139.07616,36.49404],[139.09829,36.51263],[139.10102,36.51697],[139.11452,36.52053],[139.11785,36.52551],[139.13512,36.53408],[139.13691,36.53821],[139.15188,36.55445],[139.1625,36.55543],[139.16934,36.5617]]]},"properties":{"pref":"群馬県","city":"渋川市","code5":"10208","code6":"102083"}},
{"type":"Feature","geometry":{"type":"Polygon","coordinates":[[[138.94292,36.19926],[138.92925,36.19745],[138.918,36.1931],[138.9133,36.19332],[138.90437,36.18684],[138.90234,36.18099],[138.89066,36.17446],[138.88446,36.16838],[138.87851,36.16808],[138.87018,36.17014],[138.86115,36.16849],[138.85873,36.16615],[138.8473,36.16288],[138.84477,36.16028],[138.82669,36.15797],[138.8211,36.15053],[138.81649,36.14968],[138.81005,36.14146],[138.82118,36.14459],[138.83038,36.14228],[138.83839,36.14274],[138.85017,36.14686],[138.85881,36.14715],[138.86474,36.15166],[138.87031,36.14808],[138.87544,36.14048],[138.87931,36.14287],[138.88847,36.14219],[138.89823,36.1469],[138.90471,36.14598],[138.90711,36.14856],[138.91582,36.15194],[138.92281,36.1522],[138.93142,36.14931],[138.9402,36.14932],[138.95294,36.14488],[138.95939,36.14478],[138.96329,36.13202],[138.95881,36.12925],[138.95962,36.12399],[138.96424,36.1259],[138.97001,36.12424],[138.97649,36.11721],[138.98569,36.11557],[138.9893,36.11792],[138.99304,36.12446],[139.00196,36.12533],[139.00673,36.12955],[139.01562,36.13407],[139.02109,36.13133],[139.02659,36.13278],[139.0312,36.12773],[139.03683,36.12619],[139.0424,36.12846],[139.04101,36.13554],[139.04272,36.14803],[139.04902,36.15243],[139.06056,36.15226],[139.06376,36.15885],[139.05872,36.16428],[139.05639,36.18052],[139.06305,36.18581],[139.06458,36.18938],[139.06332,36.19571],[139.07196,36.20382],[139.08173,36.21489],[139.08898,36.22843],[139.09651,36.23825],[139.1112,36.2585],[139.10771,36.26135],[139.10083,36.26434],[139.10573,36.27016],[139.10238,36.27417],[139.10406,36.27862],[139.11074,36.28207],[139.10471,36.2837],[139.10189,36.28728],[139.09667,36.28843],[139.08505,36.29118],[139.07649,36.29114],[139.07293,36.28817],[139.05595,36.28451],[139.05609,36.27235],[139.04927,36.2692],[139.0407,36.2704],[139.03718,36.26784],[139.0326,36.26044],[139.02314,36.25987],[139.0273,36.24682],[139.02316,36.24338],[139.02132,36.23606],[139.01735,36.2337],[139.01757,36.22232],[139.00994,36.22112],[138.9971,36.22372],[138.99025,36.21636],[138.9862,36.21694],[138.98218,36.21355],[138.98103,36.20594],[138.97367,36.20283],[138.96664,36.2036],[138.95399,36.19891],[138.94292,36.19926]]]},"properties":{"pref":"群馬県","city":"藤岡市","code5":"10209","code6":"102091"}},
{"type":"Feature","geometry":{"type":"Polygon","coordinates":[[[138.94966,36.30149],[138.93891,36.30524],[138.93484,36.30325],[138.92809,36.30377],[138.92299,36.30806],[138.9135,36.30529],[138.90881,36.29963],[138.90129,36.29615],[138.90221,36.28927],[138.89595,36.28973],[138.87815,36.2878],[138.87564,36.28526],[138.86758,36.28248],[138.85767,36.27635],[138.85265,36.27837],[138.84679,36.27719],[138.83588,36.2794],[138.83091,36.28477],[138.82561,36.28642],[138.81241,36.29408],[138.81013,36.29318],[138.79932,36.29773],[138.79575,36.29743],[138.78188,36.30264],[138.76503,36.30456],[138.75618,36.30304],[138.74046,36.29385],[138.74001,36.28997],[138.75419,36.28292],[138.75191,36.27233],[138.75301,36.26783],[138.77061,36.25126],[138.77007,36.24617],[138.77429,36.24455],[138.78322,36.22701],[138.78949,36.22871],[138.7968,36.22653],[138.80816,36.23122],[138.81592,36.23253],[138.81831,36.23689],[138.82766,36.23635],[138.84049,36.23869],[138.83637,36.22443],[138.83318,36.22409],[138.82968,36.21226],[138.83242,36.20366],[138.83286,36.19271],[138.82867,36.18274],[138.83114,36.17844],[138.83848,36.17973],[138.84225,36.18397],[138.84854,36.18758],[138.85064,36.19538],[138.8578,36.19803],[138.85855,36.20318],[138.86673,36.20456],[138.87592,36.20269],[138.8804,36.21387],[138.87836,36.22053],[138.88726,36.22618],[138.90068,36.22634],[138.90512,36.23829],[138.91561,36.24328],[138.9194,36.24751],[138.92197,36.26003],[138.93099,36.26085],[138.93364,36.26529],[138.94414,36.26795],[138.93807,36.27035],[138.94261,36.27819],[138.94968,36.28691],[138.94986,36.29325],[138.94765,36.29679],[138.94966,36.30149]]]},"properties":{"pref":"群馬県","city":"富岡市","code5":"10210","code6":"102105"}},
{"type":"Feature","geometry":{"type":"Polygon","coordinates":[[[138.64839,36.40747],[138.64846,36.3998],[138.65217,36.39507],[138.65216,36.38537],[138.64964,36.37894],[138.65165,36.37282],[138.65716,36.3689],[138.65239,36.36263],[138.65398,36.35709],[138.65008,36.35248],[138.65128,36.34965],[138.64974,36.34159],[138.65054,36.33213],[138.65331,36.32437],[138.64789,36.31448],[138.65317,36.30788],[138.65345,36.30304],[138.65571,36.29792],[138.65471,36.29235],[138.65723,36.2869],[138.66755,36.28353],[138.67106,36.28786],[138.67765,36.28572],[138.68315,36.28026],[138.69208,36.28639],[138.69495,36.28398],[138.70531,36.27987],[138.71273,36.28601],[138.71904,36.28458],[138.73138,36.28834],[138.73763,36.28762],[138.74001,36.28997],[138.74046,36.29385],[138.75618,36.30304],[138.76503,36.30456],[138.78188,36.30264],[138.79575,36.29743],[138.79932,36.29773],[138.81013,36.29318],[138.81241,36.29408],[138.82561,36.28642],[138.83091,36.28477],[138.83588,36.2794],[138.84679,36.27719],[138.85265,36.27837],[138.85767,36.27635],[138.86758,36.28248],[138.87564,36.28526],[138.87815,36.2878],[138.89595,36.28973],[138.90221,36.28927],[138.90129,36.29615],[138.90881,36.29963],[138.9135,36.30529],[138.92299,36.30806],[138.92809,36.30377],[138.93484,36.30325],[138.93891,36.30524],[138.94966,36.30149],[138.95365,36.30577],[138.94383,36.327],[138.93846,36.32924],[138.93659,36.33358],[138.95059,36.3328],[138.93911,36.3386],[138.9385,36.34376],[138.92663,36.35283],[138.92255,36.35397],[138.9153,36.35026],[138.88632,36.36573],[138.86861,36.37069],[138.86203,36.37425],[138.85704,36.37428],[138.84301,36.37088],[138.83285,36.37441],[138.82366,36.37352],[138.81981,36.37746],[138.80421,36.38202],[138.77696,36.39172],[138.76825,36.39622],[138.76307,36.40044],[138.75208,36.40659],[138.7268,36.41206],[138.71696,36.41547],[138.70966,36.40866],[138.70143,36.40877],[138.69521,36.41171],[138.68706,36.41279],[138.68309,36.41592],[138.66956,36.41097],[138.66533,36.41186],[138.65329,36.40732],[138.64839,36.40747]]]},"properties":{"pref":"群馬県","city":"安中市","code5":"10211","code6":"102113"}},
{"type":"Feature","geometry":{"type":"Polygon","coordinates":[[[139.48263,36.57816],[139.48304,36.58328],[139.47384,36.59046],[139.4747,36.59465],[139.47145,36.60289],[139.46536,36.60649],[139.44504,36.60729],[139.43627,36.60173],[139.42686,36.60113],[139.415,36.60582],[139.41237,36.60812],[139.3987,36.60219],[139.39516,36.6035],[139.38669,36.61198],[139.37944,36.61312],[139.37178,36.61195],[139.36323,36.61433],[139.35229,36.61509],[139.34573,36.62335],[139.3387,36.62719],[139.32965,36.62759],[139.32815,36.63342],[139.32559,36.6335],[139.31846,36.62602],[139.31233,36.62349],[139.30557,36.616],[139.3019,36.60803],[139.30183,36.60359],[139.29822,36.59954],[139.29786,36.59515],[139.30044,36.58761],[139.29955,36.5844],[139.30775,36.57728],[139.30893,36.5701],[139.31184,36.56899],[139.31906,36.56062],[139.31606,36.55703],[139.31496,36.54412],[139.3081,36.54217],[139.30281,36.53645],[139.29697,36.53416],[139.29112,36.52656],[139.29019,36.51894],[139.28256,36.51834],[139.28,36.51435],[139.29683,36.50702],[139.29898,36.50306],[139.30447,36.50229],[139.29967,36.49689],[139.29803,36.49122],[139.283,36.49298],[139.27956,36.48844],[139.27176,36.48576],[139.26827,36.48019],[139.25873,36.47938],[139.25129,36.48049],[139.24913,36.48416],[139.23759,36.48252],[139.23495,36.48056],[139.2365,36.46877],[139.24722,36.46176],[139.25363,36.46108],[139.25831,36.45413],[139.26333,36.45294],[139.26551,36.44497],[139.26404,36.4392],[139.26024,36.43773],[139.27075,36.425],[139.27092,36.41675],[139.25576,36.40782],[139.25098,36.3997],[139.25018,36.39514],[139.26764,36.39245],[139.26633,36.37819],[139.27117,36.37369],[139.27308,36.36868],[139.27935,36.3691],[139.27961,36.37324],[139.29861,36.37242],[139.31365,36.37758],[139.31611,36.38256],[139.31463,36.38669],[139.31509,36.39701],[139.31148,36.39831],[139.29274,36.4091],[139.28595,36.40967],[139.28348,36.41393],[139.29053,36.41802],[139.29253,36.4219],[139.28406,36.42787],[139.29187,36.43128],[139.29045,36.43648],[139.29469,36.44469],[139.30072,36.44747],[139.30111,36.45444],[139.30463,36.45934],[139.31796,36.46286],[139.32219,36.46747],[139.32033,36.47142],[139.32625,36.47693],[139.33156,36.47899],[139.33394,36.48356],[139.33431,36.49138],[139.34468,36.49649],[139.35902,36.50043],[139.35747,36.50708],[139.3595,36.5121],[139.36836,36.51562],[139.37618,36.51544],[139.37813,36.5211],[139.38437,36.51975],[139.38794,36.52445],[139.39614,36.52582],[139.40216,36.52397],[139.40784,36.52652],[139.41452,36.53371],[139.41571,36.53934],[139.42167,36.54282],[139.43007,36.55337],[139.43486,36.5558],[139.44306,36.55597],[139.4511,36.54971],[139.46076,36.55325],[139.46562,36.56362],[139.47403,36.56673],[139.47391,36.57313],[139.48263,36.57816]]]},"properties":{"pref":"群馬県","city":"みどり市","code5":"10212","code6":"102121"}},
{"type":"Feature","geometry":{"type":"Polygon","coordinates":[[[139.00245,36.42703],[139.0019,36.42988],[138.99068,36.43417],[138.99368,36.44052],[138.99207,36.44467],[138.99277,36.45138],[138.98603,36.45287],[138.97507,36.45825],[138.96769,36.45799],[138.96386,36.45558],[138.94995,36.46015],[138.94863,36.46193],[138.93633,36.46408],[138.92911,36.47016],[138.9222,36.46591],[138.91595,36.46639],[138.90935,36.47173],[138.90463,36.46439],[138.89974,36.4623],[138.90192,36.45779],[138.90734,36.45731],[138.91933,36.44877],[138.92475,36.44805],[138.93777,36.43527],[138.94984,36.42965],[138.95437,36.42504],[138.96014,36.42396],[138.95702,36.41883],[138.96286,36.41213],[138.97009,36.41724],[138.97343,36.41328],[138.98177,36.41353],[138.98827,36.42046],[138.9937,36.42355],[139.00243,36.41934],[139.00245,36.42703]]]},"properties":{"pref":"群馬県","county":"北群馬郡","city":"榛東村","code5":"10344","code6":"103446"}},
{"type":"Feature","geometry":{"type":"Polygon","coordinates":[[[139.04122,36.45191],[139.03942,36.45577],[139.02819,36.46031],[139.02651,36.45679],[139.02903,36.4515],[139.02547,36.44913],[139.01864,36.45079],[139.01472,36.46085],[139.009,36.45997],[139.00578,36.46356],[138.9937,36.46085],[138.97707,36.4661],[138.96759,36.46998],[138.965,36.4729],[138.95684,36.47434],[138.95016,36.47105],[138.94405,36.47292],[138.93213,36.47175],[138.92911,36.47016],[138.93633,36.46408],[138.94863,36.46193],[138.94995,36.46015],[138.96386,36.45558],[138.96769,36.45799],[138.97507,36.45825],[138.98603,36.45287],[138.99277,36.45138],[138.99207,36.44467],[138.99368,36.44052],[138.99068,36.43417],[139.0019,36.42988],[139.00245,36.42703],[139.00602,36.43276],[139.01257,36.43271],[139.01856,36.42377],[139.0224,36.42195],[139.02347,36.41718],[139.03068,36.42088],[139.03045,36.42823],[139.03661,36.43546],[139.03875,36.44663],[139.04122,36.45191]]]},"properties":{"pref":"群馬県","county":"北群馬郡","city":"吉岡町","code5":"10345","code6":"103454"}},
{"type":"Feature","geometry":{"type":"Polygon","coordinates":[[[138.82911,36.04131],[138.82758,36.04179],[138.81425,36.06027],[138.81224,36.06455],[138.81777,36.07321],[138.81815,36.07862],[138.8119,36.07934],[138.80555,36.08312],[138.80026,36.09061],[138.79964,36.09776],[138.79036,36.10185],[138.78526,36.10069],[138.7812,36.1031],[138.77964,36.11634],[138.77986,36.12325],[138.77166,36.12524],[138.77144,36.13266],[138.76489,36.12889],[138.75707,36.12911],[138.74947,36.12214],[138.74208,36.11885],[138.73787,36.12376],[138.72888,36.12597],[138.71171,36.12498],[138.70646,36.12218],[138.69928,36.12599],[138.69379,36.12486],[138.68745,36.12797],[138.68121,36.12406],[138.66621,36.11718],[138.65765,36.11655],[138.6451,36.11963],[138.64018,36.11735],[138.64224,36.11224],[138.64641,36.10957],[138.64518,36.09881],[138.63074,36.09138],[138.63047,36.08606],[138.63321,36.08087],[138.63919,36.07529],[138.64282,36.06874],[138.64237,36.05376],[138.64417,36.04957],[138.63149,36.02828],[138.64486,36.02413],[138.64601,36.02003],[138.66142,36.01637],[138.6617,36.01201],[138.67975,36.01161],[138.68105,36.0043],[138.68717,35.99982],[138.6887,35.99177],[138.69732,35.99103],[138.70117,35.98801],[138.71255,35.98533],[138.71681,35.9929],[138.72607,35.99448],[138.73217,35.99833],[138.73737,36.0043],[138.73669,36.00647],[138.74377,36.0101],[138.75357,36.02829],[138.75441,36.03453],[138.7598,36.03485],[138.76914,36.03881],[138.78063,36.03685],[138.79098,36.0294],[138.80219,36.0334],[138.81407,36.03368],[138.81568,36.03538],[138.82839,36.0373],[138.82911,36.04131]]]},"properties":{"pref":"群馬県","county":"多野郡","city":"上野村","code5":"10366","code6":"103667"}},
{"type":"Feature","geometry":{"type":"Polygon","coordinates":[[[138.81005,36.14146],[138.8031,36.13764],[138.79061,36.13631],[138.78271,36.13945],[138.77498,36.13865],[138.76799,36.14547],[138.76481,36.16041],[138.76556,36.15144],[138.76423,36.143],[138.77297,36.13678],[138.77144,36.13266],[138.77166,36.12524],[138.77986,36.12325],[138.77964,36.11634],[138.7812,36.1031],[138.78526,36.10069],[138.79036,36.10185],[138.79964,36.09776],[138.80026,36.09061],[138.80555,36.08312],[138.8119,36.07934],[138.81815,36.07862],[138.81777,36.07321],[138.81224,36.06455],[138.81425,36.06027],[138.82758,36.04179],[138.82911,36.04131],[138.83219,36.04773],[138.83727,36.04976],[138.84283,36.05582],[138.84604,36.06663],[138.86152,36.0714],[138.86433,36.07709],[138.88044,36.08332],[138.88671,36.08418],[138.89786,36.09065],[138.91631,36.09375],[138.93108,36.08812],[138.9381,36.09289],[138.9448,36.09449],[138.95044,36.09959],[138.95153,36.10307],[138.95655,36.1057],[138.95627,36.11192],[138.95962,36.12399],[138.95881,36.12925],[138.96329,36.13202],[138.95939,36.14478],[138.95294,36.14488],[138.9402,36.14932],[138.93142,36.14931],[138.92281,36.1522],[138.91582,36.15194],[138.90711,36.14856],[138.90471,36.14598],[138.89823,36.1469],[138.88847,36.14219],[138.87931,36.14287],[138.87544,36.14048],[138.87031,36.14808],[138.86474,36.15166],[138.85881,36.14715],[138.85017,36.14686],[138.83839,36.14274],[138.83038,36.14228],[138.82118,36.14459],[138.81005,36.14146]]]},"properties":{"pref":"群馬県","county":"多野郡","city":"神流町","code5":"10367","code6":"103675"}},
{"type":"Feature","geometry":{"type":"Polygon","coordinates":[[[138.82669,36.15797],[138.82805,36.16657],[138.8267,36.16935],[138.83033,36.17349],[138.83114,36.17844],[138.82867,36.18274],[138.83286,36.19271],[138.83242,36.20366],[138.82968,36.21226],[138.83318,36.22409],[138.83637,36.22443],[138.84049,36.23869],[138.82766,36.23635],[138.81831,36.23689],[138.81592,36.23253],[138.80816,36.23122],[138.7968,36.22653],[138.78949,36.22871],[138.78322,36.22701],[138.77429,36.24455],[138.77007,36.24617],[138.77061,36.25126],[138.75301,36.26783],[138.75191,36.27233],[138.75419,36.28292],[138.74001,36.28997],[138.73763,36.28762],[138.73138,36.28834],[138.71904,36.28458],[138.71273,36.28601],[138.70531,36.27987],[138.69495,36.28398],[138.69208,36.28639],[138.68315,36.28026],[138.67765,36.28572],[138.67106,36.28786],[138.66755,36.28353],[138.65723,36.2869],[138.65471,36.29235],[138.65571,36.29792],[138.65345,36.30304],[138.65122,36.2991],[138.64489,36.29454],[138.63744,36.29343],[138.63058,36.28846],[138.61251,36.28566],[138.60718,36.2796],[138.60034,36.2784],[138.60356,36.27495],[138.60595,36.26679],[138.60373,36.26283],[138.60475,36.25413],[138.60218,36.2495],[138.6125,36.24092],[138.61187,36.22939],[138.62224,36.21459],[138.63321,36.21609],[138.63671,36.20427],[138.64201,36.19872],[138.64927,36.19952],[138.65355,36.2022],[138.66087,36.20246],[138.66493,36.19861],[138.67143,36.1973],[138.67367,36.19977],[138.68132,36.19646],[138.68641,36.20181],[138.69034,36.2031],[138.68895,36.20919],[138.69517,36.21226],[138.69955,36.21118],[138.70762,36.21452],[138.71082,36.21193],[138.72204,36.20883],[138.72586,36.20485],[138.73657,36.20111],[138.73726,36.19196],[138.74911,36.19488],[138.75388,36.189],[138.75994,36.18689],[138.75967,36.17591],[138.76553,36.16937],[138.76481,36.16041],[138.76799,36.14547],[138.77498,36.13865],[138.78271,36.13945],[138.79061,36.13631],[138.8031,36.13764],[138.81005,36.14146],[138.81649,36.14968],[138.8211,36.15053],[138.82669,36.15797]]]},"properties":{"pref":"群馬県","county":"甘楽郡","city":"下仁田町","code5":"10382","code6":"103829"}},
{"type":"Feature","geometry":{"type":"Polygon","coordinates":[[[138.77144,36.13266],[138.77297,36.13678],[138.76423,36.143],[138.76556,36.15144],[138.76481,36.16041],[138.76553,36.16937],[138.75967,36.17591],[138.75994,36.18689],[138.75388,36.189],[138.74911,36.19488],[138.73726,36.19196],[138.73657,36.20111],[138.72586,36.20485],[138.72204,36.20883],[138.71082,36.21193],[138.70762,36.21452],[138.69955,36.21118],[138.69517,36.21226],[138.68895,36.20919],[138.69034,36.2031],[138.68641,36.20181],[138.68132,36.19646],[138.67367,36.19977],[138.67143,36.1973],[138.66493,36.19861],[138.66087,36.20246],[138.65355,36.2022],[138.64927,36.19952],[138.64201,36.19872],[138.63671,36.20427],[138.6348,36.2056],[138.62708,36.20113],[138.6228,36.19693],[138.62727,36.19142],[138.62942,36.18347],[138.6371,36.17488],[138.6359,36.17093],[138.62776,36.17122],[138.61279,36.16856],[138.60484,36.1642],[138.59457,36.16561],[138.58903,36.17054],[138.58963,36.17679],[138.58058,36.17574],[138.57727,36.16807],[138.58394,36.16035],[138.58708,36.161],[138.5933,36.15307],[138.59572,36.14125],[138.60066,36.13563],[138.60626,36.13626],[138.61222,36.13342],[138.62017,36.13403],[138.62216,36.13196],[138.63409,36.13397],[138.63651,36.13111],[138.63734,36.12434],[138.6451,36.11963],[138.65765,36.11655],[138.66621,36.11718],[138.68121,36.12406],[138.68745,36.12797],[138.69379,36.12486],[138.69928,36.12599],[138.70646,36.12218],[138.71171,36.12498],[138.72888,36.12597],[138.73787,36.12376],[138.74208,36.11885],[138.74947,36.12214],[138.75707,36.12911],[138.76489,36.12889],[138.77144,36.13266]]]},"properties":{"pref":"群馬県","county":"甘楽郡","city":"南牧村","code5":"10383","code6":"103837"}},
{"type":"Feature","geometry":{"type":"Polygon","coordinates":[[[138.94414,36.26795],[138.93364,36.26529],[138.93099,36.26085],[138.92197,36.26003],[138.9194,36.24751],[138.91561,36.24328],[138.90512,36.23829],[138.90068,36.22634],[138.88726,36.22618],[138.87836,36.22053],[138.8804,36.21387],[138.87592,36.20269],[138.86673,36.20456],[138.85855,36.20318],[138.8578,36.19803],[138.85064,36.19538],[138.84854,36.18758],[138.84225,36.18397],[138.83848,36.17973],[138.83114,36.17844],[138.83033,36.17349],[138.8267,36.16935],[138.82805,36.16657],[138.82669,36.15797],[138.84477,36.16028],[138.8473,36.16288],[138.85873,36.16615],[138.86115,36.16849],[138.87018,36.17014],[138.87851,36.16808],[138.88446,36.16838],[138.89066,36.17446],[138.90234,36.18099],[138.90437,36.18684],[138.9133,36.19332],[138.918,36.1931],[138.92925,36.19745],[138.94292,36.19926],[138.9468,36.20999],[138.95302,36.21829],[138.96304,36.22122],[138.96209,36.22649],[138.95827,36.22909],[138.95924,36.23589],[138.95612,36.23832],[138.95354,36.25132],[138.95716,36.25248],[138.95431,36.25933],[138.94414,36.26795]]]},"properties":{"pref":"群馬県","county":"甘楽郡","city":"甘楽町","code5":"10384","code6":"103845"}},
{"type":"Feature","geometry":{"type":"Polygon","coordinates":[[[138.9207,36.58623],[138.91449,36.59335],[138.90989,36.6011],[138.90135,36.60845],[138.89288,36.61222],[138.89157,36.61798],[138.89371,36.62027],[138.89036,36.62816],[138.88803,36.64004],[138.88975,36.64488],[138.88835,36.65035],[138.8932,36.65714],[138.8842,36.66103],[138.87631,36.66189],[138.87066,36.66802],[138.86037,36.66482],[138.85009,36.66583],[138.83858,36.66303],[138.82672,36.66421],[138.82048,36.66661],[138.82295,36.66959],[138.82057,36.68143],[138.82417,36.69623],[138.82475,36.70236],[138.82078,36.70773],[138.81673,36.70863],[138.81317,36.71442],[138.80294,36.71877],[138.80042,36.72872],[138.79577,36.73753],[138.79086,36.74049],[138.78942,36.74487],[138.77796,36.7477],[138.77034,36.74616],[138.76128,36.74906],[138.75333,36.75498],[138.74601,36.75859],[138.74058,36.75935],[138.73491,36.76281],[138.72703,36.76417],[138.72139,36.75924],[138.72187,36.74969],[138.71578,36.74575],[138.71307,36.73922],[138.70528,36.73658],[138.69593,36.73851],[138.68216,36.735],[138.6753,36.73094],[138.64893,36.72712],[138.64208,36.72378],[138.63009,36.71954],[138.62177,36.72021],[138.61729,36.71166],[138.61114,36.70658],[138.60593,36.70759],[138.60268,36.71224],[138.59434,36.7138],[138.58327,36.70131],[138.5749,36.70712],[138.57132,36.70555],[138.56042,36.70694],[138.553,36.70457],[138.54364,36.70383],[138.53744,36.69887],[138.53083,36.69766],[138.52002,36.69232],[138.51792,36.677],[138.52725,36.6688],[138.53434,36.66627],[138.52944,36.65529],[138.52511,36.65126],[138.53476,36.65595],[138.55331,36.6548],[138.55995,36.65264],[138.57055,36.64202],[138.57575,36.64023],[138.5836,36.64221],[138.60103,36.64368],[138.61309,36.63912],[138.61613,36.6347],[138.6246,36.62884],[138.62999,36.61851],[138.63042,36.61406],[138.61846,36.60319],[138.61624,36.60646],[138.60804,36.59906],[138.59487,36.59905],[138.59297,36.5945],[138.59406,36.58753],[138.59678,36.5825],[138.60416,36.57673],[138.61608,36.57259],[138.61789,36.56524],[138.63574,36.55929],[138.6413,36.56376],[138.64661,36.56449],[138.64961,36.57029],[138.66875,36.57039],[138.67428,36.56857],[138.68155,36.575],[138.68445,36.57867],[138.68155,36.58605],[138.6741,36.59352],[138.67826,36.59786],[138.68152,36.59294],[138.68961,36.59151],[138.69717,36.59506],[138.7088,36.59147],[138.71704,36.59009],[138.72534,36.59251],[138.7308,36.5979],[138.7378,36.59858],[138.7387,36.5956],[138.74569,36.59512],[138.75047,36.59029],[138.7567,36.58969],[138.76131,36.5846],[138.78132,36.57556],[138.79406,36.58192],[138.80527,36.57928],[138.80732,36.58618],[138.8142,36.58392],[138.82121,36.5872],[138.82613,36.58289],[138.84317,36.5826],[138.85489,36.57909],[138.8634,36.5811],[138.86815,36.57897],[138.87056,36.57493],[138.87757,36.5723],[138.88283,36.56637],[138.88749,36.56634],[138.89646,36.56196],[138.90266,36.56346],[138.90146,36.56968],[138.90425,36.57311],[138.89666,36.57795],[138.898,36.58342],[138.9049,36.58677],[138.91053,36.58413],[138.91742,36.58388],[138.9207,36.58623]]]},"properties":{"pref":"群馬県","county":"吾妻郡","city":"中之条町","code5":"10421","code6":"104213"}},
{"type":"Feature","geometry":{"type":"Polygon","coordinates":[[[138.6552,36.45171],[138.64811,36.45938],[138.6474,36.46626],[138.63969,36.47101],[138.64463,36.48399],[138.64083,36.48766],[138.64121,36.50259],[138.63984,36.50444],[138.64572,36.51323],[138.64471,36.51564],[138.65057,36.52112],[138.65659,36.51779],[138.66437,36.52367],[138.67386,36.52242],[138.68142,36.51991],[138.69724,36.53145],[138.70036,36.53488],[138.7076,36.53354],[138.71354,36.53441],[138.71477,36.53824],[138.72225,36.54356],[138.72046,36.55396],[138.71733,36.55729],[138.71421,36.56672],[138.70658,36.56924],[138.69028,36.56874],[138.68702,36.57316],[138.68155,36.575],[138.67428,36.56857],[138.66875,36.57039],[138.64961,36.57029],[138.64661,36.56449],[138.6413,36.56376],[138.63574,36.55929],[138.61789,36.56524],[138.61608,36.57259],[138.60416,36.57673],[138.59678,36.5825],[138.58458,36.5787],[138.58197,36.56976],[138.58419,36.56751],[138.59657,36.54978],[138.59185,36.54421],[138.59603,36.52809],[138.58725,36.5236],[138.58323,36.52305],[138.57665,36.53243],[138.571,36.53661],[138.56301,36.53092],[138.5651,36.52296],[138.5651,36.5092],[138.57365,36.49651],[138.57482,36.48889],[138.56934,36.47762],[138.56924,36.46737],[138.57099,36.46329],[138.56978,36.45497],[138.58078,36.45604],[138.58072,36.45122],[138.57623,36.43874],[138.57292,36.43338],[138.57094,36.41956],[138.57313,36.4192],[138.5902,36.42389],[138.60787,36.42319],[138.61833,36.42067],[138.62124,36.41647],[138.62663,36.4155],[138.63232,36.41785],[138.63715,36.41722],[138.64442,36.41144],[138.64714,36.42469],[138.64329,36.43726],[138.64681,36.44366],[138.6552,36.45171]]]},"properties":{"pref":"群馬県","county":"吾妻郡","city":"長野原町","code5":"10424","code6":"104248"}},
{"type":"Feature","geometry":{"type":"Polygon","coordinates":[[[138.58419,36.56751],[138.58094,36.56818],[138.57657,36.57422],[138.56534,36.57882],[138.56139,36.58306],[138.55931,36.59257],[138.54104,36.59984],[138.54247,36.6028],[138.53881,36.60996],[138.53288,36.61595],[138.52789,36.61849],[138.53453,36.622],[138.53925,36.62992],[138.53574,36.63736],[138.52711,36.64063],[138.52511,36.65126],[138.5081,36.64827],[138.50162,36.64444],[138.49008,36.6412],[138.4811,36.64525],[138.4731,36.64405],[138.46609,36.63682],[138.45906,36.63484],[138.45841,36.62891],[138.46058,36.62647],[138.45622,36.619],[138.45497,36.61385],[138.45034,36.61068],[138.44158,36.61067],[138.43894,36.60558],[138.44142,36.6],[138.43517,36.60023],[138.42884,36.59789],[138.42632,36.59352],[138.42712,36.58826],[138.42416,36.58151],[138.42029,36.57724],[138.42843,36.5687],[138.42883,36.56408],[138.42616,36.56039],[138.42884,36.55623],[138.42611,36.5515],[138.41772,36.54319],[138.41239,36.54149],[138.41398,36.53261],[138.41171,36.52727],[138.40425,36.52207],[138.4028,36.51606],[138.40603,36.50736],[138.40195,36.50172],[138.39713,36.49058],[138.39729,36.48406],[138.40076,36.48145],[138.39956,36.47333],[138.40335,36.46687],[138.40007,36.4614],[138.40313,36.45232],[138.40129,36.44706],[138.40097,36.43474],[138.41528,36.4316],[138.42057,36.42856],[138.4416,36.42259],[138.44719,36.41926],[138.45163,36.42117],[138.45696,36.42024],[138.45772,36.41157],[138.46117,36.40774],[138.45965,36.40475],[138.47787,36.40445],[138.48896,36.40093],[138.48882,36.40892],[138.49206,36.41326],[138.50679,36.41393],[138.51988,36.40674],[138.52935,36.40304],[138.54061,36.40285],[138.5459,36.40741],[138.54963,36.41334],[138.55501,36.41777],[138.56451,36.42022],[138.57094,36.41956],[138.57292,36.43338],[138.57623,36.43874],[138.58072,36.45122],[138.58078,36.45604],[138.56978,36.45497],[138.57099,36.46329],[138.56924,36.46737],[138.56934,36.47762],[138.57482,36.48889],[138.57365,36.49651],[138.5651,36.5092],[138.5651,36.52296],[138.56301,36.53092],[138.571,36.53661],[138.57665,36.53243],[138.58323,36.52305],[138.58725,36.5236],[138.59603,36.52809],[138.59185,36.54421],[138.59657,36.54978],[138.58419,36.56751]]]},"properties":{"pref":"群馬県","county":"吾妻郡","city":"嬬恋村","code5":"10425","code6":"104256"}},
{"type":"Feature","geometry":{"type":"Polygon","coordinates":[[[138.52511,36.65126],[138.52711,36.64063],[138.53574,36.63736],[138.53925,36.62992],[138.53453,36.622],[138.52789,36.61849],[138.53288,36.61595],[138.53881,36.60996],[138.54247,36.6028],[138.54104,36.59984],[138.55931,36.59257],[138.56139,36.58306],[138.56534,36.57882],[138.57657,36.57422],[138.58094,36.56818],[138.58419,36.56751],[138.58197,36.56976],[138.58458,36.5787],[138.59678,36.5825],[138.59406,36.58753],[138.59297,36.5945],[138.59487,36.59905],[138.60804,36.59906],[138.61624,36.60646],[138.61846,36.60319],[138.63042,36.61406],[138.62999,36.61851],[138.6246,36.62884],[138.61613,36.6347],[138.61309,36.63912],[138.60103,36.64368],[138.5836,36.64221],[138.57575,36.64023],[138.57055,36.64202],[138.55995,36.65264],[138.55331,36.6548],[138.53476,36.65595],[138.52511,36.65126]]]},"properties":{"pref":"群馬県","county":"吾妻郡","city":"草津町","code5":"10426","code6":"104264"}},
{"type":"Feature","geometry":{"type":"Polygon","coordinates":[[[138.98528,36.64473],[138.97009,36.64714],[138.96653,36.65408],[138.95655,36.65386],[138.93111,36.66225],[138.92361,36.65654],[138.91019,36.66022],[138.89773,36.65638],[138.8932,36.65714],[138.88835,36.65035],[138.88975,36.64488],[138.88803,36.64004],[138.89036,36.62816],[138.89371,36.62027],[138.89157,36.61798],[138.89288,36.61222],[138.90135,36.60845],[138.90989,36.6011],[138.91449,36.59335],[138.9207,36.58623],[138.92743,36.58757],[138.94023,36.58474],[138.94744,36.58573],[138.95896,36.58148],[138.97032,36.58079],[138.98026,36.58423],[138.99524,36.59156],[138.9889,36.5976],[138.99082,36.60176],[138.98976,36.61429],[138.98649,36.62543],[138.99,36.62893],[138.99112,36.63679],[138.98694,36.63809],[138.98528,36.64473]]]},"properties":{"pref":"群馬県","county":"吾妻郡","city":"高山村","code5":"10428","code6":"104281"}},
{"type":"Feature","geometry":{"type":"Polygon","coordinates":[[[138.87745,36.48299],[138.88093,36.48308],[138.8854,36.49353],[138.89189,36.50179],[138.90417,36.50872],[138.90928,36.50877],[138.9174,36.51297],[138.92245,36.51337],[138.92968,36.52045],[138.9298,36.52289],[138.94111,36.53049],[138.94424,36.53715],[138.94531,36.54477],[138.94431,36.55028],[138.93631,36.54667],[138.92971,36.55069],[138.92165,36.55168],[138.91621,36.54963],[138.91135,36.55095],[138.90961,36.55576],[138.90046,36.55561],[138.89646,36.56196],[138.88749,36.56634],[138.88283,36.56637],[138.87757,36.5723],[138.87056,36.57493],[138.86815,36.57897],[138.8634,36.5811],[138.85489,36.57909],[138.84317,36.5826],[138.82613,36.58289],[138.82121,36.5872],[138.8142,36.58392],[138.80732,36.58618],[138.80527,36.57928],[138.79406,36.58192],[138.78132,36.57556],[138.76131,36.5846],[138.7567,36.58969],[138.75047,36.59029],[138.74569,36.59512],[138.7387,36.5956],[138.7378,36.59858],[138.7308,36.5979],[138.72534,36.59251],[138.71704,36.59009],[138.7088,36.59147],[138.69717,36.59506],[138.68961,36.59151],[138.68152,36.59294],[138.67826,36.59786],[138.6741,36.59352],[138.68155,36.58605],[138.68445,36.57867],[138.68155,36.575],[138.68702,36.57316],[138.69028,36.56874],[138.70658,36.56924],[138.71421,36.56672],[138.71733,36.55729],[138.72046,36.55396],[138.72225,36.54356],[138.71477,36.53824],[138.71354,36.53441],[138.7076,36.53354],[138.70036,36.53488],[138.69724,36.53145],[138.68142,36.51991],[138.67386,36.52242],[138.66437,36.52367],[138.65659,36.51779],[138.65057,36.52112],[138.64471,36.51564],[138.64572,36.51323],[138.63984,36.50444],[138.64121,36.50259],[138.64083,36.48766],[138.64463,36.48399],[138.63969,36.47101],[138.6474,36.46626],[138.64811,36.45938],[138.6552,36.45171],[138.66158,36.45353],[138.6703,36.46258],[138.67817,36.4638],[138.68419,36.46814],[138.68716,36.47349],[138.69767,36.47304],[138.70668,36.47848],[138.72323,36.48223],[138.73072,36.47761],[138.73782,36.47777],[138.74845,36.47583],[138.75451,36.47607],[138.7626,36.47905],[138.77595,36.47776],[138.77487,36.46838],[138.78079,36.46864],[138.78002,36.47342],[138.79177,36.47678],[138.80239,36.47691],[138.80791,36.47439],[138.82177,36.47505],[138.82633,36.47309],[138.84774,36.47508],[138.85075,36.47718],[138.86005,36.47346],[138.86579,36.48133],[138.87745,36.48299]]]},"properties":{"pref":"群馬県","county":"吾妻郡","city":"東吾妻町","code5":"10429","code6":"104299"}},
{"type":"Feature","geometry":{"type":"Polygon","coordinates":[[[139.2319,36.94053],[139.23779,36.94635],[139.22871,36.9612],[139.21866,36.96071],[139.21454,36.95782],[139.20545,36.95594],[139.19843,36.95767],[139.19352,36.96105],[139.18649,36.95992],[139.18031,36.96452],[139.17646,36.95997],[139.16957,36.95662],[139.16702,36.95157],[139.16831,36.94265],[139.16618,36.93655],[139.16726,36.93271],[139.1717,36.93048],[139.17565,36.91881],[139.17594,36.91336],[139.17235,36.90735],[139.17152,36.89661],[139.17227,36.88806],[139.16471,36.88501],[139.15613,36.87465],[139.15337,36.87311],[139.15547,36.86396],[139.15811,36.86236],[139.16561,36.86541],[139.17765,36.86111],[139.1841,36.86045],[139.19543,36.85605],[139.1937,36.85037],[139.19617,36.84328],[139.19566,36.83817],[139.18938,36.83528],[139.18299,36.83726],[139.1761,36.83672],[139.17535,36.83359],[139.15887,36.82424],[139.15908,36.81497],[139.14995,36.80719],[139.1391,36.80364],[139.14283,36.79864],[139.14627,36.78997],[139.15307,36.78685],[139.16027,36.7768],[139.15817,36.76668],[139.15865,36.75774],[139.15278,36.75368],[139.15276,36.74473],[139.15842,36.74007],[139.16516,36.74415],[139.17315,36.74316],[139.18319,36.73459],[139.19487,36.73358],[139.19304,36.72288],[139.19691,36.71773],[139.20215,36.71744],[139.20717,36.70964],[139.21038,36.719],[139.21394,36.72476],[139.22011,36.7272],[139.22482,36.73513],[139.23222,36.74286],[139.23933,36.74144],[139.25292,36.746],[139.25735,36.74349],[139.26494,36.74474],[139.27052,36.74109],[139.27721,36.74376],[139.27883,36.74652],[139.28741,36.75096],[139.28851,36.7538],[139.29975,36.7597],[139.31414,36.76514],[139.32089,36.76537],[139.33255,36.7698],[139.33241,36.7734],[139.34801,36.77642],[139.35306,36.77361],[139.35991,36.77516],[139.36228,36.78073],[139.36755,36.78379],[139.37433,36.78429],[139.37804,36.79207],[139.37568,36.80041],[139.37793,36.80445],[139.38861,36.80527],[139.3937,36.80968],[139.39107,36.81443],[139.39441,36.81838],[139.40125,36.82152],[139.4067,36.82694],[139.40451,36.83144],[139.39734,36.83469],[139.39092,36.83266],[139.38667,36.83552],[139.36646,36.84205],[139.36382,36.84732],[139.35262,36.84907],[139.34871,36.85256],[139.35563,36.85844],[139.35821,36.87221],[139.36241,36.87751],[139.36787,36.87718],[139.37189,36.88282],[139.37063,36.8896],[139.37942,36.89799],[139.3939,36.90328],[139.39329,36.9108],[139.3833,36.9114],[139.38143,36.91404],[139.37313,36.91839],[139.36475,36.91832],[139.3612,36.91638],[139.35278,36.91577],[139.34472,36.92351],[139.34239,36.92753],[139.33429,36.92475],[139.32751,36.92459],[139.30902,36.92696],[139.30507,36.92581],[139.29482,36.93446],[139.28623,36.93423],[139.28171,36.93115],[139.27512,36.93363],[139.26821,36.93859],[139.26143,36.93791],[139.25466,36.93234],[139.24056,36.92948],[139.23887,36.93324],[139.23275,36.93738],[139.2319,36.94053]]]},"properties":{"pref":"群馬県","county":"利根郡","city":"片品村","code5":"10443","code6":"104434"}},
{"type":"Feature","geometry":{"type":"Polygon","coordinates":[[[139.19691,36.71773],[139.19304,36.72288],[139.19487,36.73358],[139.18319,36.73459],[139.17315,36.74316],[139.16516,36.74415],[139.15842,36.74007],[139.15276,36.74473],[139.15278,36.75368],[139.15865,36.75774],[139.15817,36.76668],[139.16027,36.7768],[139.15307,36.78685],[139.14627,36.78997],[139.14283,36.79864],[139.1391,36.80364],[139.13326,36.80525],[139.12925,36.80283],[139.12553,36.79675],[139.12114,36.79432],[139.11734,36.78752],[139.11642,36.77912],[139.10663,36.77268],[139.10098,36.76531],[139.09271,36.75862],[139.08435,36.73978],[139.08503,36.73341],[139.08292,36.72899],[139.08543,36.71952],[139.08386,36.7043],[139.07986,36.70135],[139.08401,36.6858],[139.08079,36.67307],[139.07656,36.66733],[139.07828,36.66326],[139.08427,36.66877],[139.09482,36.67391],[139.09741,36.67103],[139.10419,36.67131],[139.10853,36.675],[139.11016,36.68768],[139.11889,36.68644],[139.12885,36.68972],[139.13816,36.68936],[139.14423,36.68685],[139.15033,36.68876],[139.15699,36.69508],[139.1628,36.69797],[139.16871,36.69697],[139.17516,36.69969],[139.17585,36.70643],[139.18368,36.71236],[139.18776,36.71221],[139.19691,36.71773]]]},"properties":{"pref":"群馬県","county":"利根郡","city":"川場村","code5":"10444","code6":"104442"}},
{"type":"Feature","geometry":{"type":"Polygon","coordinates":[[[139.05799,36.58647],[139.06386,36.58702],[139.07013,36.57979],[139.075,36.57954],[139.07645,36.58421],[139.08546,36.58308],[139.09543,36.57898],[139.1082,36.58051],[139.12253,36.57575],[139.13257,36.57844],[139.1436,36.57612],[139.14798,36.57741],[139.1578,36.57545],[139.16172,36.56957],[139.16291,36.5784],[139.15893,36.58645],[139.14953,36.59691],[139.14292,36.61393],[139.14295,36.62192],[139.13172,36.63038],[139.12457,36.6457],[139.12839,36.64714],[139.12721,36.65305],[139.12382,36.65357],[139.11699,36.65898],[139.1086,36.65683],[139.0942,36.65756],[139.08709,36.65491],[139.08016,36.64988],[139.0729,36.64802],[139.06565,36.64136],[139.06192,36.63033],[139.05257,36.62367],[139.04665,36.62179],[139.04252,36.61484],[139.04292,36.60991],[139.04985,36.60096],[139.05083,36.59169],[139.05799,36.58647]]]},"properties":{"pref":"群馬県","county":"利根郡","city":"昭和村","code5":"10448","code6":"104485"}},
{"type":"Feature","geometry":{"type":"Polygon","coordinates":[[[139.12114,36.79432],[139.12553,36.79675],[139.12925,36.80283],[139.13326,36.80525],[139.1391,36.80364],[139.14995,36.80719],[139.15908,36.81497],[139.15887,36.82424],[139.17535,36.83359],[139.1761,36.83672],[139.18299,36.83726],[139.18938,36.83528],[139.19566,36.83817],[139.19617,36.84328],[139.1937,36.85037],[139.19543,36.85605],[139.1841,36.86045],[139.17765,36.86111],[139.16561,36.86541],[139.15811,36.86236],[139.15547,36.86396],[139.15337,36.87311],[139.15613,36.87465],[139.16471,36.88501],[139.17227,36.88806],[139.17152,36.89661],[139.17235,36.90735],[139.17594,36.91336],[139.17565,36.91881],[139.1717,36.93048],[139.16726,36.93271],[139.16618,36.93655],[139.16831,36.94265],[139.16702,36.95157],[139.16957,36.95662],[139.17646,36.95997],[139.18031,36.96452],[139.17523,36.9736],[139.17719,36.98536],[139.17945,36.99076],[139.17408,36.99576],[139.171,37.00198],[139.16207,37.00409],[139.14958,37.01022],[139.14533,37.01894],[139.1394,37.02319],[139.13191,37.02573],[139.12905,37.03401],[139.12446,37.04096],[139.12295,37.04714],[139.11539,37.04752],[139.11131,37.05521],[139.09702,37.05863],[139.09041,37.04492],[139.09149,37.03986],[139.08884,37.02893],[139.09119,37.01997],[139.0805,37.00864],[139.07354,37.00853],[139.06556,37.00491],[139.06243,37.00152],[139.05463,36.99851],[139.05012,36.99487],[139.04773,36.98767],[139.03033,36.9837],[139.0155,36.98829],[139.00065,36.97921],[138.98358,36.97986],[138.96985,36.98141],[138.96648,36.97884],[138.96775,36.97341],[138.96576,36.96787],[138.9661,36.95761],[138.9638,36.95277],[138.9657,36.9433],[138.9668,36.93079],[138.97669,36.92079],[138.9744,36.91315],[138.97973,36.90446],[138.97917,36.89118],[138.97155,36.88727],[138.96705,36.89105],[138.95372,36.8952],[138.94966,36.89306],[138.9404,36.89512],[138.93244,36.89355],[138.93053,36.88697],[138.92301,36.88338],[138.92202,36.87876],[138.91717,36.87037],[138.92149,36.86561],[138.92211,36.86104],[138.91794,36.85684],[138.91705,36.84894],[138.92405,36.84723],[138.9298,36.8375],[138.92907,36.83264],[138.9026,36.82712],[138.8849,36.82619],[138.87953,36.82498],[138.87558,36.81859],[138.86458,36.8163],[138.85731,36.81209],[138.85095,36.81203],[138.83957,36.81718],[138.83637,36.81544],[138.82954,36.81779],[138.82174,36.81763],[138.82159,36.81309],[138.82615,36.80537],[138.8291,36.79537],[138.8297,36.78589],[138.82505,36.77577],[138.82692,36.77229],[138.82111,36.76386],[138.81777,36.76159],[138.81036,36.76509],[138.80629,36.76453],[138.79534,36.75814],[138.79271,36.74794],[138.78942,36.74487],[138.79086,36.74049],[138.79577,36.73753],[138.80042,36.72872],[138.80294,36.71877],[138.81317,36.71442],[138.81673,36.70863],[138.82078,36.70773],[138.82475,36.70236],[138.82417,36.69623],[138.82057,36.68143],[138.82295,36.66959],[138.82048,36.66661],[138.82672,36.66421],[138.83858,36.66303],[138.85009,36.66583],[138.86037,36.66482],[138.87066,36.66802],[138.87631,36.66189],[138.8842,36.66103],[138.8932,36.65714],[138.89773,36.65638],[138.91019,36.66022],[138.92361,36.65654],[138.93111,36.66225],[138.95655,36.65386],[138.96653,36.65408],[138.97009,36.64714],[138.98528,36.64473],[138.99104,36.65244],[138.99872,36.65116],[139.00989,36.65795],[139.01952,36.66745],[139.02355,36.67937],[139.03028,36.68349],[139.02641,36.68846],[139.02872,36.69265],[139.02705,36.69921],[139.02366,36.70453],[139.0265,36.70998],[139.02347,36.71232],[139.01851,36.72196],[139.0263,36.73135],[139.02396,36.7346],[139.03201,36.73908],[139.03319,36.74164],[139.02528,36.74663],[139.02534,36.74994],[139.02962,36.75648],[139.02424,36.7652],[139.02466,36.7704],[139.03037,36.77049],[139.03744,36.7733],[139.03587,36.77879],[139.03821,36.78182],[139.04517,36.78277],[139.04704,36.78813],[139.05926,36.79333],[139.06503,36.79298],[139.07082,36.78971],[139.07452,36.79315],[139.08053,36.79022],[139.08776,36.79364],[139.09481,36.79305],[139.10809,36.79679],[139.11467,36.7967],[139.12114,36.79432]]]},"properties":{"pref":"群馬県","county":"利根郡","city":"みなかみ町","code5":"10449","code6":"104493"}},
{"type":"Feature","geometry":{"type":"Polygon","coordinates":[[[139.09299,36.32431],[139.08906,36.32057],[139.08766,36.31227],[139.09659,36.30216],[139.10074,36.29925],[139.09671,36.29499],[139.09667,36.28843],[139.10189,36.28728],[139.10471,36.2837],[139.11074,36.28207],[139.12966,36.2834],[139.13612,36.27842],[139.15902,36.27782],[139.1639,36.27891],[139.16947,36.27475],[139.17137,36.27372],[139.17174,36.27742],[139.16145,36.28802],[139.15502,36.30181],[139.14259,36.31049],[139.13886,36.31798],[139.13869,36.32644],[139.13618,36.33434],[139.11999,36.33423],[139.12645,36.32737],[139.10875,36.32709],[139.10657,36.31624],[139.0947,36.32106],[139.09299,36.32431]]]},"properties":{"pref":"群馬県","county":"佐波郡","city":"玉村町","code5":"10464","code6":"104647"}},
{"type":"Feature","geometry":{"type":"Polygon","coordinates":[[[139.61695,36.27404],[139.6086,36.2681],[139.58975,36.26862],[139.59187,36.26627],[139.60102,36.26474],[139.60106,36.26233],[139.61349,36.25939],[139.62562,36.25273],[139.62191,36.24946],[139.61513,36.25178],[139.60167,36.24978],[139.59827,36.25546],[139.59109,36.24814],[139.58137,36.24272],[139.57594,36.24247],[139.57422,36.23874],[139.57969,36.23293],[139.58097,36.21848],[139.58899,36.21793],[139.58793,36.21034],[139.59436,36.20889],[139.60379,36.20342],[139.60988,36.19681],[139.61862,36.1898],[139.62504,36.18701],[139.62641,36.19325],[139.63725,36.19721],[139.64881,36.19613],[139.6515,36.19837],[139.6494,36.21119],[139.65997,36.2149],[139.66354,36.21235],[139.66443,36.20706],[139.66957,36.21513],[139.66488,36.22347],[139.6612,36.22412],[139.65894,36.23141],[139.65057,36.23914],[139.64239,36.24135],[139.6356,36.2508],[139.63072,36.25484],[139.63653,36.26188],[139.63391,36.27023],[139.61695,36.27404]]]},"properties":{"pref":"群馬県","county":"邑楽郡","city":"板倉町","code5":"10521","code6":"105210"}},
{"type":"Feature","geometry":{"type":"Polygon","coordinates":[[[139.479,36.21177],[139.48391,36.20972],[139.486,36.20519],[139.49119,36.2034],[139.49347,36.19217],[139.49552,36.19258],[139.50155,36.19351],[139.52117,36.19122],[139.53522,36.19294],[139.55474,36.20083],[139.57347,36.20422],[139.583,36.20924],[139.58793,36.21034],[139.58899,36.21793],[139.58097,36.21848],[139.57624,36.22149],[139.57152,36.2213],[139.5633,36.217],[139.5585,36.218],[139.54507,36.21801],[139.53778,36.2215],[139.53247,36.21704],[139.52261,36.21648],[139.51154,36.21762],[139.50711,36.21634],[139.50116,36.21047],[139.48759,36.21211],[139.479,36.21177]]]},"properties":{"pref":"群馬県","county":"邑楽郡","city":"明和町","code5":"10522","code6":"105228"}},
{"type":"Feature","geometry":{"type":"Polygon","coordinates":[[[139.46304,36.22459],[139.46338,36.22765],[139.44904,36.229],[139.44151,36.23095],[139.44091,36.23491],[139.43292,36.23876],[139.42775,36.24544],[139.42238,36.2383],[139.4199,36.23868],[139.40934,36.23407],[139.41623,36.22913],[139.41833,36.22537],[139.41687,36.21796],[139.41936,36.21129],[139.42926,36.20831],[139.4442,36.19679],[139.45435,36.19141],[139.46239,36.18951],[139.47443,36.18946],[139.49347,36.19217],[139.49119,36.2034],[139.486,36.20519],[139.48391,36.20972],[139.479,36.21177],[139.4605,36.21486],[139.46029,36.2197],[139.46304,36.22459]]]},"properties":{"pref":"群馬県","county":"邑楽郡","city":"千代田町","code5":"10523","code6":"105236"}},
{"type":"Feature","geometry":{"type":"Polygon","coordinates":[[[139.38292,36.23787],[139.39343,36.22762],[139.40769,36.22265],[139.41687,36.21796],[139.41833,36.22537],[139.41623,36.22913],[139.40934,36.23407],[139.4199,36.23868],[139.42238,36.2383],[139.42775,36.24544],[139.42662,36.24655],[139.43353,36.26095],[139.43489,36.26767],[139.42628,36.26994],[139.4139,36.27089],[139.40596,36.27645],[139.39866,36.26955],[139.40253,36.26454],[139.3893,36.26667],[139.38244,36.25254],[139.3842,36.24603],[139.38292,36.23787]]]},"properties":{"pref":"群馬県","county":"邑楽郡","city":"大泉町","code5":"10524","code6":"105244"}},
{"type":"Feature","geometry":{"type":"Polygon","coordinates":[[[139.44365,36.28836],[139.43327,36.28699],[139.42972,36.27925],[139.4343,36.27322],[139.43489,36.26767],[139.43353,36.26095],[139.42662,36.24655],[139.42775,36.24544],[139.43292,36.23876],[139.44091,36.23491],[139.44151,36.23095],[139.44904,36.229],[139.46338,36.22765],[139.46304,36.22459],[139.47314,36.22459],[139.47642,36.21925],[139.48045,36.22599],[139.48755,36.22541],[139.49604,36.2289],[139.49162,36.23903],[139.47901,36.24168],[139.48338,36.24951],[139.4893,36.2528],[139.48861,36.25986],[139.49368,36.26163],[139.50012,36.27609],[139.49286,36.27379],[139.48558,36.27522],[139.48255,36.27203],[139.46388,36.27152],[139.45878,36.2771],[139.46746,36.28049],[139.45707,36.28919],[139.44365,36.28836]]]},"properties":{"pref":"群馬県","county":"邑楽郡","city":"邑楽町","code5":"10525","code6":"105252"}}
]}