{"type":"FeatureCollection", "features": [
{"type":"Feature","geometry":{"type":"Polygon","coordinates":[[[139.54776,35.9342],[139.54354,35.93777],[139.54599,35.94283],[139.53659,35.94813],[139.52131,35.94999],[139.50282,35.95552],[139.49122,35.9548],[139.47947,35.95638],[139.47498,35.96067],[139.4677,35.96007],[139.46266,35.95806],[139.4597,35.9539],[139.45068,35.94834],[139.43475,35.94512],[139.43315,35.95181],[139.44211,35.9539],[139.44362,35.95851],[139.43115,35.95889],[139.42146,35.95577],[139.42099,35.95273],[139.42599,35.94842],[139.42882,35.94024],[139.42311,35.93712],[139.41622,35.93026],[139.42048,35.92467],[139.41193,35.924],[139.40243,35.91914],[139.38919,35.91423],[139.37948,35.91993],[139.38325,35.91585],[139.38444,35.90852],[139.39259,35.90825],[139.39441,35.90138],[139.40155,35.89567],[139.41171,35.90091],[139.41883,35.89492],[139.42788,35.89143],[139.43296,35.88399],[139.43771,35.88237],[139.4413,35.88489],[139.44734,35.87934],[139.45756,35.8871],[139.46077,35.8863],[139.45398,35.87616],[139.462,35.87786],[139.46228,35.87275],[139.46579,35.86708],[139.45878,35.85904],[139.47605,35.83993],[139.4779,35.83758],[139.4871,35.84203],[139.48501,35.84955],[139.49217,35.85272],[139.48918,35.8553],[139.4771,35.85103],[139.47463,35.85518],[139.48897,35.85993],[139.49558,35.86439],[139.51096,35.87978],[139.51527,35.88172],[139.51442,35.88807],[139.52419,35.89225],[139.52331,35.88677],[139.52806,35.88123],[139.54189,35.87806],[139.54711,35.88109],[139.54414,35.88564],[139.54947,35.88723],[139.55804,35.88855],[139.55714,35.89164],[139.55103,35.896],[139.55491,35.90368],[139.54854,35.91264],[139.55028,35.91762],[139.54619,35.92191],[139.54639,35.92591],[139.55074,35.92864],[139.54776,35.9342]]]},"properties":{"pref":"埼玉県","city":"川越市","code5":"11201","code6":"112011"}},
{"type":"Feature","geometry":{"type":"Polygon","coordinates":[[[139.32788,36.23988],[139.3355,36.23274],[139.33357,36.22515],[139.33645,36.21763],[139.33606,36.21197],[139.333,36.20987],[139.33357,36.20101],[139.32966,36.19604],[139.32952,36.18894],[139.33219,36.18532],[139.32388,36.18106],[139.32608,36.1765],[139.31786,36.17421],[139.31251,36.17788],[139.30282,36.17517],[139.30644,36.17184],[139.29607,36.16683],[139.29328,36.16175],[139.29639,36.1549],[139.29992,36.15607],[139.30524,36.15171],[139.30879,36.15272],[139.31481,36.14655],[139.30855,36.14189],[139.31212,36.13837],[139.31236,36.12782],[139.31133,36.11696],[139.30607,36.11159],[139.30122,36.11035],[139.30923,36.10523],[139.31273,36.09882],[139.32091,36.09056],[139.32291,36.0951],[139.32752,36.09887],[139.33133,36.09587],[139.3302,36.09207],[139.3353,36.08867],[139.34223,36.08999],[139.34389,36.10362],[139.34904,36.10375],[139.35835,36.10048],[139.37586,36.09925],[139.38154,36.09576],[139.38715,36.10177],[139.39151,36.10488],[139.39485,36.10123],[139.40571,36.09463],[139.41132,36.09386],[139.4128,36.09024],[139.41012,36.08419],[139.40653,36.08121],[139.40846,36.07612],[139.41928,36.07399],[139.42159,36.06964],[139.44544,36.08054],[139.44662,36.08359],[139.4414,36.08307],[139.43496,36.08795],[139.43295,36.09263],[139.4317,36.10418],[139.43711,36.10739],[139.43178,36.11069],[139.42904,36.11314],[139.43415,36.12037],[139.42903,36.12087],[139.43114,36.13161],[139.42268,36.13873],[139.42228,36.14756],[139.43221,36.14684],[139.4334,36.14902],[139.43205,36.15863],[139.43649,36.16013],[139.43503,36.17039],[139.42392,36.16964],[139.42149,36.17147],[139.42045,36.18307],[139.42284,36.18644],[139.4189,36.18944],[139.42307,36.19763],[139.44192,36.19432],[139.4442,36.19679],[139.42926,36.20831],[139.41936,36.21129],[139.41687,36.21796],[139.40769,36.22265],[139.39343,36.22762],[139.38292,36.23787],[139.37667,36.2445],[139.36782,36.24681],[139.35823,36.25333],[139.35358,36.25151],[139.3473,36.25365],[139.34586,36.24898],[139.32788,36.23988]]]},"properties":{"pref":"埼玉県","city":"熊谷市","code5":"11202","code6":"112020"}},
{"type":"Feature","geometry":{"type":"Polygon","coordinates":[[[139.6771,35.83269],[139.69037,35.8292],[139.70985,35.82631],[139.7073,35.81926],[139.70178,35.81898],[139.69952,35.81532],[139.69888,35.80831],[139.69525,35.80144],[139.69767,35.79844],[139.7092,35.79202],[139.72224,35.79073],[139.72446,35.78727],[139.73387,35.79005],[139.73854,35.7874],[139.73805,35.78022],[139.74886,35.786],[139.755,35.7869],[139.76077,35.79741],[139.75066,35.80667],[139.75077,35.81017],[139.76127,35.81289],[139.76761,35.81768],[139.77217,35.82],[139.78829,35.82467],[139.7852,35.82926],[139.77907,35.83306],[139.77867,35.84216],[139.77134,35.84848],[139.77462,35.8517],[139.76662,35.85613],[139.76361,35.86338],[139.76985,35.86631],[139.76124,35.87079],[139.75674,35.87751],[139.75229,35.88029],[139.74336,35.88594],[139.73749,35.88118],[139.74081,35.8763],[139.73861,35.86992],[139.73321,35.87539],[139.72246,35.8763],[139.719,35.87905],[139.71354,35.87671],[139.72021,35.87032],[139.71748,35.86756],[139.71786,35.86229],[139.71154,35.8617],[139.70671,35.85884],[139.70411,35.86232],[139.69806,35.8574],[139.69571,35.84858],[139.68805,35.84748],[139.67523,35.8505],[139.67892,35.84042],[139.67562,35.83912],[139.6771,35.83269]]]},"properties":{"pref":"埼玉県","city":"川口市","code5":"11203","code6":"112038"}},
{"type":"Feature","geometry":{"type":"Polygon","coordinates":[[[139.49347,36.19217],[139.47443,36.18946],[139.46239,36.18951],[139.45435,36.19141],[139.4442,36.19679],[139.44192,36.19432],[139.42307,36.19763],[139.4189,36.18944],[139.42284,36.18644],[139.42045,36.18307],[139.42149,36.17147],[139.42392,36.16964],[139.43503,36.17039],[139.43649,36.16013],[139.43205,36.15863],[139.4334,36.14902],[139.43221,36.14684],[139.42228,36.14756],[139.42268,36.13873],[139.43114,36.13161],[139.42903,36.12087],[139.43415,36.12037],[139.42904,36.11314],[139.43178,36.11069],[139.44121,36.11742],[139.44733,36.11761],[139.45852,36.11162],[139.46598,36.11279],[139.46955,36.10799],[139.47919,36.1035],[139.48446,36.10502],[139.48219,36.09765],[139.4877,36.09152],[139.49349,36.09192],[139.50251,36.10382],[139.49757,36.10691],[139.49678,36.11169],[139.50611,36.11528],[139.51043,36.12468],[139.52689,36.11791],[139.53094,36.11767],[139.53554,36.12662],[139.52951,36.13184],[139.52563,36.13203],[139.52443,36.13822],[139.51632,36.13812],[139.51412,36.14451],[139.5142,36.15266],[139.51182,36.15421],[139.4982,36.15565],[139.49764,36.16227],[139.48804,36.17294],[139.48859,36.17644],[139.49793,36.17673],[139.50168,36.18275],[139.4965,36.18747],[139.49552,36.19258],[139.49347,36.19217]]]},"properties":{"pref":"埼玉県","city":"行田市","code5":"11206","code6":"112062"}},
{"type":"Feature","geometry":{"type":"Polygon","coordinates":[[[138.95962,36.12399],[138.95627,36.11192],[138.95655,36.1057],[138.95153,36.10307],[138.95044,36.09959],[138.9448,36.09449],[138.9381,36.09289],[138.93108,36.08812],[138.93341,36.07883],[138.94323,36.07159],[138.94557,36.06633],[138.95485,36.05975],[138.9725,36.05316],[138.96933,36.04328],[138.97973,36.03831],[138.98405,36.03434],[138.99683,36.03089],[139.00282,36.0276],[139.00935,36.02787],[139.01606,36.02336],[139.02414,36.01599],[139.03806,36.02052],[139.042,36.02421],[139.05023,36.01929],[139.04827,36.01522],[139.05099,36.00932],[139.04617,36.00444],[139.04078,36.00172],[139.05049,35.992],[139.04752,35.98883],[139.04355,35.97924],[139.0376,35.97403],[139.02887,35.96905],[139.01262,35.96661],[139.01277,35.97197],[139.0084,35.97968],[139.00383,35.98012],[138.99299,35.97618],[138.98562,35.97908],[138.98159,35.98291],[138.97392,35.9791],[138.97011,35.98089],[138.96307,35.97822],[138.95815,35.97965],[138.95128,35.97356],[138.95081,35.96988],[138.93973,35.96681],[138.93679,35.96918],[138.92702,35.97013],[138.92428,35.96697],[138.91833,35.9681],[138.8987,35.97542],[138.89632,35.9731],[138.8788,35.97506],[138.87482,35.97886],[138.85687,35.98678],[138.84977,35.99512],[138.84107,36.00056],[138.84063,36.01131],[138.83822,36.01854],[138.84096,36.02292],[138.84179,36.03048],[138.83878,36.0337],[138.82839,36.0373],[138.81568,36.03538],[138.81407,36.03368],[138.80219,36.0334],[138.79098,36.0294],[138.78063,36.03685],[138.76914,36.03881],[138.7598,36.03485],[138.75441,36.03453],[138.75357,36.02829],[138.74377,36.0101],[138.73669,36.00647],[138.73737,36.0043],[138.73217,35.99833],[138.72607,35.99448],[138.71681,35.9929],[138.71255,35.98533],[138.71145,35.97128],[138.71418,35.96552],[138.71948,35.96289],[138.72104,35.95909],[138.7256,35.95761],[138.73047,35.9503],[138.73114,35.94515],[138.73925,35.93911],[138.73746,35.93579],[138.73851,35.92902],[138.72911,35.91723],[138.72901,35.90922],[138.73489,35.904],[138.73918,35.90584],[138.74911,35.90161],[138.75829,35.90241],[138.76567,35.89911],[138.77716,35.90042],[138.78912,35.89324],[138.79112,35.89081],[138.79279,35.88193],[138.79181,35.87598],[138.79697,35.87213],[138.8084,35.87002],[138.8136,35.86237],[138.81968,35.86523],[138.8285,35.86574],[138.83243,35.86225],[138.84172,35.86491],[138.84545,35.86739],[138.85663,35.86462],[138.85881,35.85757],[138.86266,35.85876],[138.86943,35.85725],[138.8797,35.84692],[138.88565,35.84713],[138.89204,35.83985],[138.89916,35.84672],[138.91095,35.85273],[138.92262,35.85069],[138.92638,35.84892],[138.93515,35.85102],[138.94393,35.85482],[138.94287,35.86016],[138.95439,35.87418],[138.9652,35.87779],[138.96802,35.88221],[138.97249,35.88198],[138.97893,35.88501],[138.98526,35.88118],[138.99588,35.88445],[139.00076,35.884],[139.00666,35.88962],[139.00681,35.89364],[139.01055,35.8971],[139.0184,35.89842],[139.02356,35.89736],[139.02933,35.89291],[139.03761,35.88909],[139.04833,35.88121],[139.04984,35.87883],[139.05782,35.8775],[139.06145,35.87371],[139.07255,35.87172],[139.07776,35.87534],[139.08254,35.87487],[139.09166,35.86903],[139.10028,35.86719],[139.10812,35.87273],[139.11104,35.87752],[139.11058,35.88207],[139.11838,35.88962],[139.12081,35.89536],[139.11858,35.90228],[139.11196,35.90784],[139.11388,35.91584],[139.1125,35.91978],[139.10453,35.92351],[139.10276,35.92722],[139.09548,35.93593],[139.09758,35.94139],[139.09706,35.95254],[139.09337,35.95508],[139.09301,35.95952],[139.08855,35.96565],[139.0871,35.9755],[139.0932,35.99089],[139.09453,35.9976],[139.1008,36.00497],[139.10637,36.00891],[139.11007,36.00762],[139.11504,35.99907],[139.11936,35.99757],[139.12602,36.00114],[139.14199,35.99773],[139.14339,35.99854],[139.15872,35.99481],[139.1638,35.99566],[139.17461,35.98905],[139.1762,35.99773],[139.17283,36.00241],[139.16711,36.00576],[139.1633,36.01317],[139.1533,36.0233],[139.15274,36.02689],[139.12447,36.03535],[139.12409,36.03992],[139.11852,36.0427],[139.11895,36.04689],[139.11529,36.05573],[139.10785,36.05987],[139.09567,36.05772],[139.09106,36.06366],[139.08441,36.06607],[139.0718,36.06229],[139.05768,36.05986],[139.05524,36.07273],[139.04413,36.07442],[139.04022,36.07067],[139.0352,36.07002],[139.03051,36.07348],[139.01991,36.07802],[139.01427,36.0851],[139.0039,36.08794],[139.00776,36.09746],[138.99699,36.0971],[138.99324,36.0953],[138.98304,36.10805],[138.97701,36.10976],[138.97649,36.11721],[138.97001,36.12424],[138.96424,36.1259],[138.95962,36.12399]]]},"properties":{"pref":"埼玉県","city":"秩父市","code5":"11207","code6":"112071"}},
{"type":"Feature","geometry":{"type":"Polygon","coordinates":[[[139.47605,35.83993],[139.47831,35.83495],[139.47399,35.83278],[139.4713,35.83784],[139.46631,35.83782],[139.46337,35.8436],[139.44915,35.83244],[139.44979,35.83057],[139.43264,35.82153],[139.43125,35.81797],[139.42455,35.81903],[139.41946,35.81783],[139.41374,35.81394],[139.40101,35.8092],[139.38606,35.80561],[139.38925,35.79978],[139.38586,35.78827],[139.38856,35.78329],[139.39528,35.78231],[139.39368,35.77518],[139.38148,35.77427],[139.37903,35.7712],[139.38022,35.76637],[139.39168,35.76335],[139.39845,35.7644],[139.40488,35.76916],[139.41956,35.7659],[139.42221,35.7678],[139.43155,35.76634],[139.44077,35.767],[139.45135,35.76933],[139.45856,35.76968],[139.46125,35.77338],[139.47116,35.7734],[139.4795,35.77994],[139.49678,35.7787],[139.49938,35.78217],[139.5067,35.78277],[139.51403,35.7885],[139.52028,35.78837],[139.52926,35.79413],[139.53686,35.80394],[139.5417,35.80731],[139.54554,35.81257],[139.53454,35.81918],[139.53227,35.82501],[139.51552,35.81772],[139.50316,35.81431],[139.49726,35.82209],[139.48245,35.83873],[139.4779,35.83758],[139.47605,35.83993]]]},"properties":{"pref":"埼玉県","city":"所沢市","code5":"11208","code6":"112089"}},
{"type":"Feature","geometry":{"type":"Polygon","coordinates":[[[139.10028,35.86719],[139.11173,35.86468],[139.13536,35.86539],[139.14754,35.86271],[139.1594,35.85707],[139.16353,35.85087],[139.17436,35.84831],[139.19244,35.84027],[139.20314,35.8412],[139.20747,35.84642],[139.21265,35.84661],[139.21933,35.84252],[139.23253,35.83664],[139.23721,35.84021],[139.24253,35.83679],[139.25226,35.83825],[139.2605,35.836],[139.27189,35.83969],[139.28185,35.83952],[139.28288,35.83717],[139.29091,35.83796],[139.30117,35.83496],[139.30259,35.82405],[139.31147,35.82528],[139.31616,35.82367],[139.31611,35.81877],[139.32634,35.82643],[139.33281,35.82577],[139.33829,35.82799],[139.34548,35.82766],[139.34472,35.84999],[139.35176,35.85258],[139.35017,35.85898],[139.35801,35.86196],[139.36089,35.85938],[139.36495,35.85917],[139.37349,35.86548],[139.37472,35.86836],[139.36453,35.87299],[139.37007,35.87841],[139.36529,35.8845],[139.3627,35.88039],[139.35413,35.87728],[139.34618,35.88059],[139.33472,35.87837],[139.3276,35.88255],[139.31818,35.87789],[139.31585,35.8728],[139.30746,35.8731],[139.29607,35.86849],[139.291,35.86821],[139.28896,35.87189],[139.28235,35.86993],[139.27545,35.8747],[139.27919,35.88256],[139.2795,35.89685],[139.27719,35.90056],[139.27063,35.90182],[139.2705,35.90758],[139.27311,35.9129],[139.26703,35.91787],[139.26327,35.9242],[139.25486,35.9243],[139.25336,35.9221],[139.24323,35.9283],[139.23687,35.93024],[139.22812,35.94565],[139.21823,35.94909],[139.21293,35.95644],[139.20186,35.96259],[139.20153,35.96577],[139.19277,35.96793],[139.19038,35.96685],[139.17861,35.96973],[139.17675,35.96171],[139.17233,35.9596],[139.16868,35.95432],[139.16806,35.94964],[139.16255,35.9459],[139.14381,35.94207],[139.14219,35.93935],[139.12658,35.93625],[139.11674,35.93081],[139.10276,35.92722],[139.10453,35.92351],[139.1125,35.91978],[139.11388,35.91584],[139.11196,35.90784],[139.11858,35.90228],[139.12081,35.89536],[139.11838,35.88962],[139.11058,35.88207],[139.11104,35.87752],[139.10812,35.87273],[139.10028,35.86719]]]},"properties":{"pref":"埼玉県","city":"飯能市","code5":"11209","code6":"112097"}},
{"type":"Feature","geometry":{"type":"Polygon","coordinates":[[[139.68794,36.19968],[139.67734,36.20148],[139.67491,36.20829],[139.66443,36.20706],[139.66354,36.21235],[139.65997,36.2149],[139.6494,36.21119],[139.6515,36.19837],[139.64881,36.19613],[139.63725,36.19721],[139.62641,36.19325],[139.62504,36.18701],[139.61862,36.1898],[139.60988,36.19681],[139.60465,36.19287],[139.60304,36.18617],[139.60696,36.18248],[139.6131,36.17146],[139.6071,36.15927],[139.58961,36.16412],[139.5863,36.15046],[139.57262,36.15016],[139.57282,36.14299],[139.56315,36.13677],[139.53876,36.13729],[139.52768,36.14274],[139.52443,36.13822],[139.52563,36.13203],[139.52951,36.13184],[139.53554,36.12662],[139.53094,36.11767],[139.53112,36.11153],[139.53782,36.10576],[139.55117,36.10067],[139.54848,36.09392],[139.54123,36.0872],[139.54001,36.08187],[139.54723,36.0787],[139.55304,36.0792],[139.55957,36.07177],[139.57617,36.07136],[139.58627,36.0777],[139.59325,36.0728],[139.60136,36.08141],[139.60363,36.08713],[139.61402,36.08325],[139.62809,36.07982],[139.6339,36.08679],[139.63965,36.08711],[139.64575,36.09765],[139.64564,36.10372],[139.65547,36.10355],[139.65976,36.10665],[139.66834,36.10703],[139.66475,36.11168],[139.66426,36.11663],[139.66784,36.12012],[139.67626,36.12184],[139.68541,36.1266],[139.68305,36.1339],[139.68462,36.13685],[139.70303,36.1451],[139.69612,36.1564],[139.69089,36.17526],[139.69365,36.19168],[139.68786,36.19636],[139.68794,36.19968]]]},"properties":{"pref":"埼玉県","city":"加須市","code5":"11210","code6":"112101"}},
{"type":"Feature","geometry":{"type":"Polygon","coordinates":[[[139.17137,36.27372],[139.16947,36.27475],[139.16887,36.26783],[139.16202,36.26416],[139.16584,36.25972],[139.15559,36.25001],[139.1604,36.24636],[139.15937,36.24224],[139.168,36.23918],[139.16537,36.23455],[139.15972,36.23466],[139.14937,36.2269],[139.13594,36.22125],[139.1317,36.21647],[139.12787,36.20686],[139.12968,36.20206],[139.12438,36.1984],[139.12104,36.20359],[139.11444,36.20691],[139.10921,36.20723],[139.11037,36.19923],[139.10251,36.19328],[139.0965,36.19358],[139.08957,36.188],[139.08372,36.18953],[139.0827,36.18444],[139.07542,36.17686],[139.07632,36.16163],[139.0676,36.16207],[139.07031,36.14972],[139.07563,36.1481],[139.07197,36.14229],[139.06689,36.14311],[139.05818,36.13352],[139.05684,36.1262],[139.05884,36.12345],[139.07124,36.11891],[139.08255,36.12163],[139.08782,36.12385],[139.08803,36.13148],[139.096,36.13794],[139.10128,36.1365],[139.10597,36.14371],[139.11525,36.14313],[139.11967,36.14696],[139.12653,36.14835],[139.12924,36.146],[139.13666,36.14566],[139.14263,36.15196],[139.14651,36.15299],[139.14288,36.16417],[139.14871,36.16831],[139.15448,36.17628],[139.15243,36.18237],[139.15652,36.19182],[139.16065,36.1951],[139.16301,36.20522],[139.17189,36.21055],[139.18019,36.21119],[139.18205,36.20929],[139.1941,36.20824],[139.19673,36.21603],[139.20401,36.22084],[139.21314,36.22326],[139.21688,36.22228],[139.21891,36.22827],[139.22849,36.22876],[139.23336,36.22569],[139.24164,36.2242],[139.2476,36.23251],[139.2435,36.23938],[139.24375,36.24451],[139.23747,36.2462],[139.224,36.2583],[139.21215,36.25634],[139.20825,36.26246],[139.198,36.26225],[139.18055,36.2691],[139.17137,36.27372]]]},"properties":{"pref":"埼玉県","city":"本庄市","code5":"11211","code6":"112119"}},
{"type":"Feature","geometry":{"type":"Polygon","coordinates":[[[139.38715,36.10177],[139.38632,36.09746],[139.38042,36.0873],[139.37655,36.08412],[139.37901,36.07665],[139.37702,36.07253],[139.37864,36.06401],[139.38476,36.05253],[139.38207,36.04969],[139.38572,36.04132],[139.37424,36.04203],[139.36795,36.03659],[139.35716,36.041],[139.35511,36.03752],[139.34633,36.03977],[139.33115,36.04127],[139.33187,36.03105],[139.33892,36.02599],[139.33694,36.02312],[139.33774,36.0143],[139.34272,36.00901],[139.34723,36.00518],[139.35725,36.00274],[139.36905,35.99624],[139.37068,35.99262],[139.37791,35.98678],[139.37936,35.98161],[139.4044,35.98537],[139.40706,35.98819],[139.43019,35.998],[139.42443,35.99794],[139.42291,36.00154],[139.42641,36.00602],[139.43454,36.00363],[139.44375,36.00521],[139.45464,36.00499],[139.45708,36.01189],[139.44964,36.014],[139.43971,36.01337],[139.43546,36.0216],[139.42284,36.03421],[139.41797,36.03559],[139.41986,36.04842],[139.41619,36.05468],[139.4174,36.0634],[139.42159,36.06964],[139.41928,36.07399],[139.40846,36.07612],[139.40653,36.08121],[139.41012,36.08419],[139.4128,36.09024],[139.41132,36.09386],[139.40571,36.09463],[139.39485,36.10123],[139.39151,36.10488],[139.38715,36.10177]]]},"properties":{"pref":"埼玉県","city":"東松山市","code5":"11212","code6":"112127"}},
{"type":"Feature","geometry":{"type":"Polygon","coordinates":[[[139.75195,35.94053],[139.75977,35.94083],[139.76559,35.93552],[139.76976,35.93782],[139.77921,35.93811],[139.78304,35.94187],[139.77763,35.94386],[139.7761,35.94775],[139.77911,35.95373],[139.78695,35.95507],[139.79614,35.94929],[139.80243,35.94143],[139.80942,35.95291],[139.82068,35.96597],[139.82467,35.96408],[139.83332,35.96896],[139.82723,35.97136],[139.82524,35.97553],[139.82674,35.98315],[139.81426,35.99706],[139.81691,36.00239],[139.8134,36.02313],[139.81727,36.02973],[139.81537,36.03683],[139.80695,36.04317],[139.8012,36.03307],[139.79876,36.03683],[139.77808,36.02605],[139.7804,36.01927],[139.78367,36.01745],[139.7835,36.01269],[139.77716,36.00659],[139.76882,36.00497],[139.76001,36.00484],[139.75753,35.9996],[139.74379,36.00054],[139.74258,35.99866],[139.72462,35.99808],[139.71377,36.00485],[139.70786,35.99531],[139.72449,35.98573],[139.72656,35.98175],[139.72465,35.97272],[139.72151,35.96896],[139.71338,35.96558],[139.72057,35.95838],[139.71937,35.95221],[139.72967,35.95521],[139.74576,35.95226],[139.75195,35.94053]]]},"properties":{"pref":"埼玉県","city":"春日部市","code5":"11214","code6":"112143"}},
{"type":"Feature","geometry":{"type":"Polygon","coordinates":[[[139.40155,35.89567],[139.39952,35.89194],[139.38807,35.88242],[139.38945,35.8757],[139.37472,35.86836],[139.37349,35.86548],[139.36495,35.85917],[139.36089,35.85938],[139.36405,35.84223],[139.37124,35.84163],[139.37235,35.849],[139.38963,35.85264],[139.39401,35.84167],[139.40195,35.83876],[139.40743,35.8403],[139.41092,35.83552],[139.41316,35.82772],[139.41946,35.81783],[139.42455,35.81903],[139.43125,35.81797],[139.43264,35.82153],[139.44979,35.83057],[139.44915,35.83244],[139.46337,35.8436],[139.46631,35.83782],[139.4713,35.83784],[139.47399,35.83278],[139.47831,35.83495],[139.47605,35.83993],[139.45878,35.85904],[139.46579,35.86708],[139.46228,35.87275],[139.462,35.87786],[139.45398,35.87616],[139.46077,35.8863],[139.45756,35.8871],[139.44734,35.87934],[139.4413,35.88489],[139.43771,35.88237],[139.43296,35.88399],[139.42788,35.89143],[139.41883,35.89492],[139.41171,35.90091],[139.40155,35.89567]]]},"properties":{"pref":"埼玉県","city":"狭山市","code5":"11215","code6":"112151"}},
{"type":"Feature","geometry":{"type":"Polygon","coordinates":[[[139.58793,36.21034],[139.583,36.20924],[139.57347,36.20422],[139.55474,36.20083],[139.53522,36.19294],[139.52117,36.19122],[139.50155,36.19351],[139.49552,36.19258],[139.4965,36.18747],[139.50168,36.18275],[139.49793,36.17673],[139.48859,36.17644],[139.48804,36.17294],[139.49764,36.16227],[139.4982,36.15565],[139.51182,36.15421],[139.5142,36.15266],[139.51412,36.14451],[139.51632,36.13812],[139.52443,36.13822],[139.52768,36.14274],[139.53876,36.13729],[139.56315,36.13677],[139.57282,36.14299],[139.57262,36.15016],[139.5863,36.15046],[139.58961,36.16412],[139.6071,36.15927],[139.6131,36.17146],[139.60696,36.18248],[139.60304,36.18617],[139.60465,36.19287],[139.60988,36.19681],[139.60379,36.20342],[139.59436,36.20889],[139.58793,36.21034]]]},"properties":{"pref":"埼玉県","city":"羽生市","code5":"11216","code6":"112160"}},
{"type":"Feature","geometry":{"type":"Polygon","coordinates":[[[139.44662,36.08359],[139.45095,36.08361],[139.45606,36.07983],[139.45925,36.07449],[139.46661,36.06976],[139.47282,36.06038],[139.48304,36.05906],[139.48227,36.05472],[139.4889,36.04977],[139.49119,36.04555],[139.48927,36.04248],[139.4943,36.03507],[139.50236,36.03389],[139.51118,36.03446],[139.51695,36.03098],[139.52272,36.03604],[139.5262,36.03316],[139.53147,36.03486],[139.52058,36.04758],[139.52593,36.05088],[139.52182,36.05484],[139.52796,36.0566],[139.53296,36.05158],[139.54173,36.04803],[139.54637,36.04416],[139.55347,36.0444],[139.56431,36.0355],[139.57036,36.04052],[139.56219,36.04793],[139.5613,36.05348],[139.5652,36.05729],[139.56351,36.0663],[139.55957,36.07177],[139.55304,36.0792],[139.54723,36.0787],[139.54001,36.08187],[139.54123,36.0872],[139.54848,36.09392],[139.55117,36.10067],[139.53782,36.10576],[139.53112,36.11153],[139.53094,36.11767],[139.52689,36.11791],[139.51043,36.12468],[139.50611,36.11528],[139.49678,36.11169],[139.49757,36.10691],[139.50251,36.10382],[139.49349,36.09192],[139.4877,36.09152],[139.48219,36.09765],[139.48446,36.10502],[139.47919,36.1035],[139.46955,36.10799],[139.46598,36.11279],[139.45852,36.11162],[139.44733,36.11761],[139.44121,36.11742],[139.43178,36.11069],[139.43711,36.10739],[139.4317,36.10418],[139.43295,36.09263],[139.43496,36.08795],[139.4414,36.08307],[139.44662,36.08359]]]},"properties":{"pref":"埼玉県","city":"鴻巣市","code5":"11217","code6":"112178"}},
{"type":"Feature","geometry":{"type":"Polygon","coordinates":[[[139.24375,36.24451],[139.2435,36.23938],[139.2476,36.23251],[139.24164,36.2242],[139.23336,36.22569],[139.22849,36.22876],[139.21891,36.22827],[139.21688,36.22228],[139.21314,36.22326],[139.20401,36.22084],[139.19673,36.21603],[139.1941,36.20824],[139.19694,36.20866],[139.19689,36.19745],[139.20624,36.19941],[139.20864,36.1951],[139.2039,36.1842],[139.19334,36.18054],[139.19024,36.17667],[139.20142,36.17115],[139.22047,36.15903],[139.2263,36.16125],[139.2327,36.15702],[139.22732,36.15069],[139.2212,36.15089],[139.21302,36.1474],[139.20543,36.1421],[139.18075,36.13651],[139.18669,36.13319],[139.19563,36.1368],[139.20092,36.13688],[139.21232,36.13217],[139.21654,36.12768],[139.2168,36.11911],[139.2241,36.11677],[139.2299,36.11814],[139.24488,36.11818],[139.25345,36.11917],[139.25454,36.11575],[139.27304,36.11925],[139.27501,36.11173],[139.26764,36.10977],[139.27569,36.10622],[139.28817,36.10669],[139.30122,36.11035],[139.30607,36.11159],[139.31133,36.11696],[139.31236,36.12782],[139.31212,36.13837],[139.30855,36.14189],[139.31481,36.14655],[139.30879,36.15272],[139.30524,36.15171],[139.29992,36.15607],[139.29639,36.1549],[139.29328,36.16175],[139.29607,36.16683],[139.30644,36.17184],[139.30282,36.17517],[139.31251,36.17788],[139.31786,36.17421],[139.32608,36.1765],[139.32388,36.18106],[139.33219,36.18532],[139.32952,36.18894],[139.32966,36.19604],[139.33357,36.20101],[139.333,36.20987],[139.33606,36.21197],[139.33645,36.21763],[139.33357,36.22515],[139.3355,36.23274],[139.32788,36.23988],[139.32797,36.23736],[139.31515,36.23661],[139.30144,36.23979],[139.29498,36.24359],[139.28632,36.24513],[139.27265,36.24924],[139.26682,36.25042],[139.26701,36.24262],[139.26169,36.2427],[139.25389,36.24584],[139.24375,36.24451]]]},"properties":{"pref":"埼玉県","city":"深谷市","code5":"11218","code6":"112186"}},
{"type":"Feature","geometry":{"type":"Polygon","coordinates":[[[139.54776,35.9342],[139.55667,35.93538],[139.56091,35.93192],[139.56512,35.93538],[139.56489,35.93883],[139.57494,35.94412],[139.58012,35.94316],[139.5864,35.94578],[139.59727,35.93663],[139.59896,35.94412],[139.58822,35.9603],[139.59235,35.96192],[139.60007,35.95948],[139.61362,35.96602],[139.61943,35.96346],[139.6257,35.95241],[139.63699,35.95518],[139.64529,35.95136],[139.64793,35.95499],[139.64888,35.96222],[139.64313,35.96649],[139.64224,35.9697],[139.63392,35.97068],[139.62073,35.97718],[139.61359,35.98558],[139.6123,35.98944],[139.60506,35.99463],[139.60501,36.00259],[139.59081,36.00866],[139.58428,36.00968],[139.57362,36.00862],[139.5698,36.00437],[139.57387,35.9978],[139.57081,35.99316],[139.57675,35.98815],[139.56402,35.98786],[139.55896,35.99085],[139.53904,35.99251],[139.53742,35.98657],[139.54104,35.983],[139.5417,35.97695],[139.53492,35.96896],[139.53484,35.96071],[139.53919,35.96218],[139.54103,35.9561],[139.54533,35.95111],[139.53659,35.94813],[139.54599,35.94283],[139.54354,35.93777],[139.54776,35.9342]]]},"properties":{"pref":"埼玉県","city":"上尾市","code5":"11219","code6":"112194"}},
{"type":"Feature","geometry":{"type":"Polygon","coordinates":[[[139.76761,35.81768],[139.77176,35.81687],[139.77923,35.80825],[139.79243,35.80529],[139.8023,35.80855],[139.8133,35.80832],[139.81965,35.81178],[139.82106,35.81508],[139.81296,35.81559],[139.81951,35.82482],[139.8148,35.8275],[139.81589,35.83096],[139.82639,35.82914],[139.83058,35.83554],[139.83135,35.84552],[139.82875,35.85722],[139.83836,35.85809],[139.84086,35.85585],[139.83978,35.85943],[139.83993,35.87],[139.83399,35.87149],[139.81843,35.86907],[139.82208,35.86462],[139.81133,35.86097],[139.80716,35.85589],[139.79866,35.85731],[139.78712,35.86103],[139.77956,35.85873],[139.77397,35.86067],[139.76985,35.86631],[139.76361,35.86338],[139.76662,35.85613],[139.77462,35.8517],[139.77134,35.84848],[139.77867,35.84216],[139.77907,35.83306],[139.7852,35.82926],[139.78829,35.82467],[139.77217,35.82],[139.76761,35.81768]]]},"properties":{"pref":"埼玉県","city":"草加市","code5":"11221","code6":"112216"}},
{"type":"Feature","geometry":{"type":"Polygon","coordinates":[[[139.75229,35.88029],[139.75674,35.87751],[139.76124,35.87079],[139.76985,35.86631],[139.77397,35.86067],[139.77956,35.85873],[139.78712,35.86103],[139.79866,35.85731],[139.80716,35.85589],[139.81133,35.86097],[139.82208,35.86462],[139.81843,35.86907],[139.83399,35.87149],[139.83993,35.87],[139.84017,35.87708],[139.83799,35.88609],[139.83864,35.8939],[139.82862,35.89805],[139.82868,35.90078],[139.83728,35.90614],[139.83295,35.90789],[139.82323,35.90864],[139.81987,35.91451],[139.80748,35.91664],[139.80508,35.92363],[139.8149,35.92796],[139.81825,35.93176],[139.81106,35.93942],[139.80243,35.94143],[139.79614,35.94929],[139.78695,35.95507],[139.77911,35.95373],[139.7761,35.94775],[139.77763,35.94386],[139.78304,35.94187],[139.77921,35.93811],[139.76976,35.93782],[139.76559,35.93552],[139.75977,35.94083],[139.75195,35.94053],[139.75428,35.93546],[139.74824,35.92706],[139.74512,35.91749],[139.74943,35.91111],[139.75451,35.91048],[139.75482,35.90182],[139.75348,35.89578],[139.74524,35.89372],[139.74738,35.88757],[139.75229,35.88029]]]},"properties":{"pref":"埼玉県","city":"越谷市","code5":"11222","code6":"112224"}},
{"type":"Feature","geometry":{"type":"Polygon","coordinates":[[[139.66329,35.82901],[139.66542,35.82467],[139.67069,35.82206],[139.67682,35.82155],[139.6882,35.81425],[139.69349,35.81605],[139.69952,35.81532],[139.70178,35.81898],[139.7073,35.81926],[139.70985,35.82631],[139.69037,35.8292],[139.6771,35.83269],[139.66877,35.83566],[139.66329,35.82901]]]},"properties":{"pref":"埼玉県","city":"蕨市","code5":"11223","code6":"112232"}},
{"type":"Feature","geometry":{"type":"Polygon","coordinates":[[[139.6187,35.82909],[139.6225,35.82403],[139.62203,35.81347],[139.62337,35.80984],[139.62877,35.80617],[139.64051,35.80285],[139.6463,35.79787],[139.65336,35.80023],[139.66977,35.80024],[139.67838,35.79882],[139.68783,35.80084],[139.69686,35.7989],[139.69767,35.79844],[139.69525,35.80144],[139.69888,35.80831],[139.69952,35.81532],[139.69349,35.81605],[139.6882,35.81425],[139.67682,35.82155],[139.67069,35.82206],[139.66542,35.82467],[139.66329,35.82901],[139.65813,35.82963],[139.65375,35.83525],[139.65,35.8328],[139.63972,35.83187],[139.63083,35.82931],[139.62435,35.83465],[139.6187,35.82909]]]},"properties":{"pref":"埼玉県","city":"戸田市","code5":"11224","code6":"112241"}},
{"type":"Feature","geometry":{"type":"Polygon","coordinates":[[[139.41946,35.81783],[139.41316,35.82772],[139.41092,35.83552],[139.40743,35.8403],[139.40195,35.83876],[139.39401,35.84167],[139.38963,35.85264],[139.37235,35.849],[139.37124,35.84163],[139.36405,35.84223],[139.36089,35.85938],[139.35801,35.86196],[139.35017,35.85898],[139.35176,35.85258],[139.34472,35.84999],[139.34548,35.82766],[139.33829,35.82799],[139.33281,35.82577],[139.32634,35.82643],[139.31611,35.81877],[139.31675,35.81269],[139.32225,35.79961],[139.32573,35.79521],[139.33037,35.79362],[139.33278,35.79189],[139.34671,35.79641],[139.35026,35.79341],[139.36871,35.79029],[139.36749,35.78438],[139.36991,35.78154],[139.38014,35.77875],[139.38148,35.77427],[139.39368,35.77518],[139.39528,35.78231],[139.38856,35.78329],[139.38586,35.78827],[139.38925,35.79978],[139.38606,35.80561],[139.40101,35.8092],[139.41374,35.81394],[139.41946,35.81783]]]},"properties":{"pref":"埼玉県","city":"入間市","code5":"11225","code6":"112259"}},
{"type":"Feature","geometry":{"type":"Polygon","coordinates":[[[139.6074,35.83476],[139.59522,35.827],[139.58655,35.83143],[139.58122,35.82931],[139.58299,35.82464],[139.57795,35.82293],[139.57434,35.81411],[139.5761,35.79814],[139.58021,35.79239],[139.57872,35.78753],[139.58737,35.78601],[139.59414,35.7787],[139.5972,35.77837],[139.59816,35.78304],[139.60447,35.79278],[139.61425,35.79687],[139.61443,35.80582],[139.62337,35.80984],[139.62203,35.81347],[139.6225,35.82403],[139.6187,35.82909],[139.61657,35.83399],[139.6074,35.83476]]]},"properties":{"pref":"埼玉県","city":"朝霞市","code5":"11227","code6":"112275"}},
{"type":"Feature","geometry":{"type":"Polygon","coordinates":[[[139.58514,35.8605],[139.5807,35.85666],[139.57829,35.8475],[139.57385,35.84195],[139.57089,35.83528],[139.55529,35.82824],[139.55531,35.82563],[139.56215,35.8185],[139.57298,35.82268],[139.57795,35.82293],[139.58299,35.82464],[139.58122,35.82931],[139.58655,35.83143],[139.59522,35.827],[139.6074,35.83476],[139.60519,35.84409],[139.60013,35.84504],[139.59167,35.85225],[139.58514,35.8605]]]},"properties":{"pref":"埼玉県","city":"志木市","code5":"11228","code6":"112283"}},
{"type":"Feature","geometry":{"type":"Polygon","coordinates":[[[139.62337,35.80984],[139.61443,35.80582],[139.61425,35.79687],[139.60447,35.79278],[139.59816,35.78304],[139.5972,35.77837],[139.60438,35.77502],[139.60317,35.77086],[139.61723,35.77035],[139.62299,35.76687],[139.62471,35.77983],[139.63423,35.79034],[139.63941,35.79285],[139.64057,35.79769],[139.6463,35.79787],[139.64051,35.80285],[139.62877,35.80617],[139.62337,35.80984]]]},"properties":{"pref":"埼玉県","city":"和光市","code5":"11229","code6":"112291"}},
{"type":"Feature","geometry":{"type":"Polygon","coordinates":[[[139.5417,35.80731],[139.5472,35.80266],[139.54409,35.7965],[139.53758,35.79076],[139.54379,35.78819],[139.54298,35.77981],[139.53223,35.77342],[139.52305,35.77194],[139.51637,35.76557],[139.52138,35.76757],[139.5303,35.76835],[139.54784,35.77398],[139.54698,35.7603],[139.54458,35.75476],[139.54716,35.75338],[139.56279,35.7616],[139.57459,35.76623],[139.57817,35.77085],[139.58224,35.77121],[139.58876,35.77853],[139.59414,35.7787],[139.58737,35.78601],[139.57872,35.78753],[139.58021,35.79239],[139.5761,35.79814],[139.57434,35.81411],[139.57795,35.82293],[139.57298,35.82268],[139.56215,35.8185],[139.55531,35.82563],[139.55246,35.81997],[139.53888,35.82106],[139.53454,35.81918],[139.54554,35.81257],[139.5417,35.80731]]]},"properties":{"pref":"埼玉県","city":"新座市","code5":"11230","code6":"112305"}},
{"type":"Feature","geometry":{"type":"Polygon","coordinates":[[[139.56431,36.0355],[139.55644,36.02919],[139.55971,36.02243],[139.55918,36.01842],[139.55285,36.01458],[139.55602,36.01011],[139.55166,36.00519],[139.546,36.01104],[139.53874,36.01309],[139.52316,36.0118],[139.51825,36.00528],[139.51213,36.00086],[139.50615,36.00053],[139.50777,35.99602],[139.51445,35.98736],[139.51239,35.98397],[139.51834,35.97592],[139.52332,35.97715],[139.52295,35.96798],[139.52936,35.96257],[139.53484,35.96071],[139.53492,35.96896],[139.5417,35.97695],[139.54104,35.983],[139.53742,35.98657],[139.53904,35.99251],[139.55896,35.99085],[139.56402,35.98786],[139.57675,35.98815],[139.57081,35.99316],[139.57387,35.9978],[139.5698,36.00437],[139.57362,36.00862],[139.58428,36.00968],[139.59081,36.00866],[139.59239,36.01736],[139.59607,36.02322],[139.59562,36.02724],[139.58819,36.02889],[139.57871,36.0315],[139.57077,36.03563],[139.57036,36.04052],[139.56431,36.0355]]]},"properties":{"pref":"埼玉県","city":"桶川市","code5":"11231","code6":"112313"}},
{"type":"Feature","geometry":{"type":"Polygon","coordinates":[[[139.70303,36.1451],[139.68462,36.13685],[139.68305,36.1339],[139.68541,36.1266],[139.67626,36.12184],[139.66784,36.12012],[139.66426,36.11663],[139.66475,36.11168],[139.66834,36.10703],[139.65976,36.10665],[139.65547,36.10355],[139.64564,36.10372],[139.64575,36.09765],[139.63965,36.08711],[139.6339,36.08679],[139.62809,36.07982],[139.61402,36.08325],[139.60363,36.08713],[139.60136,36.08141],[139.59325,36.0728],[139.58627,36.0777],[139.57617,36.07136],[139.55957,36.07177],[139.56351,36.0663],[139.5652,36.05729],[139.5613,36.05348],[139.56219,36.04793],[139.57036,36.04052],[139.57077,36.03563],[139.57871,36.0315],[139.58819,36.02889],[139.59457,36.03389],[139.60424,36.03679],[139.60726,36.03997],[139.60643,36.04536],[139.61415,36.04955],[139.62017,36.04475],[139.64386,36.03959],[139.64821,36.03482],[139.65146,36.03814],[139.66069,36.04029],[139.65582,36.04587],[139.65933,36.04884],[139.67171,36.04424],[139.67832,36.04493],[139.68371,36.04208],[139.68898,36.04521],[139.68459,36.05762],[139.69929,36.05561],[139.70293,36.06236],[139.70944,36.06918],[139.70833,36.07452],[139.70192,36.07844],[139.69667,36.07697],[139.69118,36.08427],[139.69524,36.08623],[139.69308,36.09073],[139.70013,36.09795],[139.70574,36.09735],[139.71142,36.10119],[139.71782,36.09879],[139.72016,36.10104],[139.72058,36.10808],[139.72706,36.10754],[139.72638,36.11252],[139.71358,36.12625],[139.71013,36.13594],[139.70303,36.1451]]]},"properties":{"pref":"埼玉県","city":"久喜市","code5":"11232","code6":"112321"}},
{"type":"Feature","geometry":{"type":"Polygon","coordinates":[[[139.4943,36.03507],[139.5002,36.02923],[139.50502,36.0275],[139.50416,36.02374],[139.49884,36.01889],[139.49964,36.01355],[139.50451,36.01204],[139.50384,36.00535],[139.50039,36.00189],[139.50251,35.99587],[139.50777,35.99602],[139.50615,36.00053],[139.51213,36.00086],[139.51825,36.00528],[139.52316,36.0118],[139.53874,36.01309],[139.546,36.01104],[139.55166,36.00519],[139.55602,36.01011],[139.55285,36.01458],[139.55918,36.01842],[139.55971,36.02243],[139.55644,36.02919],[139.56431,36.0355],[139.55347,36.0444],[139.54637,36.04416],[139.54173,36.04803],[139.53296,36.05158],[139.52796,36.0566],[139.52182,36.05484],[139.52593,36.05088],[139.52058,36.04758],[139.53147,36.03486],[139.5262,36.03316],[139.52272,36.03604],[139.51695,36.03098],[139.51118,36.03446],[139.50236,36.03389],[139.4943,36.03507]]]},"properties":{"pref":"埼玉県","city":"北本市","code5":"11233","code6":"112330"}},
{"type":"Feature","geometry":{"type":"Polygon","coordinates":[[[139.82106,35.81508],[139.82493,35.8119],[139.82075,35.80554],[139.82049,35.79754],[139.82605,35.79336],[139.83277,35.79568],[139.83801,35.80081],[139.84339,35.7998],[139.84675,35.79651],[139.85649,35.79096],[139.8588,35.79444],[139.85579,35.80438],[139.86705,35.81149],[139.8693,35.81725],[139.86487,35.82318],[139.85707,35.82336],[139.84744,35.82832],[139.84477,35.83567],[139.84422,35.84204],[139.84163,35.84846],[139.84086,35.85585],[139.83836,35.85809],[139.82875,35.85722],[139.83135,35.84552],[139.83058,35.83554],[139.82639,35.82914],[139.81589,35.83096],[139.8148,35.8275],[139.81951,35.82482],[139.81296,35.81559],[139.82106,35.81508]]]},"properties":{"pref":"埼玉県","city":"八潮市","code5":"11234","code6":"112348"}},
{"type":"Feature","geometry":{"type":"Polygon","coordinates":[[[139.54947,35.88723],[139.54414,35.88564],[139.54711,35.88109],[139.54989,35.87765],[139.54968,35.86944],[139.54087,35.86783],[139.53293,35.86789],[139.51862,35.86369],[139.51904,35.85759],[139.53215,35.86355],[139.53327,35.85889],[139.52749,35.855],[139.52781,35.84935],[139.52928,35.84535],[139.54048,35.83551],[139.54892,35.83269],[139.54879,35.82856],[139.55529,35.82824],[139.57089,35.83528],[139.57385,35.84195],[139.57829,35.8475],[139.5807,35.85666],[139.58514,35.8605],[139.57858,35.86448],[139.57647,35.87146],[139.56395,35.87191],[139.55891,35.8741],[139.55957,35.88055],[139.55145,35.88334],[139.54947,35.88723]]]},"properties":{"pref":"埼玉県","city":"富士見市","code5":"11235","code6":"112356"}},
{"type":"Feature","geometry":{"type":"Polygon","coordinates":[[[139.84086,35.85585],[139.84163,35.84846],[139.84422,35.84204],[139.84477,35.83567],[139.84744,35.82832],[139.85707,35.82336],[139.86487,35.82318],[139.8693,35.81725],[139.86705,35.81149],[139.85579,35.80438],[139.8588,35.79444],[139.87077,35.79732],[139.87661,35.79383],[139.87134,35.78558],[139.87725,35.78117],[139.88724,35.78402],[139.89378,35.78275],[139.88852,35.79645],[139.89083,35.80057],[139.88884,35.80748],[139.89153,35.81934],[139.88799,35.82433],[139.88851,35.8302],[139.89004,35.844],[139.89614,35.85293],[139.90034,35.86417],[139.89921,35.86686],[139.89161,35.86547],[139.88562,35.86698],[139.87826,35.86571],[139.87361,35.86806],[139.86323,35.86683],[139.86371,35.86462],[139.83978,35.85943],[139.84086,35.85585]]]},"properties":{"pref":"埼玉県","city":"三郷市","code5":"11237","code6":"112372"}},
{"type":"Feature","geometry":{"type":"Polygon","coordinates":[[[139.64888,35.96222],[139.65788,35.96394],[139.65354,35.96806],[139.66608,35.9756],[139.67206,35.97424],[139.68434,35.97561],[139.6956,35.99108],[139.69197,35.99903],[139.68704,36.00412],[139.68173,36.00036],[139.67577,35.99906],[139.66451,36.00729],[139.66204,36.012],[139.65552,36.0098],[139.65047,36.0104],[139.65025,36.02104],[139.64865,36.03134],[139.64013,36.03242],[139.63188,36.03119],[139.62632,36.02766],[139.62148,36.03072],[139.61278,36.03271],[139.60424,36.03679],[139.59457,36.03389],[139.58819,36.02889],[139.59562,36.02724],[139.61165,36.0212],[139.61576,36.01781],[139.61845,36.01214],[139.62229,36.00928],[139.63508,36.00622],[139.63695,35.9985],[139.64481,35.99368],[139.64569,35.99008],[139.64307,35.98444],[139.64419,35.9804],[139.64224,35.9697],[139.64313,35.96649],[139.64888,35.96222]]]},"properties":{"pref":"埼玉県","city":"蓮田市","code5":"11238","code6":"112381"}},
{"type":"Feature","geometry":{"type":"Polygon","coordinates":[[[139.4677,35.96007],[139.45747,35.97267],[139.45422,35.98006],[139.45032,35.97922],[139.44016,35.98425],[139.43532,35.99066],[139.4338,35.99597],[139.43019,35.998],[139.40706,35.98819],[139.4044,35.98537],[139.37936,35.98161],[139.36666,35.97678],[139.35858,35.9766],[139.34888,35.96884],[139.35268,35.96496],[139.35833,35.95247],[139.3589,35.94657],[139.35478,35.9466],[139.34749,35.94105],[139.35385,35.9369],[139.34332,35.93127],[139.34199,35.93372],[139.33403,35.93594],[139.32718,35.93496],[139.32396,35.92887],[139.32753,35.9231],[139.33327,35.91969],[139.34145,35.92042],[139.3524,35.92819],[139.36596,35.9386],[139.37216,35.94496],[139.37751,35.94235],[139.38191,35.94925],[139.39194,35.95332],[139.39801,35.95347],[139.39781,35.94955],[139.40963,35.9492],[139.4103,35.95368],[139.41739,35.95872],[139.42146,35.95577],[139.43115,35.95889],[139.44362,35.95851],[139.44211,35.9539],[139.43315,35.95181],[139.43475,35.94512],[139.45068,35.94834],[139.4597,35.9539],[139.46266,35.95806],[139.4677,35.96007]]]},"properties":{"pref":"埼玉県","city":"坂戸市","code5":"11239","code6":"112399"}},
{"type":"Feature","geometry":{"type":"Polygon","coordinates":[[[139.72706,36.10754],[139.72058,36.10808],[139.72016,36.10104],[139.71782,36.09879],[139.71142,36.10119],[139.70574,36.09735],[139.70013,36.09795],[139.69308,36.09073],[139.69524,36.08623],[139.69118,36.08427],[139.69667,36.07697],[139.70192,36.07844],[139.70833,36.07452],[139.70944,36.06918],[139.70293,36.06236],[139.71659,36.05181],[139.72448,36.05358],[139.7254,36.04826],[139.73984,36.04055],[139.74496,36.04486],[139.74767,36.05029],[139.74637,36.05523],[139.75309,36.05499],[139.75959,36.05119],[139.76674,36.04321],[139.77198,36.04282],[139.77493,36.03865],[139.78022,36.04487],[139.78101,36.05649],[139.78864,36.05765],[139.7895,36.06183],[139.78333,36.06951],[139.77987,36.08276],[139.77622,36.09077],[139.77314,36.0889],[139.77186,36.08224],[139.76576,36.08043],[139.75647,36.08256],[139.74676,36.08708],[139.73177,36.08652],[139.72831,36.09014],[139.72706,36.10754]]]},"properties":{"pref":"埼玉県","city":"幸手市","code5":"11240","code6":"112402"}},
{"type":"Feature","geometry":{"type":"Polygon","coordinates":[[[139.42146,35.95577],[139.41739,35.95872],[139.4103,35.95368],[139.40963,35.9492],[139.39781,35.94955],[139.39801,35.95347],[139.39194,35.95332],[139.38191,35.94925],[139.37751,35.94235],[139.37216,35.94496],[139.36596,35.9386],[139.3524,35.92819],[139.35253,35.9247],[139.36052,35.92394],[139.36647,35.92777],[139.37948,35.91993],[139.38919,35.91423],[139.40243,35.91914],[139.41193,35.924],[139.42048,35.92467],[139.41622,35.93026],[139.42311,35.93712],[139.42882,35.94024],[139.42599,35.94842],[139.42099,35.95273],[139.42146,35.95577]]]},"properties":{"pref":"埼玉県","city":"鶴ヶ島市","code5":"11241","code6":"112411"}},
{"type":"Feature","geometry":{"type":"Polygon","coordinates":[[[139.37948,35.91993],[139.36647,35.92777],[139.36052,35.92394],[139.35253,35.9247],[139.3524,35.92819],[139.34145,35.92042],[139.33327,35.91969],[139.32753,35.9231],[139.32295,35.92238],[139.31376,35.91655],[139.30962,35.91546],[139.3084,35.90868],[139.29558,35.904],[139.27719,35.90056],[139.2795,35.89685],[139.27919,35.88256],[139.27545,35.8747],[139.28235,35.86993],[139.28896,35.87189],[139.291,35.86821],[139.29607,35.86849],[139.30746,35.8731],[139.31585,35.8728],[139.31818,35.87789],[139.3276,35.88255],[139.33472,35.87837],[139.34618,35.88059],[139.35413,35.87728],[139.3627,35.88039],[139.36529,35.8845],[139.37007,35.87841],[139.36453,35.87299],[139.37472,35.86836],[139.38945,35.8757],[139.38807,35.88242],[139.39952,35.89194],[139.40155,35.89567],[139.39441,35.90138],[139.39259,35.90825],[139.38444,35.90852],[139.38325,35.91585],[139.37948,35.91993]]]},"properties":{"pref":"埼玉県","city":"日高市","code5":"11242","code6":"112429"}},
{"type":"Feature","geometry":{"type":"Polygon","coordinates":[[[139.83978,35.85943],[139.86371,35.86462],[139.86323,35.86683],[139.87361,35.86806],[139.87826,35.86571],[139.88562,35.86698],[139.89161,35.86547],[139.89921,35.86686],[139.89485,35.87656],[139.89305,35.88542],[139.88992,35.89256],[139.88023,35.90461],[139.87476,35.91294],[139.87187,35.91587],[139.86742,35.92555],[139.86092,35.93249],[139.84929,35.93835],[139.8451,35.93593],[139.83977,35.93889],[139.83025,35.93961],[139.83967,35.93331],[139.83714,35.92703],[139.83611,35.91535],[139.8408,35.91799],[139.84697,35.91105],[139.83728,35.90614],[139.82868,35.90078],[139.82862,35.89805],[139.83864,35.8939],[139.83799,35.88609],[139.84017,35.87708],[139.83993,35.87],[139.83978,35.85943]]]},"properties":{"pref":"埼玉県","city":"吉川市","code5":"11243","code6":"112437"}},
{"type":"Feature","geometry":{"type":"Polygon","coordinates":[[[139.4871,35.84203],[139.4908,35.84916],[139.50395,35.84856],[139.50964,35.84998],[139.51353,35.84646],[139.52156,35.8433],[139.52781,35.84935],[139.52749,35.855],[139.53327,35.85889],[139.53215,35.86355],[139.51904,35.85759],[139.51862,35.86369],[139.53293,35.86789],[139.54087,35.86783],[139.54968,35.86944],[139.54989,35.87765],[139.54711,35.88109],[139.54189,35.87806],[139.52806,35.88123],[139.52331,35.88677],[139.52419,35.89225],[139.51442,35.88807],[139.51527,35.88172],[139.51096,35.87978],[139.49558,35.86439],[139.48897,35.85993],[139.47463,35.85518],[139.4771,35.85103],[139.48918,35.8553],[139.49217,35.85272],[139.48501,35.84955],[139.4871,35.84203]]]},"properties":{"pref":"埼玉県","city":"ふじみ野市","code5":"11245","code6":"112453"}},
{"type":"Feature","geometry":{"type":"Polygon","coordinates":[[[139.70786,35.99531],[139.71377,36.00485],[139.70539,36.01196],[139.70971,36.01945],[139.70449,36.02584],[139.69896,36.02778],[139.68992,36.02841],[139.68371,36.04208],[139.67832,36.04493],[139.67171,36.04424],[139.65933,36.04884],[139.65582,36.04587],[139.66069,36.04029],[139.65146,36.03814],[139.64821,36.03482],[139.64386,36.03959],[139.62017,36.04475],[139.61415,36.04955],[139.60643,36.04536],[139.60726,36.03997],[139.60424,36.03679],[139.61278,36.03271],[139.62148,36.03072],[139.62632,36.02766],[139.63188,36.03119],[139.64013,36.03242],[139.64865,36.03134],[139.65025,36.02104],[139.65047,36.0104],[139.65552,36.0098],[139.66204,36.012],[139.66451,36.00729],[139.67577,35.99906],[139.68173,36.00036],[139.68704,36.00412],[139.69197,35.99903],[139.69563,36.00269],[139.69952,35.99801],[139.70786,35.99531]]]},"properties":{"pref":"埼玉県","city":"白岡市","code5":"11246","code6":"112461"}},
{"type":"Feature","geometry":{"type":"Polygon","coordinates":[[[139.64224,35.9697],[139.64419,35.9804],[139.64307,35.98444],[139.64569,35.99008],[139.64481,35.99368],[139.63695,35.9985],[139.63508,36.00622],[139.62229,36.00928],[139.61845,36.01214],[139.61576,36.01781],[139.61165,36.0212],[139.59562,36.02724],[139.59607,36.02322],[139.59239,36.01736],[139.59081,36.00866],[139.60501,36.00259],[139.60506,35.99463],[139.6123,35.98944],[139.61359,35.98558],[139.62073,35.97718],[139.63392,35.97068],[139.64224,35.9697]]]},"properties":{"pref":"埼玉県","county":"北足立郡","city":"伊奈町","code5":"11301","code6":"113018"}},
{"type":"Feature","geometry":{"type":"Polygon","coordinates":[[[139.4779,35.83758],[139.48245,35.83873],[139.49726,35.82209],[139.50316,35.81431],[139.51552,35.81772],[139.53227,35.82501],[139.53454,35.81918],[139.53888,35.82106],[139.55246,35.81997],[139.55531,35.82563],[139.55529,35.82824],[139.54879,35.82856],[139.54892,35.83269],[139.54048,35.83551],[139.52928,35.84535],[139.52781,35.84935],[139.52156,35.8433],[139.51353,35.84646],[139.50964,35.84998],[139.50395,35.84856],[139.4908,35.84916],[139.4871,35.84203],[139.4779,35.83758]]]},"properties":{"pref":"埼玉県","county":"入間郡","city":"三芳町","code5":"11324","code6":"113247"}},
{"type":"Feature","geometry":{"type":"Polygon","coordinates":[[[139.27719,35.90056],[139.29558,35.904],[139.3084,35.90868],[139.30962,35.91546],[139.31376,35.91655],[139.32295,35.92238],[139.32753,35.9231],[139.32396,35.92887],[139.32718,35.93496],[139.33403,35.93594],[139.34199,35.93372],[139.34332,35.93127],[139.35385,35.9369],[139.34749,35.94105],[139.35478,35.9466],[139.3589,35.94657],[139.35833,35.95247],[139.35268,35.96496],[139.34888,35.96884],[139.34407,35.96769],[139.33939,35.96233],[139.33455,35.96193],[139.32137,35.96558],[139.31544,35.96274],[139.3174,35.95736],[139.31359,35.9565],[139.31022,35.9501],[139.30737,35.95005],[139.30025,35.94492],[139.28936,35.94724],[139.28358,35.95035],[139.27568,35.95129],[139.27499,35.94692],[139.26889,35.94077],[139.26519,35.94014],[139.26135,35.93389],[139.26548,35.92939],[139.26327,35.9242],[139.26703,35.91787],[139.27311,35.9129],[139.2705,35.90758],[139.27063,35.90182],[139.27719,35.90056]]]},"properties":{"pref":"埼玉県","county":"入間郡","city":"毛呂山町","code5":"11326","code6":"113263"}},
{"type":"Feature","geometry":{"type":"Polygon","coordinates":[[[139.26327,35.9242],[139.26548,35.92939],[139.26135,35.93389],[139.26519,35.94014],[139.26889,35.94077],[139.27499,35.94692],[139.27568,35.95129],[139.28358,35.95035],[139.28936,35.94724],[139.30025,35.94492],[139.30737,35.95005],[139.31022,35.9501],[139.31359,35.9565],[139.3174,35.95736],[139.31544,35.96274],[139.32137,35.96558],[139.30917,35.9762],[139.30867,35.97855],[139.30125,35.98528],[139.2882,35.99125],[139.28245,35.99189],[139.27171,35.98492],[139.25986,35.98644],[139.24681,35.98184],[139.24412,35.97886],[139.23417,35.97435],[139.23059,35.97453],[139.22048,35.96612],[139.21929,35.95894],[139.21293,35.95644],[139.21823,35.94909],[139.22812,35.94565],[139.23687,35.93024],[139.24323,35.9283],[139.25336,35.9221],[139.25486,35.9243],[139.26327,35.9242]]]},"properties":{"pref":"埼玉県","county":"入間郡","city":"越生町","code5":"11327","code6":"113271"}},
{"type":"Feature","geometry":{"type":"Polygon","coordinates":[[[139.32091,36.09056],[139.32318,36.08644],[139.33142,36.08178],[139.32597,36.06686],[139.33673,36.06219],[139.33679,36.05798],[139.33364,36.05371],[139.33891,36.05182],[139.341,36.04823],[139.32984,36.04447],[139.33115,36.04127],[139.34633,36.03977],[139.35511,36.03752],[139.35716,36.041],[139.36795,36.03659],[139.37424,36.04203],[139.38572,36.04132],[139.38207,36.04969],[139.38476,36.05253],[139.37864,36.06401],[139.37702,36.07253],[139.37901,36.07665],[139.37655,36.08412],[139.38042,36.0873],[139.38632,36.09746],[139.38715,36.10177],[139.38154,36.09576],[139.37586,36.09925],[139.35835,36.10048],[139.34904,36.10375],[139.34389,36.10362],[139.34223,36.08999],[139.3353,36.08867],[139.3302,36.09207],[139.33133,36.09587],[139.32752,36.09887],[139.32291,36.0951],[139.32091,36.09056]]]},"properties":{"pref":"埼玉県","county":"比企郡","city":"滑川町","code5":"11341","code6":"113417"}},
{"type":"Feature","geometry":{"type":"Polygon","coordinates":[[[139.30122,36.11035],[139.28817,36.10669],[139.28818,36.09895],[139.29654,36.09864],[139.30121,36.0954],[139.30017,36.09122],[139.29038,36.08851],[139.29079,36.08112],[139.30162,36.07068],[139.30805,36.06297],[139.30468,36.05927],[139.30034,36.05926],[139.2975,36.05175],[139.29978,36.04686],[139.29761,36.04216],[139.29074,36.03748],[139.29,36.03442],[139.29624,36.03247],[139.30881,36.02085],[139.30955,36.01814],[139.31597,36.015],[139.3166,36.0091],[139.32508,36.01004],[139.33555,36.00661],[139.34272,36.00901],[139.33774,36.0143],[139.33694,36.02312],[139.33892,36.02599],[139.33187,36.03105],[139.33115,36.04127],[139.32984,36.04447],[139.341,36.04823],[139.33891,36.05182],[139.33364,36.05371],[139.33679,36.05798],[139.33673,36.06219],[139.32597,36.06686],[139.33142,36.08178],[139.32318,36.08644],[139.32091,36.09056],[139.31273,36.09882],[139.30923,36.10523],[139.30122,36.11035]]]},"properties":{"pref":"埼玉県","county":"比企郡","city":"嵐山町","code5":"11342","code6":"113425"}},
{"type":"Feature","geometry":{"type":"Polygon","coordinates":[[[139.28818,36.09895],[139.28603,36.09248],[139.28001,36.09304],[139.27093,36.09865],[139.26416,36.09482],[139.25862,36.08706],[139.25205,36.08355],[139.24343,36.08364],[139.24244,36.08651],[139.22747,36.08803],[139.22359,36.09051],[139.21864,36.08686],[139.20991,36.08753],[139.20856,36.08385],[139.1977,36.06869],[139.20298,36.06559],[139.21413,36.06297],[139.22547,36.05911],[139.22988,36.05325],[139.23655,36.05418],[139.23899,36.05126],[139.22561,36.04623],[139.22067,36.04563],[139.21727,36.04147],[139.21255,36.03971],[139.1994,36.02952],[139.18831,36.02811],[139.18574,36.02492],[139.18778,36.01722],[139.19077,36.01364],[139.19021,36.0061],[139.20223,36.00758],[139.21337,36.00609],[139.21562,36.01155],[139.22379,36.01087],[139.22963,36.01904],[139.23555,36.02305],[139.24302,36.02292],[139.24367,36.02772],[139.25105,36.03218],[139.25834,36.03361],[139.26554,36.03248],[139.2704,36.0293],[139.28318,36.03002],[139.28782,36.02926],[139.29624,36.03247],[139.29,36.03442],[139.29074,36.03748],[139.29761,36.04216],[139.29978,36.04686],[139.2975,36.05175],[139.30034,36.05926],[139.30468,36.05927],[139.30805,36.06297],[139.30162,36.07068],[139.29079,36.08112],[139.29038,36.08851],[139.30017,36.09122],[139.30121,36.0954],[139.29654,36.09864],[139.28818,36.09895]]]},"properties":{"pref":"埼玉県","county":"比企郡","city":"小川町","code5":"11343","code6":"113433"}},
{"type":"Feature","geometry":{"type":"Polygon","coordinates":[[[139.53659,35.94813],[139.54533,35.95111],[139.54103,35.9561],[139.53919,35.96218],[139.53484,35.96071],[139.52936,35.96257],[139.52295,35.96798],[139.52332,35.97715],[139.51834,35.97592],[139.51239,35.98397],[139.51445,35.98736],[139.50777,35.99602],[139.50251,35.99587],[139.50039,36.00189],[139.50384,36.00535],[139.50451,36.01204],[139.49964,36.01355],[139.48871,36.01815],[139.47916,36.01976],[139.47033,36.01806],[139.46118,36.01254],[139.45708,36.01189],[139.45464,36.00499],[139.44375,36.00521],[139.43454,36.00363],[139.42641,36.00602],[139.42291,36.00154],[139.42443,35.99794],[139.43019,35.998],[139.4338,35.99597],[139.43532,35.99066],[139.44016,35.98425],[139.45032,35.97922],[139.45422,35.98006],[139.45747,35.97267],[139.4677,35.96007],[139.47498,35.96067],[139.47947,35.95638],[139.49122,35.9548],[139.50282,35.95552],[139.52131,35.94999],[139.53659,35.94813]]]},"properties":{"pref":"埼玉県","county":"比企郡","city":"川島町","code5":"11346","code6":"113468"}},
{"type":"Feature","geometry":{"type":"Polygon","coordinates":[[[139.42159,36.06964],[139.4174,36.0634],[139.41619,36.05468],[139.41986,36.04842],[139.41797,36.03559],[139.42284,36.03421],[139.43546,36.0216],[139.43971,36.01337],[139.44964,36.014],[139.45708,36.01189],[139.46118,36.01254],[139.47033,36.01806],[139.47916,36.01976],[139.48871,36.01815],[139.49964,36.01355],[139.49884,36.01889],[139.50416,36.02374],[139.50502,36.0275],[139.5002,36.02923],[139.4943,36.03507],[139.48927,36.04248],[139.49119,36.04555],[139.4889,36.04977],[139.48227,36.05472],[139.48304,36.05906],[139.47282,36.06038],[139.46661,36.06976],[139.45925,36.07449],[139.45606,36.07983],[139.45095,36.08361],[139.44662,36.08359],[139.44544,36.08054],[139.42159,36.06964]]]},"properties":{"pref":"埼玉県","county":"比企郡","city":"吉見町","code5":"11347","code6":"113476"}},
{"type":"Feature","geometry":{"type":"Polygon","coordinates":[[[139.34272,36.00901],[139.33555,36.00661],[139.32508,36.01004],[139.3166,36.0091],[139.30912,36.0072],[139.30214,36.0023],[139.30196,35.9948],[139.29057,35.99836],[139.2882,35.99125],[139.30125,35.98528],[139.30867,35.97855],[139.30917,35.9762],[139.32137,35.96558],[139.33455,35.96193],[139.33939,35.96233],[139.34407,35.96769],[139.34888,35.96884],[139.35858,35.9766],[139.36666,35.97678],[139.37936,35.98161],[139.37791,35.98678],[139.37068,35.99262],[139.36905,35.99624],[139.35725,36.00274],[139.34723,36.00518],[139.34272,36.00901]]]},"properties":{"pref":"埼玉県","county":"比企郡","city":"鳩山町","code5":"11348","code6":"113484"}},
{"type":"Feature","geometry":{"type":"Polygon","coordinates":[[[139.17461,35.98905],[139.17019,35.98612],[139.17861,35.96973],[139.19038,35.96685],[139.19277,35.96793],[139.20153,35.96577],[139.20186,35.96259],[139.21293,35.95644],[139.21929,35.95894],[139.22048,35.96612],[139.23059,35.97453],[139.23417,35.97435],[139.24412,35.97886],[139.24681,35.98184],[139.25986,35.98644],[139.27171,35.98492],[139.28245,35.99189],[139.2882,35.99125],[139.29057,35.99836],[139.30196,35.9948],[139.30214,36.0023],[139.30912,36.0072],[139.3166,36.0091],[139.31597,36.015],[139.30955,36.01814],[139.30881,36.02085],[139.29624,36.03247],[139.28782,36.02926],[139.28318,36.03002],[139.2704,36.0293],[139.26554,36.03248],[139.25834,36.03361],[139.25105,36.03218],[139.24367,36.02772],[139.24302,36.02292],[139.23555,36.02305],[139.22963,36.01904],[139.22379,36.01087],[139.21562,36.01155],[139.21337,36.00609],[139.20223,36.00758],[139.19021,36.0061],[139.18566,35.99912],[139.1762,35.99773],[139.17461,35.98905]]]},"properties":{"pref":"埼玉県","county":"比企郡","city":"ときがわ町","code5":"11349","code6":"113492"}},
{"type":"Feature","geometry":{"type":"Polygon","coordinates":[[[139.10276,35.92722],[139.11674,35.93081],[139.12658,35.93625],[139.14219,35.93935],[139.14381,35.94207],[139.16255,35.9459],[139.16806,35.94964],[139.16868,35.95432],[139.17233,35.9596],[139.17675,35.96171],[139.17861,35.96973],[139.17019,35.98612],[139.17461,35.98905],[139.1638,35.99566],[139.15872,35.99481],[139.14339,35.99854],[139.14199,35.99773],[139.12602,36.00114],[139.11936,35.99757],[139.11504,35.99907],[139.11007,36.00762],[139.10637,36.00891],[139.1008,36.00497],[139.09453,35.9976],[139.0932,35.99089],[139.0871,35.9755],[139.08855,35.96565],[139.09301,35.95952],[139.09337,35.95508],[139.09706,35.95254],[139.09758,35.94139],[139.09548,35.93593],[139.10276,35.92722]]]},"properties":{"pref":"埼玉県","county":"秩父郡","city":"横瀬町","code5":"11361","code6":"113611"}},
{"type":"Feature","geometry":{"type":"Polygon","coordinates":[[[139.15274,36.02689],[139.15686,36.03183],[139.15609,36.04021],[139.15759,36.04564],[139.15594,36.05326],[139.15939,36.05887],[139.15699,36.06604],[139.15817,36.06979],[139.15579,36.08274],[139.15151,36.08838],[139.13928,36.09077],[139.12275,36.09037],[139.11419,36.08373],[139.10993,36.08732],[139.10223,36.08772],[139.09309,36.09102],[139.08765,36.09565],[139.08578,36.10243],[139.08664,36.11448],[139.08255,36.12163],[139.07124,36.11891],[139.05884,36.12345],[139.05684,36.1262],[139.04494,36.11619],[139.04329,36.10746],[139.03434,36.10054],[139.0224,36.10039],[139.01774,36.09822],[139.00776,36.09746],[139.0039,36.08794],[139.01427,36.0851],[139.01991,36.07802],[139.03051,36.07348],[139.0352,36.07002],[139.04022,36.07067],[139.04413,36.07442],[139.05524,36.07273],[139.05768,36.05986],[139.0718,36.06229],[139.08441,36.06607],[139.09106,36.06366],[139.09567,36.05772],[139.10785,36.05987],[139.11529,36.05573],[139.11895,36.04689],[139.11852,36.0427],[139.12409,36.03992],[139.12447,36.03535],[139.15274,36.02689]]]},"properties":{"pref":"埼玉県","county":"秩父郡","city":"皆野町","code5":"11362","code6":"113620"}},
{"type":"Feature","geometry":{"type":"Polygon","coordinates":[[[139.08255,36.12163],[139.08664,36.11448],[139.08578,36.10243],[139.08765,36.09565],[139.09309,36.09102],[139.10223,36.08772],[139.10993,36.08732],[139.11419,36.08373],[139.12275,36.09037],[139.13928,36.09077],[139.13718,36.09582],[139.13882,36.09997],[139.13967,36.11344],[139.13769,36.11774],[139.14586,36.12215],[139.14818,36.13315],[139.16062,36.13497],[139.1584,36.13945],[139.1537,36.14162],[139.13961,36.14354],[139.13666,36.14566],[139.12924,36.146],[139.12653,36.14835],[139.11967,36.14696],[139.11525,36.14313],[139.10597,36.14371],[139.10128,36.1365],[139.096,36.13794],[139.08803,36.13148],[139.08782,36.12385],[139.08255,36.12163]]]},"properties":{"pref":"埼玉県","county":"秩父郡","city":"長瀞町","code5":"11363","code6":"113638"}},
{"type":"Feature","geometry":{"type":"Polygon","coordinates":[[[138.82839,36.0373],[138.83878,36.0337],[138.84179,36.03048],[138.84096,36.02292],[138.83822,36.01854],[138.84063,36.01131],[138.84107,36.00056],[138.84977,35.99512],[138.85687,35.98678],[138.87482,35.97886],[138.8788,35.97506],[138.89632,35.9731],[138.8987,35.97542],[138.91833,35.9681],[138.92428,35.96697],[138.92702,35.97013],[138.93679,35.96918],[138.93973,35.96681],[138.95081,35.96988],[138.95128,35.97356],[138.95815,35.97965],[138.96307,35.97822],[138.97011,35.98089],[138.97392,35.9791],[138.98159,35.98291],[138.98562,35.97908],[138.99299,35.97618],[139.00383,35.98012],[139.0084,35.97968],[139.01277,35.97197],[139.01262,35.96661],[139.02887,35.96905],[139.0376,35.97403],[139.04355,35.97924],[139.04752,35.98883],[139.05049,35.992],[139.04078,36.00172],[139.04617,36.00444],[139.05099,36.00932],[139.04827,36.01522],[139.05023,36.01929],[139.042,36.02421],[139.03806,36.02052],[139.02414,36.01599],[139.01606,36.02336],[139.00935,36.02787],[139.00282,36.0276],[138.99683,36.03089],[138.98405,36.03434],[138.97973,36.03831],[138.96933,36.04328],[138.9725,36.05316],[138.95485,36.05975],[138.94557,36.06633],[138.94323,36.07159],[138.93341,36.07883],[138.93108,36.08812],[138.91631,36.09375],[138.89786,36.09065],[138.88671,36.08418],[138.88044,36.08332],[138.86433,36.07709],[138.86152,36.0714],[138.84604,36.06663],[138.84283,36.05582],[138.83727,36.04976],[138.83219,36.04773],[138.82911,36.04131],[138.82839,36.0373]]]},"properties":{"pref":"埼玉県","county":"秩父郡","city":"小鹿野町","code5":"11365","code6":"113654"}},
{"type":"Feature","geometry":{"type":"Polygon","coordinates":[[[139.1762,35.99773],[139.18566,35.99912],[139.19021,36.0061],[139.19077,36.01364],[139.18778,36.01722],[139.18574,36.02492],[139.18831,36.02811],[139.1994,36.02952],[139.21255,36.03971],[139.21727,36.04147],[139.22067,36.04563],[139.22561,36.04623],[139.23899,36.05126],[139.23655,36.05418],[139.22988,36.05325],[139.22547,36.05911],[139.21413,36.06297],[139.20298,36.06559],[139.1977,36.06869],[139.19004,36.06925],[139.17372,36.08535],[139.15748,36.09259],[139.15151,36.08838],[139.15579,36.08274],[139.15817,36.06979],[139.15699,36.06604],[139.15939,36.05887],[139.15594,36.05326],[139.15759,36.04564],[139.15609,36.04021],[139.15686,36.03183],[139.15274,36.02689],[139.1533,36.0233],[139.1633,36.01317],[139.16711,36.00576],[139.17283,36.00241],[139.1762,35.99773]]]},"properties":{"pref":"埼玉県","county":"秩父郡","city":"東秩父村","code5":"11369","code6":"113697"}},
{"type":"Feature","geometry":{"type":"Polygon","coordinates":[[[139.13666,36.14566],[139.13961,36.14354],[139.1537,36.14162],[139.1584,36.13945],[139.16062,36.13497],[139.16494,36.13202],[139.17674,36.13481],[139.18683,36.14184],[139.19285,36.14442],[139.19498,36.1542],[139.19774,36.15905],[139.1965,36.16475],[139.18969,36.17335],[139.19024,36.17667],[139.19334,36.18054],[139.2039,36.1842],[139.20864,36.1951],[139.20624,36.19941],[139.19689,36.19745],[139.19694,36.20866],[139.1941,36.20824],[139.18205,36.20929],[139.18019,36.21119],[139.17189,36.21055],[139.16301,36.20522],[139.16065,36.1951],[139.15652,36.19182],[139.15243,36.18237],[139.15448,36.17628],[139.14871,36.16831],[139.14288,36.16417],[139.14651,36.15299],[139.14263,36.15196],[139.13666,36.14566]]]},"properties":{"pref":"埼玉県","county":"児玉郡","city":"美里町","code5":"11381","code6":"113816"}},
{"type":"Feature","geometry":{"type":"Polygon","coordinates":[[[138.97649,36.11721],[138.97701,36.10976],[138.98304,36.10805],[138.99324,36.0953],[138.99699,36.0971],[139.00776,36.09746],[139.01774,36.09822],[139.0224,36.10039],[139.03434,36.10054],[139.04329,36.10746],[139.04494,36.11619],[139.05684,36.1262],[139.05818,36.13352],[139.06689,36.14311],[139.07197,36.14229],[139.07563,36.1481],[139.07031,36.14972],[139.0676,36.16207],[139.07632,36.16163],[139.07542,36.17686],[139.0827,36.18444],[139.08372,36.18953],[139.08957,36.188],[139.0965,36.19358],[139.10251,36.19328],[139.11037,36.19923],[139.10921,36.20723],[139.11444,36.20691],[139.12104,36.20359],[139.12438,36.1984],[139.12968,36.20206],[139.12787,36.20686],[139.1317,36.21647],[139.13594,36.22125],[139.12989,36.22323],[139.11918,36.21892],[139.1189,36.22251],[139.11335,36.22757],[139.11042,36.23562],[139.10135,36.23159],[139.09588,36.23463],[139.09651,36.23825],[139.08898,36.22843],[139.08173,36.21489],[139.07196,36.20382],[139.06332,36.19571],[139.06458,36.18938],[139.06305,36.18581],[139.05639,36.18052],[139.05872,36.16428],[139.06376,36.15885],[139.06056,36.15226],[139.04902,36.15243],[139.04272,36.14803],[139.04101,36.13554],[139.0424,36.12846],[139.03683,36.12619],[139.0312,36.12773],[139.02659,36.13278],[139.02109,36.13133],[139.01562,36.13407],[139.00673,36.12955],[139.00196,36.12533],[138.99304,36.12446],[138.9893,36.11792],[138.98569,36.11557],[138.97649,36.11721]]]},"properties":{"pref":"埼玉県","county":"児玉郡","city":"神川町","code5":"11383","code6":"113832"}},
{"type":"Feature","geometry":{"type":"Polygon","coordinates":[[[139.10771,36.26135],[139.1112,36.2585],[139.09651,36.23825],[139.09588,36.23463],[139.10135,36.23159],[139.11042,36.23562],[139.11335,36.22757],[139.1189,36.22251],[139.11918,36.21892],[139.12989,36.22323],[139.13594,36.22125],[139.14937,36.2269],[139.15972,36.23466],[139.16537,36.23455],[139.168,36.23918],[139.15937,36.24224],[139.1604,36.24636],[139.15559,36.25001],[139.16584,36.25972],[139.16202,36.26416],[139.16887,36.26783],[139.16947,36.27475],[139.1639,36.27891],[139.15902,36.27782],[139.13612,36.27842],[139.12966,36.2834],[139.127,36.27854],[139.11778,36.26876],[139.10771,36.26135]]]},"properties":{"pref":"埼玉県","county":"児玉郡","city":"上里町","code5":"11385","code6":"113859"}},
{"type":"Feature","geometry":{"type":"Polygon","coordinates":[[[139.19024,36.17667],[139.18969,36.17335],[139.1965,36.16475],[139.19774,36.15905],[139.19498,36.1542],[139.19285,36.14442],[139.18683,36.14184],[139.17674,36.13481],[139.16494,36.13202],[139.16062,36.13497],[139.14818,36.13315],[139.14586,36.12215],[139.13769,36.11774],[139.13967,36.11344],[139.13882,36.09997],[139.13718,36.09582],[139.13928,36.09077],[139.15151,36.08838],[139.15748,36.09259],[139.17372,36.08535],[139.19004,36.06925],[139.1977,36.06869],[139.20856,36.08385],[139.20991,36.08753],[139.21864,36.08686],[139.22359,36.09051],[139.22747,36.08803],[139.24244,36.08651],[139.24343,36.08364],[139.25205,36.08355],[139.25862,36.08706],[139.26416,36.09482],[139.27093,36.09865],[139.28001,36.09304],[139.28603,36.09248],[139.28818,36.09895],[139.28817,36.10669],[139.27569,36.10622],[139.26764,36.10977],[139.27501,36.11173],[139.27304,36.11925],[139.25454,36.11575],[139.25345,36.11917],[139.24488,36.11818],[139.2299,36.11814],[139.2241,36.11677],[139.2168,36.11911],[139.21654,36.12768],[139.21232,36.13217],[139.20092,36.13688],[139.19563,36.1368],[139.18669,36.13319],[139.18075,36.13651],[139.20543,36.1421],[139.21302,36.1474],[139.2212,36.15089],[139.22732,36.15069],[139.2327,36.15702],[139.2263,36.16125],[139.22047,36.15903],[139.20142,36.17115],[139.19024,36.17667]]]},"properties":{"pref":"埼玉県","county":"大里郡","city":"寄居町","code5":"11408","code6":"114081"}},
{"type":"Feature","geometry":{"type":"Polygon","coordinates":[[[139.74379,36.00054],[139.74653,36.0056],[139.75214,36.00884],[139.75182,36.0136],[139.74676,36.01557],[139.74407,36.01975],[139.7383,36.02126],[139.73221,36.02634],[139.72708,36.02624],[139.72144,36.03035],[139.7076,36.03583],[139.7084,36.03985],[139.69719,36.04867],[139.69929,36.05561],[139.68459,36.05762],[139.68898,36.04521],[139.68371,36.04208],[139.68992,36.02841],[139.69896,36.02778],[139.70449,36.02584],[139.70971,36.01945],[139.70539,36.01196],[139.71377,36.00485],[139.72462,35.99808],[139.74258,35.99866],[139.74379,36.00054]]]},"properties":{"pref":"埼玉県","county":"南埼玉郡","city":"宮代町","code5":"11442","code6":"114421"}},
{"type":"Feature","geometry":{"type":"Polygon","coordinates":[[[139.80695,36.04317],[139.7895,36.06183],[139.78864,36.05765],[139.78101,36.05649],[139.78022,36.04487],[139.77493,36.03865],[139.77198,36.04282],[139.76674,36.04321],[139.75959,36.05119],[139.75309,36.05499],[139.74637,36.05523],[139.74767,36.05029],[139.74496,36.04486],[139.73984,36.04055],[139.7254,36.04826],[139.72448,36.05358],[139.71659,36.05181],[139.70293,36.06236],[139.69929,36.05561],[139.69719,36.04867],[139.7084,36.03985],[139.7076,36.03583],[139.72144,36.03035],[139.72708,36.02624],[139.73221,36.02634],[139.7383,36.02126],[139.74407,36.01975],[139.74676,36.01557],[139.75182,36.0136],[139.75214,36.00884],[139.74653,36.0056],[139.74379,36.00054],[139.75753,35.9996],[139.76001,36.00484],[139.76882,36.00497],[139.77716,36.00659],[139.7835,36.01269],[139.78367,36.01745],[139.7804,36.01927],[139.77808,36.02605],[139.79876,36.03683],[139.8012,36.03307],[139.80695,36.04317]]]},"properties":{"pref":"埼玉県","county":"北葛飾郡","city":"杉戸町","code5":"11464","code6":"114642"}},
{"type":"Feature","geometry":{"type":"Polygon","coordinates":[[[139.80243,35.94143],[139.81106,35.93942],[139.81825,35.93176],[139.8149,35.92796],[139.80508,35.92363],[139.80748,35.91664],[139.81987,35.91451],[139.82323,35.90864],[139.83295,35.90789],[139.83728,35.90614],[139.84697,35.91105],[139.8408,35.91799],[139.83611,35.91535],[139.83714,35.92703],[139.83967,35.93331],[139.83025,35.93961],[139.83977,35.93889],[139.8451,35.93593],[139.84929,35.93835],[139.84646,35.94099],[139.83777,35.95391],[139.83501,35.96025],[139.83332,35.96896],[139.82467,35.96408],[139.82068,35.96597],[139.80942,35.95291],[139.80243,35.94143]]]},"properties":{"pref":"埼玉県","county":"北葛飾郡","city":"松伏町","code5":"11465","code6":"114651"}},
{"type":"Feature","geometry":{"type":"Polygon","coordinates":[[[139.54947,35.88723],[139.55145,35.88334],[139.55957,35.88055],[139.55891,35.8741],[139.56395,35.87191],[139.57647,35.87146],[139.57858,35.86448],[139.58514,35.8605],[139.59167,35.85225],[139.60013,35.84504],[139.60519,35.84409],[139.6074,35.83476],[139.61657,35.83399],[139.6187,35.82909],[139.62435,35.83465],[139.63083,35.82931],[139.63972,35.83187],[139.65,35.8328],[139.65375,35.83525],[139.65813,35.82963],[139.66329,35.82901],[139.66877,35.83566],[139.6771,35.83269],[139.67562,35.83912],[139.67892,35.84042],[139.67523,35.8505],[139.68805,35.84748],[139.69571,35.84858],[139.69806,35.8574],[139.70411,35.86232],[139.70671,35.85884],[139.71154,35.8617],[139.71786,35.86229],[139.71748,35.86756],[139.72021,35.87032],[139.71354,35.87671],[139.719,35.87905],[139.72246,35.8763],[139.73321,35.87539],[139.73861,35.86992],[139.74081,35.8763],[139.73749,35.88118],[139.74336,35.88594],[139.75229,35.88029],[139.74738,35.88757],[139.74524,35.89372],[139.75348,35.89578],[139.75482,35.90182],[139.75451,35.91048],[139.74943,35.91111],[139.74512,35.91749],[139.74824,35.92706],[139.75428,35.93546],[139.75195,35.94053],[139.74576,35.95226],[139.72967,35.95521],[139.71937,35.95221],[139.72057,35.95838],[139.71338,35.96558],[139.72151,35.96896],[139.72465,35.97272],[139.72656,35.98175],[139.72449,35.98573],[139.70786,35.99531],[139.69952,35.99801],[139.69563,36.00269],[139.69197,35.99903],[139.6956,35.99108],[139.68434,35.97561],[139.67206,35.97424],[139.66608,35.9756],[139.65354,35.96806],[139.65788,35.96394],[139.64888,35.96222],[139.64793,35.95499],[139.64529,35.95136],[139.63699,35.95518],[139.6257,35.95241],[139.61943,35.96346],[139.61362,35.96602],[139.60007,35.95948],[139.59235,35.96192],[139.58822,35.9603],[139.59896,35.94412],[139.59727,35.93663],[139.5864,35.94578],[139.58012,35.94316],[139.57494,35.94412],[139.56489,35.93883],[139.56512,35.93538],[139.56091,35.93192],[139.55667,35.93538],[139.54776,35.9342],[139.55074,35.92864],[139.54639,35.92591],[139.54619,35.92191],[139.55028,35.91762],[139.54854,35.91264],[139.55491,35.90368],[139.55103,35.896],[139.55714,35.89164],[139.55804,35.88855],[139.54947,35.88723]]]},"properties":{"pref":"埼玉県","city":"さいたま市","code5":"11100","code6":"111007"}}
]}