{"type":"FeatureCollection", "features": [
{"type":"Feature","geometry":{"type":"Polygon","coordinates":[[[140.7207,35.81347],[140.70274,35.80613],[140.69278,35.80436],[140.69027,35.79445],[140.69978,35.79283],[140.69962,35.78547],[140.70488,35.78377],[140.70427,35.77938],[140.69959,35.77424],[140.70736,35.77084],[140.70833,35.76134],[140.71647,35.75896],[140.72378,35.75867],[140.72765,35.75596],[140.724,35.7385],[140.72519,35.73324],[140.73212,35.73158],[140.74198,35.73821],[140.74832,35.72838],[140.74868,35.72361],[140.74002,35.72027],[140.73807,35.71379],[140.73476,35.71044],[140.73388,35.70534],[140.7414,35.70189],[140.75116,35.70138],[140.75563,35.70297],[140.76097,35.698],[140.76396,35.69882],[140.7801,35.70384],[140.81366,35.71287],[140.81377,35.71286],[140.83109,35.71359],[140.83804,35.71086],[140.84103,35.70266],[140.84574,35.69948],[140.85784,35.69471],[140.86159,35.69502],[140.86282,35.70269],[140.86654,35.71453],[140.87043,35.72017],[140.87044,35.7202],[140.87038,35.72024],[140.87035,35.72021],[140.87023,35.7202],[140.86743,35.72795],[140.8707,35.73334],[140.86551,35.74127],[140.85197,35.74467],[140.846,35.73989],[140.83766,35.73914],[140.82196,35.73945],[140.81535,35.74151],[140.80098,35.74966],[140.7882,35.75842],[140.75151,35.77903],[140.74167,35.78515],[140.72895,35.79665],[140.72587,35.80075],[140.7207,35.81347]]]},"properties":{"pref":"千葉県","city":"銚子市","code5":"12202","code6":"122025"}},
{"type":"Feature","geometry":{"type":"MultiPolygon","coordinates":[[[[139.97595,35.77385],[139.95728,35.77513],[139.94955,35.7698],[139.95179,35.76186],[139.94373,35.75839],[139.9436,35.7513],[139.93836,35.7486],[139.93378,35.74891],[139.93156,35.75982],[139.92162,35.75745],[139.92323,35.76162],[139.91605,35.76274],[139.90923,35.76679],[139.90338,35.76406],[139.90193,35.7558],[139.89493,35.75092],[139.89044,35.75028],[139.89945,35.74439],[139.90089,35.73746],[139.89794,35.73187],[139.89865,35.72345],[139.90398,35.71959],[139.90812,35.71386],[139.91621,35.708],[139.91874,35.69771],[139.90865,35.68551],[139.90379,35.68312],[139.89356,35.682],[139.88795,35.67999],[139.88607,35.67114],[139.89312,35.67258],[139.9009,35.66886],[139.90215,35.66606],[139.91828,35.65546],[139.9208,35.66052],[139.93027,35.66647],[139.94764,35.66955],[139.94509,35.67296],[139.93665,35.6733],[139.94674,35.68091],[139.95308,35.67178],[139.95928,35.67945],[139.96325,35.68145],[139.96101,35.70188],[139.94704,35.70762],[139.94197,35.70146],[139.93873,35.70252],[139.94243,35.71595],[139.94924,35.71591],[139.95705,35.71977],[139.96308,35.73535],[139.97294,35.73294],[139.9758,35.73509],[139.97345,35.73952],[139.97458,35.74509],[139.97284,35.74878],[139.97494,35.75172],[139.97102,35.7575],[139.97459,35.76105],[139.97595,35.77385]]],[[[139.96369,35.67226],[139.96275,35.68073],[139.95853,35.67311],[139.96369,35.67226]]]]},"properties":{"pref":"千葉県","city":"市川市","code5":"12203","code6":"122033"}},
{"type":"Feature","geometry":{"type":"MultiPolygon","coordinates":[[[[139.96325,35.68145],[139.97485,35.68337],[139.98276,35.68161],[139.98617,35.68993],[139.98699,35.684],[139.98382,35.67713],[139.99154,35.67494],[139.98458,35.67145],[139.98587,35.66384],[140.00194,35.6656],[140.00493,35.66881],[139.99795,35.6784],[140.00881,35.69542],[140.01385,35.69201],[140.02887,35.6909],[140.03549,35.69626],[140.04355,35.69285],[140.05074,35.69191],[140.05303,35.69654],[140.05858,35.69444],[140.06391,35.69645],[140.06188,35.70487],[140.06833,35.70844],[140.06426,35.71099],[140.07172,35.71712],[140.06292,35.72073],[140.06764,35.73422],[140.06391,35.74238],[140.06599,35.74845],[140.07434,35.74951],[140.07762,35.75749],[140.08602,35.76577],[140.08385,35.77055],[140.08716,35.7727],[140.08628,35.78113],[140.08956,35.784],[140.08271,35.79169],[140.07322,35.79866],[140.06945,35.79907],[140.06743,35.793],[140.0672,35.78534],[140.06177,35.77629],[140.03987,35.7667],[140.03048,35.77141],[140.02103,35.76549],[140.02251,35.76203],[140.01438,35.76082],[140.01803,35.75464],[140.00839,35.74818],[140.00673,35.74283],[139.99946,35.74408],[139.99326,35.74178],[139.98845,35.74381],[139.98306,35.75116],[139.97284,35.74878],[139.97458,35.74509],[139.97345,35.73952],[139.9758,35.73509],[139.97294,35.73294],[139.96308,35.73535],[139.95705,35.71977],[139.94924,35.71591],[139.94243,35.71595],[139.93873,35.70252],[139.94197,35.70146],[139.94704,35.70762],[139.96101,35.70188],[139.96325,35.68145]]],[[[139.96369,35.67226],[139.97199,35.6709],[139.97945,35.66982],[139.97766,35.6795],[139.96275,35.68073],[139.96369,35.67226]]],[[[139.99404,35.75536],[139.98889,35.75174],[139.98683,35.74693],[139.99092,35.74326],[139.99556,35.74275],[139.99953,35.75059],[139.99404,35.75536]]]]},"properties":{"pref":"千葉県","city":"船橋市","code5":"12204","code6":"122041"}},
{"type":"Feature","geometry":{"type":"Polygon","coordinates":[[[139.82452,34.91126],[139.82885,34.91262],[139.83349,34.91067],[139.84205,34.91193],[139.84744,34.91486],[139.85272,34.91472],[139.8585,34.9234],[139.86617,34.92049],[139.87862,34.92482],[139.88199,34.92381],[139.89105,34.93091],[139.89783,34.92547],[139.9043,34.92821],[139.914,34.92859],[139.9185,34.92706],[139.92289,34.9326],[139.92686,34.94055],[139.91809,34.94501],[139.90986,34.9462],[139.90293,34.95802],[139.9041,34.96655],[139.90753,34.97132],[139.9102,34.97951],[139.91924,34.98055],[139.92911,34.98401],[139.93118,34.99245],[139.94062,35.00101],[139.94117,35.00466],[139.93315,35.01675],[139.9364,35.02152],[139.93337,35.02607],[139.92006,35.01738],[139.90482,35.01813],[139.90455,35.01041],[139.90154,35.00905],[139.88729,35.00735],[139.885,35.01041],[139.88586,35.01884],[139.89282,35.01969],[139.88392,35.02515],[139.88347,35.04078],[139.87668,35.04641],[139.87144,35.04486],[139.86951,35.04046],[139.86218,35.03822],[139.85322,35.03211],[139.83305,35.03228],[139.84047,35.02805],[139.84142,35.02554],[139.8472,35.02555],[139.85446,35.02009],[139.85803,35.01102],[139.8584,35.0018],[139.85548,34.99043],[139.84968,34.98541],[139.84175,34.98622],[139.84227,34.99038],[139.82898,34.99092],[139.82143,34.97917],[139.81232,34.97904],[139.7968,34.9738],[139.78617,34.97282],[139.78167,34.97641],[139.77437,34.97731],[139.76506,34.9748],[139.75529,34.97662],[139.75419,34.96907],[139.75319,34.96678],[139.75718,34.96282],[139.75902,34.96096],[139.75904,34.96068],[139.76863,34.95612],[139.78099,34.95489],[139.79352,34.95125],[139.80711,34.94578],[139.8159,34.94096],[139.82509,34.93259],[139.82745,34.92725],[139.824,34.92208],[139.82271,34.91468],[139.82452,34.91126]]]},"properties":{"pref":"千葉県","city":"館山市","code5":"12205","code6":"122050"}},
{"type":"Feature","geometry":{"type":"Polygon","coordinates":[[[139.94861,35.44218],[139.93983,35.44307],[139.92177,35.43989],[139.90327,35.43148],[139.90179,35.42513],[139.89695,35.42323],[139.90154,35.41477],[139.89743,35.41229],[139.9022,35.40411],[139.90221,35.39946],[139.90665,35.3893],[139.91328,35.39138],[139.91767,35.38244],[139.91095,35.38071],[139.90448,35.37498],[139.90742,35.37034],[139.90235,35.36818],[139.89984,35.37211],[139.89466,35.36989],[139.88781,35.37089],[139.89132,35.36149],[139.88752,35.36149],[139.89735,35.34708],[139.90024,35.33733],[139.90461,35.33521],[139.91423,35.34067],[139.92685,35.33931],[139.93591,35.33727],[139.95338,35.32986],[139.96427,35.33153],[139.96577,35.32691],[139.97217,35.32257],[139.97384,35.31839],[139.97941,35.31736],[139.99731,35.31743],[139.99808,35.32588],[140.00491,35.32684],[140.01029,35.31887],[140.01672,35.31886],[140.02116,35.32396],[140.02084,35.32915],[140.02925,35.3305],[140.03305,35.33318],[140.04179,35.33593],[140.04531,35.34244],[140.04427,35.34833],[140.0516,35.35535],[140.0587,35.35433],[140.07073,35.34581],[140.07709,35.34687],[140.08333,35.34585],[140.08698,35.3379],[140.09393,35.32832],[140.1,35.32843],[140.10418,35.32594],[140.10915,35.31919],[140.10843,35.32446],[140.11336,35.32923],[140.11691,35.32894],[140.1211,35.33311],[140.12141,35.33716],[140.12866,35.34327],[140.12948,35.34727],[140.12383,35.35161],[140.12298,35.35821],[140.11469,35.37061],[140.10564,35.3793],[140.09938,35.37513],[140.0899,35.38086],[140.092,35.38423],[140.09214,35.3881],[140.09118,35.38477],[140.08527,35.38246],[140.08142,35.38532],[140.06523,35.38276],[140.06091,35.37882],[140.05349,35.37816],[140.0476,35.38059],[140.04234,35.37106],[140.03535,35.37128],[140.0329,35.36122],[140.02406,35.36037],[140.02078,35.35211],[140.01294,35.34361],[140.00812,35.3453],[140.00164,35.34468],[139.99676,35.35067],[140.00076,35.35298],[140.00321,35.35981],[139.99887,35.36452],[139.99849,35.36846],[140.00214,35.37252],[140.00139,35.38008],[140.00445,35.38599],[139.99928,35.38756],[139.99307,35.39377],[140.00086,35.3968],[140.00659,35.39368],[140.01046,35.39827],[140.01175,35.40434],[139.99482,35.40515],[139.99072,35.40844],[139.98019,35.40931],[139.97533,35.40751],[139.97129,35.40971],[139.97531,35.41704],[139.96797,35.42013],[139.96309,35.41432],[139.95666,35.41058],[139.94336,35.41687],[139.9425,35.42633],[139.94646,35.42812],[139.94591,35.43256],[139.95008,35.43775],[139.94861,35.44218]]]},"properties":{"pref":"千葉県","city":"木更津市","code5":"12206","code6":"122068"}},
{"type":"Feature","geometry":{"type":"Polygon","coordinates":[[[139.89378,35.78275],[139.89342,35.77832],[139.88285,35.77353],[139.87946,35.76752],[139.88321,35.75862],[139.88998,35.75077],[139.89044,35.75028],[139.89493,35.75092],[139.90193,35.7558],[139.90338,35.76406],[139.90923,35.76679],[139.91605,35.76274],[139.92323,35.76162],[139.92162,35.75745],[139.93156,35.75982],[139.93378,35.74891],[139.93836,35.7486],[139.9436,35.7513],[139.94373,35.75839],[139.95179,35.76186],[139.94955,35.7698],[139.95728,35.77513],[139.97595,35.77385],[139.98365,35.77339],[139.98432,35.77617],[139.97294,35.78016],[139.96867,35.77819],[139.96841,35.78631],[139.9846,35.78847],[139.98897,35.79076],[139.99578,35.78735],[140.00111,35.79115],[139.99801,35.8006],[139.98904,35.80681],[139.97879,35.7983],[139.96734,35.80271],[139.96737,35.80799],[139.95849,35.80927],[139.95246,35.81725],[139.95052,35.82784],[139.94149,35.83487],[139.93585,35.83963],[139.92832,35.84977],[139.92259,35.84902],[139.91774,35.8452],[139.91817,35.84161],[139.91276,35.83666],[139.89745,35.83007],[139.88851,35.8302],[139.88799,35.82433],[139.89153,35.81934],[139.88884,35.80748],[139.89083,35.80057],[139.88852,35.79645],[139.89378,35.78275]]]},"properties":{"pref":"千葉県","city":"松戸市","code5":"12207","code6":"122076"}},
{"type":"Feature","geometry":{"type":"Polygon","coordinates":[[[139.92366,35.97044],[139.91672,35.97033],[139.89938,35.97752],[139.88416,35.98883],[139.88233,35.99145],[139.87824,36.0076],[139.85708,36.02943],[139.84736,36.03386],[139.83724,36.0411],[139.82017,36.05718],[139.81367,36.06243],[139.80833,36.07041],[139.80379,36.08686],[139.79745,36.09636],[139.78678,36.1041],[139.77797,36.09856],[139.77622,36.09077],[139.77987,36.08276],[139.78333,36.06951],[139.7895,36.06183],[139.80695,36.04317],[139.81537,36.03683],[139.81727,36.02973],[139.8134,36.02313],[139.81691,36.00239],[139.81426,35.99706],[139.82674,35.98315],[139.82524,35.97553],[139.82723,35.97136],[139.83332,35.96896],[139.83501,35.96025],[139.83777,35.95391],[139.84646,35.94099],[139.84929,35.93835],[139.86092,35.93249],[139.86742,35.92555],[139.87187,35.91587],[139.87476,35.91294],[139.89144,35.91543],[139.90069,35.91479],[139.90196,35.91808],[139.91241,35.9151],[139.91724,35.91913],[139.92017,35.91689],[139.92834,35.91804],[139.93507,35.92532],[139.94899,35.93118],[139.9519,35.93585],[139.93864,35.94057],[139.93166,35.95077],[139.93804,35.96201],[139.93404,35.96838],[139.92366,35.97044]]]},"properties":{"pref":"千葉県","city":"野田市","code5":"12208","code6":"122084"}},
{"type":"Feature","geometry":{"type":"Polygon","coordinates":[[[140.25634,35.49431],[140.25118,35.49174],[140.25183,35.48793],[140.24752,35.48608],[140.24849,35.48175],[140.24912,35.47568],[140.25351,35.46968],[140.24977,35.46597],[140.24728,35.45096],[140.24885,35.43906],[140.25769,35.43296],[140.25975,35.42505],[140.26257,35.42107],[140.26047,35.4113],[140.25373,35.4073],[140.25728,35.39894],[140.26075,35.39671],[140.27199,35.40182],[140.27777,35.40324],[140.27984,35.39647],[140.27582,35.39257],[140.27695,35.38289],[140.29805,35.37947],[140.30797,35.38222],[140.31221,35.39141],[140.32076,35.392],[140.31581,35.40324],[140.31837,35.40474],[140.32304,35.40693],[140.32551,35.40783],[140.32399,35.41828],[140.32961,35.41978],[140.34192,35.4286],[140.34662,35.42874],[140.34813,35.43364],[140.34049,35.43629],[140.34009,35.44178],[140.34234,35.45321],[140.35005,35.45556],[140.35044,35.46167],[140.35602,35.46253],[140.36106,35.4664],[140.36082,35.47158],[140.36341,35.47415],[140.36963,35.47431],[140.37297,35.46925],[140.37761,35.46861],[140.38136,35.47549],[140.37834,35.48409],[140.37888,35.4875],[140.37236,35.49433],[140.36325,35.49555],[140.3571,35.49465],[140.35218,35.49663],[140.34751,35.48486],[140.33573,35.49033],[140.32596,35.49215],[140.32963,35.4981],[140.32278,35.50124],[140.32083,35.49934],[140.31332,35.50184],[140.29036,35.49644],[140.28037,35.49858],[140.27718,35.49469],[140.27211,35.4936],[140.27117,35.49949],[140.26697,35.5018],[140.2597,35.5017],[140.2624,35.49557],[140.25634,35.49431]]]},"properties":{"pref":"千葉県","city":"茂原市","code5":"12210","code6":"122106"}},
{"type":"Feature","geometry":{"type":"Polygon","coordinates":[[[140.28936,35.87143],[140.28225,35.85914],[140.27964,35.84663],[140.28262,35.83215],[140.28612,35.82857],[140.27876,35.81862],[140.26799,35.82324],[140.26642,35.8195],[140.25561,35.81351],[140.25724,35.81141],[140.25162,35.80031],[140.24921,35.78895],[140.25036,35.78486],[140.25964,35.77796],[140.25789,35.76418],[140.2633,35.75477],[140.27383,35.75462],[140.2794,35.75743],[140.28388,35.75144],[140.28972,35.75215],[140.29204,35.75745],[140.30315,35.74776],[140.30891,35.75069],[140.31403,35.75557],[140.31229,35.75974],[140.3195,35.7737],[140.32504,35.77723],[140.33181,35.76529],[140.34241,35.76179],[140.35525,35.7515],[140.35653,35.74557],[140.36244,35.74193],[140.36282,35.73198],[140.36787,35.73125],[140.36805,35.73941],[140.37668,35.7379],[140.37941,35.72874],[140.38702,35.72327],[140.39328,35.72773],[140.38676,35.73146],[140.38504,35.74072],[140.39153,35.7403],[140.39964,35.74207],[140.40195,35.75333],[140.39586,35.75671],[140.3998,35.76339],[140.39347,35.76789],[140.3964,35.77244],[140.40294,35.77485],[140.40225,35.78333],[140.40749,35.78653],[140.41404,35.78532],[140.41781,35.78129],[140.41705,35.77577],[140.42385,35.77528],[140.43621,35.78079],[140.43308,35.78603],[140.4431,35.78857],[140.44513,35.79969],[140.44447,35.80338],[140.45192,35.80712],[140.45226,35.81131],[140.46095,35.8148],[140.46798,35.82063],[140.46597,35.82241],[140.45502,35.81809],[140.45596,35.82625],[140.46853,35.8339],[140.46415,35.83795],[140.46392,35.84528],[140.47222,35.84423],[140.47249,35.8509],[140.46592,35.85223],[140.46307,35.85498],[140.46038,35.86277],[140.45603,35.8652],[140.45239,35.87037],[140.44657,35.86513],[140.44047,35.86786],[140.43732,35.86326],[140.42812,35.86364],[140.42245,35.86631],[140.417,35.86562],[140.40308,35.85346],[140.39436,35.85279],[140.39417,35.85758],[140.39796,35.8607],[140.40093,35.87224],[140.392,35.88313],[140.38503,35.88504],[140.38386,35.8894],[140.37549,35.8952],[140.37589,35.90237],[140.36372,35.89939],[140.35308,35.89194],[140.34839,35.88321],[140.33497,35.87239],[140.32305,35.86606],[140.31705,35.86433],[140.30829,35.86449],[140.29996,35.86669],[140.28936,35.87143]]]},"properties":{"pref":"千葉県","city":"成田市","code5":"12211","code6":"122114"}},
{"type":"Feature","geometry":{"type":"Polygon","coordinates":[[[140.15264,35.68929],[140.15078,35.69108],[140.1469,35.69283],[140.1488,35.70084],[140.1592,35.69559],[140.17028,35.69567],[140.17448,35.69951],[140.17745,35.69481],[140.19259,35.7043],[140.20657,35.7055],[140.20844,35.6977],[140.20212,35.6862],[140.20359,35.68059],[140.2091,35.67572],[140.208,35.67172],[140.21493,35.66275],[140.21332,35.65457],[140.21964,35.65197],[140.22304,35.64164],[140.22874,35.63314],[140.24128,35.6313],[140.24888,35.62857],[140.25096,35.62558],[140.25776,35.62547],[140.25659,35.62886],[140.25846,35.64455],[140.25343,35.64704],[140.24984,35.65194],[140.25882,35.65857],[140.25685,35.66373],[140.25946,35.66732],[140.26667,35.66633],[140.26968,35.67106],[140.26774,35.67699],[140.27593,35.67984],[140.28284,35.67857],[140.28153,35.68863],[140.28703,35.69154],[140.29101,35.70152],[140.29147,35.70611],[140.28438,35.7025],[140.27826,35.70774],[140.27555,35.70351],[140.26728,35.69978],[140.26361,35.70182],[140.26412,35.70601],[140.25968,35.71449],[140.25312,35.71402],[140.2494,35.72227],[140.25713,35.72549],[140.2554,35.72919],[140.2621,35.73125],[140.25892,35.73971],[140.25436,35.74004],[140.22381,35.75738],[140.20912,35.76625],[140.20527,35.76487],[140.18864,35.74567],[140.1822,35.74805],[140.16753,35.74995],[140.15188,35.75979],[140.14556,35.75483],[140.1384,35.75408],[140.14729,35.74873],[140.14029,35.74475],[140.1385,35.73659],[140.14219,35.72526],[140.13403,35.71889],[140.13131,35.71144],[140.13961,35.70287],[140.13679,35.69755],[140.14353,35.69194],[140.14748,35.69209],[140.14939,35.6916],[140.15264,35.68929]]]},"properties":{"pref":"千葉県","city":"佐倉市","code5":"12212","code6":"122122"}},
{"type":"Feature","geometry":{"type":"Polygon","coordinates":[[[140.28709,35.57291],[140.28873,35.57003],[140.28866,35.56637],[140.29421,35.56063],[140.30365,35.55386],[140.314,35.5574],[140.32382,35.55787],[140.32376,35.5519],[140.33052,35.54706],[140.33627,35.53716],[140.34329,35.53298],[140.34735,35.54031],[140.35399,35.53653],[140.35584,35.53043],[140.36098,35.5305],[140.35676,35.52054],[140.3629,35.51523],[140.3709,35.51468],[140.38127,35.51225],[140.38286,35.50898],[140.37979,35.50484],[140.38503,35.50012],[140.39071,35.50976],[140.40092,35.50586],[140.40412,35.50919],[140.41038,35.51864],[140.39142,35.52667],[140.3963,35.53249],[140.40041,35.52862],[140.40937,35.52999],[140.41509,35.52711],[140.41909,35.53277],[140.41918,35.53949],[140.42207,35.54713],[140.42119,35.55243],[140.42728,35.55141],[140.42851,35.55771],[140.43269,35.56043],[140.43501,35.5677],[140.4285,35.58221],[140.42534,35.59586],[140.41927,35.59492],[140.41845,35.59062],[140.4133,35.58817],[140.40892,35.59157],[140.40408,35.58709],[140.40002,35.58923],[140.39375,35.58541],[140.3848,35.59282],[140.38544,35.59998],[140.38289,35.60443],[140.37496,35.60297],[140.37136,35.60551],[140.36599,35.60226],[140.36087,35.6017],[140.35377,35.60977],[140.34721,35.60549],[140.3309,35.60646],[140.33751,35.61767],[140.33278,35.62168],[140.33515,35.62475],[140.32919,35.63151],[140.32558,35.62616],[140.31648,35.63088],[140.30779,35.62474],[140.31272,35.62164],[140.31485,35.61676],[140.30885,35.61291],[140.31526,35.60744],[140.3241,35.60896],[140.3254,35.60722],[140.32121,35.60298],[140.32434,35.5926],[140.33711,35.5854],[140.31905,35.58606],[140.29249,35.57267],[140.28709,35.57291]]]},"properties":{"pref":"千葉県","city":"東金市","code5":"12213","code6":"122131"}},
{"type":"Feature","geometry":{"type":"Polygon","coordinates":[[[140.69959,35.77424],[140.69176,35.78131],[140.68734,35.78286],[140.68333,35.77766],[140.67326,35.77175],[140.67067,35.76541],[140.66191,35.7749],[140.6548,35.78824],[140.64403,35.78764],[140.63841,35.78589],[140.62961,35.79466],[140.62457,35.79367],[140.62586,35.78727],[140.61684,35.78106],[140.60926,35.78169],[140.60184,35.77418],[140.59753,35.78007],[140.59239,35.77793],[140.58985,35.77341],[140.57639,35.76679],[140.57197,35.76623],[140.56564,35.75516],[140.56892,35.75309],[140.57189,35.74696],[140.56634,35.74094],[140.57388,35.73362],[140.58434,35.73959],[140.59262,35.73765],[140.59337,35.74136],[140.60431,35.73751],[140.59952,35.73367],[140.59826,35.72193],[140.59909,35.71684],[140.59143,35.71808],[140.58504,35.71662],[140.57858,35.7128],[140.58185,35.70864],[140.59149,35.71135],[140.59269,35.7082],[140.60436,35.7087],[140.6066,35.7011],[140.60228,35.69769],[140.60309,35.69204],[140.6099,35.6898],[140.60934,35.68241],[140.61207,35.67536],[140.62163,35.67829],[140.62498,35.67266],[140.64419,35.68332],[140.6646,35.69168],[140.69252,35.69941],[140.71456,35.70043],[140.71993,35.69893],[140.72404,35.69364],[140.73892,35.69229],[140.75012,35.69322],[140.761,35.69782],[140.76098,35.69793],[140.76097,35.698],[140.75563,35.70297],[140.75116,35.70138],[140.7414,35.70189],[140.73388,35.70534],[140.73476,35.71044],[140.73807,35.71379],[140.74002,35.72027],[140.74868,35.72361],[140.74832,35.72838],[140.74198,35.73821],[140.73212,35.73158],[140.72519,35.73324],[140.724,35.7385],[140.72765,35.75596],[140.72378,35.75867],[140.71647,35.75896],[140.70833,35.76134],[140.70736,35.77084],[140.69959,35.77424]]]},"properties":{"pref":"千葉県","city":"旭市","code5":"12215","code6":"122157"}},
{"type":"Feature","geometry":{"type":"Polygon","coordinates":[[[140.08156,35.69454],[140.07832,35.69555],[140.07716,35.70096],[140.0851,35.70384],[140.06833,35.70844],[140.06188,35.70487],[140.06391,35.69645],[140.05858,35.69444],[140.05303,35.69654],[140.05074,35.69191],[140.04355,35.69285],[140.03549,35.69626],[140.02887,35.6909],[140.01385,35.69201],[140.00881,35.69542],[139.99795,35.6784],[140.00493,35.66881],[140.00194,35.6656],[140.00295,35.65978],[139.99473,35.66104],[139.9865,35.66011],[139.98746,35.65447],[140.00476,35.65642],[140.008,35.65887],[140.01368,35.65752],[140.01965,35.65248],[140.03495,35.66963],[140.04176,35.67785],[140.04803,35.67645],[140.05513,35.67698],[140.05758,35.67974],[140.06592,35.67676],[140.07736,35.68845],[140.08156,35.69454]]]},"properties":{"pref":"千葉県","city":"習志野市","code5":"12216","code6":"122165"}},
{"type":"Feature","geometry":{"type":"Polygon","coordinates":[[[139.9952,35.90957],[139.98579,35.91481],[139.97746,35.92271],[139.96546,35.92673],[139.9519,35.93585],[139.94899,35.93118],[139.93507,35.92532],[139.92834,35.91804],[139.92017,35.91689],[139.92049,35.90603],[139.9186,35.89976],[139.91337,35.8983],[139.9148,35.89413],[139.92124,35.89028],[139.92139,35.88708],[139.92617,35.88345],[139.93006,35.88667],[139.92126,35.89658],[139.92257,35.90049],[139.9298,35.90077],[139.93467,35.89251],[139.93346,35.8855],[139.94024,35.88514],[139.94006,35.87567],[139.94168,35.86906],[139.93119,35.86859],[139.93036,35.86472],[139.94277,35.86439],[139.94816,35.85937],[139.94253,35.85814],[139.9341,35.85315],[139.94143,35.85174],[139.94721,35.85457],[139.9526,35.85125],[139.95219,35.84149],[139.95751,35.83514],[139.95321,35.83394],[139.94532,35.83688],[139.94149,35.83487],[139.95052,35.82784],[139.95246,35.81725],[139.95849,35.80927],[139.96737,35.80799],[139.96734,35.80271],[139.97879,35.7983],[139.98904,35.80681],[139.99801,35.8006],[140.00193,35.80393],[140.0077,35.80316],[140.02254,35.79608],[140.01889,35.78349],[140.02991,35.79895],[140.0323,35.81182],[140.04168,35.8243],[140.04968,35.83219],[140.05729,35.83535],[140.06966,35.83378],[140.07524,35.83108],[140.08916,35.83018],[140.0929,35.82606],[140.09955,35.82815],[140.09915,35.83129],[140.10926,35.83412],[140.11194,35.8434],[140.11136,35.84789],[140.10099,35.8515],[140.0651,35.8554],[140.06008,35.85086],[140.05177,35.85338],[140.04252,35.85942],[140.03275,35.85646],[140.0249,35.86097],[140.00831,35.8618],[139.99353,35.86755],[139.9911,35.87119],[139.99278,35.87745],[139.99862,35.88374],[140.0099,35.88721],[140.01627,35.89599],[140.02179,35.89022],[140.03111,35.90061],[140.01886,35.91005],[140.01322,35.9111],[139.99869,35.90915],[139.9952,35.90957]]]},"properties":{"pref":"千葉県","city":"柏市","code5":"12217","code6":"122173"}},
{"type":"Feature","geometry":{"type":"Polygon","coordinates":[[[140.31791,35.21456],[140.313,35.21962],[140.30134,35.22627],[140.29707,35.23366],[140.29701,35.23757],[140.2881,35.24289],[140.28102,35.24242],[140.27387,35.23919],[140.27059,35.23438],[140.26112,35.23347],[140.25625,35.23507],[140.25173,35.23307],[140.25917,35.22753],[140.25865,35.22282],[140.25445,35.22268],[140.25041,35.21634],[140.24562,35.21408],[140.2444,35.20091],[140.24588,35.19237],[140.23834,35.1801],[140.231,35.18112],[140.22748,35.1863],[140.22176,35.18673],[140.21286,35.17975],[140.20538,35.18411],[140.20063,35.18338],[140.19873,35.17791],[140.18895,35.17574],[140.18792,35.17018],[140.19665,35.17167],[140.20196,35.17029],[140.20774,35.16184],[140.20767,35.15448],[140.21324,35.15036],[140.21279,35.14661],[140.21636,35.14126],[140.21216,35.13632],[140.21604,35.13399],[140.21175,35.12608],[140.2136,35.12122],[140.21181,35.11447],[140.22006,35.11661],[140.23251,35.11513],[140.23765,35.11832],[140.23435,35.12185],[140.24713,35.12795],[140.24764,35.13309],[140.25316,35.13389],[140.25787,35.13795],[140.26353,35.13446],[140.27416,35.13727],[140.2768,35.1343],[140.28585,35.13421],[140.29071,35.14154],[140.29514,35.14558],[140.29722,35.15053],[140.30439,35.15121],[140.31248,35.14715],[140.31251,35.13858],[140.31784,35.13766],[140.32519,35.13966],[140.32737,35.15123],[140.33277,35.1576],[140.33199,35.1617],[140.33514,35.16676],[140.34459,35.17272],[140.34677,35.17614],[140.33923,35.17545],[140.33214,35.17751],[140.32401,35.17432],[140.31584,35.1767],[140.31033,35.18956],[140.30542,35.19022],[140.30346,35.1963],[140.3083,35.20188],[140.30828,35.2081],[140.31145,35.21161],[140.31791,35.21456]]]},"properties":{"pref":"千葉県","city":"勝浦市","code5":"12218","code6":"122181"}},
{"type":"Feature","geometry":{"type":"Polygon","coordinates":[[[140.11549,35.5506],[140.11234,35.54989],[140.09804,35.55501],[140.09233,35.55448],[140.09008,35.54285],[140.10106,35.53846],[140.09609,35.5354],[140.08434,35.54257],[140.07226,35.55012],[140.06449,35.54281],[140.06131,35.54373],[140.05395,35.53509],[140.06068,35.53006],[140.05772,35.52658],[140.05008,35.53094],[140.03774,35.51627],[140.04586,35.51167],[140.04223,35.50733],[140.03386,35.51184],[140.02523,35.50165],[140.03623,35.49529],[140.03304,35.49167],[140.02191,35.49678],[140.01211,35.48519],[140.01785,35.48052],[140.01835,35.47258],[140.02274,35.46755],[140.03023,35.45697],[140.03979,35.44555],[140.04303,35.43769],[140.04,35.43332],[140.04101,35.42953],[140.03262,35.42357],[140.04376,35.42362],[140.05132,35.42587],[140.05967,35.42574],[140.07693,35.43011],[140.08071,35.43232],[140.08994,35.42101],[140.08948,35.41221],[140.09277,35.4067],[140.09003,35.39954],[140.09253,35.39582],[140.09214,35.3881],[140.092,35.38423],[140.0899,35.38086],[140.09938,35.37513],[140.10564,35.3793],[140.11469,35.37061],[140.12298,35.35821],[140.12383,35.35161],[140.12948,35.34727],[140.12866,35.34327],[140.12141,35.33716],[140.1211,35.33311],[140.11691,35.32894],[140.11336,35.32923],[140.10843,35.32446],[140.10915,35.31919],[140.10157,35.31731],[140.1079,35.31256],[140.11817,35.31617],[140.12207,35.3138],[140.12215,35.30737],[140.11743,35.30518],[140.11439,35.28962],[140.12016,35.2829],[140.11841,35.27345],[140.12005,35.26626],[140.11842,35.26321],[140.12322,35.25136],[140.12221,35.24777],[140.12517,35.24394],[140.13017,35.24338],[140.13219,35.23797],[140.13713,35.2368],[140.14124,35.23121],[140.1429,35.23624],[140.14873,35.24013],[140.15241,35.25004],[140.1627,35.25516],[140.17125,35.25526],[140.17581,35.25948],[140.17489,35.26493],[140.17777,35.26969],[140.17793,35.27461],[140.18512,35.27788],[140.18933,35.27695],[140.19687,35.28448],[140.20282,35.28771],[140.20423,35.2938],[140.19876,35.29897],[140.20066,35.30641],[140.21249,35.30183],[140.22554,35.3068],[140.22738,35.31087],[140.22525,35.31673],[140.22008,35.32782],[140.21255,35.33356],[140.21384,35.34021],[140.20911,35.34637],[140.20792,35.35609],[140.20585,35.3597],[140.20936,35.36562],[140.20156,35.3661],[140.19792,35.37011],[140.19979,35.37781],[140.20687,35.37872],[140.20014,35.39094],[140.19527,35.39212],[140.18858,35.40418],[140.19023,35.40739],[140.18085,35.41544],[140.18225,35.4206],[140.17475,35.43018],[140.17922,35.43518],[140.18457,35.4373],[140.18653,35.44793],[140.1706,35.45654],[140.17454,35.46054],[140.17406,35.46901],[140.18394,35.46913],[140.18609,35.47385],[140.19439,35.46984],[140.2016,35.47463],[140.20276,35.47898],[140.20778,35.48008],[140.2063,35.48469],[140.21153,35.48674],[140.22002,35.48469],[140.22404,35.48528],[140.23703,35.48024],[140.23999,35.4826],[140.24849,35.48175],[140.24752,35.48608],[140.25183,35.48793],[140.25118,35.49174],[140.25634,35.49431],[140.25474,35.50053],[140.24287,35.50547],[140.23255,35.50377],[140.23037,35.50992],[140.22168,35.518],[140.22064,35.52368],[140.22527,35.52483],[140.23213,35.5334],[140.22738,35.54098],[140.21792,35.54402],[140.21304,35.542],[140.20934,35.54545],[140.20131,35.53957],[140.1944,35.54326],[140.19124,35.53652],[140.17911,35.53273],[140.17158,35.53616],[140.15897,35.53551],[140.14236,35.54797],[140.13533,35.54253],[140.13008,35.54716],[140.12377,35.54784],[140.12096,35.55132],[140.11549,35.5506]]]},"properties":{"pref":"千葉県","city":"市原市","code5":"12219","code6":"122190"}},
{"type":"Feature","geometry":{"type":"Polygon","coordinates":[[[139.88851,35.8302],[139.89745,35.83007],[139.91276,35.83666],[139.91817,35.84161],[139.91774,35.8452],[139.92259,35.84902],[139.92832,35.84977],[139.93585,35.83963],[139.94149,35.83487],[139.94532,35.83688],[139.95321,35.83394],[139.95751,35.83514],[139.95219,35.84149],[139.9526,35.85125],[139.94721,35.85457],[139.94143,35.85174],[139.9341,35.85315],[139.94253,35.85814],[139.94816,35.85937],[139.94277,35.86439],[139.93036,35.86472],[139.93119,35.86859],[139.94168,35.86906],[139.94006,35.87567],[139.94024,35.88514],[139.93346,35.8855],[139.93467,35.89251],[139.9298,35.90077],[139.92257,35.90049],[139.92126,35.89658],[139.93006,35.88667],[139.92617,35.88345],[139.92139,35.88708],[139.92124,35.89028],[139.9148,35.89413],[139.91337,35.8983],[139.9186,35.89976],[139.92049,35.90603],[139.92017,35.91689],[139.91724,35.91913],[139.91241,35.9151],[139.90196,35.91808],[139.90069,35.91479],[139.89144,35.91543],[139.87476,35.91294],[139.88023,35.90461],[139.88992,35.89256],[139.89305,35.88542],[139.89485,35.87656],[139.89921,35.86686],[139.90034,35.86417],[139.89614,35.85293],[139.89004,35.844],[139.88851,35.8302]]]},"properties":{"pref":"千葉県","city":"流山市","code5":"12220","code6":"122203"}},
{"type":"Feature","geometry":{"type":"Polygon","coordinates":[[[140.13679,35.69755],[140.13961,35.70287],[140.13131,35.71144],[140.13403,35.71889],[140.14219,35.72526],[140.1385,35.73659],[140.14029,35.74475],[140.14729,35.74873],[140.1384,35.75408],[140.14556,35.75483],[140.15188,35.75979],[140.14651,35.76533],[140.13887,35.76657],[140.13275,35.77333],[140.11151,35.78095],[140.10309,35.78013],[140.09691,35.7829],[140.08956,35.784],[140.08628,35.78113],[140.08716,35.7727],[140.08385,35.77055],[140.08602,35.76577],[140.07762,35.75749],[140.07434,35.74951],[140.06599,35.74845],[140.06391,35.74238],[140.06764,35.73422],[140.06292,35.72073],[140.07172,35.71712],[140.06426,35.71099],[140.06833,35.70844],[140.0851,35.70384],[140.07716,35.70096],[140.07832,35.69555],[140.08156,35.69454],[140.09027,35.69378],[140.10112,35.70283],[140.10553,35.70935],[140.11338,35.71405],[140.11768,35.70917],[140.12261,35.70676],[140.12397,35.69889],[140.13398,35.69962],[140.13679,35.69755]]]},"properties":{"pref":"千葉県","city":"八千代市","code5":"12221","code6":"122211"}},
{"type":"Feature","geometry":{"type":"Polygon","coordinates":[[[140.03111,35.90061],[140.02179,35.89022],[140.01627,35.89599],[140.0099,35.88721],[139.99862,35.88374],[139.99278,35.87745],[139.9911,35.87119],[139.99353,35.86755],[140.00831,35.8618],[140.0249,35.86097],[140.03275,35.85646],[140.04252,35.85942],[140.05177,35.85338],[140.06008,35.85086],[140.0651,35.8554],[140.10099,35.8515],[140.11136,35.84789],[140.12268,35.84573],[140.13207,35.8408],[140.14647,35.84572],[140.13424,35.85892],[140.12714,35.87086],[140.12173,35.87366],[140.11173,35.87604],[140.10276,35.88074],[140.09282,35.88386],[140.08813,35.88403],[140.07433,35.87663],[140.0666,35.88087],[140.06112,35.88806],[140.0556,35.8907],[140.04754,35.89196],[140.03111,35.90061]]]},"properties":{"pref":"千葉県","city":"我孫子市","code5":"12222","code6":"122220"}},
{"type":"Feature","geometry":{"type":"Polygon","coordinates":[[[140.18792,35.17018],[140.17498,35.16669],[140.17115,35.17017],[140.16604,35.17054],[140.16153,35.17431],[140.16127,35.18124],[140.15341,35.18172],[140.1423,35.18999],[140.13493,35.19081],[140.12958,35.18847],[140.12111,35.19089],[140.11481,35.18061],[140.11015,35.17948],[140.1008,35.18099],[140.09683,35.17793],[140.09595,35.1706],[140.09093,35.16835],[140.08035,35.17225],[140.07582,35.17518],[140.0656,35.16987],[140.06221,35.16583],[140.05434,35.16536],[140.04868,35.16031],[140.04304,35.16188],[140.03471,35.15899],[140.02942,35.16434],[140.02193,35.15982],[140.01533,35.15386],[140.0083,35.1559],[140.00479,35.154],[139.99297,35.15554],[139.97756,35.15332],[139.97186,35.15164],[139.96302,35.15483],[139.94612,35.15293],[139.94234,35.14775],[139.93804,35.14596],[139.93172,35.14762],[139.93159,35.1393],[139.93087,35.12865],[139.93628,35.12185],[139.94788,35.12399],[139.95157,35.11944],[139.95824,35.11566],[139.95882,35.11244],[139.97193,35.11167],[139.98241,35.10553],[139.98337,35.11561],[139.99676,35.11544],[139.9941,35.10854],[139.99478,35.10372],[139.99969,35.10136],[139.99723,35.09358],[140.00807,35.09633],[140.0202,35.08863],[140.01936,35.08316],[140.02493,35.08144],[140.02947,35.07374],[140.02996,35.06543],[140.0359,35.06178],[140.03219,35.05867],[140.03767,35.05202],[140.04328,35.05446],[140.04675,35.05559],[140.05514,35.0591],[140.06646,35.05851],[140.06655,35.05843],[140.07264,35.05684],[140.07542,35.06235],[140.08296,35.06387],[140.08463,35.07304],[140.09468,35.07477],[140.09947,35.07981],[140.09822,35.08411],[140.10447,35.09084],[140.10517,35.10194],[140.10881,35.10685],[140.12187,35.11603],[140.13442,35.12169],[140.14563,35.11761],[140.15182,35.11731],[140.1518,35.11745],[140.15352,35.12138],[140.1681,35.12369],[140.17293,35.12003],[140.17649,35.12075],[140.18306,35.11816],[140.18566,35.12455],[140.19024,35.12714],[140.19686,35.12087],[140.19576,35.11625],[140.2027,35.10974],[140.20765,35.1139],[140.21181,35.11447],[140.2136,35.12122],[140.21175,35.12608],[140.21604,35.13399],[140.21216,35.13632],[140.21636,35.14126],[140.21279,35.14661],[140.21324,35.15036],[140.20767,35.15448],[140.20774,35.16184],[140.20196,35.17029],[140.19665,35.17167],[140.18792,35.17018]]]},"properties":{"pref":"千葉県","city":"鴨川市","code5":"12223","code6":"122238"}},
{"type":"Feature","geometry":{"type":"Polygon","coordinates":[[[139.97284,35.74878],[139.98306,35.75116],[139.98845,35.74381],[139.99326,35.74178],[139.99946,35.74408],[140.00673,35.74283],[140.00839,35.74818],[140.01803,35.75464],[140.01438,35.76082],[140.02251,35.76203],[140.02103,35.76549],[140.01519,35.76795],[140.02004,35.77417],[140.0219,35.78075],[140.01889,35.78349],[140.02254,35.79608],[140.0077,35.80316],[140.00193,35.80393],[139.99801,35.8006],[140.00111,35.79115],[139.99578,35.78735],[139.98897,35.79076],[139.9846,35.78847],[139.96841,35.78631],[139.96867,35.77819],[139.97294,35.78016],[139.98432,35.77617],[139.98365,35.77339],[139.97595,35.77385],[139.97459,35.76105],[139.97102,35.7575],[139.97494,35.75172],[139.97284,35.74878]],[[139.99404,35.75536],[139.99953,35.75059],[139.99556,35.74275],[139.99092,35.74326],[139.98683,35.74693],[139.98889,35.75174],[139.99404,35.75536]]]},"properties":{"pref":"千葉県","city":"鎌ケ谷市","code5":"12224","code6":"122246"}},
{"type":"Feature","geometry":{"type":"Polygon","coordinates":[[[139.88752,35.36149],[139.88271,35.36128],[139.86308,35.36707],[139.84593,35.37534],[139.83913,35.36729],[139.84149,35.36422],[139.85175,35.35829],[139.85918,35.34806],[139.85216,35.34931],[139.86133,35.33872],[139.86579,35.33662],[139.86477,35.33199],[139.87585,35.32627],[139.88258,35.32],[139.88706,35.31259],[139.88828,35.30247],[139.89795,35.30008],[139.90227,35.29475],[139.90222,35.29042],[139.91108,35.28829],[139.91049,35.28142],[139.91642,35.2724],[139.92298,35.27067],[139.93259,35.26522],[139.9368,35.26128],[139.94449,35.26338],[139.94598,35.26053],[139.95195,35.26009],[139.9562,35.25718],[139.95549,35.2533],[139.94859,35.25108],[139.95182,35.2411],[139.9609,35.24408],[139.97134,35.23832],[139.97686,35.24052],[139.97998,35.22725],[139.97761,35.22529],[139.97967,35.21691],[139.98377,35.21505],[139.98261,35.21021],[139.99737,35.19251],[139.99614,35.18003],[139.99909,35.17831],[140.0009,35.17235],[139.99731,35.16036],[139.99297,35.15554],[140.00479,35.154],[140.0083,35.1559],[140.01533,35.15386],[140.02193,35.15982],[140.02942,35.16434],[140.03471,35.15899],[140.04304,35.16188],[140.04868,35.16031],[140.05434,35.16536],[140.06221,35.16583],[140.0656,35.16987],[140.07582,35.17518],[140.08035,35.17225],[140.09093,35.16835],[140.09595,35.1706],[140.09683,35.17793],[140.1008,35.18099],[140.11015,35.17948],[140.11481,35.18061],[140.12111,35.19089],[140.12958,35.18847],[140.13493,35.19081],[140.1423,35.18999],[140.15341,35.18172],[140.16127,35.18124],[140.15977,35.18985],[140.15323,35.19974],[140.15241,35.2062],[140.14847,35.20754],[140.14817,35.21204],[140.14366,35.21773],[140.13935,35.22787],[140.14124,35.23121],[140.13713,35.2368],[140.13219,35.23797],[140.13017,35.24338],[140.12517,35.24394],[140.12221,35.24777],[140.12322,35.25136],[140.11842,35.26321],[140.12005,35.26626],[140.11841,35.27345],[140.12016,35.2829],[140.11439,35.28962],[140.11743,35.30518],[140.12215,35.30737],[140.12207,35.3138],[140.11817,35.31617],[140.1079,35.31256],[140.10157,35.31731],[140.10915,35.31919],[140.10418,35.32594],[140.1,35.32843],[140.09393,35.32832],[140.08698,35.3379],[140.08333,35.34585],[140.07709,35.34687],[140.07073,35.34581],[140.0587,35.35433],[140.0516,35.35535],[140.04427,35.34833],[140.04531,35.34244],[140.04179,35.33593],[140.03305,35.33318],[140.02925,35.3305],[140.02084,35.32915],[140.02116,35.32396],[140.01672,35.31886],[140.01029,35.31887],[140.00491,35.32684],[139.99808,35.32588],[139.99731,35.31743],[139.97941,35.31736],[139.97384,35.31839],[139.97217,35.32257],[139.96577,35.32691],[139.96427,35.33153],[139.95338,35.32986],[139.93591,35.33727],[139.92685,35.33931],[139.91423,35.34067],[139.90461,35.33521],[139.90024,35.33733],[139.89735,35.34708],[139.88752,35.36149]]]},"properties":{"pref":"千葉県","city":"君津市","code5":"12225","code6":"122254"}},
{"type":"Feature","geometry":{"type":"Polygon","coordinates":[[[139.99297,35.15554],[139.99731,35.16036],[140.0009,35.17235],[139.99909,35.17831],[139.99614,35.18003],[139.99737,35.19251],[139.98261,35.21021],[139.98377,35.21505],[139.97967,35.21691],[139.97761,35.22529],[139.97998,35.22725],[139.97686,35.24052],[139.97134,35.23832],[139.9609,35.24408],[139.95182,35.2411],[139.94859,35.25108],[139.95549,35.2533],[139.9562,35.25718],[139.95195,35.26009],[139.94598,35.26053],[139.94449,35.26338],[139.9368,35.26128],[139.93259,35.26522],[139.92298,35.27067],[139.91642,35.2724],[139.91049,35.28142],[139.91108,35.28829],[139.90222,35.29042],[139.90227,35.29475],[139.89795,35.30008],[139.88828,35.30247],[139.88706,35.31259],[139.88258,35.32],[139.87585,35.32627],[139.86477,35.33199],[139.86579,35.33662],[139.86133,35.33872],[139.85216,35.34931],[139.84709,35.3468],[139.83777,35.35894],[139.82296,35.34445],[139.82882,35.33673],[139.83709,35.3378],[139.8394,35.33373],[139.8244,35.32631],[139.8165,35.32403],[139.81974,35.31648],[139.80354,35.31441],[139.78589,35.31337],[139.81506,35.30552],[139.83516,35.29775],[139.84221,35.29413],[139.85284,35.28489],[139.8518,35.27799],[139.84705,35.27166],[139.858,35.26228],[139.86437,35.25417],[139.86876,35.24254],[139.87069,35.23067],[139.86671,35.21938],[139.84866,35.21294],[139.84407,35.20849],[139.83124,35.20363],[139.82794,35.199],[139.82404,35.19777],[139.81706,35.1857],[139.8167,35.1689],[139.82189,35.16655],[139.81877,35.162],[139.81815,35.15488],[139.82868,35.15855],[139.83809,35.15923],[139.85413,35.1643],[139.85953,35.16112],[139.86752,35.16043],[139.8708,35.15657],[139.87851,35.15819],[139.88255,35.15695],[139.88717,35.15966],[139.89472,35.15608],[139.90031,35.15624],[139.90212,35.1509],[139.91222,35.14135],[139.93159,35.1393],[139.93172,35.14762],[139.93804,35.14596],[139.94234,35.14775],[139.94612,35.15293],[139.96302,35.15483],[139.97186,35.15164],[139.97756,35.15332],[139.99297,35.15554]]]},"properties":{"pref":"千葉県","city":"富津市","code5":"12226","code6":"122262"}},
{"type":"Feature","geometry":{"type":"Polygon","coordinates":[[[139.88607,35.67114],[139.88723,35.66879],[139.88739,35.65617],[139.88349,35.64512],[139.87146,35.63864],[139.87258,35.6255],[139.88834,35.62186],[139.89356,35.62493],[139.89757,35.61667],[139.91,35.62447],[139.93945,35.64052],[139.93684,35.64324],[139.91828,35.65546],[139.90215,35.66606],[139.9009,35.66886],[139.89312,35.67258],[139.88607,35.67114]]]},"properties":{"pref":"千葉県","city":"浦安市","code5":"12227","code6":"122271"}},
{"type":"Feature","geometry":{"type":"Polygon","coordinates":[[[140.15264,35.68929],[140.14697,35.69181],[140.14312,35.69141],[140.13949,35.68816],[140.13672,35.67952],[140.13838,35.67539],[140.1365,35.67051],[140.14131,35.66762],[140.14992,35.66813],[140.15596,35.65409],[140.1578,35.64635],[140.16355,35.64535],[140.17367,35.65407],[140.17645,35.65345],[140.19016,35.64301],[140.19224,35.64015],[140.18508,35.62912],[140.1934,35.62678],[140.20379,35.64024],[140.20704,35.64632],[140.20465,35.65097],[140.21332,35.65457],[140.21493,35.66275],[140.208,35.67172],[140.2091,35.67572],[140.20359,35.68059],[140.20212,35.6862],[140.20844,35.6977],[140.20657,35.7055],[140.19259,35.7043],[140.17745,35.69481],[140.17448,35.69951],[140.17028,35.69567],[140.1592,35.69559],[140.1488,35.70084],[140.1469,35.69283],[140.15078,35.69108],[140.15264,35.68929]]]},"properties":{"pref":"千葉県","city":"四街道市","code5":"12228","code6":"122289"}},
{"type":"Feature","geometry":{"type":"Polygon","coordinates":[[[140.09214,35.3881],[140.09253,35.39582],[140.09003,35.39954],[140.09277,35.4067],[140.08948,35.41221],[140.08994,35.42101],[140.08071,35.43232],[140.07693,35.43011],[140.05967,35.42574],[140.05132,35.42587],[140.04376,35.42362],[140.03262,35.42357],[140.04101,35.42953],[140.04,35.43332],[140.04303,35.43769],[140.03979,35.44555],[140.03023,35.45697],[140.02274,35.46755],[140.01599,35.47143],[140.01255,35.47606],[140.00655,35.47929],[139.99795,35.47466],[140.00336,35.46826],[139.9993,35.46594],[139.99372,35.47238],[139.98912,35.4699],[139.99475,35.45939],[139.99281,35.45429],[139.99229,35.45733],[139.98209,35.47478],[139.96583,35.46856],[139.97449,35.44846],[139.95786,35.4458],[139.956,35.44845],[139.96497,35.45072],[139.96217,35.45869],[139.95113,35.45609],[139.94861,35.44218],[139.95008,35.43775],[139.94591,35.43256],[139.94646,35.42812],[139.9425,35.42633],[139.94336,35.41687],[139.95666,35.41058],[139.96309,35.41432],[139.96797,35.42013],[139.97531,35.41704],[139.97129,35.40971],[139.97533,35.40751],[139.98019,35.40931],[139.99072,35.40844],[139.99482,35.40515],[140.01175,35.40434],[140.01046,35.39827],[140.00659,35.39368],[140.00086,35.3968],[139.99307,35.39377],[139.99928,35.38756],[140.00445,35.38599],[140.00139,35.38008],[140.00214,35.37252],[139.99849,35.36846],[139.99887,35.36452],[140.00321,35.35981],[140.00076,35.35298],[139.99676,35.35067],[140.00164,35.34468],[140.00812,35.3453],[140.01294,35.34361],[140.02078,35.35211],[140.02406,35.36037],[140.0329,35.36122],[140.03535,35.37128],[140.04234,35.37106],[140.0476,35.38059],[140.05349,35.37816],[140.06091,35.37882],[140.06523,35.38276],[140.08142,35.38532],[140.08527,35.38246],[140.09118,35.38477],[140.09214,35.3881]]]},"properties":{"pref":"千葉県","city":"袖ケ浦市","code5":"12229","code6":"122297"}},
{"type":"Feature","geometry":{"type":"Polygon","coordinates":[[[140.28709,35.57291],[140.29249,35.57267],[140.31905,35.58606],[140.33711,35.5854],[140.32434,35.5926],[140.32121,35.60298],[140.3254,35.60722],[140.3241,35.60896],[140.31526,35.60744],[140.30885,35.61291],[140.31485,35.61676],[140.31272,35.62164],[140.30779,35.62474],[140.31648,35.63088],[140.32558,35.62616],[140.32919,35.63151],[140.32121,35.63969],[140.32434,35.64473],[140.32582,35.65218],[140.33656,35.66005],[140.34747,35.66011],[140.35442,35.65671],[140.35381,35.66276],[140.34459,35.66519],[140.34029,35.66825],[140.34932,35.67287],[140.3469,35.67666],[140.32776,35.68335],[140.32208,35.68719],[140.31762,35.69622],[140.32051,35.70016],[140.31991,35.7084],[140.31064,35.70583],[140.30897,35.71314],[140.30314,35.71457],[140.29635,35.71216],[140.29147,35.70611],[140.29101,35.70152],[140.28703,35.69154],[140.28153,35.68863],[140.28284,35.67857],[140.27593,35.67984],[140.26774,35.67699],[140.26968,35.67106],[140.26667,35.66633],[140.25946,35.66732],[140.25685,35.66373],[140.25882,35.65857],[140.24984,35.65194],[140.25343,35.64704],[140.25846,35.64455],[140.25659,35.62886],[140.25776,35.62547],[140.26632,35.62641],[140.26493,35.62056],[140.26764,35.61726],[140.26748,35.60716],[140.2626,35.60601],[140.26137,35.5996],[140.27556,35.58747],[140.27514,35.58178],[140.28111,35.57934],[140.28319,35.57378],[140.28709,35.57291]]]},"properties":{"pref":"千葉県","city":"八街市","code5":"12230","code6":"122301"}},
{"type":"Feature","geometry":{"type":"Polygon","coordinates":[[[140.14647,35.84572],[140.13207,35.8408],[140.12268,35.84573],[140.11136,35.84789],[140.11194,35.8434],[140.10926,35.83412],[140.09915,35.83129],[140.09955,35.82815],[140.0929,35.82606],[140.09406,35.82363],[140.08706,35.8163],[140.09308,35.80966],[140.10025,35.80926],[140.10101,35.80463],[140.10713,35.80556],[140.11111,35.79946],[140.10614,35.7976],[140.09691,35.7829],[140.10309,35.78013],[140.11151,35.78095],[140.13275,35.77333],[140.13887,35.76657],[140.14651,35.76533],[140.15188,35.75979],[140.16753,35.74995],[140.1822,35.74805],[140.18864,35.74567],[140.20527,35.76487],[140.20912,35.76625],[140.22381,35.75738],[140.25436,35.74004],[140.25892,35.73971],[140.26452,35.74282],[140.26553,35.74728],[140.2633,35.75477],[140.25789,35.76418],[140.25964,35.77796],[140.25036,35.78486],[140.24921,35.78895],[140.25162,35.80031],[140.2504,35.82094],[140.2427,35.81926],[140.23714,35.82081],[140.24303,35.82692],[140.24076,35.82968],[140.23303,35.83241],[140.23188,35.84117],[140.21256,35.83898],[140.20314,35.83476],[140.19272,35.83656],[140.1819,35.84159],[140.16778,35.84546],[140.15675,35.84271],[140.14647,35.84572]]]},"properties":{"pref":"千葉県","city":"印西市","code5":"12231","code6":"122319"}},
{"type":"Feature","geometry":{"type":"Polygon","coordinates":[[[140.08956,35.784],[140.09691,35.7829],[140.10614,35.7976],[140.11111,35.79946],[140.10713,35.80556],[140.10101,35.80463],[140.10025,35.80926],[140.09308,35.80966],[140.08706,35.8163],[140.09406,35.82363],[140.0929,35.82606],[140.08916,35.83018],[140.07524,35.83108],[140.06966,35.83378],[140.05729,35.83535],[140.04968,35.83219],[140.04168,35.8243],[140.0323,35.81182],[140.02991,35.79895],[140.01889,35.78349],[140.0219,35.78075],[140.02004,35.77417],[140.01519,35.76795],[140.02103,35.76549],[140.03048,35.77141],[140.03987,35.7667],[140.06177,35.77629],[140.0672,35.78534],[140.06743,35.793],[140.06945,35.79907],[140.07322,35.79866],[140.08271,35.79169],[140.08956,35.784]]]},"properties":{"pref":"千葉県","city":"白井市","code5":"12232","code6":"122327"}},
{"type":"Feature","geometry":{"type":"Polygon","coordinates":[[[140.30315,35.74776],[140.30586,35.74068],[140.29651,35.73939],[140.29061,35.7343],[140.28894,35.73044],[140.29302,35.72686],[140.2963,35.71969],[140.30314,35.71457],[140.30897,35.71314],[140.31064,35.70583],[140.31991,35.7084],[140.32051,35.70016],[140.31762,35.69622],[140.32208,35.68719],[140.32776,35.68335],[140.3469,35.67666],[140.35439,35.68362],[140.36035,35.68664],[140.36578,35.68356],[140.36875,35.68523],[140.37333,35.68079],[140.37742,35.6828],[140.38335,35.68096],[140.39059,35.67612],[140.39981,35.68045],[140.40126,35.68326],[140.39977,35.68992],[140.38517,35.68964],[140.37848,35.6943],[140.37302,35.70085],[140.38239,35.70362],[140.38541,35.71256],[140.37873,35.71443],[140.37595,35.72078],[140.36586,35.72591],[140.36787,35.73125],[140.36282,35.73198],[140.36244,35.74193],[140.35653,35.74557],[140.35525,35.7515],[140.34241,35.76179],[140.33181,35.76529],[140.32504,35.77723],[140.3195,35.7737],[140.31229,35.75974],[140.31403,35.75557],[140.30891,35.75069],[140.30315,35.74776]]]},"properties":{"pref":"千葉県","city":"富里市","code5":"12233","code6":"122335"}},
{"type":"Feature","geometry":{"type":"MultiPolygon","coordinates":[[[[139.82452,34.91126],[139.82446,34.91125],[139.82428,34.91121],[139.84426,34.90273],[139.84736,34.9043],[139.86522,34.90699],[139.8708,34.90354],[139.88413,34.90343],[139.89407,34.90591],[139.90578,34.9043],[139.90585,34.90431],[139.90656,34.90438],[139.90833,34.90543],[139.90837,34.90546],[139.90873,34.90569],[139.90874,34.90597],[139.91465,34.90661],[139.91551,34.90671],[139.91595,34.90652],[139.91698,34.90667],[139.91701,34.90669],[139.91702,34.90669],[139.91741,34.90702],[139.91742,34.90702],[139.91871,34.90749],[139.91958,34.90746],[139.92088,34.91041],[139.93079,34.9126],[139.94161,34.91774],[139.94266,34.92084],[139.94252,34.92111],[139.94596,34.92412],[139.94797,34.92812],[139.94797,34.92813],[139.9516,34.92895],[139.95343,34.92965],[139.95347,34.92961],[139.95359,34.92967],[139.9544,34.93081],[139.95499,34.9313],[139.95492,34.9339],[139.95854,34.93654],[139.96157,34.94011],[139.96158,34.94013],[139.96172,34.94004],[139.96184,34.94035],[139.96316,34.94366],[139.96561,34.95148],[139.9627,34.95521],[139.96074,34.96768],[139.96673,34.97695],[139.9671,34.98153],[139.97228,34.9865],[139.97185,34.99227],[139.97388,34.99883],[139.9788,35.00837],[139.98748,35.01837],[139.99958,35.02907],[140.01311,35.03646],[140.01715,35.03559],[140.02419,35.04353],[140.03291,35.04918],[140.03767,35.05202],[140.03219,35.05867],[140.0359,35.06178],[140.02996,35.06543],[140.02947,35.07374],[140.02493,35.08144],[140.01936,35.08316],[140.0202,35.08863],[140.00807,35.09633],[139.99723,35.09358],[139.99969,35.10136],[139.99478,35.10372],[139.9941,35.10854],[139.99676,35.11544],[139.98337,35.11561],[139.98241,35.10553],[139.97193,35.11167],[139.95882,35.11244],[139.95824,35.11566],[139.95157,35.11944],[139.94788,35.12399],[139.93628,35.12185],[139.93087,35.12865],[139.92602,35.12696],[139.92358,35.12242],[139.92433,35.11778],[139.91855,35.11339],[139.9131,35.1149],[139.90068,35.11408],[139.88809,35.1095],[139.88035,35.10911],[139.8692,35.11095],[139.86213,35.10737],[139.85568,35.10799],[139.84375,35.10014],[139.83606,35.09966],[139.84111,35.09228],[139.84188,35.08291],[139.83463,35.07805],[139.82112,35.07156],[139.81963,35.0653],[139.82624,35.05995],[139.82772,35.05233],[139.83291,35.04721],[139.82999,35.04109],[139.8231,35.03751],[139.81412,35.03665],[139.81414,35.03664],[139.82533,35.03122],[139.83305,35.03228],[139.85322,35.03211],[139.86218,35.03822],[139.86951,35.04046],[139.87144,35.04486],[139.87668,35.04641],[139.88347,35.04078],[139.88392,35.02515],[139.89282,35.01969],[139.88586,35.01884],[139.885,35.01041],[139.88729,35.00735],[139.90154,35.00905],[139.90455,35.01041],[139.90482,35.01813],[139.92006,35.01738],[139.93337,35.02607],[139.9364,35.02152],[139.93315,35.01675],[139.94117,35.00466],[139.94062,35.00101],[139.93118,34.99245],[139.92911,34.98401],[139.91924,34.98055],[139.9102,34.97951],[139.90753,34.97132],[139.9041,34.96655],[139.90293,34.95802],[139.90986,34.9462],[139.91809,34.94501],[139.92686,34.94055],[139.92289,34.9326],[139.9185,34.92706],[139.914,34.92859],[139.9043,34.92821],[139.89783,34.92547],[139.89105,34.93091],[139.88199,34.92381],[139.87862,34.92482],[139.86617,34.92049],[139.8585,34.9234],[139.85272,34.91472],[139.84744,34.91486],[139.84205,34.91193],[139.83349,34.91067],[139.82885,34.91262],[139.82452,34.91126]]],[[[139.91894,34.90728],[139.9187,34.90734],[139.91867,34.90727],[139.91871,34.90725],[139.91894,34.90728]]]]},"properties":{"pref":"千葉県","city":"南房総市","code5":"12234","code6":"122343"}},
{"type":"Feature","geometry":{"type":"Polygon","coordinates":[[[140.56564,35.75516],[140.55624,35.75427],[140.55046,35.76101],[140.54754,35.75794],[140.5375,35.75659],[140.53031,35.76056],[140.5268,35.75398],[140.51932,35.75517],[140.51589,35.76078],[140.50453,35.75945],[140.5071,35.75103],[140.50236,35.73941],[140.50246,35.73589],[140.48634,35.72459],[140.48647,35.72125],[140.48703,35.71881],[140.49488,35.71183],[140.49958,35.71011],[140.50266,35.70602],[140.49913,35.69821],[140.50426,35.68594],[140.51441,35.68376],[140.5162,35.67371],[140.52396,35.67886],[140.53834,35.66968],[140.54169,35.66523],[140.52986,35.65717],[140.53385,35.65088],[140.54458,35.63947],[140.54776,35.6391],[140.55944,35.6279],[140.61156,35.66455],[140.62498,35.67266],[140.62163,35.67829],[140.61207,35.67536],[140.60934,35.68241],[140.6099,35.6898],[140.60309,35.69204],[140.60228,35.69769],[140.6066,35.7011],[140.60436,35.7087],[140.59269,35.7082],[140.59149,35.71135],[140.58185,35.70864],[140.57858,35.7128],[140.58504,35.71662],[140.59143,35.71808],[140.59909,35.71684],[140.59826,35.72193],[140.59952,35.73367],[140.60431,35.73751],[140.59337,35.74136],[140.59262,35.73765],[140.58434,35.73959],[140.57388,35.73362],[140.56634,35.74094],[140.57189,35.74696],[140.56892,35.75309],[140.56564,35.75516]]]},"properties":{"pref":"千葉県","city":"匝瑳市","code5":"12235","code6":"122351"}},
{"type":"Feature","geometry":{"type":"Polygon","coordinates":[[[140.51124,35.95874],[140.50388,35.95101],[140.4997,35.9444],[140.49725,35.93388],[140.49063,35.9319],[140.48718,35.92859],[140.49064,35.9154],[140.49813,35.90919],[140.49759,35.90626],[140.48454,35.90965],[140.47423,35.91613],[140.47113,35.91972],[140.45844,35.92654],[140.44847,35.91502],[140.4348,35.91175],[140.43737,35.90793],[140.42944,35.90199],[140.42513,35.88803],[140.42826,35.8836],[140.42489,35.873],[140.43088,35.87366],[140.43902,35.87064],[140.44047,35.86786],[140.44657,35.86513],[140.45239,35.87037],[140.45603,35.8652],[140.46038,35.86277],[140.46307,35.85498],[140.46592,35.85223],[140.47249,35.8509],[140.47222,35.84423],[140.46392,35.84528],[140.46415,35.83795],[140.46853,35.8339],[140.45596,35.82625],[140.45502,35.81809],[140.46597,35.82241],[140.46798,35.82063],[140.46095,35.8148],[140.45226,35.81131],[140.45192,35.80712],[140.45924,35.80183],[140.4683,35.79796],[140.4678,35.7923],[140.48074,35.79039],[140.48746,35.79773],[140.4951,35.80195],[140.50257,35.79607],[140.50049,35.78903],[140.51156,35.78105],[140.51926,35.78252],[140.53329,35.77518],[140.54259,35.77401],[140.54617,35.77043],[140.54641,35.76545],[140.55046,35.76101],[140.55624,35.75427],[140.56564,35.75516],[140.57197,35.76623],[140.57639,35.76679],[140.58985,35.77341],[140.59239,35.77793],[140.59753,35.78007],[140.60184,35.77418],[140.60926,35.78169],[140.61684,35.78106],[140.62586,35.78727],[140.62457,35.79367],[140.6241,35.80045],[140.63391,35.80284],[140.63432,35.80819],[140.64449,35.81422],[140.64182,35.82497],[140.64342,35.82749],[140.65065,35.82735],[140.65151,35.83419],[140.64877,35.83512],[140.64811,35.84215],[140.64466,35.84658],[140.64783,35.85571],[140.63069,35.85912],[140.62878,35.86466],[140.61649,35.88138],[140.6133,35.88888],[140.60799,35.89581],[140.59886,35.90317],[140.58854,35.90603],[140.58124,35.91645],[140.57063,35.92406],[140.55726,35.93079],[140.53735,35.93872],[140.53241,35.94178],[140.52693,35.94786],[140.51124,35.95874]]]},"properties":{"pref":"千葉県","city":"香取市","code5":"12236","code6":"122360"}},
{"type":"Feature","geometry":{"type":"Polygon","coordinates":[[[140.43501,35.5677],[140.43661,35.56998],[140.44726,35.56389],[140.46344,35.55106],[140.47009,35.54721],[140.4786,35.55824],[140.49551,35.57622],[140.50755,35.58719],[140.52562,35.60212],[140.51552,35.61123],[140.50682,35.61706],[140.49659,35.61028],[140.49024,35.61702],[140.49175,35.62176],[140.5009,35.62865],[140.50005,35.6328],[140.49537,35.63678],[140.4878,35.63082],[140.47563,35.63707],[140.46613,35.64377],[140.47897,35.65419],[140.47601,35.6573],[140.47092,35.65635],[140.46662,35.6598],[140.45072,35.66604],[140.44391,35.66152],[140.43549,35.66711],[140.43569,35.67216],[140.43189,35.67749],[140.42369,35.68006],[140.41654,35.67948],[140.41255,35.67504],[140.39981,35.68045],[140.39059,35.67612],[140.38335,35.68096],[140.37742,35.6828],[140.37333,35.68079],[140.36875,35.68523],[140.36578,35.68356],[140.36035,35.68664],[140.35439,35.68362],[140.3469,35.67666],[140.34932,35.67287],[140.34029,35.66825],[140.34459,35.66519],[140.35381,35.66276],[140.35442,35.65671],[140.34747,35.66011],[140.33656,35.66005],[140.32582,35.65218],[140.32434,35.64473],[140.32121,35.63969],[140.32919,35.63151],[140.33515,35.62475],[140.33278,35.62168],[140.33751,35.61767],[140.3309,35.60646],[140.34721,35.60549],[140.35377,35.60977],[140.36087,35.6017],[140.36599,35.60226],[140.37136,35.60551],[140.37496,35.60297],[140.38289,35.60443],[140.38544,35.59998],[140.3848,35.59282],[140.39375,35.58541],[140.40002,35.58923],[140.40408,35.58709],[140.40892,35.59157],[140.4133,35.58817],[140.41845,35.59062],[140.41927,35.59492],[140.42534,35.59586],[140.4285,35.58221],[140.43501,35.5677]]]},"properties":{"pref":"千葉県","city":"山武市","code5":"12237","code6":"122378"}},
{"type":"Feature","geometry":{"type":"Polygon","coordinates":[[[140.31791,35.21456],[140.32265,35.21405],[140.32354,35.21975],[140.32977,35.21962],[140.33173,35.22413],[140.33689,35.21911],[140.33845,35.21505],[140.34887,35.21727],[140.35563,35.21665],[140.36294,35.21816],[140.36046,35.20234],[140.36679,35.20145],[140.36803,35.19846],[140.37752,35.19778],[140.38478,35.19234],[140.38925,35.19926],[140.39364,35.20262],[140.39223,35.21064],[140.40058,35.22844],[140.39922,35.22982],[140.40486,35.23722],[140.40365,35.24624],[140.40527,35.2519],[140.40094,35.2545],[140.40006,35.26944],[140.40468,35.28665],[140.41482,35.30884],[140.40548,35.32673],[140.39765,35.33051],[140.39303,35.33067],[140.38783,35.33475],[140.38289,35.33025],[140.37216,35.32924],[140.37445,35.34273],[140.36615,35.34242],[140.3533,35.34573],[140.34193,35.34538],[140.33784,35.34233],[140.33414,35.34426],[140.32669,35.34364],[140.31807,35.34571],[140.30679,35.33747],[140.30115,35.3378],[140.29428,35.33336],[140.292,35.3256],[140.28909,35.32136],[140.27774,35.31896],[140.27128,35.31339],[140.27578,35.30624],[140.27404,35.30457],[140.27661,35.29618],[140.26617,35.28403],[140.25999,35.28416],[140.25466,35.27966],[140.25898,35.27204],[140.26752,35.26935],[140.27184,35.27021],[140.27856,35.2653],[140.27898,35.26152],[140.28622,35.25561],[140.28056,35.2504],[140.28323,35.24519],[140.28102,35.24242],[140.2881,35.24289],[140.29701,35.23757],[140.29707,35.23366],[140.30134,35.22627],[140.313,35.21962],[140.31791,35.21456]]]},"properties":{"pref":"千葉県","city":"いすみ市","code5":"12238","code6":"122386"}},
{"type":"Feature","geometry":{"type":"Polygon","coordinates":[[[140.27211,35.4936],[140.27718,35.49469],[140.28037,35.49858],[140.29036,35.49644],[140.31332,35.50184],[140.32083,35.49934],[140.32278,35.50124],[140.32963,35.4981],[140.32596,35.49215],[140.33573,35.49033],[140.34751,35.48486],[140.35218,35.49663],[140.3571,35.49465],[140.36325,35.49555],[140.37236,35.49433],[140.37888,35.4875],[140.37834,35.48409],[140.38136,35.47549],[140.38614,35.47676],[140.4014,35.4748],[140.41592,35.47162],[140.42349,35.48632],[140.43048,35.49814],[140.42295,35.50115],[140.42254,35.50459],[140.41498,35.50428],[140.40412,35.50919],[140.40092,35.50586],[140.39071,35.50976],[140.38503,35.50012],[140.37979,35.50484],[140.38286,35.50898],[140.38127,35.51225],[140.3709,35.51468],[140.3629,35.51523],[140.35676,35.52054],[140.36098,35.5305],[140.35584,35.53043],[140.35399,35.53653],[140.34735,35.54031],[140.34329,35.53298],[140.33627,35.53716],[140.33052,35.54706],[140.32376,35.5519],[140.32382,35.55787],[140.314,35.5574],[140.30365,35.55386],[140.29421,35.56063],[140.29097,35.55565],[140.29187,35.54822],[140.28575,35.54937],[140.28136,35.54779],[140.28096,35.54184],[140.28601,35.53893],[140.29202,35.53117],[140.28776,35.52349],[140.29958,35.5189],[140.29259,35.51532],[140.28602,35.51882],[140.28227,35.51278],[140.27676,35.51149],[140.27437,35.50726],[140.27405,35.49922],[140.27211,35.4936]]]},"properties":{"pref":"千葉県","city":"大網白里市","code5":"12239","code6":"122394"}},
{"type":"Feature","geometry":{"type":"Polygon","coordinates":[[[140.2633,35.75477],[140.26553,35.74728],[140.26452,35.74282],[140.25892,35.73971],[140.2621,35.73125],[140.2554,35.72919],[140.25713,35.72549],[140.2494,35.72227],[140.25312,35.71402],[140.25968,35.71449],[140.26412,35.70601],[140.26361,35.70182],[140.26728,35.69978],[140.27555,35.70351],[140.27826,35.70774],[140.28438,35.7025],[140.29147,35.70611],[140.29635,35.71216],[140.30314,35.71457],[140.2963,35.71969],[140.29302,35.72686],[140.28894,35.73044],[140.29061,35.7343],[140.29651,35.73939],[140.30586,35.74068],[140.30315,35.74776],[140.29204,35.75745],[140.28972,35.75215],[140.28388,35.75144],[140.2794,35.75743],[140.27383,35.75462],[140.2633,35.75477]]]},"properties":{"pref":"千葉県","county":"印旛郡","city":"酒々井町","code5":"12322","code6":"123226"}},
{"type":"Feature","geometry":{"type":"Polygon","coordinates":[[[140.21365,35.86201],[140.20543,35.86132],[140.19912,35.85911],[140.18663,35.85176],[140.16778,35.84546],[140.1819,35.84159],[140.19272,35.83656],[140.20314,35.83476],[140.21256,35.83898],[140.23188,35.84117],[140.23303,35.83241],[140.24076,35.82968],[140.24303,35.82692],[140.23714,35.82081],[140.2427,35.81926],[140.2504,35.82094],[140.25162,35.80031],[140.25724,35.81141],[140.25561,35.81351],[140.26642,35.8195],[140.26799,35.82324],[140.27876,35.81862],[140.28612,35.82857],[140.28262,35.83215],[140.27964,35.84663],[140.28225,35.85914],[140.28936,35.87143],[140.28115,35.87411],[140.27624,35.87355],[140.26569,35.86931],[140.24362,35.8554],[140.23259,35.85411],[140.22779,35.85536],[140.21365,35.86201]]]},"properties":{"pref":"千葉県","county":"印旛郡","city":"栄町","code5":"12329","code6":"123293"}},
{"type":"Feature","geometry":{"type":"Polygon","coordinates":[[[140.37896,35.90313],[140.37589,35.90237],[140.37549,35.8952],[140.38386,35.8894],[140.38503,35.88504],[140.392,35.88313],[140.40093,35.87224],[140.39796,35.8607],[140.39417,35.85758],[140.39436,35.85279],[140.40308,35.85346],[140.417,35.86562],[140.42245,35.86631],[140.42812,35.86364],[140.43732,35.86326],[140.44047,35.86786],[140.43902,35.87064],[140.43088,35.87366],[140.42489,35.873],[140.42826,35.8836],[140.42513,35.88803],[140.42944,35.90199],[140.43737,35.90793],[140.4348,35.91175],[140.42611,35.9077],[140.41796,35.90638],[140.40764,35.90922],[140.39648,35.90901],[140.37896,35.90313]]]},"properties":{"pref":"千葉県","county":"香取郡","city":"神崎町","code5":"12342","code6":"123421"}},
{"type":"Feature","geometry":{"type":"Polygon","coordinates":[[[140.40294,35.77485],[140.40643,35.77024],[140.4153,35.77376],[140.42115,35.77328],[140.42508,35.76991],[140.42326,35.76071],[140.42453,35.75465],[140.42832,35.75096],[140.43535,35.7354],[140.43597,35.73094],[140.42946,35.72156],[140.43264,35.71791],[140.43777,35.71801],[140.44328,35.71245],[140.44814,35.71287],[140.44999,35.7061],[140.45423,35.70588],[140.45505,35.69898],[140.45965,35.69722],[140.46105,35.69129],[140.46609,35.69201],[140.46801,35.69814],[140.47553,35.71108],[140.47937,35.71516],[140.48097,35.72178],[140.48647,35.72125],[140.48634,35.72459],[140.50246,35.73589],[140.50236,35.73941],[140.5071,35.75103],[140.50453,35.75945],[140.51589,35.76078],[140.51932,35.75517],[140.5268,35.75398],[140.53031,35.76056],[140.5375,35.75659],[140.54754,35.75794],[140.55046,35.76101],[140.54641,35.76545],[140.54617,35.77043],[140.54259,35.77401],[140.53329,35.77518],[140.51926,35.78252],[140.51156,35.78105],[140.50049,35.78903],[140.50257,35.79607],[140.4951,35.80195],[140.48746,35.79773],[140.48074,35.79039],[140.4678,35.7923],[140.4683,35.79796],[140.45924,35.80183],[140.45192,35.80712],[140.44447,35.80338],[140.44513,35.79969],[140.4431,35.78857],[140.43308,35.78603],[140.43621,35.78079],[140.42385,35.77528],[140.41705,35.77577],[140.41781,35.78129],[140.41404,35.78532],[140.40749,35.78653],[140.40225,35.78333],[140.40294,35.77485]]]},"properties":{"pref":"千葉県","county":"香取郡","city":"多古町","code5":"12347","code6":"123471"}},
{"type":"Feature","geometry":{"type":"Polygon","coordinates":[[[140.64783,35.85571],[140.64466,35.84658],[140.64811,35.84215],[140.64877,35.83512],[140.65151,35.83419],[140.65065,35.82735],[140.64342,35.82749],[140.64182,35.82497],[140.64449,35.81422],[140.63432,35.80819],[140.63391,35.80284],[140.6241,35.80045],[140.62457,35.79367],[140.62961,35.79466],[140.63841,35.78589],[140.64403,35.78764],[140.6548,35.78824],[140.66191,35.7749],[140.67067,35.76541],[140.67326,35.77175],[140.68333,35.77766],[140.68734,35.78286],[140.69176,35.78131],[140.69959,35.77424],[140.70427,35.77938],[140.70488,35.78377],[140.69962,35.78547],[140.69978,35.79283],[140.69027,35.79445],[140.69278,35.80436],[140.70274,35.80613],[140.7207,35.81347],[140.71723,35.82277],[140.71305,35.82942],[140.70658,35.83626],[140.69718,35.84238],[140.68684,35.84776],[140.66639,35.8532],[140.64783,35.85571]]]},"properties":{"pref":"千葉県","county":"香取郡","city":"東庄町","code5":"12349","code6":"123498"}},
{"type":"Feature","geometry":{"type":"Polygon","coordinates":[[[140.40412,35.50919],[140.41498,35.50428],[140.42254,35.50459],[140.42295,35.50115],[140.43048,35.49814],[140.44755,35.52209],[140.45223,35.52555],[140.45855,35.53364],[140.46547,35.53662],[140.46606,35.54122],[140.47009,35.54721],[140.46344,35.55106],[140.44726,35.56389],[140.43661,35.56998],[140.43501,35.5677],[140.43269,35.56043],[140.42851,35.55771],[140.42728,35.55141],[140.42119,35.55243],[140.42207,35.54713],[140.41918,35.53949],[140.41909,35.53277],[140.41509,35.52711],[140.40937,35.52999],[140.40041,35.52862],[140.3963,35.53249],[140.39142,35.52667],[140.41038,35.51864],[140.40412,35.50919]]]},"properties":{"pref":"千葉県","county":"山武郡","city":"九十九里町","code5":"12403","code6":"124036"}},
{"type":"Feature","geometry":{"type":"Polygon","coordinates":[[[140.36787,35.73125],[140.36586,35.72591],[140.37595,35.72078],[140.37873,35.71443],[140.38541,35.71256],[140.38239,35.70362],[140.37302,35.70085],[140.37848,35.6943],[140.38517,35.68964],[140.39977,35.68992],[140.40126,35.68326],[140.39981,35.68045],[140.41255,35.67504],[140.41654,35.67948],[140.4172,35.68174],[140.43519,35.69249],[140.44579,35.69723],[140.45505,35.69898],[140.45423,35.70588],[140.44999,35.7061],[140.44814,35.71287],[140.44328,35.71245],[140.43777,35.71801],[140.43264,35.71791],[140.42946,35.72156],[140.43597,35.73094],[140.43535,35.7354],[140.42832,35.75096],[140.42453,35.75465],[140.42326,35.76071],[140.42508,35.76991],[140.42115,35.77328],[140.4153,35.77376],[140.40643,35.77024],[140.40294,35.77485],[140.3964,35.77244],[140.39347,35.76789],[140.3998,35.76339],[140.39586,35.75671],[140.40195,35.75333],[140.39964,35.74207],[140.39153,35.7403],[140.38504,35.74072],[140.38676,35.73146],[140.39328,35.72773],[140.38702,35.72327],[140.37941,35.72874],[140.37668,35.7379],[140.36805,35.73941],[140.36787,35.73125]]]},"properties":{"pref":"千葉県","county":"山武郡","city":"芝山町","code5":"12409","code6":"124095"}},
{"type":"Feature","geometry":{"type":"Polygon","coordinates":[[[140.48647,35.72125],[140.48097,35.72178],[140.47937,35.71516],[140.47553,35.71108],[140.46801,35.69814],[140.46609,35.69201],[140.46105,35.69129],[140.45965,35.69722],[140.45505,35.69898],[140.44579,35.69723],[140.43519,35.69249],[140.4172,35.68174],[140.41654,35.67948],[140.42369,35.68006],[140.43189,35.67749],[140.43569,35.67216],[140.43549,35.66711],[140.44391,35.66152],[140.45072,35.66604],[140.46662,35.6598],[140.47092,35.65635],[140.47601,35.6573],[140.47897,35.65419],[140.46613,35.64377],[140.47563,35.63707],[140.4878,35.63082],[140.49537,35.63678],[140.50005,35.6328],[140.5009,35.62865],[140.49175,35.62176],[140.49024,35.61702],[140.49659,35.61028],[140.50682,35.61706],[140.51552,35.61123],[140.52562,35.60212],[140.54358,35.6162],[140.55944,35.6279],[140.54776,35.6391],[140.54458,35.63947],[140.53385,35.65088],[140.52986,35.65717],[140.54169,35.66523],[140.53834,35.66968],[140.52396,35.67886],[140.5162,35.67371],[140.51441,35.68376],[140.50426,35.68594],[140.49913,35.69821],[140.50266,35.70602],[140.49958,35.71011],[140.49488,35.71183],[140.48703,35.71881],[140.48647,35.72125]]]},"properties":{"pref":"千葉県","county":"山武郡","city":"横芝光町","code5":"12410","code6":"124109"}},
{"type":"Feature","geometry":{"type":"Polygon","coordinates":[[[140.39765,35.33051],[140.39523,35.33478],[140.39273,35.3453],[140.39094,35.37183],[140.39234,35.38306],[140.38805,35.38514],[140.38829,35.3904],[140.37865,35.38747],[140.3765,35.38996],[140.36527,35.38925],[140.36413,35.38565],[140.35825,35.38465],[140.35749,35.38167],[140.35098,35.38094],[140.34534,35.3726],[140.3483,35.3691],[140.34216,35.35978],[140.34425,35.35352],[140.34193,35.34538],[140.3533,35.34573],[140.36615,35.34242],[140.37445,35.34273],[140.37216,35.32924],[140.38289,35.33025],[140.38783,35.33475],[140.39303,35.33067],[140.39765,35.33051]]]},"properties":{"pref":"千葉県","county":"長生郡","city":"一宮町","code5":"12421","code6":"124214"}},
{"type":"Feature","geometry":{"type":"Polygon","coordinates":[[[140.30797,35.38222],[140.30597,35.37707],[140.31021,35.3679],[140.30502,35.3616],[140.29991,35.36353],[140.29075,35.36067],[140.28299,35.36057],[140.26966,35.35615],[140.26718,35.35098],[140.25764,35.33926],[140.25214,35.33702],[140.25289,35.32889],[140.25126,35.32442],[140.25302,35.31788],[140.25925,35.31825],[140.26263,35.31358],[140.26663,35.31532],[140.27128,35.31339],[140.27774,35.31896],[140.28909,35.32136],[140.292,35.3256],[140.29428,35.33336],[140.30115,35.3378],[140.30679,35.33747],[140.31807,35.34571],[140.32669,35.34364],[140.33414,35.34426],[140.33784,35.34233],[140.34193,35.34538],[140.34425,35.35352],[140.34216,35.35978],[140.3483,35.3691],[140.34534,35.3726],[140.35098,35.38094],[140.34143,35.3864],[140.34049,35.39211],[140.33252,35.38743],[140.32076,35.392],[140.31221,35.39141],[140.30797,35.38222]]]},"properties":{"pref":"千葉県","county":"長生郡","city":"睦沢町","code5":"12422","code6":"124222"}},
{"type":"Feature","geometry":{"type":"Polygon","coordinates":[[[140.32076,35.392],[140.33252,35.38743],[140.34049,35.39211],[140.34143,35.3864],[140.35098,35.38094],[140.35749,35.38167],[140.35825,35.38465],[140.36413,35.38565],[140.36527,35.38925],[140.3765,35.38996],[140.37865,35.38747],[140.38829,35.3904],[140.38805,35.38514],[140.39234,35.38306],[140.39229,35.39682],[140.3942,35.40869],[140.39703,35.41877],[140.37988,35.42172],[140.37382,35.42409],[140.37453,35.43074],[140.36436,35.43364],[140.34813,35.43364],[140.34662,35.42874],[140.34192,35.4286],[140.32961,35.41978],[140.32399,35.41828],[140.32551,35.40783],[140.32304,35.40693],[140.31837,35.40474],[140.31581,35.40324],[140.32076,35.392]]]},"properties":{"pref":"千葉県","county":"長生郡","city":"長生村","code5":"12423","code6":"124231"}},
{"type":"Feature","geometry":{"type":"Polygon","coordinates":[[[140.34813,35.43364],[140.36436,35.43364],[140.37453,35.43074],[140.37382,35.42409],[140.37988,35.42172],[140.39703,35.41877],[140.40412,35.443],[140.41288,35.46558],[140.41592,35.47162],[140.4014,35.4748],[140.38614,35.47676],[140.38136,35.47549],[140.37761,35.46861],[140.37297,35.46925],[140.36963,35.47431],[140.36341,35.47415],[140.36082,35.47158],[140.36106,35.4664],[140.35602,35.46253],[140.35044,35.46167],[140.35005,35.45556],[140.34234,35.45321],[140.34009,35.44178],[140.34049,35.43629],[140.34813,35.43364]]]},"properties":{"pref":"千葉県","county":"長生郡","city":"白子町","code5":"12424","code6":"124249"}},
{"type":"Feature","geometry":{"type":"Polygon","coordinates":[[[140.24849,35.48175],[140.23999,35.4826],[140.23703,35.48024],[140.22404,35.48528],[140.22002,35.48469],[140.21153,35.48674],[140.2063,35.48469],[140.20778,35.48008],[140.20276,35.47898],[140.2016,35.47463],[140.19439,35.46984],[140.18609,35.47385],[140.18394,35.46913],[140.17406,35.46901],[140.17454,35.46054],[140.1706,35.45654],[140.18653,35.44793],[140.18457,35.4373],[140.17922,35.43518],[140.17475,35.43018],[140.18225,35.4206],[140.18085,35.41544],[140.19023,35.40739],[140.18858,35.40418],[140.19527,35.39212],[140.20014,35.39094],[140.19732,35.3984],[140.20147,35.40438],[140.21024,35.40292],[140.21374,35.40957],[140.21184,35.41209],[140.21509,35.41853],[140.22355,35.42035],[140.22716,35.41929],[140.23863,35.42677],[140.24386,35.42766],[140.25829,35.42744],[140.25975,35.42505],[140.25769,35.43296],[140.24885,35.43906],[140.24728,35.45096],[140.24977,35.46597],[140.25351,35.46968],[140.24912,35.47568],[140.24849,35.48175]]]},"properties":{"pref":"千葉県","county":"長生郡","city":"長柄町","code5":"12426","code6":"124265"}},
{"type":"Feature","geometry":{"type":"Polygon","coordinates":[[[140.25975,35.42505],[140.25829,35.42744],[140.24386,35.42766],[140.23863,35.42677],[140.22716,35.41929],[140.22355,35.42035],[140.21509,35.41853],[140.21184,35.41209],[140.21374,35.40957],[140.21024,35.40292],[140.20147,35.40438],[140.19732,35.3984],[140.20014,35.39094],[140.20687,35.37872],[140.19979,35.37781],[140.19792,35.37011],[140.20156,35.3661],[140.20936,35.36562],[140.20585,35.3597],[140.20792,35.35609],[140.20911,35.34637],[140.21384,35.34021],[140.21255,35.33356],[140.22008,35.32782],[140.22525,35.31673],[140.23357,35.32333],[140.24014,35.324],[140.24629,35.32715],[140.25126,35.32442],[140.25289,35.32889],[140.25214,35.33702],[140.25764,35.33926],[140.26718,35.35098],[140.26966,35.35615],[140.28299,35.36057],[140.29075,35.36067],[140.29991,35.36353],[140.30502,35.3616],[140.31021,35.3679],[140.30597,35.37707],[140.30797,35.38222],[140.29805,35.37947],[140.27695,35.38289],[140.27582,35.39257],[140.27984,35.39647],[140.27777,35.40324],[140.27199,35.40182],[140.26075,35.39671],[140.25728,35.39894],[140.25373,35.4073],[140.26047,35.4113],[140.26257,35.42107],[140.25975,35.42505]]]},"properties":{"pref":"千葉県","county":"長生郡","city":"長南町","code5":"12427","code6":"124273"}},
{"type":"Feature","geometry":{"type":"Polygon","coordinates":[[[140.28102,35.24242],[140.28323,35.24519],[140.28056,35.2504],[140.28622,35.25561],[140.27898,35.26152],[140.27856,35.2653],[140.27184,35.27021],[140.26752,35.26935],[140.25898,35.27204],[140.25466,35.27966],[140.25999,35.28416],[140.26617,35.28403],[140.27661,35.29618],[140.27404,35.30457],[140.27578,35.30624],[140.27128,35.31339],[140.26663,35.31532],[140.26263,35.31358],[140.25925,35.31825],[140.25302,35.31788],[140.25126,35.32442],[140.24629,35.32715],[140.24014,35.324],[140.23357,35.32333],[140.22525,35.31673],[140.22738,35.31087],[140.22554,35.3068],[140.21249,35.30183],[140.20066,35.30641],[140.19876,35.29897],[140.20423,35.2938],[140.20282,35.28771],[140.19687,35.28448],[140.18933,35.27695],[140.18512,35.27788],[140.17793,35.27461],[140.17777,35.26969],[140.17489,35.26493],[140.17581,35.25948],[140.17125,35.25526],[140.1627,35.25516],[140.15241,35.25004],[140.14873,35.24013],[140.1429,35.23624],[140.14124,35.23121],[140.13935,35.22787],[140.14366,35.21773],[140.14817,35.21204],[140.14847,35.20754],[140.15241,35.2062],[140.15323,35.19974],[140.15977,35.18985],[140.16127,35.18124],[140.16153,35.17431],[140.16604,35.17054],[140.17115,35.17017],[140.17498,35.16669],[140.18792,35.17018],[140.18895,35.17574],[140.19873,35.17791],[140.20063,35.18338],[140.20538,35.18411],[140.21286,35.17975],[140.22176,35.18673],[140.22748,35.1863],[140.231,35.18112],[140.23834,35.1801],[140.24588,35.19237],[140.2444,35.20091],[140.24562,35.21408],[140.25041,35.21634],[140.25445,35.22268],[140.25865,35.22282],[140.25917,35.22753],[140.25173,35.23307],[140.25625,35.23507],[140.26112,35.23347],[140.27059,35.23438],[140.27387,35.23919],[140.28102,35.24242]]]},"properties":{"pref":"千葉県","county":"夷隅郡","city":"大多喜町","code5":"12441","code6":"124419"}},
{"type":"Feature","geometry":{"type":"Polygon","coordinates":[[[140.34677,35.17614],[140.34927,35.18014],[140.3594,35.1824],[140.36782,35.17885],[140.37447,35.17965],[140.38444,35.18761],[140.38478,35.19234],[140.37752,35.19778],[140.36803,35.19846],[140.36679,35.20145],[140.36046,35.20234],[140.36294,35.21816],[140.35563,35.21665],[140.34887,35.21727],[140.33845,35.21505],[140.33689,35.21911],[140.33173,35.22413],[140.32977,35.21962],[140.32354,35.21975],[140.32265,35.21405],[140.31791,35.21456],[140.31145,35.21161],[140.30828,35.2081],[140.3083,35.20188],[140.30346,35.1963],[140.30542,35.19022],[140.31033,35.18956],[140.31584,35.1767],[140.32401,35.17432],[140.33214,35.17751],[140.33923,35.17545],[140.34677,35.17614]]]},"properties":{"pref":"千葉県","county":"夷隅郡","city":"御宿町","code5":"12443","code6":"124435"}},
{"type":"Feature","geometry":{"type":"Polygon","coordinates":[[[139.93159,35.1393],[139.91222,35.14135],[139.90212,35.1509],[139.90031,35.15624],[139.89472,35.15608],[139.88717,35.15966],[139.88255,35.15695],[139.87851,35.15819],[139.8708,35.15657],[139.86752,35.16043],[139.85953,35.16112],[139.85413,35.1643],[139.83809,35.15923],[139.82868,35.15855],[139.81815,35.15488],[139.82816,35.15138],[139.82998,35.14534],[139.83672,35.13805],[139.83895,35.12941],[139.83155,35.12322],[139.83169,35.12001],[139.82469,35.11339],[139.82834,35.09971],[139.83606,35.09966],[139.84375,35.10014],[139.85568,35.10799],[139.86213,35.10737],[139.8692,35.11095],[139.88035,35.10911],[139.88809,35.1095],[139.90068,35.11408],[139.9131,35.1149],[139.91855,35.11339],[139.92433,35.11778],[139.92358,35.12242],[139.92602,35.12696],[139.93087,35.12865],[139.93159,35.1393]]]},"properties":{"pref":"千葉県","county":"安房郡","city":"鋸南町","code5":"12463","code6":"124630"}},
{"type":"Feature","geometry":{"type":"MultiPolygon","coordinates":[[[[140.11549,35.5506],[140.12096,35.55132],[140.12377,35.54784],[140.13008,35.54716],[140.13533,35.54253],[140.14236,35.54797],[140.15897,35.53551],[140.17158,35.53616],[140.17911,35.53273],[140.19124,35.53652],[140.1944,35.54326],[140.20131,35.53957],[140.20934,35.54545],[140.21304,35.542],[140.21792,35.54402],[140.22738,35.54098],[140.23213,35.5334],[140.22527,35.52483],[140.22064,35.52368],[140.22168,35.518],[140.23037,35.50992],[140.23255,35.50377],[140.24287,35.50547],[140.25474,35.50053],[140.25634,35.49431],[140.2624,35.49557],[140.2597,35.5017],[140.26697,35.5018],[140.27117,35.49949],[140.27211,35.4936],[140.27405,35.49922],[140.27437,35.50726],[140.27676,35.51149],[140.28227,35.51278],[140.28602,35.51882],[140.29259,35.51532],[140.29958,35.5189],[140.28776,35.52349],[140.29202,35.53117],[140.28601,35.53893],[140.28096,35.54184],[140.28136,35.54779],[140.28575,35.54937],[140.29187,35.54822],[140.29097,35.55565],[140.29421,35.56063],[140.28866,35.56637],[140.28873,35.57003],[140.28709,35.57291],[140.28319,35.57378],[140.28111,35.57934],[140.27514,35.58178],[140.27556,35.58747],[140.26137,35.5996],[140.2626,35.60601],[140.26748,35.60716],[140.26764,35.61726],[140.26493,35.62056],[140.26632,35.62641],[140.25776,35.62547],[140.25096,35.62558],[140.24888,35.62857],[140.24128,35.6313],[140.22874,35.63314],[140.22304,35.64164],[140.21964,35.65197],[140.21332,35.65457],[140.20465,35.65097],[140.20704,35.64632],[140.20379,35.64024],[140.1934,35.62678],[140.18508,35.62912],[140.19224,35.64015],[140.19016,35.64301],[140.17645,35.65345],[140.17367,35.65407],[140.16355,35.64535],[140.1578,35.64635],[140.15596,35.65409],[140.14992,35.66813],[140.14131,35.66762],[140.1365,35.67051],[140.13838,35.67539],[140.13672,35.67952],[140.13949,35.68816],[140.14312,35.69141],[140.14697,35.69181],[140.15264,35.68929],[140.14939,35.6916],[140.14748,35.69209],[140.14353,35.69194],[140.13679,35.69755],[140.13398,35.69962],[140.12397,35.69889],[140.12261,35.70676],[140.11768,35.70917],[140.11338,35.71405],[140.10553,35.70935],[140.10112,35.70283],[140.09027,35.69378],[140.08156,35.69454],[140.07736,35.68845],[140.06592,35.67676],[140.05758,35.67974],[140.05513,35.67698],[140.04803,35.67645],[140.04176,35.67785],[140.03495,35.66963],[140.01965,35.65248],[140.02873,35.64416],[140.05558,35.62233],[140.06664,35.61222],[140.06966,35.61075],[140.08391,35.5968],[140.08663,35.60189],[140.07792,35.61042],[140.08314,35.61327],[140.09335,35.60374],[140.09831,35.6062],[140.0957,35.60133],[140.08897,35.59453],[140.10552,35.59345],[140.11057,35.58954],[140.11416,35.57252],[140.11606,35.5692],[140.09682,35.5664],[140.09102,35.56449],[140.09121,35.56118],[140.11507,35.55284],[140.11549,35.5506]]],[[[140.08318,35.58821],[140.08159,35.58829],[140.0861,35.56945],[140.11173,35.57043],[140.10947,35.57661],[140.10511,35.57762],[140.10296,35.58738],[140.08318,35.58821]]]]},"properties":{"pref":"千葉県","city":"千葉市","code5":"12100","code6":"121002"}}
]}