{"type":"FeatureCollection", "features": [
{"type":"Feature","geometry":{"type":"Polygon","coordinates":[[[139.78254,35.69657],[139.78039,35.70033],[139.77317,35.70188],[139.77014,35.70535],[139.7664,35.70178],[139.74587,35.70291],[139.73628,35.69219],[139.73166,35.68962],[139.7315,35.6815],[139.73678,35.67887],[139.73906,35.67403],[139.7478,35.66962],[139.74996,35.67083],[139.75855,35.66859],[139.76417,35.67359],[139.7709,35.68452],[139.76812,35.68864],[139.77771,35.69177],[139.78254,35.69657]]]},"properties":{"pref":"東京都","city":"千代田区","code5":"13101","code6":"131016"}},
{"type":"Feature","geometry":{"type":"Polygon","coordinates":[[[139.75855,35.66859],[139.76327,35.66415],[139.75948,35.65899],[139.76453,35.65612],[139.77279,35.64604],[139.78959,35.65626],[139.78907,35.66564],[139.78717,35.67228],[139.78786,35.67698],[139.79186,35.68257],[139.7904,35.68929],[139.78892,35.6947],[139.78254,35.69657],[139.77771,35.69177],[139.76812,35.68864],[139.7709,35.68452],[139.76417,35.67359],[139.75855,35.66859]]]},"properties":{"pref":"東京都","city":"中央区","code5":"13102","code6":"131024"}},
{"type":"Feature","geometry":{"type":"MultiPolygon","coordinates":[[[[139.7315,35.6815],[139.71958,35.67831],[139.71656,35.67343],[139.70856,35.66407],[139.71288,35.65845],[139.72253,35.65552],[139.72356,35.6467],[139.7192,35.64185],[139.71668,35.63826],[139.71996,35.63458],[139.726,35.63503],[139.73065,35.6307],[139.73123,35.62633],[139.73779,35.62453],[139.75025,35.62482],[139.75263,35.63442],[139.75553,35.63905],[139.76043,35.63678],[139.7613,35.65247],[139.76453,35.65612],[139.75948,35.65899],[139.76327,35.66415],[139.75855,35.66859],[139.74996,35.67083],[139.7478,35.66962],[139.73906,35.67403],[139.73678,35.67887],[139.7315,35.6815]]],[[[139.78238,35.62951],[139.77717,35.63142],[139.76873,35.62644],[139.77135,35.62314],[139.78238,35.62951]]],[[[139.75941,35.628],[139.75923,35.63365],[139.75524,35.63363],[139.75351,35.62405],[139.75941,35.628]]]]},"properties":{"pref":"東京都","city":"港区","code5":"13103","code6":"131032"}},
{"type":"Feature","geometry":{"type":"Polygon","coordinates":[[[139.74587,35.70291],[139.74281,35.70813],[139.72599,35.70921],[139.72251,35.71226],[139.70588,35.71344],[139.7046,35.72301],[139.69394,35.72219],[139.68272,35.72364],[139.67734,35.72937],[139.67519,35.72371],[139.67641,35.71966],[139.68278,35.71012],[139.69008,35.71148],[139.68745,35.70178],[139.68841,35.69933],[139.68399,35.69199],[139.68322,35.68872],[139.68767,35.68159],[139.69503,35.68665],[139.7021,35.68917],[139.70741,35.68446],[139.71479,35.68086],[139.71291,35.67729],[139.71656,35.67343],[139.71958,35.67831],[139.7315,35.6815],[139.73166,35.68962],[139.73628,35.69219],[139.74587,35.70291]]]},"properties":{"pref":"東京都","city":"新宿区","code5":"13104","code6":"131041"}},
{"type":"Feature","geometry":{"type":"Polygon","coordinates":[[[139.77014,35.70535],[139.76662,35.70871],[139.76715,35.71824],[139.76326,35.72187],[139.76492,35.72722],[139.76279,35.73075],[139.76094,35.73221],[139.75276,35.73506],[139.74919,35.73287],[139.74504,35.73586],[139.73739,35.7269],[139.73197,35.7241],[139.72649,35.72705],[139.72275,35.72515],[139.72472,35.72001],[139.71832,35.71776],[139.71761,35.7145],[139.72251,35.71226],[139.72599,35.70921],[139.74281,35.70813],[139.74587,35.70291],[139.7664,35.70178],[139.77014,35.70535]]]},"properties":{"pref":"東京都","city":"文京区","code5":"13105","code6":"131059"}},
{"type":"Feature","geometry":{"type":"Polygon","coordinates":[[[139.78254,35.69657],[139.78892,35.6947],[139.79702,35.70778],[139.80664,35.71743],[139.80972,35.72813],[139.80143,35.72925],[139.78446,35.72786],[139.78146,35.72462],[139.77674,35.72494],[139.76279,35.73075],[139.76492,35.72722],[139.76326,35.72187],[139.76715,35.71824],[139.76662,35.70871],[139.77014,35.70535],[139.77317,35.70188],[139.78039,35.70033],[139.78254,35.69657]]]},"properties":{"pref":"東京都","city":"台東区","code5":"13106","code6":"131067"}},
{"type":"Feature","geometry":{"type":"Polygon","coordinates":[[[139.7904,35.68929],[139.79348,35.69081],[139.805,35.68678],[139.81188,35.68856],[139.81147,35.69191],[139.81969,35.69303],[139.81869,35.70801],[139.83068,35.70301],[139.8354,35.70302],[139.8395,35.70981],[139.83363,35.71402],[139.8355,35.71787],[139.84215,35.71931],[139.82382,35.73771],[139.82036,35.74343],[139.8145,35.7388],[139.80972,35.72813],[139.80664,35.71743],[139.79702,35.70778],[139.78892,35.6947],[139.7904,35.68929]]]},"properties":{"pref":"東京都","city":"墨田区","code5":"13107","code6":"131075"}},
{"type":"Feature","geometry":{"type":"MultiPolygon","coordinates":[[[[139.84554,35.65672],[139.84689,35.67385],[139.84823,35.67913],[139.84551,35.68129],[139.84759,35.68809],[139.84771,35.69497],[139.84381,35.69954],[139.8354,35.70302],[139.83068,35.70301],[139.81869,35.70801],[139.81969,35.69303],[139.81147,35.69191],[139.81188,35.68856],[139.805,35.68678],[139.79348,35.69081],[139.7904,35.68929],[139.79186,35.68257],[139.78786,35.67698],[139.78717,35.67228],[139.78907,35.66564],[139.78959,35.65626],[139.79242,35.65293],[139.77613,35.64241],[139.77872,35.63712],[139.78733,35.62733],[139.79202,35.62987],[139.79857,35.62182],[139.80219,35.62622],[139.80033,35.63106],[139.80137,35.63636],[139.80699,35.6369],[139.80812,35.64046],[139.82042,35.64163],[139.82167,35.64294],[139.83448,35.64407],[139.83368,35.63463],[139.82125,35.63344],[139.82067,35.62978],[139.82167,35.63198],[139.84025,35.63389],[139.84098,35.64298],[139.84296,35.65682],[139.84554,35.65672]]],[[[139.77135,35.62314],[139.77344,35.62027],[139.77317,35.6185],[139.78673,35.60184],[139.79263,35.60958],[139.78099,35.62388],[139.78238,35.62951],[139.77135,35.62314]]],[[[139.82706,35.59694],[139.82032,35.6074],[139.8056,35.59941],[139.80744,35.59714],[139.81355,35.58966],[139.82706,35.59694]]],[[[139.81727,35.60973],[139.81059,35.61318],[139.79895,35.60687],[139.79114,35.59713],[139.79215,35.59425],[139.8187,35.60867],[139.81727,35.60973]]],[[[139.84011,35.63207],[139.82585,35.6307],[139.82742,35.6198],[139.83552,35.61249],[139.8386,35.61416],[139.84011,35.63207]]],[[[139.79766,35.61738],[139.78988,35.62762],[139.78529,35.62513],[139.79438,35.61394],[139.79766,35.61738]]],[[[139.81035,35.633],[139.8103,35.633],[139.81097,35.62873],[139.81036,35.63298],[139.81035,35.633]]],[[[139.81035,35.633],[139.81034,35.63321],[139.81029,35.6332],[139.80998,35.63521],[139.81027,35.63318],[139.81035,35.633]]]]},"properties":{"pref":"東京都","city":"江東区","code5":"13108","code6":"131083"}},
{"type":"Feature","geometry":{"type":"MultiPolygon","coordinates":[[[[139.7192,35.64185],[139.71764,35.64166],[139.71323,35.63755],[139.71463,35.62905],[139.70402,35.62471],[139.70238,35.62013],[139.69558,35.61228],[139.69539,35.60749],[139.70107,35.60141],[139.71444,35.59999],[139.71534,35.59692],[139.72109,35.59429],[139.72824,35.59438],[139.73011,35.58737],[139.73587,35.58737],[139.74654,35.59017],[139.74772,35.60272],[139.75046,35.60577],[139.75183,35.62475],[139.75025,35.62482],[139.73779,35.62453],[139.73123,35.62633],[139.73065,35.6307],[139.726,35.63503],[139.71996,35.63458],[139.71668,35.63826],[139.7192,35.64185]]],[[[139.77315,35.59576],[139.76348,35.60872],[139.76195,35.61465],[139.758,35.61767],[139.75302,35.61765],[139.75167,35.60469],[139.749,35.60073],[139.74947,35.58886],[139.75601,35.58925],[139.75597,35.58493],[139.76257,35.58501],[139.76256,35.59461],[139.7668,35.59257],[139.77315,35.59576]]],[[[139.75351,35.62405],[139.75321,35.619],[139.75975,35.61935],[139.75941,35.628],[139.75351,35.62405]]],[[[139.76873,35.62644],[139.76766,35.62208],[139.77344,35.62027],[139.77135,35.62314],[139.76873,35.62644]]]]},"properties":{"pref":"東京都","city":"品川区","code5":"13109","code6":"131091"}},
{"type":"Feature","geometry":{"type":"Polygon","coordinates":[[[139.71764,35.64166],[139.70862,35.64201],[139.69289,35.65396],[139.68733,35.66157],[139.67499,35.66388],[139.68459,35.65135],[139.6843,35.64377],[139.68609,35.63804],[139.67983,35.62622],[139.66385,35.63194],[139.66181,35.62748],[139.6665,35.61853],[139.66322,35.61566],[139.66341,35.60853],[139.66851,35.60651],[139.67726,35.60794],[139.68028,35.60067],[139.68476,35.60534],[139.68613,35.61168],[139.6913,35.61093],[139.69539,35.60749],[139.69558,35.61228],[139.70238,35.62013],[139.70402,35.62471],[139.71463,35.62905],[139.71323,35.63755],[139.71764,35.64166]]]},"properties":{"pref":"東京都","city":"目黒区","code5":"13110","code6":"131105"}},
{"type":"Feature","geometry":{"type":"MultiPolygon","coordinates":[[[[139.69539,35.60749],[139.6913,35.61093],[139.68613,35.61168],[139.68476,35.60534],[139.68028,35.60067],[139.68062,35.59486],[139.67565,35.59179],[139.66967,35.5991],[139.65578,35.59647],[139.65514,35.59015],[139.66333,35.58987],[139.66931,35.58472],[139.67641,35.56604],[139.68114,35.56144],[139.68962,35.55729],[139.69778,35.55613],[139.70308,35.55332],[139.70353,35.54941],[139.69845,35.5454],[139.69794,35.54145],[139.70347,35.53659],[139.7173,35.538],[139.72611,35.54347],[139.73464,35.54098],[139.73941,35.54512],[139.74678,35.54383],[139.75649,35.54455],[139.7765,35.53447],[139.78207,35.53869],[139.78442,35.53538],[139.7949,35.53213],[139.80917,35.53907],[139.80126,35.5483],[139.78544,35.57056],[139.771,35.56897],[139.76373,35.56046],[139.75859,35.56437],[139.75296,35.56338],[139.75024,35.56738],[139.75636,35.56907],[139.74784,35.58869],[139.74654,35.59017],[139.73587,35.58737],[139.73011,35.58737],[139.72824,35.59438],[139.72109,35.59429],[139.71534,35.59692],[139.71444,35.59999],[139.70107,35.60141],[139.69539,35.60749]]],[[[139.74947,35.58886],[139.75407,35.57834],[139.75592,35.57707],[139.78301,35.5771],[139.78741,35.58006],[139.77853,35.58648],[139.77315,35.59576],[139.7668,35.59257],[139.76256,35.59461],[139.76257,35.58501],[139.75597,35.58493],[139.75601,35.58925],[139.74947,35.58886]]],[[[139.76518,35.57507],[139.75761,35.57446],[139.75721,35.57195],[139.75848,35.56844],[139.76561,35.5649],[139.77347,35.57488],[139.7653,35.57507],[139.76518,35.57507]]],[[[139.80561,35.59616],[139.80443,35.59764],[139.79448,35.59218],[139.80583,35.58545],[139.81171,35.58864],[139.80561,35.59616]]],[[[139.81667,35.53326],[139.82603,35.54157],[139.8198,35.54238],[139.80709,35.53111],[139.81096,35.5282],[139.81667,35.53326]]]]},"properties":{"pref":"東京都","city":"大田区","code5":"13111","code6":"131113"}},
{"type":"Feature","geometry":{"type":"Polygon","coordinates":[[[139.67499,35.66388],[139.6727,35.67228],[139.66176,35.67252],[139.65033,35.6699],[139.63911,35.66584],[139.62505,35.66913],[139.62163,35.67265],[139.61329,35.6729],[139.60326,35.68065],[139.59418,35.68214],[139.58773,35.68175],[139.58664,35.67398],[139.58889,35.66941],[139.58771,35.66437],[139.59233,35.65543],[139.59206,35.64591],[139.58764,35.64617],[139.58451,35.64094],[139.58779,35.63497],[139.59141,35.63306],[139.59355,35.62655],[139.58934,35.62127],[139.59024,35.61843],[139.59662,35.6185],[139.60474,35.61582],[139.61219,35.61585],[139.63117,35.60724],[139.64324,35.59816],[139.65514,35.59015],[139.65578,35.59647],[139.66967,35.5991],[139.67565,35.59179],[139.68062,35.59486],[139.68028,35.60067],[139.67726,35.60794],[139.66851,35.60651],[139.66341,35.60853],[139.66322,35.61566],[139.6665,35.61853],[139.66181,35.62748],[139.66385,35.63194],[139.67983,35.62622],[139.68609,35.63804],[139.6843,35.64377],[139.68459,35.65135],[139.67499,35.66388]]]},"properties":{"pref":"東京都","city":"世田谷区","code5":"13112","code6":"131121"}},
{"type":"Feature","geometry":{"type":"Polygon","coordinates":[[[139.71656,35.67343],[139.71291,35.67729],[139.71479,35.68086],[139.70741,35.68446],[139.7021,35.68917],[139.69503,35.68665],[139.68767,35.68159],[139.68322,35.68872],[139.68399,35.69199],[139.66412,35.67635],[139.66176,35.67252],[139.6727,35.67228],[139.67499,35.66388],[139.68733,35.66157],[139.69289,35.65396],[139.70862,35.64201],[139.71764,35.64166],[139.7192,35.64185],[139.72356,35.6467],[139.72253,35.65552],[139.71288,35.65845],[139.70856,35.66407],[139.71656,35.67343]]]},"properties":{"pref":"東京都","city":"渋谷区","code5":"13113","code6":"131130"}},
{"type":"Feature","geometry":{"type":"Polygon","coordinates":[[[139.67734,35.72937],[139.67796,35.73068],[139.67468,35.73306],[139.6647,35.73097],[139.66225,35.72692],[139.63993,35.72631],[139.63354,35.73528],[139.62834,35.73529],[139.62455,35.73015],[139.63219,35.71695],[139.64179,35.71476],[139.64284,35.7115],[139.65157,35.70899],[139.65822,35.70922],[139.66254,35.69924],[139.66755,35.69175],[139.66094,35.68677],[139.65927,35.6819],[139.66412,35.67635],[139.68399,35.69199],[139.68841,35.69933],[139.68745,35.70178],[139.69008,35.71148],[139.68278,35.71012],[139.67641,35.71966],[139.67519,35.72371],[139.67734,35.72937]]]},"properties":{"pref":"東京都","city":"中野区","code5":"13114","code6":"131148"}},
{"type":"Feature","geometry":{"type":"Polygon","coordinates":[[[139.66176,35.67252],[139.66412,35.67635],[139.65927,35.6819],[139.66094,35.68677],[139.66755,35.69175],[139.66254,35.69924],[139.65822,35.70922],[139.65157,35.70899],[139.64284,35.7115],[139.64179,35.71476],[139.63219,35.71695],[139.62455,35.73015],[139.61539,35.73029],[139.60195,35.72601],[139.59565,35.72154],[139.58509,35.71802],[139.58665,35.71191],[139.59547,35.70544],[139.59025,35.69482],[139.58672,35.69396],[139.59405,35.689],[139.59056,35.687],[139.59418,35.68214],[139.60326,35.68065],[139.61329,35.6729],[139.62163,35.67265],[139.62505,35.66913],[139.63911,35.66584],[139.65033,35.6699],[139.66176,35.67252]]]},"properties":{"pref":"東京都","city":"杉並区","code5":"13115","code6":"131156"}},
{"type":"Feature","geometry":{"type":"Polygon","coordinates":[[[139.72251,35.71226],[139.71761,35.7145],[139.71832,35.71776],[139.72472,35.72001],[139.72275,35.72515],[139.72649,35.72705],[139.73197,35.7241],[139.73739,35.7269],[139.74504,35.73586],[139.74919,35.73287],[139.75276,35.73506],[139.74106,35.74235],[139.73556,35.74055],[139.72791,35.74471],[139.72363,35.73993],[139.71951,35.74504],[139.71043,35.74579],[139.70405,35.73715],[139.69887,35.74239],[139.68961,35.74132],[139.68076,35.73876],[139.67796,35.73068],[139.67734,35.72937],[139.68272,35.72364],[139.69394,35.72219],[139.7046,35.72301],[139.70588,35.71344],[139.72251,35.71226]]]},"properties":{"pref":"東京都","city":"豊島区","code5":"13116","code6":"131164"}},
{"type":"Feature","geometry":{"type":"Polygon","coordinates":[[[139.69767,35.79844],[139.69686,35.7989],[139.69064,35.79057],[139.68947,35.7868],[139.69498,35.78262],[139.70239,35.78108],[139.70633,35.76696],[139.7163,35.76072],[139.7227,35.75323],[139.71951,35.74504],[139.72363,35.73993],[139.72791,35.74471],[139.73556,35.74055],[139.74106,35.74235],[139.75276,35.73506],[139.76094,35.73221],[139.77112,35.7379],[139.76818,35.74146],[139.7572,35.74546],[139.75089,35.75371],[139.75796,35.75486],[139.75007,35.75646],[139.74889,35.75981],[139.75817,35.76459],[139.75794,35.77018],[139.75128,35.76743],[139.74573,35.76713],[139.73673,35.77022],[139.73805,35.78022],[139.73854,35.7874],[139.73387,35.79005],[139.72446,35.78727],[139.72224,35.79073],[139.7092,35.79202],[139.69767,35.79844]]]},"properties":{"pref":"東京都","city":"北区","code5":"13117","code6":"131172"}},
{"type":"Feature","geometry":{"type":"Polygon","coordinates":[[[139.76279,35.73075],[139.77674,35.72494],[139.78146,35.72462],[139.78446,35.72786],[139.80143,35.72925],[139.80972,35.72813],[139.8145,35.7388],[139.80911,35.74086],[139.80244,35.73863],[139.79242,35.74078],[139.78894,35.7444],[139.79112,35.7503],[139.78247,35.75415],[139.77165,35.75361],[139.75796,35.75486],[139.75089,35.75371],[139.7572,35.74546],[139.76818,35.74146],[139.77112,35.7379],[139.76094,35.73221],[139.76279,35.73075]]]},"properties":{"pref":"東京都","city":"荒川区","code5":"13118","code6":"131181"}},
{"type":"Feature","geometry":{"type":"Polygon","coordinates":[[[139.6463,35.79787],[139.64057,35.79769],[139.63941,35.79285],[139.63423,35.79034],[139.62471,35.77983],[139.6294,35.77688],[139.63021,35.77234],[139.64052,35.76911],[139.66113,35.76867],[139.66901,35.76654],[139.6737,35.75841],[139.67502,35.75189],[139.67207,35.74522],[139.68084,35.74382],[139.68076,35.73876],[139.68961,35.74132],[139.69887,35.74239],[139.70405,35.73715],[139.71043,35.74579],[139.71951,35.74504],[139.7227,35.75323],[139.7163,35.76072],[139.70633,35.76696],[139.70239,35.78108],[139.69498,35.78262],[139.68947,35.7868],[139.69064,35.79057],[139.69686,35.7989],[139.68783,35.80084],[139.67838,35.79882],[139.66977,35.80024],[139.65336,35.80023],[139.6463,35.79787]]]},"properties":{"pref":"東京都","city":"板橋区","code5":"13119","code6":"131199"}},
{"type":"Feature","geometry":{"type":"Polygon","coordinates":[[[139.59414,35.7787],[139.58876,35.77853],[139.58224,35.77121],[139.57817,35.77085],[139.57459,35.76623],[139.56279,35.7616],[139.56901,35.75192],[139.56677,35.74743],[139.56733,35.73636],[139.56942,35.73415],[139.566,35.72705],[139.56564,35.72166],[139.57395,35.71943],[139.58665,35.71191],[139.58509,35.71802],[139.59565,35.72154],[139.60195,35.72601],[139.61539,35.73029],[139.62455,35.73015],[139.62834,35.73529],[139.63354,35.73528],[139.63993,35.72631],[139.66225,35.72692],[139.6647,35.73097],[139.67468,35.73306],[139.67796,35.73068],[139.68076,35.73876],[139.68084,35.74382],[139.67207,35.74522],[139.67502,35.75189],[139.6737,35.75841],[139.66901,35.76654],[139.66113,35.76867],[139.64052,35.76911],[139.63021,35.77234],[139.6294,35.77688],[139.62471,35.77983],[139.62299,35.76687],[139.61723,35.77035],[139.60317,35.77086],[139.60438,35.77502],[139.5972,35.77837],[139.59414,35.7787]]]},"properties":{"pref":"東京都","city":"練馬区","code5":"13120","code6":"131202"}},
{"type":"Feature","geometry":{"type":"Polygon","coordinates":[[[139.73805,35.78022],[139.73673,35.77022],[139.74573,35.76713],[139.75128,35.76743],[139.75794,35.77018],[139.75817,35.76459],[139.74889,35.75981],[139.75007,35.75646],[139.75796,35.75486],[139.77165,35.75361],[139.78247,35.75415],[139.79112,35.7503],[139.78894,35.7444],[139.79242,35.74078],[139.80244,35.73863],[139.80911,35.74086],[139.8145,35.7388],[139.82036,35.74343],[139.81347,35.75447],[139.81354,35.75967],[139.81974,35.76045],[139.82354,35.75587],[139.831,35.75908],[139.83234,35.76384],[139.83748,35.76319],[139.8458,35.76952],[139.8513,35.76988],[139.85218,35.76575],[139.85657,35.76443],[139.85776,35.77083],[139.84967,35.77968],[139.84527,35.78771],[139.84427,35.79385],[139.84675,35.79651],[139.84339,35.7998],[139.83801,35.80081],[139.83277,35.79568],[139.82605,35.79336],[139.82049,35.79754],[139.82075,35.80554],[139.82493,35.8119],[139.82106,35.81508],[139.81965,35.81178],[139.8133,35.80832],[139.8023,35.80855],[139.79243,35.80529],[139.77923,35.80825],[139.77176,35.81687],[139.76761,35.81768],[139.76127,35.81289],[139.75077,35.81017],[139.75066,35.80667],[139.76077,35.79741],[139.755,35.7869],[139.74886,35.786],[139.73805,35.78022]]]},"properties":{"pref":"東京都","city":"足立区","code5":"13121","code6":"131211"}},
{"type":"Feature","geometry":{"type":"Polygon","coordinates":[[[139.84675,35.79651],[139.84427,35.79385],[139.84527,35.78771],[139.84967,35.77968],[139.85776,35.77083],[139.85657,35.76443],[139.85218,35.76575],[139.8513,35.76988],[139.8458,35.76952],[139.83748,35.76319],[139.83234,35.76384],[139.831,35.75908],[139.82354,35.75587],[139.81974,35.76045],[139.81354,35.75967],[139.81347,35.75447],[139.82036,35.74343],[139.82382,35.73771],[139.84215,35.71931],[139.85136,35.71085],[139.85627,35.71446],[139.86224,35.71283],[139.86857,35.71458],[139.86627,35.71853],[139.87379,35.73686],[139.87991,35.74013],[139.88271,35.74954],[139.88998,35.75077],[139.88321,35.75862],[139.87946,35.76752],[139.88285,35.77353],[139.89342,35.77832],[139.89378,35.78275],[139.88724,35.78402],[139.87725,35.78117],[139.87134,35.78558],[139.87661,35.79383],[139.87077,35.79732],[139.8588,35.79444],[139.85649,35.79096],[139.84675,35.79651]]]},"properties":{"pref":"東京都","city":"葛飾区","code5":"13122","code6":"131229"}},
{"type":"Feature","geometry":{"type":"Polygon","coordinates":[[[139.89044,35.75028],[139.88998,35.75077],[139.88271,35.74954],[139.87991,35.74013],[139.87379,35.73686],[139.86627,35.71853],[139.86857,35.71458],[139.86224,35.71283],[139.85627,35.71446],[139.85136,35.71085],[139.84215,35.71931],[139.8355,35.71787],[139.83363,35.71402],[139.8395,35.70981],[139.8354,35.70302],[139.84381,35.69954],[139.84771,35.69497],[139.84759,35.68809],[139.84551,35.68129],[139.84823,35.67913],[139.84689,35.67385],[139.84554,35.65672],[139.85038,35.65653],[139.84944,35.64276],[139.86242,35.63856],[139.87146,35.63864],[139.88349,35.64512],[139.88739,35.65617],[139.88723,35.66879],[139.88607,35.67114],[139.88795,35.67999],[139.89356,35.682],[139.90379,35.68312],[139.90865,35.68551],[139.91874,35.69771],[139.91621,35.708],[139.90812,35.71386],[139.90398,35.71959],[139.89865,35.72345],[139.89794,35.73187],[139.90089,35.73746],[139.89945,35.74439],[139.89044,35.75028]]]},"properties":{"pref":"東京都","city":"江戸川区","code5":"13123","code6":"131237"}},
{"type":"Feature","geometry":{"type":"Polygon","coordinates":[[[139.33123,35.71346],[139.32764,35.7104],[139.31924,35.71906],[139.3159,35.71425],[139.30841,35.71499],[139.3035,35.71255],[139.2769,35.71397],[139.27432,35.71497],[139.26897,35.71003],[139.25811,35.71224],[139.24636,35.71094],[139.24109,35.71405],[139.21904,35.71683],[139.21725,35.71887],[139.20691,35.71276],[139.2045,35.70739],[139.20481,35.69973],[139.20054,35.69913],[139.19939,35.68825],[139.19137,35.68783],[139.18407,35.68905],[139.17141,35.68874],[139.17,35.68011],[139.1616,35.66791],[139.16717,35.66183],[139.16934,35.65148],[139.17525,35.64973],[139.17916,35.64557],[139.18406,35.64509],[139.19153,35.6474],[139.19803,35.65295],[139.21146,35.64912],[139.21573,35.64556],[139.21546,35.63694],[139.22143,35.62947],[139.22023,35.62557],[139.22887,35.62023],[139.22988,35.61457],[139.23798,35.60935],[139.23864,35.60698],[139.24687,35.60522],[139.25222,35.60167],[139.25771,35.60423],[139.26478,35.60246],[139.2688,35.60935],[139.2688,35.61212],[139.27559,35.61548],[139.27695,35.61859],[139.28568,35.6208],[139.29353,35.62053],[139.29804,35.61611],[139.30762,35.61624],[139.31363,35.61446],[139.33106,35.61541],[139.34166,35.6137],[139.34753,35.60891],[139.36158,35.60542],[139.36583,35.60872],[139.37339,35.60422],[139.38168,35.60212],[139.3939,35.60819],[139.40082,35.61456],[139.40471,35.62077],[139.41984,35.6286],[139.42502,35.62986],[139.42958,35.63397],[139.42274,35.64114],[139.41772,35.64312],[139.415,35.64703],[139.4064,35.64526],[139.39936,35.64119],[139.38202,35.64132],[139.37856,35.6441],[139.3688,35.64432],[139.35815,35.65411],[139.35889,35.65936],[139.37242,35.66575],[139.37047,35.66856],[139.3765,35.67645],[139.3752,35.68578],[139.37627,35.69163],[139.36333,35.69374],[139.34645,35.69198],[139.33603,35.6961],[139.33682,35.70151],[139.333,35.70512],[139.33249,35.71261],[139.33123,35.71346]]]},"properties":{"pref":"東京都","city":"八王子市","code5":"13201","code6":"132012"}},
{"type":"Feature","geometry":{"type":"Polygon","coordinates":[[[139.41442,35.73303],[139.39531,35.7335],[139.38509,35.73764],[139.37796,35.73509],[139.36546,35.73906],[139.35988,35.73958],[139.35292,35.73606],[139.35505,35.72508],[139.36187,35.72629],[139.37005,35.72451],[139.38009,35.72559],[139.39458,35.71163],[139.39295,35.69908],[139.38509,35.69128],[139.39514,35.68918],[139.40564,35.6856],[139.41757,35.68276],[139.4215,35.68858],[139.4247,35.68671],[139.43165,35.69694],[139.42559,35.70188],[139.43032,35.70354],[139.43563,35.70373],[139.42826,35.71736],[139.43334,35.7184],[139.43655,35.71477],[139.44161,35.71583],[139.44612,35.72288],[139.43563,35.72476],[139.42644,35.73017],[139.41442,35.73303]]]},"properties":{"pref":"東京都","city":"立川市","code5":"13202","code6":"132021"}},
{"type":"Feature","geometry":{"type":"Polygon","coordinates":[[[139.58665,35.71191],[139.57395,35.71943],[139.56564,35.72166],[139.55722,35.72173],[139.54941,35.71692],[139.53736,35.71132],[139.52942,35.71279],[139.52645,35.71728],[139.52716,35.70991],[139.53254,35.70911],[139.53393,35.69897],[139.53652,35.69533],[139.54227,35.6967],[139.55069,35.69518],[139.55017,35.70678],[139.57066,35.69885],[139.57665,35.70143],[139.58483,35.69725],[139.58672,35.69396],[139.59025,35.69482],[139.59547,35.70544],[139.58665,35.71191]]]},"properties":{"pref":"東京都","city":"武蔵野市","code5":"13203","code6":"132039"}},
{"type":"Feature","geometry":{"type":"Polygon","coordinates":[[[139.59418,35.68214],[139.59056,35.687],[139.59405,35.689],[139.58672,35.69396],[139.58483,35.69725],[139.57665,35.70143],[139.57066,35.69885],[139.55017,35.70678],[139.55069,35.69518],[139.54227,35.6967],[139.53652,35.69533],[139.53393,35.69897],[139.52854,35.69067],[139.52447,35.68841],[139.52692,35.68422],[139.52539,35.6809],[139.53137,35.6677],[139.53747,35.66703],[139.5414,35.6699],[139.54294,35.68046],[139.55216,35.68084],[139.56087,35.68284],[139.56614,35.66425],[139.5798,35.66554],[139.57809,35.67023],[139.58889,35.66941],[139.58664,35.67398],[139.58773,35.68175],[139.59418,35.68214]]]},"properties":{"pref":"東京都","city":"三鷹市","code5":"13204","code6":"132047"}},
{"type":"Feature","geometry":{"type":"Polygon","coordinates":[[[139.16353,35.85087],[139.16612,35.84297],[139.17172,35.84003],[139.17843,35.83059],[139.17524,35.82683],[139.17741,35.82019],[139.17421,35.81283],[139.17551,35.80684],[139.17153,35.80355],[139.16093,35.7992],[139.14982,35.79638],[139.14692,35.79303],[139.14781,35.78202],[139.13716,35.77804],[139.13764,35.77243],[139.14282,35.77634],[139.1546,35.77324],[139.15863,35.77791],[139.16304,35.77824],[139.18195,35.78763],[139.18879,35.78908],[139.19824,35.78644],[139.21053,35.77318],[139.22077,35.774],[139.23836,35.767],[139.25077,35.766],[139.25686,35.76071],[139.26153,35.75983],[139.27611,35.76162],[139.28773,35.76092],[139.29654,35.75455],[139.29664,35.76628],[139.29213,35.77534],[139.29841,35.78128],[139.30332,35.77813],[139.31228,35.77552],[139.32107,35.77722],[139.32412,35.78108],[139.32066,35.78336],[139.32079,35.7883],[139.32626,35.78703],[139.33037,35.79362],[139.32573,35.79521],[139.32225,35.79961],[139.31675,35.81269],[139.31611,35.81877],[139.31616,35.82367],[139.31147,35.82528],[139.30259,35.82405],[139.30117,35.83496],[139.29091,35.83796],[139.28288,35.83717],[139.28185,35.83952],[139.27189,35.83969],[139.2605,35.836],[139.25226,35.83825],[139.24253,35.83679],[139.23721,35.84021],[139.23253,35.83664],[139.21933,35.84252],[139.21265,35.84661],[139.20747,35.84642],[139.20314,35.8412],[139.19244,35.84027],[139.17436,35.84831],[139.16353,35.85087]]]},"properties":{"pref":"東京都","city":"青梅市","code5":"13205","code6":"132055"}},
{"type":"Feature","geometry":{"type":"Polygon","coordinates":[[[139.48959,35.69545],[139.48646,35.69217],[139.47737,35.68934],[139.46784,35.68835],[139.46025,35.69985],[139.45941,35.69239],[139.45358,35.68766],[139.45136,35.68066],[139.45081,35.67155],[139.43173,35.67268],[139.42983,35.67082],[139.44202,35.65796],[139.47381,35.64933],[139.48646,35.65265],[139.49946,35.65145],[139.50312,35.64994],[139.51209,35.6512],[139.52084,35.64619],[139.52071,35.65374],[139.51759,35.6564],[139.52646,35.67238],[139.52429,35.67971],[139.5205,35.68163],[139.52227,35.68736],[139.51827,35.69125],[139.51359,35.68586],[139.49989,35.68718],[139.48904,35.69096],[139.48959,35.69545]]]},"properties":{"pref":"東京都","city":"府中市","code5":"13206","code6":"132063"}},
{"type":"Feature","geometry":{"type":"Polygon","coordinates":[[[139.37627,35.69163],[139.38509,35.69128],[139.39295,35.69908],[139.39458,35.71163],[139.38009,35.72559],[139.37005,35.72451],[139.36187,35.72629],[139.35505,35.72508],[139.34628,35.72095],[139.34162,35.72131],[139.33886,35.71586],[139.33249,35.71261],[139.333,35.70512],[139.33682,35.70151],[139.33603,35.6961],[139.34645,35.69198],[139.36333,35.69374],[139.37627,35.69163]]]},"properties":{"pref":"東京都","city":"昭島市","code5":"13207","code6":"132071"}},
{"type":"Feature","geometry":{"type":"Polygon","coordinates":[[[139.58889,35.66941],[139.57809,35.67023],[139.5798,35.66554],[139.56614,35.66425],[139.56087,35.68284],[139.55216,35.68084],[139.54294,35.68046],[139.5414,35.6699],[139.53747,35.66703],[139.53137,35.6677],[139.52539,35.6809],[139.52692,35.68422],[139.52227,35.68736],[139.5205,35.68163],[139.52429,35.67971],[139.52646,35.67238],[139.51759,35.6564],[139.52071,35.65374],[139.52084,35.64619],[139.52539,35.64265],[139.54772,35.63669],[139.54943,35.63437],[139.56197,35.63259],[139.56337,35.64137],[139.56674,35.64759],[139.57432,35.65074],[139.58063,35.64731],[139.58764,35.64617],[139.59206,35.64591],[139.59233,35.65543],[139.58771,35.66437],[139.58889,35.66941]]]},"properties":{"pref":"東京都","city":"調布市","code5":"13208","code6":"132080"}},
{"type":"Feature","geometry":{"type":"Polygon","coordinates":[[[139.2688,35.60935],[139.27988,35.61148],[139.28287,35.61327],[139.29261,35.61181],[139.2992,35.60623],[139.31403,35.60435],[139.32056,35.60652],[139.33036,35.60321],[139.33789,35.60435],[139.35673,35.59901],[139.36136,35.59905],[139.37047,35.59439],[139.39108,35.58526],[139.39915,35.58465],[139.40124,35.57753],[139.40898,35.57533],[139.41343,35.56625],[139.41819,35.56177],[139.42244,35.55944],[139.42872,35.55038],[139.4451,35.54113],[139.44865,35.53525],[139.45825,35.52805],[139.45577,35.52047],[139.46328,35.51784],[139.46485,35.5109],[139.46827,35.50621],[139.46772,35.50237],[139.47638,35.50135],[139.48486,35.50405],[139.48113,35.50531],[139.47699,35.51121],[139.48328,35.51915],[139.48647,35.5203],[139.4878,35.52788],[139.48682,35.53553],[139.48033,35.54315],[139.48239,35.54742],[139.48199,35.55563],[139.47973,35.55939],[139.47041,35.56041],[139.46829,35.5633],[139.46993,35.56989],[139.47601,35.58073],[139.4822,35.58172],[139.48498,35.58461],[139.48987,35.58358],[139.48287,35.57138],[139.48641,35.56895],[139.49103,35.56143],[139.49627,35.56464],[139.5006,35.57044],[139.50657,35.57172],[139.50701,35.57582],[139.49922,35.58097],[139.49393,35.58278],[139.49446,35.58631],[139.47688,35.59954],[139.47119,35.60106],[139.4638,35.60916],[139.45287,35.60745],[139.44928,35.61178],[139.44593,35.60871],[139.43817,35.60959],[139.43387,35.60587],[139.42823,35.60805],[139.42311,35.60663],[139.41576,35.61216],[139.40793,35.61204],[139.40331,35.60942],[139.39858,35.61044],[139.3939,35.60819],[139.38168,35.60212],[139.37339,35.60422],[139.36583,35.60872],[139.36158,35.60542],[139.34753,35.60891],[139.34166,35.6137],[139.33106,35.61541],[139.31363,35.61446],[139.30762,35.61624],[139.29804,35.61611],[139.29353,35.62053],[139.28568,35.6208],[139.27695,35.61859],[139.27559,35.61548],[139.2688,35.61212],[139.2688,35.60935]]]},"properties":{"pref":"東京都","city":"町田市","code5":"13209","code6":"132098"}},
{"type":"Feature","geometry":{"type":"Polygon","coordinates":[[[139.52645,35.71728],[139.52315,35.71907],[139.50859,35.71636],[139.50782,35.71222],[139.4959,35.71316],[139.4954,35.70964],[139.48572,35.70838],[139.48446,35.70226],[139.49144,35.70025],[139.48959,35.69545],[139.48904,35.69096],[139.49989,35.68718],[139.51359,35.68586],[139.51827,35.69125],[139.52227,35.68736],[139.52692,35.68422],[139.52447,35.68841],[139.52854,35.69067],[139.53393,35.69897],[139.53254,35.70911],[139.52716,35.70991],[139.52645,35.71728]]]},"properties":{"pref":"東京都","city":"小金井市","code5":"13210","code6":"132101"}},
{"type":"Feature","geometry":{"type":"Polygon","coordinates":[[[139.44612,35.72288],[139.45789,35.72081],[139.45867,35.71789],[139.47202,35.71538],[139.47194,35.71103],[139.47849,35.7087],[139.48024,35.71436],[139.48572,35.70838],[139.4954,35.70964],[139.4959,35.71316],[139.50782,35.71222],[139.50859,35.71636],[139.52315,35.71907],[139.52333,35.72325],[139.51768,35.72745],[139.52017,35.73344],[139.52111,35.73895],[139.50817,35.73839],[139.5038,35.74285],[139.49817,35.74434],[139.49133,35.74151],[139.48573,35.74387],[139.48622,35.73451],[139.47883,35.73522],[139.47726,35.7399],[139.46639,35.74408],[139.45099,35.73699],[139.44247,35.73635],[139.42868,35.73006],[139.42644,35.73017],[139.43563,35.72476],[139.44612,35.72288]]]},"properties":{"pref":"東京都","city":"小平市","code5":"13211","code6":"132110"}},
{"type":"Feature","geometry":{"type":"Polygon","coordinates":[[[139.415,35.64703],[139.41681,35.64905],[139.42676,35.64383],[139.4377,35.65004],[139.4392,35.65714],[139.44202,35.65796],[139.42983,35.67082],[139.42241,35.67914],[139.41757,35.68276],[139.40564,35.6856],[139.39514,35.68918],[139.38509,35.69128],[139.37627,35.69163],[139.3752,35.68578],[139.3765,35.67645],[139.37047,35.66856],[139.37242,35.66575],[139.35889,35.65936],[139.35815,35.65411],[139.3688,35.64432],[139.37856,35.6441],[139.38202,35.64132],[139.39936,35.64119],[139.4064,35.64526],[139.415,35.64703]]]},"properties":{"pref":"東京都","city":"日野市","code5":"13212","code6":"132128"}},
{"type":"Feature","geometry":{"type":"Polygon","coordinates":[[[139.44077,35.767],[139.44055,35.76022],[139.4462,35.75566],[139.44754,35.74925],[139.45118,35.74649],[139.45099,35.73699],[139.46639,35.74408],[139.47726,35.7399],[139.47883,35.73522],[139.48622,35.73451],[139.48573,35.74387],[139.48884,35.75078],[139.49388,35.75382],[139.49476,35.75829],[139.50479,35.7611],[139.49768,35.77215],[139.49678,35.7787],[139.4795,35.77994],[139.47116,35.7734],[139.46125,35.77338],[139.45856,35.76968],[139.45135,35.76933],[139.44077,35.767]]]},"properties":{"pref":"東京都","city":"東村山市","code5":"13213","code6":"132136"}},
{"type":"Feature","geometry":{"type":"Polygon","coordinates":[[[139.43032,35.70354],[139.432,35.70166],[139.44854,35.70095],[139.45941,35.69239],[139.46025,35.69985],[139.46784,35.68835],[139.47737,35.68934],[139.48646,35.69217],[139.48959,35.69545],[139.49144,35.70025],[139.48446,35.70226],[139.48572,35.70838],[139.48024,35.71436],[139.47849,35.7087],[139.47194,35.71103],[139.47202,35.71538],[139.45867,35.71789],[139.45789,35.72081],[139.44612,35.72288],[139.44161,35.71583],[139.43655,35.71477],[139.43334,35.7184],[139.42826,35.71736],[139.43563,35.70373],[139.43032,35.70354]]]},"properties":{"pref":"東京都","city":"国分寺市","code5":"13214","code6":"132144"}},
{"type":"Feature","geometry":{"type":"Polygon","coordinates":[[[139.41757,35.68276],[139.42241,35.67914],[139.42983,35.67082],[139.43173,35.67268],[139.45081,35.67155],[139.45136,35.68066],[139.45358,35.68766],[139.45941,35.69239],[139.44854,35.70095],[139.432,35.70166],[139.43032,35.70354],[139.42559,35.70188],[139.43165,35.69694],[139.4247,35.68671],[139.4215,35.68858],[139.41757,35.68276]]]},"properties":{"pref":"東京都","city":"国立市","code5":"13215","code6":"132152"}},
{"type":"Feature","geometry":{"type":"Polygon","coordinates":[[[139.33249,35.71261],[139.33886,35.71586],[139.34162,35.72131],[139.34628,35.72095],[139.35505,35.72508],[139.35292,35.73606],[139.35988,35.73958],[139.35467,35.7456],[139.35207,35.74124],[139.34264,35.74984],[139.32206,35.7536],[139.32094,35.75005],[139.31387,35.74712],[139.31671,35.74332],[139.32011,35.7333],[139.32846,35.72787],[139.33123,35.71346],[139.33249,35.71261]]]},"properties":{"pref":"東京都","city":"福生市","code5":"13218","code6":"132187"}},
{"type":"Feature","geometry":{"type":"Polygon","coordinates":[[[139.58764,35.64617],[139.58063,35.64731],[139.57432,35.65074],[139.56674,35.64759],[139.56337,35.64137],[139.56197,35.63259],[139.57112,35.62441],[139.57735,35.62182],[139.58639,35.62046],[139.59024,35.61843],[139.58934,35.62127],[139.59355,35.62655],[139.59141,35.63306],[139.58779,35.63497],[139.58451,35.64094],[139.58764,35.64617]]]},"properties":{"pref":"東京都","city":"狛江市","code5":"13219","code6":"132195"}},
{"type":"Feature","geometry":{"type":"Polygon","coordinates":[[[139.39168,35.76335],[139.40514,35.76204],[139.40927,35.75823],[139.40745,35.74863],[139.41065,35.7475],[139.4112,35.73726],[139.41442,35.73303],[139.42644,35.73017],[139.42868,35.73006],[139.44247,35.73635],[139.45099,35.73699],[139.45118,35.74649],[139.44754,35.74925],[139.4462,35.75566],[139.44055,35.76022],[139.44077,35.767],[139.43155,35.76634],[139.42221,35.7678],[139.41956,35.7659],[139.40488,35.76916],[139.39845,35.7644],[139.39168,35.76335]]]},"properties":{"pref":"東京都","city":"東大和市","code5":"13220","code6":"132209"}},
{"type":"Feature","geometry":{"type":"Polygon","coordinates":[[[139.49678,35.7787],[139.49768,35.77215],[139.50479,35.7611],[139.51637,35.76557],[139.52305,35.77194],[139.53223,35.77342],[139.54298,35.77981],[139.54379,35.78819],[139.53758,35.79076],[139.54409,35.7965],[139.5472,35.80266],[139.5417,35.80731],[139.53686,35.80394],[139.52926,35.79413],[139.52028,35.78837],[139.51403,35.7885],[139.5067,35.78277],[139.49938,35.78217],[139.49678,35.7787]]]},"properties":{"pref":"東京都","city":"清瀬市","code5":"13221","code6":"132217"}},
{"type":"Feature","geometry":{"type":"Polygon","coordinates":[[[139.51637,35.76557],[139.50479,35.7611],[139.49476,35.75829],[139.49388,35.75382],[139.48884,35.75078],[139.48573,35.74387],[139.49133,35.74151],[139.49817,35.74434],[139.5038,35.74285],[139.50817,35.73839],[139.52111,35.73895],[139.52017,35.73344],[139.53117,35.74047],[139.53353,35.7449],[139.54458,35.75476],[139.54698,35.7603],[139.54784,35.77398],[139.5303,35.76835],[139.52138,35.76757],[139.51637,35.76557]]]},"properties":{"pref":"東京都","city":"東久留米市","code5":"13222","code6":"132225"}},
{"type":"Feature","geometry":{"type":"Polygon","coordinates":[[[139.37903,35.7712],[139.36738,35.7678],[139.35751,35.75553],[139.35812,35.75076],[139.35467,35.7456],[139.35988,35.73958],[139.36546,35.73906],[139.37796,35.73509],[139.38509,35.73764],[139.39531,35.7335],[139.41442,35.73303],[139.4112,35.73726],[139.41065,35.7475],[139.40745,35.74863],[139.40927,35.75823],[139.40514,35.76204],[139.39168,35.76335],[139.38022,35.76637],[139.37903,35.7712]]]},"properties":{"pref":"東京都","city":"武蔵村山市","code5":"13223","code6":"132233"}},
{"type":"Feature","geometry":{"type":"Polygon","coordinates":[[[139.3939,35.60819],[139.39858,35.61044],[139.40331,35.60942],[139.40793,35.61204],[139.41576,35.61216],[139.42311,35.60663],[139.42823,35.60805],[139.43387,35.60587],[139.43817,35.60959],[139.44593,35.60871],[139.44928,35.61178],[139.45241,35.61578],[139.46416,35.62451],[139.46453,35.62962],[139.47156,35.63373],[139.46885,35.64462],[139.47381,35.64933],[139.44202,35.65796],[139.4392,35.65714],[139.4377,35.65004],[139.42676,35.64383],[139.41681,35.64905],[139.415,35.64703],[139.41772,35.64312],[139.42274,35.64114],[139.42958,35.63397],[139.42502,35.62986],[139.41984,35.6286],[139.40471,35.62077],[139.40082,35.61456],[139.3939,35.60819]]]},"properties":{"pref":"東京都","city":"多摩市","code5":"13224","code6":"132241"}},
{"type":"Feature","geometry":{"type":"Polygon","coordinates":[[[139.47381,35.64933],[139.46885,35.64462],[139.47156,35.63373],[139.46453,35.62962],[139.46416,35.62451],[139.46786,35.62052],[139.47624,35.61889],[139.47671,35.61533],[139.48127,35.61006],[139.48655,35.60843],[139.48907,35.60467],[139.49757,35.60487],[139.50002,35.60728],[139.49578,35.61236],[139.49488,35.61739],[139.50342,35.62286],[139.51458,35.62473],[139.51746,35.63066],[139.52326,35.63217],[139.52118,35.63677],[139.52539,35.64265],[139.52084,35.64619],[139.51209,35.6512],[139.50312,35.64994],[139.49946,35.65145],[139.48646,35.65265],[139.47381,35.64933]]]},"properties":{"pref":"東京都","city":"稲城市","code5":"13225","code6":"132250"}},
{"type":"Feature","geometry":{"type":"Polygon","coordinates":[[[139.29654,35.75455],[139.30261,35.7552],[139.31105,35.75063],[139.31387,35.74712],[139.32094,35.75005],[139.32206,35.7536],[139.34264,35.74984],[139.33584,35.75929],[139.33364,35.77095],[139.32879,35.77134],[139.32107,35.77722],[139.31228,35.77552],[139.30332,35.77813],[139.29841,35.78128],[139.29213,35.77534],[139.29664,35.76628],[139.29654,35.75455]]]},"properties":{"pref":"東京都","city":"羽村市","code5":"13227","code6":"132276"}},
{"type":"Feature","geometry":{"type":"Polygon","coordinates":[[[139.33123,35.71346],[139.32846,35.72787],[139.32011,35.7333],[139.31671,35.74332],[139.31387,35.74712],[139.31105,35.75063],[139.30261,35.7552],[139.29654,35.75455],[139.28773,35.76092],[139.27611,35.76162],[139.26153,35.75983],[139.25686,35.76071],[139.26185,35.75559],[139.27029,35.75341],[139.27546,35.75363],[139.28063,35.74731],[139.27931,35.74211],[139.28243,35.74054],[139.28443,35.73224],[139.27805,35.73366],[139.26292,35.73238],[139.25734,35.7354],[139.24538,35.73666],[139.23944,35.73976],[139.23262,35.73889],[139.22612,35.74005],[139.21567,35.74441],[139.21101,35.75179],[139.20513,35.75378],[139.20141,35.75753],[139.18919,35.76225],[139.18148,35.7629],[139.18068,35.76858],[139.16304,35.77824],[139.15863,35.77791],[139.1546,35.77324],[139.14282,35.77634],[139.13764,35.77243],[139.1361,35.77026],[139.1435,35.76632],[139.14721,35.76213],[139.14218,35.75998],[139.14073,35.75545],[139.14934,35.75425],[139.15398,35.7501],[139.15658,35.7447],[139.1641,35.74133],[139.16585,35.73618],[139.16549,35.72258],[139.16644,35.71406],[139.16532,35.70624],[139.17211,35.70169],[139.17141,35.68874],[139.18407,35.68905],[139.19137,35.68783],[139.19939,35.68825],[139.20054,35.69913],[139.20481,35.69973],[139.2045,35.70739],[139.20691,35.71276],[139.21725,35.71887],[139.21904,35.71683],[139.24109,35.71405],[139.24636,35.71094],[139.25811,35.71224],[139.26897,35.71003],[139.27432,35.71497],[139.2769,35.71397],[139.3035,35.71255],[139.30841,35.71499],[139.3159,35.71425],[139.31924,35.71906],[139.32764,35.7104],[139.33123,35.71346]]]},"properties":{"pref":"東京都","city":"あきる野市","code5":"13228","code6":"132284"}},
{"type":"Feature","geometry":{"type":"Polygon","coordinates":[[[139.54458,35.75476],[139.53353,35.7449],[139.53117,35.74047],[139.52017,35.73344],[139.51768,35.72745],[139.52333,35.72325],[139.52315,35.71907],[139.52645,35.71728],[139.52942,35.71279],[139.53736,35.71132],[139.54941,35.71692],[139.55722,35.72173],[139.56564,35.72166],[139.566,35.72705],[139.56942,35.73415],[139.56733,35.73636],[139.56677,35.74743],[139.56901,35.75192],[139.56279,35.7616],[139.54716,35.75338],[139.54458,35.75476]]]},"properties":{"pref":"東京都","city":"西東京市","code5":"13229","code6":"132292"}},
{"type":"Feature","geometry":{"type":"Polygon","coordinates":[[[139.38148,35.77427],[139.38014,35.77875],[139.36991,35.78154],[139.36749,35.78438],[139.36871,35.79029],[139.35026,35.79341],[139.34671,35.79641],[139.33278,35.79189],[139.33037,35.79362],[139.32626,35.78703],[139.32079,35.7883],[139.32066,35.78336],[139.32412,35.78108],[139.32107,35.77722],[139.32879,35.77134],[139.33364,35.77095],[139.33584,35.75929],[139.34264,35.74984],[139.35207,35.74124],[139.35467,35.7456],[139.35812,35.75076],[139.35751,35.75553],[139.36738,35.7678],[139.37903,35.7712],[139.38148,35.77427]]]},"properties":{"pref":"東京都","county":"西多摩郡","city":"瑞穂町","code5":"13303","code6":"133035"}},
{"type":"Feature","geometry":{"type":"Polygon","coordinates":[[[139.16304,35.77824],[139.18068,35.76858],[139.18148,35.7629],[139.18919,35.76225],[139.20141,35.75753],[139.20513,35.75378],[139.21101,35.75179],[139.21567,35.74441],[139.22612,35.74005],[139.23262,35.73889],[139.23944,35.73976],[139.24538,35.73666],[139.25734,35.7354],[139.26292,35.73238],[139.27805,35.73366],[139.28443,35.73224],[139.28243,35.74054],[139.27931,35.74211],[139.28063,35.74731],[139.27546,35.75363],[139.27029,35.75341],[139.26185,35.75559],[139.25686,35.76071],[139.25077,35.766],[139.23836,35.767],[139.22077,35.774],[139.21053,35.77318],[139.19824,35.78644],[139.18879,35.78908],[139.18195,35.78763],[139.16304,35.77824]]]},"properties":{"pref":"東京都","county":"西多摩郡","city":"日の出町","code5":"13305","code6":"133051"}},
{"type":"Feature","geometry":{"type":"Polygon","coordinates":[[[139.17141,35.68874],[139.17211,35.70169],[139.16532,35.70624],[139.16644,35.71406],[139.16549,35.72258],[139.16585,35.73618],[139.1641,35.74133],[139.15658,35.7447],[139.15398,35.7501],[139.14934,35.75425],[139.14073,35.75545],[139.14218,35.75998],[139.14721,35.76213],[139.1435,35.76632],[139.1361,35.77026],[139.13075,35.76512],[139.10754,35.77684],[139.10585,35.77911],[139.09662,35.77592],[139.09342,35.76996],[139.08678,35.77124],[139.0829,35.7699],[139.07503,35.772],[139.06649,35.76564],[139.05693,35.76366],[139.05489,35.76018],[139.04312,35.75767],[139.03968,35.75011],[139.04138,35.74606],[139.03446,35.74246],[139.03197,35.74419],[139.02168,35.74013],[139.01229,35.73867],[139.01379,35.73499],[139.0209,35.72728],[139.02253,35.72199],[139.02898,35.71677],[139.03478,35.71496],[139.03872,35.71129],[139.04667,35.70948],[139.05202,35.7049],[139.06312,35.70046],[139.07211,35.69541],[139.08166,35.69552],[139.09225,35.69057],[139.09711,35.69227],[139.10562,35.69102],[139.11262,35.68496],[139.12685,35.67686],[139.13134,35.67199],[139.13673,35.67241],[139.14716,35.66682],[139.1536,35.66602],[139.1616,35.66791],[139.17,35.68011],[139.17141,35.68874]]]},"properties":{"pref":"東京都","county":"西多摩郡","city":"檜原村","code5":"13307","code6":"133078"}},
{"type":"Feature","geometry":{"type":"Polygon","coordinates":[[[138.94393,35.85482],[138.94855,35.84954],[138.94734,35.8433],[138.95326,35.83652],[138.9622,35.82961],[138.9693,35.83138],[138.97048,35.82736],[138.96977,35.81585],[138.97206,35.8137],[138.97032,35.80458],[138.9718,35.799],[138.97711,35.79275],[138.97688,35.78903],[138.98505,35.78527],[138.98643,35.78225],[138.98377,35.76948],[138.98936,35.76349],[138.99243,35.75552],[138.99883,35.75114],[139.00516,35.75045],[139.01188,35.73886],[139.01229,35.73867],[139.02168,35.74013],[139.03197,35.74419],[139.03446,35.74246],[139.04138,35.74606],[139.03968,35.75011],[139.04312,35.75767],[139.05489,35.76018],[139.05693,35.76366],[139.06649,35.76564],[139.07503,35.772],[139.0829,35.7699],[139.08678,35.77124],[139.09342,35.76996],[139.09662,35.77592],[139.10585,35.77911],[139.10754,35.77684],[139.13075,35.76512],[139.1361,35.77026],[139.13764,35.77243],[139.13716,35.77804],[139.14781,35.78202],[139.14692,35.79303],[139.14982,35.79638],[139.16093,35.7992],[139.17153,35.80355],[139.17551,35.80684],[139.17421,35.81283],[139.17741,35.82019],[139.17524,35.82683],[139.17843,35.83059],[139.17172,35.84003],[139.16612,35.84297],[139.16353,35.85087],[139.1594,35.85707],[139.14754,35.86271],[139.13536,35.86539],[139.11173,35.86468],[139.10028,35.86719],[139.09166,35.86903],[139.08254,35.87487],[139.07776,35.87534],[139.07255,35.87172],[139.06145,35.87371],[139.05782,35.8775],[139.04984,35.87883],[139.04833,35.88121],[139.03761,35.88909],[139.02933,35.89291],[139.02356,35.89736],[139.0184,35.89842],[139.01055,35.8971],[139.00681,35.89364],[139.00666,35.88962],[139.00076,35.884],[138.99588,35.88445],[138.98526,35.88118],[138.97893,35.88501],[138.97249,35.88198],[138.96802,35.88221],[138.9652,35.87779],[138.95439,35.87418],[138.94287,35.86016],[138.94393,35.85482]]]},"properties":{"pref":"東京都","county":"西多摩郡","city":"奥多摩町","code5":"13308","code6":"133086"}},
{"type":"Feature","geometry":{"type":"Polygon","coordinates":[[[139.42102,34.78139],[139.41128,34.7864],[139.3848,34.78978],[139.3805,34.79433],[139.37584,34.79494],[139.3723,34.79844],[139.36679,34.79642],[139.36036,34.79834],[139.35878,34.79321],[139.3537,34.78926],[139.34956,34.78255],[139.35039,34.77308],[139.35076,34.77277],[139.35096,34.77255],[139.35133,34.77101],[139.34891,34.76604],[139.34909,34.75904],[139.35623,34.74326],[139.35684,34.73506],[139.3531,34.73086],[139.35249,34.71901],[139.36105,34.7103],[139.36019,34.70808],[139.35891,34.70299],[139.3589,34.70295],[139.36479,34.70053],[139.37257,34.69962],[139.37633,34.69592],[139.38396,34.69363],[139.39108,34.68743],[139.40026,34.6829],[139.40091,34.68227],[139.40667,34.68108],[139.41721,34.68122],[139.42527,34.68267],[139.43003,34.67876],[139.43468,34.67824],[139.44025,34.68039],[139.44027,34.68041],[139.43935,34.68546],[139.4443,34.68858],[139.44954,34.69828],[139.4437,34.70298],[139.4449,34.71069],[139.44869,34.71313],[139.44878,34.7196],[139.44482,34.72521],[139.44506,34.72946],[139.44429,34.73412],[139.44888,34.74103],[139.44121,34.75193],[139.44103,34.7524],[139.44111,34.75561],[139.43679,34.76763],[139.43323,34.7723],[139.42338,34.78084],[139.42102,34.78139]]]},"properties":{"pref":"東京都","city":"大島町","code5":"13361","code6":"133612"}},
{"type":"Feature","geometry":{"type":"Polygon","coordinates":[[[139.27564,34.53189],[139.26938,34.52777],[139.2674,34.52115],[139.27238,34.51237],[139.28168,34.51218],[139.29105,34.52073],[139.29284,34.52384],[139.2908,34.52832],[139.28307,34.5324],[139.27564,34.53189]]]},"properties":{"pref":"東京都","city":"利島村","code5":"13362","code6":"133621"}},
{"type":"Feature","geometry":{"type":"MultiPolygon","coordinates":[[[[139.28788,34.41519],[139.29156,34.41845],[139.2906,34.42415],[139.28268,34.43047],[139.27955,34.41802],[139.27643,34.41577],[139.26869,34.41539],[139.26715,34.40819],[139.25572,34.40028],[139.25524,34.39625],[139.25727,34.39246],[139.2556,34.38386],[139.25246,34.37644],[139.24208,34.36421],[139.24524,34.35896],[139.24449,34.34849],[139.24916,34.34507],[139.25256,34.3393],[139.26091,34.33414],[139.27185,34.33089],[139.27319,34.34075],[139.27586,34.34342],[139.27583,34.37034],[139.27788,34.39035],[139.28524,34.40008],[139.28984,34.40258],[139.29136,34.40817],[139.2866,34.41151],[139.28787,34.41519],[139.28788,34.41519]]],[[[139.21862,34.33286],[139.20957,34.33674],[139.2089,34.33619],[139.20675,34.33497],[139.20674,34.33503],[139.20673,34.33502],[139.20669,34.33496],[139.20672,34.33427],[139.20532,34.32901],[139.20495,34.32864],[139.20376,34.32733],[139.20373,34.32736],[139.20081,34.32935],[139.19954,34.32512],[139.19392,34.32027],[139.20092,34.31613],[139.20458,34.32044],[139.20705,34.31981],[139.21402,34.31781],[139.22485,34.3242],[139.22486,34.3242],[139.22682,34.32679],[139.22273,34.33062],[139.21862,34.33284],[139.21862,34.33286]]],[[[139.28651,34.47835],[139.29181,34.47109],[139.29743,34.473],[139.28651,34.47835]]]]},"properties":{"pref":"東京都","city":"新島村","code5":"13363","code6":"133639"}},
{"type":"Feature","geometry":{"type":"Polygon","coordinates":[[[139.17178,34.21964],[139.17005,34.23152],[139.1677,34.23415],[139.15653,34.23927],[139.14876,34.23969],[139.1432,34.24378],[139.13714,34.24124],[139.136,34.23349],[139.1372,34.22759],[139.13555,34.22389],[139.13336,34.22336],[139.12936,34.22005],[139.13372,34.21715],[139.13164,34.20123],[139.12571,34.20071],[139.12154,34.1979],[139.12035,34.19537],[139.11981,34.19084],[139.12302,34.18839],[139.12561,34.18787],[139.12679,34.187],[139.12694,34.18692],[139.127,34.18693],[139.12733,34.18725],[139.13098,34.18499],[139.13231,34.18553],[139.13287,34.18639],[139.13518,34.18703],[139.13527,34.18707],[139.1365,34.18653],[139.14437,34.18876],[139.14633,34.19551],[139.15529,34.1952],[139.15342,34.20119],[139.15728,34.20506],[139.16849,34.20862],[139.17466,34.2066],[139.17329,34.21375],[139.17496,34.21606],[139.17178,34.21964]]]},"properties":{"pref":"東京都","city":"神津島村","code5":"13364","code6":"133647"}},
{"type":"Feature","geometry":{"type":"Polygon","coordinates":[[[139.53589,34.12394],[139.52748,34.1252],[139.51923,34.12385],[139.51101,34.12035],[139.50654,34.12268],[139.49279,34.11963],[139.48921,34.11254],[139.49395,34.10554],[139.48834,34.10073],[139.48829,34.0956],[139.48325,34.09194],[139.48032,34.08606],[139.48169,34.08317],[139.47401,34.07835],[139.47455,34.07394],[139.48018,34.07064],[139.47761,34.06019],[139.48309,34.05161],[139.48981,34.05143],[139.49209,34.04876],[139.50111,34.04578],[139.51233,34.04882],[139.52172,34.04718],[139.52535,34.04944],[139.53183,34.04702],[139.5315,34.04887],[139.53455,34.05315],[139.5404,34.05622],[139.55099,34.05877],[139.55957,34.06567],[139.56392,34.07433],[139.56167,34.08701],[139.56525,34.09376],[139.56332,34.10523],[139.56336,34.10533],[139.5619,34.10855],[139.55026,34.11663],[139.54889,34.1167],[139.54887,34.1167],[139.54882,34.1167],[139.54711,34.11743],[139.54623,34.12018],[139.53589,34.12394]]]},"properties":{"pref":"東京都","city":"三宅村","code5":"13381","code6":"133817"}},
{"type":"Feature","geometry":{"type":"Polygon","coordinates":[[[139.60315,33.90106],[139.5909,33.89807],[139.57809,33.88246],[139.5767,33.87769],[139.57672,33.8665],[139.57961,33.85999],[139.59076,33.85491],[139.60377,33.8546],[139.62001,33.85185],[139.62385,33.85538],[139.63117,33.86752],[139.63164,33.87192],[139.62508,33.88378],[139.61833,33.89232],[139.61101,33.89753],[139.60315,33.90106]]]},"properties":{"pref":"東京都","city":"御蔵島村","code5":"13382","code6":"133825"}},
{"type":"Feature","geometry":{"type":"MultiPolygon","coordinates":[[[[139.80722,33.13114],[139.79803,33.13352],[139.79608,33.14247],[139.78348,33.14887],[139.77595,33.15626],[139.7594,33.15957],[139.74914,33.15699],[139.74383,33.15333],[139.73899,33.14552],[139.73832,33.13848],[139.73981,33.13142],[139.74458,33.12266],[139.75098,33.11581],[139.75183,33.11012],[139.75527,33.10512],[139.7554,33.10478],[139.75757,33.10262],[139.76701,33.10173],[139.77883,33.09586],[139.78011,33.08949],[139.78027,33.07564],[139.78389,33.06986],[139.79301,33.06593],[139.79524,33.06316],[139.80208,33.06385],[139.80761,33.05934],[139.82001,33.05791],[139.83163,33.04599],[139.83691,33.05063],[139.83347,33.05474],[139.83315,33.06572],[139.83741,33.07012],[139.84003,33.076],[139.84823,33.07774],[139.85481,33.07745],[139.85856,33.08275],[139.85465,33.09077],[139.8574,33.09839],[139.85156,33.10463],[139.84896,33.11164],[139.84487,33.11629],[139.83606,33.11814],[139.83041,33.11712],[139.81701,33.12024],[139.81447,33.12831],[139.80722,33.13114]]],[[[139.68586,33.13662],[139.67652,33.13476],[139.6754,33.13076],[139.68065,33.12581],[139.68383,33.11857],[139.68883,33.11617],[139.69999,33.11838],[139.69902,33.12455],[139.69526,33.12925],[139.68953,33.13165],[139.68586,33.13662]]]]},"properties":{"pref":"東京都","city":"八丈町","code5":"13401","code6":"134015"}},
{"type":"Feature","geometry":{"type":"Polygon","coordinates":[[[139.75901,32.47356],[139.75529,32.47163],[139.75434,32.46338],[139.75469,32.4515],[139.76097,32.44612],[139.76835,32.44301],[139.77912,32.44728],[139.78114,32.45301],[139.77894,32.46006],[139.76964,32.46901],[139.75901,32.47356]]]},"properties":{"pref":"東京都","city":"青ヶ島村","code5":"13402","code6":"134023"}},
{"type":"Feature","geometry":{"type":"MultiPolygon","coordinates":[[[[141.3303,24.81352],[141.32603,24.81409],[141.32581,24.81411],[141.32577,24.8141],[141.32575,24.81409],[141.32574,24.8141],[141.31222,24.81145],[141.30447,24.80681],[141.30179,24.80201],[141.28996,24.79488],[141.28605,24.78945],[141.28566,24.78576],[141.28566,24.78552],[141.28568,24.78551],[141.28567,24.78554],[141.28577,24.78554],[141.28577,24.78551],[141.28577,24.78544],[141.28624,24.78521],[141.28633,24.7851],[141.287,24.78517],[141.28701,24.7852],[141.28704,24.78519],[141.28705,24.7852],[141.28713,24.78522],[141.28716,24.78521],[141.28727,24.78526],[141.28727,24.78532],[141.28735,24.78532],[141.28746,24.78541],[141.28747,24.78541],[141.29077,24.78305],[141.292,24.77298],[141.28915,24.76182],[141.28488,24.75155],[141.28486,24.75149],[141.28478,24.75091],[141.28562,24.74593],[141.29156,24.74814],[141.29186,24.74829],[141.29256,24.74873],[141.2926,24.74881],[141.29272,24.74892],[141.29277,24.74895],[141.29332,24.74976],[141.29362,24.75093],[141.29366,24.75096],[141.30427,24.75619],[141.30437,24.75614],[141.32705,24.76547],[141.33339,24.76883],[141.33689,24.76956],[141.34329,24.7716],[141.34758,24.77598],[141.34763,24.77608],[141.34986,24.78019],[141.35019,24.78609],[141.34698,24.79606],[141.33718,24.80882],[141.3303,24.81352]]],[[[142.22189,27.0939],[142.21755,27.09967],[142.20307,27.10528],[142.19348,27.10383],[142.18631,27.10511],[142.18629,27.10509],[142.18171,27.10065],[142.18257,27.09314],[142.18974,27.08909],[142.19218,27.093],[142.19815,27.09605],[142.20375,27.09365],[142.20194,27.08738],[142.20721,27.08248],[142.2058,27.07486],[142.19222,27.07542],[142.18452,27.07063],[142.1872,27.07164],[142.19139,27.06518],[142.1929,27.05936],[142.18785,27.05904],[142.18952,27.05551],[142.18894,27.0486],[142.18444,27.0443],[142.18597,27.04185],[142.186,27.04191],[142.18626,27.04382],[142.18681,27.04458],[142.19363,27.04213],[142.19833,27.04553],[142.20598,27.04424],[142.21151,27.03858],[142.21765,27.0416],[142.21946,27.0363],[142.22312,27.03599],[142.22373,27.03607],[142.22679,27.03939],[142.225,27.04516],[142.22534,27.04762],[142.22522,27.0479],[142.22527,27.05383],[142.22968,27.05455],[142.23529,27.04954],[142.23723,27.05392],[142.2336,27.05635],[142.23015,27.05958],[142.23112,27.06191],[142.23077,27.06904],[142.23272,27.07762],[142.23145,27.07884],[142.2259,27.08068],[142.2231,27.08498],[142.22487,27.08904],[142.22449,27.08994],[142.22398,27.09074],[142.22398,27.09154],[142.22316,27.09172],[142.22189,27.0939]]],[[[142.1261,26.71414],[142.12303,26.7092],[142.12302,26.7092],[142.12288,26.7068],[142.12536,26.7044],[142.12538,26.70437],[142.1289,26.69861],[142.13113,26.68885],[142.13532,26.68597],[142.13646,26.68162],[142.14476,26.67632],[142.14407,26.66982],[142.14172,26.66725],[142.14671,26.66798],[142.14925,26.66207],[142.14577,26.65667],[142.14843,26.65463],[142.14932,26.64826],[142.15169,26.6456],[142.15401,26.63728],[142.16071,26.63992],[142.16183,26.63033],[142.16967,26.63221],[142.17613,26.62297],[142.17817,26.6149],[142.17516,26.61271],[142.17882,26.60798],[142.18162,26.61008],[142.18063,26.63046],[142.17273,26.63613],[142.1724,26.64414],[142.17476,26.6479],[142.17377,26.65212],[142.17798,26.65476],[142.18563,26.65589],[142.18708,26.65548],[142.18766,26.65766],[142.18819,26.65834],[142.18825,26.65872],[142.18409,26.65979],[142.17868,26.65538],[142.17044,26.65791],[142.1703,26.65801],[142.16354,26.66257],[142.16248,26.67076],[142.16247,26.67077],[142.16227,26.67125],[142.16631,26.68],[142.16621,26.68321],[142.16491,26.68685],[142.15932,26.68687],[142.15374,26.68404],[142.14684,26.68501],[142.1458,26.69338],[142.15592,26.69904],[142.16029,26.7017],[142.15621,26.70809],[142.1562,26.70811],[142.15523,26.70802],[142.15374,26.70849],[142.15228,26.70631],[142.15225,26.70631],[142.15224,26.70632],[142.15139,26.70671],[142.15139,26.70669],[142.15138,26.7067],[142.15133,26.70676],[142.14337,26.70784],[142.14336,26.70784],[142.14238,26.70836],[142.1409,26.70842],[142.14179,26.70235],[142.13534,26.69995],[142.13201,26.70285],[142.13203,26.70315],[142.12996,26.7074],[142.12996,26.70742],[142.12997,26.70743],[142.12999,26.70751],[142.13047,26.70802],[142.12611,26.71413],[142.1261,26.71414]]],[[[142.19167,27.14417],[142.18899,27.13697],[142.19311,27.13351],[142.18795,27.12976],[142.19081,27.12477],[142.1984,27.12319],[142.20572,27.11604],[142.20058,27.11127],[142.20674,27.10914],[142.22004,27.10888],[142.22604,27.11114],[142.23388,27.1091],[142.23534,27.11417],[142.22898,27.1145],[142.22607,27.11694],[142.22662,27.12406],[142.21646,27.13254],[142.20503,27.12886],[142.20256,27.13315],[142.19458,27.13784],[142.19167,27.14417]]],[[[141.28411,25.44877],[141.28013,25.44797],[141.27372,25.44167],[141.27223,25.42939],[141.27614,25.41943],[141.28178,25.41892],[141.29048,25.42238],[141.29328,25.42572],[141.29318,25.43647],[141.28815,25.44733],[141.28411,25.44877]]],[[[142.18922,27.19003],[142.18508,27.18723],[142.18757,27.1821],[142.18755,27.17669],[142.18333,27.16612],[142.18445,27.15688],[142.18064,27.14645],[142.18727,27.14472],[142.18792,27.15018],[142.19239,27.15062],[142.19626,27.15457],[142.20033,27.16263],[142.20216,27.16914],[142.19512,27.17329],[142.19581,27.18461],[142.18918,27.18708],[142.18922,27.19003]]],[[[141.46214,24.24507],[141.45504,24.24187],[141.45328,24.2292],[141.45925,24.22475],[141.46881,24.22718],[141.47201,24.23313],[141.47292,24.23957],[141.47097,24.24185],[141.46214,24.24507]]],[[[140.88695,27.23947],[140.89,27.24581],[140.88603,27.25127],[140.8804,27.25337],[140.87335,27.25371],[140.87114,27.25082],[140.86987,27.24248],[140.87369,27.23813],[140.88243,27.23692],[140.88695,27.23947]]],[[[142.13125,27.68874],[142.12521,27.68699],[142.12721,27.68174],[142.13145,27.6794],[142.1389,27.6789],[142.13966,27.67207],[142.14568,27.67059],[142.14881,27.67355],[142.14813,27.68362],[142.14319,27.68637],[142.13125,27.68874]]],[[[153.98392,24.29755],[153.97151,24.28431],[153.98443,24.28086],[153.98655,24.28396],[153.98392,24.29755]]],[[[142.15499,26.56454],[142.15217,26.56351],[142.15483,26.5493],[142.15129,26.54661],[142.15598,26.54336],[142.16111,26.54908],[142.15901,26.55585],[142.16131,26.55937],[142.15499,26.56454]]],[[[142.13106,26.61062],[142.12748,26.61042],[142.12267,26.60429],[142.12633,26.60236],[142.12893,26.59501],[142.13292,26.59639],[142.13593,26.6014],[142.13382,26.6084],[142.13106,26.61062]]],[[[142.17507,27.63589],[142.17128,27.63099],[142.17345,27.62436],[142.17905,27.62495],[142.18542,27.61946],[142.18724,27.62251],[142.18309,27.63038],[142.17959,27.63041],[142.17507,27.63589]]],[[[142.21256,26.56446],[142.20588,26.5617],[142.20157,26.55666],[142.20157,26.5535],[142.21529,26.55681],[142.2179,26.56168],[142.21256,26.56446]]],[[[142.23067,26.57565],[142.22654,26.57096],[142.22583,26.56643],[142.22865,26.56381],[142.23497,26.57104],[142.23067,26.57565]]],[[[142.21141,27.50224],[142.20532,27.50045],[142.20543,27.49638],[142.21147,27.49474],[142.21141,27.50224]]],[[[142.16842,27.12157],[142.16516,27.12136],[142.16385,27.11517],[142.17178,27.11636],[142.16842,27.12157]]],[[[142.16144,26.58846],[142.15465,26.58776],[142.15817,26.58337],[142.16144,26.58846]]],[[[142.17401,27.04409],[142.17401,27.03665],[142.17772,27.03681],[142.17401,27.04409]]],[[[142.24131,27.09583],[142.24574,27.09031],[142.24856,27.09305],[142.24131,27.09583]]],[[[141.28785,24.80666],[141.28778,24.80725],[141.28701,24.80685],[141.28666,24.80676],[141.28646,24.80661],[141.28606,24.80596],[141.28605,24.80597],[141.28605,24.80598],[141.286,24.80602],[141.2855,24.80454],[141.28549,24.80457],[141.28549,24.80453],[141.28542,24.80432],[141.2854,24.80431],[141.28532,24.80397],[141.2853,24.80386],[141.28508,24.80269],[141.28507,24.80265],[141.28485,24.80178],[141.28497,24.79813],[141.28624,24.79949],[141.28701,24.8022],[141.28716,24.80278],[141.28763,24.80351],[141.28769,24.80485],[141.2877,24.80486],[141.28781,24.80565],[141.288,24.80635],[141.28793,24.80645],[141.2879,24.80652],[141.28785,24.80666]]],[[[141.37876,24.78014],[141.37869,24.78087],[141.37868,24.78082],[141.3786,24.78083],[141.37847,24.78041],[141.37862,24.7804],[141.37868,24.78037],[141.37872,24.78034],[141.37875,24.78002],[141.37876,24.78003],[141.37876,24.78014]]],[[[141.3783,24.77952],[141.37822,24.77972],[141.37819,24.77966],[141.37825,24.77952],[141.3783,24.77952]]],[[[142.13467,26.6848],[142.1347,26.68485],[142.13465,26.6848],[142.13467,26.6848]]],[[[141.37874,24.77986],[141.37871,24.77982],[141.37873,24.7797],[141.3788,24.77977],[141.37879,24.77993],[141.37877,24.77992],[141.37875,24.77982],[141.37874,24.77986]]],[[[142.24054,27.04737],[142.24054,27.04734],[142.24055,27.04735],[142.24054,27.04737]]]]},"properties":{"pref":"東京都","city":"小笠原村","code5":"13421","code6":"134210"}}
]}