{"type":"FeatureCollection", "features": [
{"type":"Feature","geometry":{"type":"MultiPolygon","coordinates":[[[[139.60943,35.3125],[139.61202,35.30668],[139.61806,35.3028],[139.62382,35.28845],[139.62104,35.28449],[139.62311,35.27927],[139.62797,35.27874],[139.63161,35.27491],[139.63934,35.27364],[139.63605,35.2617],[139.62755,35.25599],[139.62156,35.25746],[139.61833,35.2615],[139.61324,35.25773],[139.60346,35.2581],[139.59689,35.25604],[139.58204,35.25487],[139.57805,35.25337],[139.58208,35.25334],[139.58819,35.24973],[139.59212,35.24494],[139.59984,35.23889],[139.59968,35.23501],[139.6041,35.23144],[139.6035,35.22806],[139.60266,35.22541],[139.61006,35.22266],[139.62146,35.22004],[139.62745,35.21572],[139.62306,35.20761],[139.61409,35.20993],[139.60901,35.2089],[139.60533,35.19948],[139.60229,35.19787],[139.60121,35.19721],[139.5992,35.19508],[139.60506,35.1949],[139.60937,35.19021],[139.61572,35.18993],[139.62054,35.19663],[139.62923,35.1992],[139.63286,35.20521],[139.64725,35.20632],[139.65522,35.20975],[139.65516,35.20445],[139.66478,35.19306],[139.66712,35.19556],[139.68546,35.20709],[139.6927,35.20941],[139.71476,35.21181],[139.72115,35.21079],[139.72498,35.21191],[139.72237,35.21847],[139.71598,35.21833],[139.71341,35.22393],[139.71766,35.22835],[139.7226,35.22418],[139.72674,35.22453],[139.72927,35.22914],[139.72772,35.23317],[139.72016,35.24031],[139.73322,35.24084],[139.73453,35.24829],[139.74357,35.2519],[139.74622,35.25631],[139.74043,35.25984],[139.73784,35.26197],[139.73252,35.26278],[139.72736,35.26415],[139.72108,35.26317],[139.7032,35.26396],[139.69099,35.26657],[139.69016,35.27109],[139.68577,35.27558],[139.67732,35.28005],[139.67413,35.28691],[139.67743,35.29221],[139.67691,35.29836],[139.66872,35.30183],[139.66179,35.30067],[139.66542,35.29261],[139.65751,35.29096],[139.66074,35.28719],[139.65521,35.28477],[139.64534,35.29723],[139.63894,35.29497],[139.6353,35.29614],[139.65569,35.32157],[139.66122,35.32226],[139.66067,35.32817],[139.64899,35.32742],[139.64073,35.33037],[139.63774,35.32564],[139.63744,35.32531],[139.63725,35.32512],[139.63689,35.3247],[139.63684,35.32463],[139.6358,35.32344],[139.63214,35.32219],[139.6316,35.3252],[139.62461,35.31874],[139.61407,35.31659],[139.60943,35.3125]]],[[[139.65215,35.29885],[139.65643,35.30187],[139.65184,35.30742],[139.6437,35.30033],[139.64841,35.2948],[139.65215,35.29885]]]]},"properties":{"pref":"神奈川県","city":"横須賀市","code5":"14201","code6":"142018"}},
{"type":"Feature","geometry":{"type":"Polygon","coordinates":[[[139.37347,35.3945],[139.35364,35.39469],[139.35729,35.38865],[139.35299,35.38139],[139.34694,35.37897],[139.33477,35.38461],[139.33167,35.3807],[139.32231,35.3806],[139.3156,35.37234],[139.31339,35.37796],[139.30409,35.3831],[139.30062,35.38111],[139.29039,35.3814],[139.29163,35.37334],[139.2832,35.37408],[139.27515,35.3728],[139.27395,35.36798],[139.26709,35.35622],[139.26305,35.35702],[139.25119,35.35409],[139.23874,35.34644],[139.2405,35.33505],[139.24423,35.33537],[139.24927,35.32985],[139.25085,35.32881],[139.25961,35.33107],[139.26209,35.33421],[139.2723,35.334],[139.28437,35.33013],[139.29615,35.33063],[139.29556,35.32479],[139.30703,35.31926],[139.31868,35.3251],[139.32777,35.32487],[139.33004,35.31212],[139.33834,35.31359],[139.35856,35.31509],[139.36787,35.31417],[139.37436,35.31533],[139.36944,35.32327],[139.36935,35.32978],[139.37126,35.33524],[139.36877,35.34431],[139.37044,35.35116],[139.37195,35.36064],[139.36864,35.36323],[139.3709,35.36785],[139.37465,35.38853],[139.37347,35.3945]]]},"properties":{"pref":"神奈川県","city":"平塚市","code5":"14203","code6":"142034"}},
{"type":"Feature","geometry":{"type":"Polygon","coordinates":[[[139.59316,35.32041],[139.59296,35.32403],[139.58871,35.33005],[139.58786,35.33652],[139.57362,35.33691],[139.57294,35.34236],[139.56959,35.34754],[139.56117,35.34618],[139.54848,35.35544],[139.54901,35.35965],[139.54422,35.363],[139.5421,35.35701],[139.53632,35.35493],[139.52562,35.35687],[139.51872,35.36157],[139.51401,35.36241],[139.50259,35.36755],[139.49539,35.35771],[139.50077,35.35682],[139.50834,35.35076],[139.50955,35.34602],[139.51683,35.34137],[139.50978,35.33363],[139.50289,35.33279],[139.49705,35.32442],[139.4971,35.31959],[139.49147,35.31353],[139.48867,35.30759],[139.50964,35.30501],[139.52583,35.30181],[139.53167,35.30375],[139.53441,35.30861],[139.54532,35.30785],[139.55249,35.30185],[139.55267,35.30153],[139.55191,35.29941],[139.56009,35.30727],[139.58534,35.31742],[139.58733,35.32024],[139.59316,35.32041]]]},"properties":{"pref":"神奈川県","city":"鎌倉市","code5":"14204","code6":"142042"}},
{"type":"Feature","geometry":{"type":"MultiPolygon","coordinates":[[[[139.49539,35.35771],[139.48588,35.35942],[139.48992,35.37184],[139.49364,35.37509],[139.49151,35.3796],[139.48601,35.38228],[139.48427,35.38737],[139.47877,35.39178],[139.47567,35.41027],[139.47804,35.41993],[139.47278,35.42415],[139.46108,35.42275],[139.4478,35.42797],[139.44365,35.42761],[139.45662,35.41716],[139.45652,35.41474],[139.44875,35.40751],[139.44272,35.40737],[139.44252,35.41314],[139.43001,35.41958],[139.42409,35.41627],[139.41298,35.41906],[139.41344,35.41595],[139.40695,35.40768],[139.40126,35.40068],[139.39549,35.40128],[139.39398,35.39764],[139.39549,35.39077],[139.40314,35.39008],[139.39964,35.38452],[139.40501,35.3773],[139.40638,35.3797],[139.41593,35.38469],[139.42822,35.38397],[139.43248,35.37952],[139.43178,35.37269],[139.43923,35.36963],[139.43996,35.36517],[139.4357,35.35922],[139.43984,35.35259],[139.44397,35.34161],[139.4435,35.33191],[139.43804,35.31915],[139.45446,35.3178],[139.46873,35.315],[139.47662,35.3114],[139.48289,35.30475],[139.48867,35.30759],[139.49147,35.31353],[139.4971,35.31959],[139.49705,35.32442],[139.50289,35.33279],[139.50978,35.33363],[139.51683,35.34137],[139.50955,35.34602],[139.50834,35.35076],[139.50077,35.35682],[139.49539,35.35771]]],[[[139.48337,35.29736],[139.47795,35.30069],[139.47766,35.30062],[139.47765,35.3006],[139.47734,35.30068],[139.47466,35.29985],[139.47441,35.29943],[139.47441,35.29942],[139.47443,35.29896],[139.47613,35.29806],[139.47614,35.29805],[139.47741,35.29763],[139.47767,35.29809],[139.47772,35.29828],[139.47779,35.29806],[139.47781,35.29773],[139.47783,35.29825],[139.47784,35.29828],[139.47782,35.29845],[139.47787,35.29851],[139.4781,35.29864],[139.47814,35.29865],[139.47852,35.29817],[139.47855,35.2981],[139.47853,35.29818],[139.47865,35.29822],[139.47927,35.29767],[139.47936,35.29783],[139.47982,35.29797],[139.47985,35.29762],[139.4799,35.29764],[139.47997,35.29759],[139.48006,35.29762],[139.48021,35.29766],[139.48021,35.29754],[139.48018,35.29749],[139.48015,35.29742],[139.48037,35.29742],[139.48041,35.29744],[139.48058,35.29779],[139.48065,35.29788],[139.48072,35.29792],[139.48072,35.298],[139.48075,35.29802],[139.48076,35.298],[139.48077,35.298],[139.48078,35.29799],[139.48099,35.29804],[139.48099,35.29768],[139.48103,35.29771],[139.48134,35.29774],[139.48337,35.29736]]],[[[139.47934,35.2973],[139.47943,35.29721],[139.47943,35.29726],[139.47936,35.29732],[139.47952,35.29752],[139.4794,35.29744],[139.47932,35.29739],[139.47934,35.2973]]],[[[139.4785,35.29764],[139.47845,35.29765],[139.47845,35.2976],[139.4785,35.29764]]],[[[139.47714,35.29736],[139.47712,35.2974],[139.47711,35.29739],[139.47714,35.29736]]]]},"properties":{"pref":"神奈川県","city":"藤沢市","code5":"14205","code6":"142051"}},
{"type":"Feature","geometry":{"type":"Polygon","coordinates":[[[139.18725,35.32311],[139.18131,35.32949],[139.1703,35.32676],[139.16908,35.3217],[139.16549,35.31801],[139.15536,35.31333],[139.14864,35.31362],[139.14306,35.32349],[139.13622,35.32256],[139.13554,35.31887],[139.13066,35.31768],[139.13371,35.31025],[139.13166,35.30809],[139.13245,35.30084],[139.13079,35.28821],[139.12023,35.28522],[139.11812,35.28003],[139.10784,35.27976],[139.09183,35.2778],[139.07165,35.27208],[139.06005,35.27182],[139.06315,35.26508],[139.0649,35.25086],[139.05891,35.24772],[139.06706,35.24128],[139.07251,35.24207],[139.08355,35.23392],[139.09123,35.24003],[139.0919,35.24346],[139.10915,35.23874],[139.11785,35.24006],[139.12034,35.23668],[139.11414,35.23217],[139.11563,35.22782],[139.10071,35.22508],[139.09224,35.22065],[139.08502,35.2147],[139.08168,35.20287],[139.07672,35.20018],[139.07832,35.19613],[139.09114,35.19332],[139.09367,35.18964],[139.10302,35.1871],[139.11067,35.18642],[139.1256,35.18199],[139.13125,35.178],[139.1372,35.17882],[139.13596,35.18247],[139.14006,35.18789],[139.13774,35.1926],[139.1383,35.1996],[139.14241,35.2088],[139.14281,35.2193],[139.14173,35.22544],[139.14426,35.23397],[139.14818,35.23865],[139.15761,35.24363],[139.17112,35.25399],[139.18643,35.26109],[139.20787,35.27728],[139.22147,35.28125],[139.23408,35.28644],[139.23746,35.29556],[139.23544,35.29814],[139.23832,35.30446],[139.23633,35.31132],[139.23809,35.31474],[139.23293,35.31982],[139.22367,35.31591],[139.21385,35.3173],[139.21221,35.31454],[139.20293,35.31155],[139.19721,35.31682],[139.19241,35.31768],[139.18725,35.32311]]]},"properties":{"pref":"神奈川県","city":"小田原市","code5":"14206","code6":"142069"}},
{"type":"Feature","geometry":{"type":"Polygon","coordinates":[[[139.37436,35.31533],[139.39711,35.3161],[139.40333,35.31821],[139.41474,35.31612],[139.42348,35.31836],[139.43804,35.31915],[139.4435,35.33191],[139.44397,35.34161],[139.43984,35.35259],[139.4357,35.35922],[139.43996,35.36517],[139.43923,35.36963],[139.43178,35.37269],[139.43248,35.37952],[139.42822,35.38397],[139.41593,35.38469],[139.40638,35.3797],[139.40501,35.3773],[139.40073,35.36831],[139.39397,35.36317],[139.39673,35.35624],[139.39484,35.35207],[139.37479,35.35021],[139.37044,35.35116],[139.36877,35.34431],[139.37126,35.33524],[139.36935,35.32978],[139.36944,35.32327],[139.37436,35.31533]]]},"properties":{"pref":"神奈川県","city":"茅ヶ崎市","code5":"14207","code6":"142077"}},
{"type":"Feature","geometry":{"type":"Polygon","coordinates":[[[139.59316,35.32041],[139.58733,35.32024],[139.58534,35.31742],[139.56009,35.30727],[139.55191,35.29941],[139.55368,35.29431],[139.56106,35.29287],[139.57105,35.29322],[139.57342,35.2872],[139.56969,35.28502],[139.57471,35.28254],[139.57908,35.28718],[139.58377,35.28648],[139.58941,35.29134],[139.59228,35.29033],[139.60182,35.29189],[139.60963,35.29016],[139.61154,35.28672],[139.59952,35.27781],[139.60575,35.27617],[139.61371,35.27776],[139.62287,35.27604],[139.62311,35.27927],[139.62104,35.28449],[139.62382,35.28845],[139.61806,35.3028],[139.61202,35.30668],[139.60943,35.3125],[139.60217,35.31699],[139.59622,35.31642],[139.59316,35.32041]]]},"properties":{"pref":"神奈川県","city":"逗子市","code5":"14208","code6":"142085"}},
{"type":"Feature","geometry":{"type":"MultiPolygon","coordinates":[[[[139.61572,35.18993],[139.62018,35.17382],[139.61677,35.17159],[139.61686,35.16694],[139.62258,35.16557],[139.61564,35.16016],[139.61388,35.15572],[139.6069,35.15489],[139.61585,35.1473],[139.60764,35.14273],[139.61497,35.1391],[139.62999,35.13934],[139.63582,35.14062],[139.64065,35.13865],[139.64719,35.13894],[139.64748,35.13851],[139.66436,35.14034],[139.66506,35.14215],[139.6765,35.14056],[139.67655,35.14056],[139.68099,35.15104],[139.67937,35.15673],[139.66839,35.15761],[139.66337,35.1594],[139.66043,35.16432],[139.65997,35.17111],[139.65579,35.17344],[139.65499,35.18079],[139.65945,35.18867],[139.66478,35.19306],[139.65516,35.20445],[139.65522,35.20975],[139.64725,35.20632],[139.63286,35.20521],[139.62923,35.1992],[139.62054,35.19663],[139.61572,35.18993]]],[[[139.6118,35.13283],[139.6219,35.13234],[139.62116,35.13644],[139.61311,35.13737],[139.61174,35.13284],[139.6118,35.13283]]]]},"properties":{"pref":"神奈川県","city":"三浦市","code5":"14210","code6":"142107"}},
{"type":"Feature","geometry":{"type":"Polygon","coordinates":[[[139.29039,35.3814],[139.28371,35.38305],[139.28046,35.38604],[139.26666,35.38439],[139.26521,35.38568],[139.25562,35.38178],[139.25081,35.39107],[139.25829,35.39763],[139.25476,35.40518],[139.24921,35.40854],[139.24742,35.4127],[139.23874,35.41783],[139.23889,35.42223],[139.235,35.42507],[139.23011,35.43783],[139.23122,35.44098],[139.23152,35.44597],[139.2283,35.45223],[139.22874,35.45705],[139.2161,35.46123],[139.2075,35.45922],[139.19698,35.44969],[139.19385,35.45104],[139.17898,35.44743],[139.17667,35.45149],[139.16339,35.45402],[139.16088,35.44978],[139.15475,35.44516],[139.1414,35.44415],[139.14145,35.43514],[139.14555,35.42957],[139.14847,35.4202],[139.14625,35.40724],[139.15005,35.40407],[139.15028,35.39192],[139.14453,35.38805],[139.14413,35.38166],[139.14913,35.37281],[139.15742,35.3653],[139.16033,35.35648],[139.17091,35.35861],[139.17396,35.35121],[139.18046,35.346],[139.18214,35.34899],[139.1883,35.35177],[139.20546,35.36127],[139.21758,35.35171],[139.22236,35.35366],[139.23363,35.35129],[139.24433,35.35534],[139.25119,35.35409],[139.26305,35.35702],[139.26709,35.35622],[139.27395,35.36798],[139.27515,35.3728],[139.2832,35.37408],[139.29163,35.37334],[139.29039,35.3814]]]},"properties":{"pref":"神奈川県","city":"秦野市","code5":"14211","code6":"142115"}},
{"type":"Feature","geometry":{"type":"Polygon","coordinates":[[[139.35451,35.52747],[139.35103,35.52369],[139.3545,35.51915],[139.34734,35.51693],[139.35026,35.50913],[139.34667,35.50655],[139.34769,35.49892],[139.34388,35.49825],[139.33453,35.5045],[139.3226,35.50599],[139.3162,35.51051],[139.31556,35.51376],[139.30741,35.5227],[139.29541,35.52049],[139.28961,35.51511],[139.28418,35.51238],[139.27818,35.51299],[139.27598,35.50735],[139.2818,35.49477],[139.28721,35.48936],[139.29061,35.48182],[139.29873,35.47792],[139.29622,35.46485],[139.28544,35.46107],[139.28106,35.46244],[139.24909,35.4601],[139.24568,35.46287],[139.23694,35.45913],[139.2283,35.45223],[139.23152,35.44597],[139.23122,35.44098],[139.24062,35.44197],[139.24294,35.44698],[139.25508,35.44791],[139.26418,35.44516],[139.28836,35.44014],[139.29961,35.43523],[139.30306,35.42832],[139.31642,35.42134],[139.32647,35.42799],[139.33341,35.42312],[139.3468,35.41591],[139.3478,35.40615],[139.35223,35.40016],[139.35364,35.39469],[139.37347,35.3945],[139.37181,35.40068],[139.36923,35.40691],[139.37026,35.41633],[139.37413,35.42877],[139.37524,35.4372],[139.37068,35.44533],[139.37121,35.44975],[139.37847,35.45828],[139.37955,35.47021],[139.37458,35.48376],[139.37397,35.49182],[139.3763,35.50304],[139.37657,35.51279],[139.3753,35.51728],[139.36389,35.52088],[139.35512,35.5269],[139.35451,35.52747]]]},"properties":{"pref":"神奈川県","city":"厚木市","code5":"14212","code6":"142123"}},
{"type":"Feature","geometry":{"type":"Polygon","coordinates":[[[139.45577,35.52047],[139.44718,35.51683],[139.44277,35.51233],[139.42924,35.50737],[139.43884,35.47992],[139.4349,35.4773],[139.43649,35.46733],[139.45106,35.4677],[139.45455,35.45231],[139.44965,35.44571],[139.44934,35.43194],[139.4478,35.42797],[139.46108,35.42275],[139.47278,35.42415],[139.47315,35.43577],[139.48067,35.44862],[139.4742,35.45693],[139.47216,35.46226],[139.47451,35.46977],[139.47187,35.47211],[139.4695,35.48532],[139.47058,35.49263],[139.465,35.49813],[139.46772,35.50237],[139.46827,35.50621],[139.46485,35.5109],[139.46328,35.51784],[139.45577,35.52047]]]},"properties":{"pref":"神奈川県","city":"大和市","code5":"14213","code6":"142131"}},
{"type":"Feature","geometry":{"type":"Polygon","coordinates":[[[139.35364,35.39469],[139.35223,35.40016],[139.3478,35.40615],[139.3468,35.41591],[139.33341,35.42312],[139.32647,35.42799],[139.31642,35.42134],[139.30306,35.42832],[139.29961,35.43523],[139.28836,35.44014],[139.26418,35.44516],[139.25508,35.44791],[139.24294,35.44698],[139.24062,35.44197],[139.23122,35.44098],[139.23011,35.43783],[139.235,35.42507],[139.23889,35.42223],[139.23874,35.41783],[139.24742,35.4127],[139.24921,35.40854],[139.25476,35.40518],[139.25829,35.39763],[139.25081,35.39107],[139.25562,35.38178],[139.26521,35.38568],[139.26666,35.38439],[139.28046,35.38604],[139.28371,35.38305],[139.29039,35.3814],[139.30062,35.38111],[139.30409,35.3831],[139.31339,35.37796],[139.3156,35.37234],[139.32231,35.3806],[139.33167,35.3807],[139.33477,35.38461],[139.34694,35.37897],[139.35299,35.38139],[139.35729,35.38865],[139.35364,35.39469]]]},"properties":{"pref":"神奈川県","city":"伊勢原市","code5":"14214","code6":"142140"}},
{"type":"Feature","geometry":{"type":"Polygon","coordinates":[[[139.40695,35.40768],[139.40644,35.41095],[139.41027,35.42959],[139.40695,35.44301],[139.40875,35.45629],[139.41594,35.45758],[139.41444,35.4607],[139.42221,35.4659],[139.43649,35.46733],[139.4349,35.4773],[139.4206,35.46866],[139.41411,35.47138],[139.40321,35.47373],[139.39582,35.47166],[139.37955,35.47021],[139.37847,35.45828],[139.37121,35.44975],[139.37068,35.44533],[139.37524,35.4372],[139.37413,35.42877],[139.37026,35.41633],[139.36923,35.40691],[139.37181,35.40068],[139.38423,35.40111],[139.38861,35.39991],[139.39549,35.40128],[139.40126,35.40068],[139.40695,35.40768]]]},"properties":{"pref":"神奈川県","city":"海老名市","code5":"14215","code6":"142158"}},
{"type":"Feature","geometry":{"type":"Polygon","coordinates":[[[139.37397,35.49182],[139.37458,35.48376],[139.37955,35.47021],[139.39582,35.47166],[139.40321,35.47373],[139.41411,35.47138],[139.4206,35.46866],[139.4349,35.4773],[139.43884,35.47992],[139.42924,35.50737],[139.42767,35.51141],[139.4205,35.51542],[139.41094,35.50666],[139.40685,35.49931],[139.39963,35.49665],[139.39523,35.4975],[139.38766,35.49096],[139.37397,35.49182]]]},"properties":{"pref":"神奈川県","city":"座間市","code5":"14216","code6":"142166"}},
{"type":"Feature","geometry":{"type":"Polygon","coordinates":[[[139.13066,35.31768],[139.12591,35.31811],[139.12061,35.32155],[139.11457,35.33867],[139.11005,35.33967],[139.10659,35.34475],[139.11248,35.3522],[139.1021,35.35097],[139.09725,35.34655],[139.09145,35.35039],[139.08583,35.34856],[139.081,35.35013],[139.07118,35.3472],[139.06347,35.34841],[139.05932,35.35148],[139.05027,35.34925],[139.04932,35.34498],[139.04358,35.34257],[139.03653,35.34189],[139.02992,35.33636],[139.03156,35.33231],[139.02276,35.33165],[139.01853,35.32985],[139.0168,35.32318],[139.00963,35.31365],[139.0107,35.3106],[139.00604,35.29799],[139.00461,35.2899],[139.01071,35.28247],[139.01749,35.27917],[139.02608,35.27744],[139.03064,35.27408],[139.03651,35.27818],[139.0494,35.28169],[139.05603,35.27422],[139.06005,35.27182],[139.07165,35.27208],[139.09183,35.2778],[139.10784,35.27976],[139.11812,35.28003],[139.12023,35.28522],[139.13079,35.28821],[139.13245,35.30084],[139.13166,35.30809],[139.13371,35.31025],[139.13066,35.31768]]]},"properties":{"pref":"神奈川県","city":"南足柄市","code5":"14217","code6":"142174"}},
{"type":"Feature","geometry":{"type":"Polygon","coordinates":[[[139.4478,35.42797],[139.44934,35.43194],[139.44965,35.44571],[139.45455,35.45231],[139.45106,35.4677],[139.43649,35.46733],[139.42221,35.4659],[139.41444,35.4607],[139.41594,35.45758],[139.40875,35.45629],[139.40695,35.44301],[139.41027,35.42959],[139.40644,35.41095],[139.40695,35.40768],[139.41344,35.41595],[139.41298,35.41906],[139.42409,35.41627],[139.43001,35.41958],[139.44252,35.41314],[139.44272,35.40737],[139.44875,35.40751],[139.45652,35.41474],[139.45662,35.41716],[139.44365,35.42761],[139.4478,35.42797]]]},"properties":{"pref":"神奈川県","city":"綾瀬市","code5":"14218","code6":"142182"}},
{"type":"Feature","geometry":{"type":"Polygon","coordinates":[[[139.62311,35.27927],[139.62287,35.27604],[139.61371,35.27776],[139.60575,35.27617],[139.59952,35.27781],[139.61154,35.28672],[139.60963,35.29016],[139.60182,35.29189],[139.59228,35.29033],[139.58941,35.29134],[139.58377,35.28648],[139.57908,35.28718],[139.57471,35.28254],[139.56969,35.28502],[139.57134,35.26624],[139.575,35.26505],[139.57984,35.25584],[139.57659,35.25308],[139.5776,35.2533],[139.57805,35.25337],[139.58204,35.25487],[139.59689,35.25604],[139.60346,35.2581],[139.61324,35.25773],[139.61833,35.2615],[139.62156,35.25746],[139.62755,35.25599],[139.63605,35.2617],[139.63934,35.27364],[139.63161,35.27491],[139.62797,35.27874],[139.62311,35.27927]]]},"properties":{"pref":"神奈川県","county":"三浦郡","city":"葉山町","code5":"14301","code6":"143014"}},
{"type":"Feature","geometry":{"type":"Polygon","coordinates":[[[139.37044,35.35116],[139.37479,35.35021],[139.39484,35.35207],[139.39673,35.35624],[139.39397,35.36317],[139.40073,35.36831],[139.40501,35.3773],[139.39964,35.38452],[139.40314,35.39008],[139.39549,35.39077],[139.39398,35.39764],[139.39549,35.40128],[139.38861,35.39991],[139.38423,35.40111],[139.37181,35.40068],[139.37347,35.3945],[139.37465,35.38853],[139.3709,35.36785],[139.36864,35.36323],[139.37195,35.36064],[139.37044,35.35116]]]},"properties":{"pref":"神奈川県","county":"高座郡","city":"寒川町","code5":"14321","code6":"143219"}},
{"type":"Feature","geometry":{"type":"Polygon","coordinates":[[[139.25085,35.32881],[139.2568,35.31948],[139.25812,35.315],[139.26329,35.3159],[139.26645,35.30922],[139.26625,35.30515],[139.26927,35.29729],[139.31226,35.30595],[139.33004,35.31212],[139.32777,35.32487],[139.31868,35.3251],[139.30703,35.31926],[139.29556,35.32479],[139.29615,35.33063],[139.28437,35.33013],[139.2723,35.334],[139.26209,35.33421],[139.25961,35.33107],[139.25085,35.32881]]]},"properties":{"pref":"神奈川県","county":"中郡","city":"大磯町","code5":"14341","code6":"143413"}},
{"type":"Feature","geometry":{"type":"Polygon","coordinates":[[[139.24927,35.32985],[139.24547,35.32892],[139.23293,35.31982],[139.23809,35.31474],[139.23633,35.31132],[139.23832,35.30446],[139.23544,35.29814],[139.23746,35.29556],[139.23408,35.28644],[139.24979,35.2928],[139.26927,35.29729],[139.26625,35.30515],[139.26645,35.30922],[139.26329,35.3159],[139.25812,35.315],[139.2568,35.31948],[139.25085,35.32881],[139.24927,35.32985]]]},"properties":{"pref":"神奈川県","county":"中郡","city":"二宮町","code5":"14342","code6":"143421"}},
{"type":"Feature","geometry":{"type":"Polygon","coordinates":[[[139.25119,35.35409],[139.24433,35.35534],[139.23363,35.35129],[139.22236,35.35366],[139.21758,35.35171],[139.20546,35.36127],[139.1883,35.35177],[139.18749,35.34727],[139.19667,35.34222],[139.18976,35.33836],[139.19374,35.32902],[139.18725,35.32311],[139.19241,35.31768],[139.19721,35.31682],[139.20293,35.31155],[139.21221,35.31454],[139.21385,35.3173],[139.22367,35.31591],[139.23293,35.31982],[139.24547,35.32892],[139.24927,35.32985],[139.24423,35.33537],[139.2405,35.33505],[139.23874,35.34644],[139.25119,35.35409]]]},"properties":{"pref":"神奈川県","county":"足柄上郡","city":"中井町","code5":"14361","code6":"143618"}},
{"type":"Feature","geometry":{"type":"Polygon","coordinates":[[[139.18725,35.32311],[139.19374,35.32902],[139.18976,35.33836],[139.19667,35.34222],[139.18749,35.34727],[139.1883,35.35177],[139.18214,35.34899],[139.18046,35.346],[139.17396,35.35121],[139.17091,35.35861],[139.16033,35.35648],[139.16235,35.34979],[139.15944,35.34613],[139.14961,35.3445],[139.14192,35.3378],[139.13559,35.33672],[139.138,35.33034],[139.14306,35.32349],[139.14864,35.31362],[139.15536,35.31333],[139.16549,35.31801],[139.16908,35.3217],[139.1703,35.32676],[139.18131,35.32949],[139.18725,35.32311]]]},"properties":{"pref":"神奈川県","county":"足柄上郡","city":"大井町","code5":"14362","code6":"143626"}},
{"type":"Feature","geometry":{"type":"Polygon","coordinates":[[[139.1414,35.44415],[139.12974,35.44608],[139.12807,35.44208],[139.11791,35.43559],[139.11572,35.43115],[139.10759,35.42677],[139.10088,35.41835],[139.10612,35.40931],[139.10027,35.40638],[139.10138,35.40122],[139.09938,35.39745],[139.09998,35.39018],[139.11687,35.3824],[139.12163,35.38108],[139.12459,35.37442],[139.12262,35.3627],[139.1155,35.35722],[139.11449,35.35197],[139.12905,35.3468],[139.13417,35.34098],[139.13559,35.33672],[139.14192,35.3378],[139.14961,35.3445],[139.15944,35.34613],[139.16235,35.34979],[139.16033,35.35648],[139.15742,35.3653],[139.14913,35.37281],[139.14413,35.38166],[139.14453,35.38805],[139.15028,35.39192],[139.15005,35.40407],[139.14625,35.40724],[139.14847,35.4202],[139.14555,35.42957],[139.14145,35.43514],[139.1414,35.44415]]]},"properties":{"pref":"神奈川県","county":"足柄上郡","city":"松田町","code5":"14363","code6":"143634"}},
{"type":"Feature","geometry":{"type":"Polygon","coordinates":[[[139.06604,35.50941],[139.06008,35.5075],[139.0514,35.51058],[139.04602,35.50966],[139.04393,35.49944],[139.03694,35.49095],[139.03062,35.4887],[139.02755,35.48097],[139.02095,35.47879],[139.01486,35.47991],[139.00814,35.47456],[138.9978,35.47497],[138.98882,35.47364],[138.98504,35.46855],[138.97877,35.46374],[138.97346,35.46655],[138.96923,35.46352],[138.95925,35.46223],[138.95448,35.45984],[138.94058,35.44957],[138.93732,35.44881],[138.93739,35.447],[138.9274,35.43764],[138.92673,35.43049],[138.93064,35.42633],[138.93017,35.42087],[138.92566,35.41531],[138.91807,35.41134],[138.9164,35.40061],[138.93132,35.40111],[138.93773,35.39915],[138.94804,35.40127],[138.96641,35.4019],[138.96946,35.4049],[138.98006,35.40465],[138.98407,35.40177],[138.9936,35.40347],[139.0018,35.39894],[138.99862,35.38404],[139.00592,35.37538],[139.00684,35.36139],[139.01229,35.35809],[139.00811,35.3503],[139.01092,35.34388],[139.01082,35.33816],[139.01853,35.32985],[139.02276,35.33165],[139.03156,35.33231],[139.02992,35.33636],[139.03653,35.34189],[139.04358,35.34257],[139.04932,35.34498],[139.05027,35.34925],[139.05932,35.35148],[139.06347,35.34841],[139.07118,35.3472],[139.081,35.35013],[139.08583,35.34856],[139.09145,35.35039],[139.09725,35.34655],[139.1021,35.35097],[139.11248,35.3522],[139.11449,35.35197],[139.1155,35.35722],[139.12262,35.3627],[139.12459,35.37442],[139.12163,35.38108],[139.11687,35.3824],[139.09998,35.39018],[139.09938,35.39745],[139.10138,35.40122],[139.10027,35.40638],[139.10612,35.40931],[139.10088,35.41835],[139.10759,35.42677],[139.11572,35.43115],[139.11791,35.43559],[139.12807,35.44208],[139.12974,35.44608],[139.1414,35.44415],[139.15475,35.44516],[139.16088,35.44978],[139.16339,35.45402],[139.1653,35.45679],[139.16624,35.46535],[139.16283,35.47455],[139.15752,35.47848],[139.14839,35.47774],[139.14667,35.48321],[139.14013,35.48621],[139.13018,35.48475],[139.12658,35.47813],[139.11454,35.47696],[139.10238,35.47896],[139.09666,35.48656],[139.09105,35.48812],[139.08664,35.49303],[139.07434,35.49615],[139.07338,35.4998],[139.06759,35.50415],[139.06604,35.50941]]]},"properties":{"pref":"神奈川県","county":"足柄上郡","city":"山北町","code5":"14364","code6":"143642"}},
{"type":"Feature","geometry":{"type":"Polygon","coordinates":[[[139.14306,35.32349],[139.138,35.33034],[139.13559,35.33672],[139.13417,35.34098],[139.12905,35.3468],[139.11449,35.35197],[139.11248,35.3522],[139.10659,35.34475],[139.11005,35.33967],[139.11457,35.33867],[139.12061,35.32155],[139.12591,35.31811],[139.13066,35.31768],[139.13554,35.31887],[139.13622,35.32256],[139.14306,35.32349]]]},"properties":{"pref":"神奈川県","county":"足柄上郡","city":"開成町","code5":"14366","code6":"143669"}},
{"type":"Feature","geometry":{"type":"Polygon","coordinates":[[[139.06005,35.27182],[139.05603,35.27422],[139.0494,35.28169],[139.03651,35.27818],[139.03064,35.27408],[139.02608,35.27744],[139.01749,35.27917],[139.01071,35.28247],[139.00461,35.2899],[138.99721,35.2887],[138.99319,35.28488],[138.98595,35.27828],[138.98153,35.26962],[138.97547,35.26375],[138.97446,35.24783],[138.97874,35.23939],[138.97607,35.23555],[138.97951,35.23322],[138.98365,35.22168],[138.98228,35.21758],[138.98781,35.21266],[138.98643,35.20556],[138.98774,35.20082],[138.99305,35.19881],[139.00159,35.18981],[139.00901,35.18344],[139.01383,35.18237],[139.02163,35.18191],[139.02654,35.17543],[139.03541,35.17607],[139.04617,35.18129],[139.04939,35.1853],[139.06412,35.19285],[139.07672,35.20018],[139.08168,35.20287],[139.08502,35.2147],[139.09224,35.22065],[139.10071,35.22508],[139.11563,35.22782],[139.11414,35.23217],[139.12034,35.23668],[139.11785,35.24006],[139.10915,35.23874],[139.0919,35.24346],[139.09123,35.24003],[139.08355,35.23392],[139.07251,35.24207],[139.06706,35.24128],[139.05891,35.24772],[139.0649,35.25086],[139.06315,35.26508],[139.06005,35.27182]]]},"properties":{"pref":"神奈川県","county":"足柄下郡","city":"箱根町","code5":"14382","code6":"143821"}},
{"type":"Feature","geometry":{"type":"Polygon","coordinates":[[[139.10302,35.1871],[139.10451,35.1843],[139.11572,35.17775],[139.12044,35.17147],[139.12915,35.16559],[139.12671,35.15931],[139.13321,35.15417],[139.13736,35.14857],[139.14256,35.14502],[139.14765,35.14453],[139.15072,35.14065],[139.16181,35.14161],[139.15757,35.14733],[139.14924,35.14762],[139.14361,35.15188],[139.14423,35.15975],[139.14049,35.16326],[139.14521,35.16734],[139.14339,35.17283],[139.1372,35.17882],[139.13125,35.178],[139.1256,35.18199],[139.11067,35.18642],[139.10302,35.1871]]]},"properties":{"pref":"神奈川県","county":"足柄下郡","city":"真鶴町","code5":"14383","code6":"143839"}},
{"type":"Feature","geometry":{"type":"Polygon","coordinates":[[[139.07672,35.20018],[139.06412,35.19285],[139.04939,35.1853],[139.04617,35.18129],[139.03541,35.17607],[139.02654,35.17543],[139.02945,35.16478],[139.02637,35.16055],[139.03043,35.14975],[139.03962,35.15067],[139.0486,35.14963],[139.05141,35.14716],[139.06613,35.14413],[139.07283,35.14518],[139.08359,35.14111],[139.0901,35.14019],[139.1116,35.14137],[139.12005,35.14917],[139.13183,35.15084],[139.13736,35.14857],[139.13321,35.15417],[139.12671,35.15931],[139.12915,35.16559],[139.12044,35.17147],[139.11572,35.17775],[139.10451,35.1843],[139.10302,35.1871],[139.09367,35.18964],[139.09114,35.19332],[139.07832,35.19613],[139.07672,35.20018]]]},"properties":{"pref":"神奈川県","county":"足柄下郡","city":"湯河原町","code5":"14384","code6":"143847"}},
{"type":"Feature","geometry":{"type":"Polygon","coordinates":[[[139.24813,35.54252],[139.24551,35.5341],[139.2509,35.52446],[139.26152,35.51829],[139.26412,35.51102],[139.27053,35.50706],[139.27598,35.50735],[139.27818,35.51299],[139.28418,35.51238],[139.28961,35.51511],[139.29541,35.52049],[139.30741,35.5227],[139.31556,35.51376],[139.3162,35.51051],[139.3226,35.50599],[139.33453,35.5045],[139.34388,35.49825],[139.34769,35.49892],[139.34667,35.50655],[139.35026,35.50913],[139.34734,35.51693],[139.3545,35.51915],[139.35103,35.52369],[139.35451,35.52747],[139.34354,35.53311],[139.32537,35.54398],[139.31725,35.53819],[139.30737,35.54466],[139.30316,35.55151],[139.29444,35.55651],[139.28657,35.55623],[139.27674,35.54585],[139.26722,35.54999],[139.2623,35.55015],[139.24984,35.54693],[139.24813,35.54252]]]},"properties":{"pref":"神奈川県","county":"愛甲郡","city":"愛川町","code5":"14401","code6":"144011"}},
{"type":"Feature","geometry":{"type":"Polygon","coordinates":[[[139.16283,35.47455],[139.16624,35.46535],[139.1653,35.45679],[139.16339,35.45402],[139.17667,35.45149],[139.17898,35.44743],[139.19385,35.45104],[139.19698,35.44969],[139.2075,35.45922],[139.2161,35.46123],[139.22874,35.45705],[139.2283,35.45223],[139.23694,35.45913],[139.24568,35.46287],[139.24909,35.4601],[139.28106,35.46244],[139.28544,35.46107],[139.29622,35.46485],[139.29873,35.47792],[139.29061,35.48182],[139.28721,35.48936],[139.2818,35.49477],[139.27598,35.50735],[139.27053,35.50706],[139.26412,35.51102],[139.26152,35.51829],[139.2509,35.52446],[139.24551,35.5341],[139.24813,35.54252],[139.24092,35.53845],[139.23833,35.53417],[139.23179,35.532],[139.22973,35.53644],[139.22011,35.5346],[139.22277,35.52863],[139.21736,35.52496],[139.21544,35.52117],[139.21084,35.52062],[139.20937,35.51549],[139.20448,35.51396],[139.19954,35.50693],[139.19219,35.50628],[139.1813,35.49721],[139.1756,35.48997],[139.1667,35.48309],[139.16283,35.47455]]]},"properties":{"pref":"神奈川県","county":"愛甲郡","city":"清川村","code5":"14402","code6":"144029"}},
{"type":"Feature","geometry":{"type":"MultiPolygon","coordinates":[[[[139.71146,35.4908],[139.7034,35.50444],[139.69661,35.50588],[139.6887,35.52639],[139.68363,35.5314],[139.68491,35.53999],[139.67759,35.5397],[139.66645,35.533],[139.65554,35.53883],[139.65444,35.54283],[139.65825,35.55474],[139.64833,35.55979],[139.64293,35.55836],[139.63333,35.5614],[139.62641,35.5625],[139.61352,35.56095],[139.61011,35.56459],[139.60071,35.56554],[139.56786,35.57144],[139.56514,35.57884],[139.55588,35.58734],[139.53657,35.5913],[139.52657,35.5925],[139.5291,35.58225],[139.52488,35.57896],[139.52177,35.5711],[139.51291,35.56958],[139.50701,35.57582],[139.50657,35.57172],[139.5006,35.57044],[139.49627,35.56464],[139.49103,35.56143],[139.48641,35.56895],[139.48287,35.57138],[139.46993,35.56989],[139.46829,35.5633],[139.47041,35.56041],[139.47973,35.55939],[139.48199,35.55563],[139.48239,35.54742],[139.48033,35.54315],[139.48682,35.53553],[139.4878,35.52788],[139.48647,35.5203],[139.48328,35.51915],[139.47699,35.51121],[139.48113,35.50531],[139.48486,35.50405],[139.47638,35.50135],[139.46772,35.50237],[139.465,35.49813],[139.47058,35.49263],[139.4695,35.48532],[139.47187,35.47211],[139.47451,35.46977],[139.47216,35.46226],[139.4742,35.45693],[139.48067,35.44862],[139.47315,35.43577],[139.47278,35.42415],[139.47804,35.41993],[139.47567,35.41027],[139.47877,35.39178],[139.48427,35.38737],[139.48601,35.38228],[139.49151,35.3796],[139.49364,35.37509],[139.48992,35.37184],[139.48588,35.35942],[139.49539,35.35771],[139.50259,35.36755],[139.51401,35.36241],[139.51872,35.36157],[139.52562,35.35687],[139.53632,35.35493],[139.5421,35.35701],[139.54422,35.363],[139.54901,35.35965],[139.54848,35.35544],[139.56117,35.34618],[139.56959,35.34754],[139.57294,35.34236],[139.57362,35.33691],[139.58786,35.33652],[139.58871,35.33005],[139.59296,35.32403],[139.59316,35.32041],[139.59622,35.31642],[139.60217,35.31699],[139.60943,35.3125],[139.61407,35.31659],[139.62461,35.31874],[139.6316,35.3252],[139.62347,35.33011],[139.62979,35.3296],[139.63495,35.33267],[139.63372,35.33602],[139.6414,35.33936],[139.65695,35.34193],[139.65693,35.35349],[139.65098,35.35984],[139.65094,35.36642],[139.65651,35.36654],[139.65651,35.37268],[139.65048,35.37324],[139.64589,35.37809],[139.65269,35.3863],[139.64568,35.39054],[139.63968,35.38537],[139.63381,35.38285],[139.6293,35.38398],[139.62743,35.38621],[139.63651,35.39033],[139.6313,35.39456],[139.62462,35.39167],[139.62218,35.39609],[139.62602,35.40164],[139.63231,35.40038],[139.64536,35.40283],[139.64167,35.4069],[139.64239,35.41162],[139.65256,35.41303],[139.6632,35.40662],[139.66887,35.40645],[139.66955,35.40288],[139.67944,35.41085],[139.67801,35.41619],[139.68122,35.42642],[139.68539,35.42666],[139.69061,35.43922],[139.68535,35.442],[139.67831,35.43038],[139.67535,35.43159],[139.6815,35.44158],[139.67528,35.44571],[139.67115,35.43884],[139.66855,35.44023],[139.67432,35.44971],[139.67036,35.4513],[139.66363,35.44676],[139.65714,35.45133],[139.65186,35.44513],[139.64668,35.44812],[139.64413,35.45385],[139.6385,35.4568],[139.63551,35.45543],[139.63807,35.45738],[139.63839,35.46378],[139.63347,35.46497],[139.63812,35.46518],[139.63997,35.47126],[139.64466,35.47598],[139.66915,35.47749],[139.66725,35.48352],[139.67314,35.47513],[139.6679,35.47356],[139.66831,35.46789],[139.68177,35.47289],[139.68177,35.47836],[139.68949,35.47891],[139.6928,35.48141],[139.68833,35.48976],[139.69321,35.49241],[139.6963,35.48404],[139.71146,35.4908]]],[[[139.69475,35.46528],[139.6924,35.47201],[139.67259,35.46523],[139.67311,35.46062],[139.6955,35.44982],[139.70225,35.45512],[139.69807,35.46092],[139.68843,35.457],[139.68469,35.45886],[139.69475,35.46528]]],[[[139.72533,35.4698],[139.71459,35.48605],[139.70027,35.47869],[139.70595,35.47454],[139.71271,35.46425],[139.72533,35.4698]]],[[[139.6457,35.47471],[139.64205,35.47169],[139.65228,35.46697],[139.65596,35.47022],[139.65039,35.47445],[139.6457,35.47471]]],[[[139.69167,35.41047],[139.68888,35.41279],[139.68417,35.40898],[139.68019,35.41019],[139.67116,35.40291],[139.67638,35.39976],[139.68225,35.4045],[139.68533,35.40194],[139.67794,35.39598],[139.68237,35.39316],[139.69073,35.39991],[139.69519,35.40759],[139.69167,35.41047]]],[[[139.6343,35.33039],[139.62954,35.3288],[139.63358,35.32309],[139.6381,35.32702],[139.6343,35.33039]]]]},"properties":{"pref":"神奈川県","city":"横浜市","code5":"14100","code6":"141003"}},
{"type":"Feature","geometry":{"type":"MultiPolygon","coordinates":[[[[139.71146,35.4908],[139.74877,35.50684],[139.74605,35.51898],[139.75588,35.52779],[139.76096,35.53027],[139.77011,35.51387],[139.77624,35.50956],[139.78019,35.51331],[139.79075,35.50788],[139.79156,35.51338],[139.7961,35.51861],[139.79017,35.52002],[139.78761,35.52447],[139.77446,35.53222],[139.7765,35.53447],[139.75649,35.54455],[139.74678,35.54383],[139.73941,35.54512],[139.73464,35.54098],[139.72611,35.54347],[139.7173,35.538],[139.70347,35.53659],[139.69794,35.54145],[139.69845,35.5454],[139.70353,35.54941],[139.70308,35.55332],[139.69778,35.55613],[139.68962,35.55729],[139.68114,35.56144],[139.67641,35.56604],[139.66931,35.58472],[139.66333,35.58987],[139.65514,35.59015],[139.64324,35.59816],[139.63117,35.60724],[139.61219,35.61585],[139.60474,35.61582],[139.59662,35.6185],[139.59024,35.61843],[139.58639,35.62046],[139.57735,35.62182],[139.57112,35.62441],[139.56197,35.63259],[139.54943,35.63437],[139.54772,35.63669],[139.52539,35.64265],[139.52118,35.63677],[139.52326,35.63217],[139.51746,35.63066],[139.51458,35.62473],[139.50342,35.62286],[139.49488,35.61739],[139.49578,35.61236],[139.50002,35.60728],[139.49757,35.60487],[139.48907,35.60467],[139.48655,35.60843],[139.48127,35.61006],[139.47671,35.61533],[139.47624,35.61889],[139.46786,35.62052],[139.46416,35.62451],[139.45241,35.61578],[139.44928,35.61178],[139.45287,35.60745],[139.4638,35.60916],[139.47119,35.60106],[139.47688,35.59954],[139.49446,35.58631],[139.49393,35.58278],[139.49922,35.58097],[139.50701,35.57582],[139.51291,35.56958],[139.52177,35.5711],[139.52488,35.57896],[139.5291,35.58225],[139.52657,35.5925],[139.53657,35.5913],[139.55588,35.58734],[139.56514,35.57884],[139.56786,35.57144],[139.60071,35.56554],[139.61011,35.56459],[139.61352,35.56095],[139.62641,35.5625],[139.63333,35.5614],[139.64293,35.55836],[139.64833,35.55979],[139.65825,35.55474],[139.65444,35.54283],[139.65554,35.53883],[139.66645,35.533],[139.67759,35.5397],[139.68491,35.53999],[139.68363,35.5314],[139.6887,35.52639],[139.69661,35.50588],[139.7034,35.50444],[139.71146,35.4908]]],[[[139.7712,35.50622],[139.76119,35.50573],[139.73628,35.49445],[139.74045,35.48816],[139.74561,35.48501],[139.77868,35.49955],[139.7712,35.50622]]],[[[139.72533,35.4698],[139.74184,35.47703],[139.73507,35.48736],[139.73896,35.48906],[139.73449,35.49476],[139.71459,35.48605],[139.72533,35.4698]]],[[[139.75968,35.525],[139.75696,35.52666],[139.74897,35.51995],[139.75177,35.50947],[139.75383,35.50858],[139.76496,35.51161],[139.76603,35.51356],[139.75968,35.525]]],[[[139.48287,35.57138],[139.48987,35.58358],[139.48498,35.58461],[139.4822,35.58172],[139.47601,35.58073],[139.46993,35.56989],[139.48287,35.57138]]]]},"properties":{"pref":"神奈川県","city":"川崎市","code5":"14130","code6":"141305"}},
{"type":"Feature","geometry":{"type":"Polygon","coordinates":[[[139.24813,35.54252],[139.24984,35.54693],[139.2623,35.55015],[139.26722,35.54999],[139.27674,35.54585],[139.28657,35.55623],[139.29444,35.55651],[139.30316,35.55151],[139.30737,35.54466],[139.31725,35.53819],[139.32537,35.54398],[139.34354,35.53311],[139.35451,35.52747],[139.35512,35.5269],[139.36389,35.52088],[139.3753,35.51728],[139.37657,35.51279],[139.3763,35.50304],[139.37397,35.49182],[139.38766,35.49096],[139.39523,35.4975],[139.39963,35.49665],[139.40685,35.49931],[139.41094,35.50666],[139.4205,35.51542],[139.42767,35.51141],[139.42924,35.50737],[139.44277,35.51233],[139.44718,35.51683],[139.45577,35.52047],[139.45825,35.52805],[139.44865,35.53525],[139.4451,35.54113],[139.42872,35.55038],[139.42244,35.55944],[139.41819,35.56177],[139.41343,35.56625],[139.40898,35.57533],[139.40124,35.57753],[139.39915,35.58465],[139.39108,35.58526],[139.37047,35.59439],[139.36136,35.59905],[139.35673,35.59901],[139.33789,35.60435],[139.33036,35.60321],[139.32056,35.60652],[139.31403,35.60435],[139.2992,35.60623],[139.29261,35.61181],[139.28287,35.61327],[139.27988,35.61148],[139.2688,35.60935],[139.26478,35.60246],[139.25771,35.60423],[139.25222,35.60167],[139.24687,35.60522],[139.23864,35.60698],[139.23798,35.60935],[139.22988,35.61457],[139.22887,35.62023],[139.22023,35.62557],[139.22143,35.62947],[139.21546,35.63694],[139.21573,35.64556],[139.21146,35.64912],[139.19803,35.65295],[139.19153,35.6474],[139.18406,35.64509],[139.17916,35.64557],[139.17525,35.64973],[139.16934,35.65148],[139.16717,35.66183],[139.1616,35.66791],[139.1536,35.66602],[139.14716,35.66682],[139.13673,35.67241],[139.13134,35.67199],[139.1239,35.66292],[139.11981,35.66041],[139.11726,35.6549],[139.12697,35.6419],[139.12362,35.63408],[139.12347,35.62406],[139.13371,35.61581],[139.12779,35.61264],[139.13302,35.60648],[139.12933,35.5946],[139.1246,35.59265],[139.12144,35.58692],[139.12401,35.58215],[139.12777,35.581],[139.12702,35.57171],[139.12964,35.56704],[139.12841,35.56265],[139.12129,35.55617],[139.11522,35.55371],[139.11196,35.54979],[139.11171,35.54454],[139.11392,35.53849],[139.10664,35.53217],[139.10411,35.52689],[139.0943,35.52187],[139.08579,35.51209],[139.08076,35.51274],[139.07447,35.50994],[139.06604,35.50941],[139.06759,35.50415],[139.07338,35.4998],[139.07434,35.49615],[139.08664,35.49303],[139.09105,35.48812],[139.09666,35.48656],[139.10238,35.47896],[139.11454,35.47696],[139.12658,35.47813],[139.13018,35.48475],[139.14013,35.48621],[139.14667,35.48321],[139.14839,35.47774],[139.15752,35.47848],[139.16283,35.47455],[139.1667,35.48309],[139.1756,35.48997],[139.1813,35.49721],[139.19219,35.50628],[139.19954,35.50693],[139.20448,35.51396],[139.20937,35.51549],[139.21084,35.52062],[139.21544,35.52117],[139.21736,35.52496],[139.22277,35.52863],[139.22011,35.5346],[139.22973,35.53644],[139.23179,35.532],[139.23833,35.53417],[139.24092,35.53845],[139.24813,35.54252]]]},"properties":{"pref":"神奈川県","city":"相模原市","code5":"14150","code6":"141500"}}
]}