{"type":"FeatureCollection", "features": [
{"type":"Feature","geometry":{"type":"MultiPolygon","coordinates":[[[[138.78555,37.70724],[138.78598,37.70451],[138.78255,37.6923],[138.7669,37.64415],[138.75993,37.63506],[138.75956,37.62967],[138.75674,37.62622],[138.75438,37.61858],[138.75018,37.61215],[138.74837,37.60597],[138.73278,37.59128],[138.72666,37.57807],[138.72693,37.57283],[138.72272,37.57],[138.7229,37.56563],[138.73361,37.56488],[138.74225,37.56147],[138.749,37.56221],[138.74557,37.55331],[138.74087,37.55109],[138.74096,37.54716],[138.75367,37.54103],[138.75449,37.5381],[138.76149,37.53334],[138.75834,37.5245],[138.75348,37.52343],[138.75209,37.51619],[138.742,37.51567],[138.74201,37.50963],[138.73367,37.50266],[138.73356,37.49952],[138.73992,37.49702],[138.73879,37.49037],[138.72849,37.49157],[138.72177,37.48744],[138.71515,37.47659],[138.7045,37.4656],[138.70355,37.46076],[138.69862,37.45613],[138.69508,37.44862],[138.69517,37.44353],[138.69112,37.43819],[138.69728,37.43239],[138.69714,37.42557],[138.70166,37.42078],[138.70826,37.41936],[138.70424,37.41371],[138.69887,37.4017],[138.70109,37.39555],[138.70585,37.39496],[138.71798,37.38678],[138.7144,37.37457],[138.7066,37.36749],[138.7048,37.3621],[138.70102,37.36002],[138.69923,37.35211],[138.68961,37.3505],[138.68635,37.34574],[138.68185,37.34382],[138.68108,37.33889],[138.67631,37.33464],[138.67608,37.33],[138.66745,37.32927],[138.66131,37.32314],[138.66357,37.31901],[138.6568,37.31466],[138.65834,37.31004],[138.65193,37.29883],[138.64781,37.29899],[138.64412,37.29443],[138.644,37.2834],[138.64733,37.27701],[138.65231,37.27594],[138.65388,37.27027],[138.66128,37.26848],[138.66089,37.26427],[138.66831,37.25079],[138.6747,37.23719],[138.68262,37.23396],[138.68743,37.23557],[138.70301,37.23314],[138.71878,37.23492],[138.72514,37.22949],[138.72967,37.23372],[138.73237,37.24669],[138.73964,37.25721],[138.7477,37.26475],[138.74682,37.2707],[138.74363,37.27598],[138.75215,37.28155],[138.75194,37.28548],[138.74744,37.28711],[138.74727,37.29301],[138.75139,37.29505],[138.75025,37.29994],[138.75507,37.30442],[138.75183,37.31139],[138.755,37.31661],[138.75186,37.32634],[138.75947,37.34709],[138.76235,37.34843],[138.75752,37.3589],[138.75977,37.36237],[138.76396,37.37498],[138.76865,37.38157],[138.77439,37.38431],[138.78998,37.38226],[138.79521,37.3799],[138.79332,37.37356],[138.80155,37.36728],[138.80745,37.36901],[138.81115,37.36702],[138.82108,37.35743],[138.82348,37.34654],[138.82318,37.33908],[138.82734,37.33473],[138.83318,37.33828],[138.85344,37.34305],[138.86077,37.3479],[138.86157,37.352],[138.8694,37.35192],[138.87046,37.34684],[138.87529,37.34447],[138.87771,37.34034],[138.87603,37.33531],[138.86739,37.32117],[138.87263,37.32047],[138.87588,37.31527],[138.8835,37.31419],[138.8851,37.31187],[138.89535,37.30967],[138.9012,37.30238],[138.90593,37.30572],[138.91496,37.29875],[138.91105,37.29336],[138.91452,37.29228],[138.92633,37.29653],[138.93206,37.3005],[138.93356,37.30416],[138.9316,37.31276],[138.93897,37.31812],[138.93987,37.32459],[138.93608,37.3272],[138.93684,37.33151],[138.9329,37.3386],[138.94046,37.33988],[138.95143,37.34508],[138.95494,37.35129],[138.96414,37.35392],[138.95691,37.36016],[138.9557,37.36718],[138.9568,37.37334],[138.96205,37.37407],[138.96867,37.38382],[138.97976,37.37972],[138.98838,37.37253],[138.99412,37.3715],[139.00003,37.37452],[139.01417,37.37822],[139.01899,37.3859],[139.01851,37.38862],[139.02862,37.39779],[139.03404,37.39986],[139.04226,37.39996],[139.04921,37.40165],[139.04661,37.40832],[139.04981,37.41256],[139.05534,37.41355],[139.06181,37.40554],[139.06907,37.40564],[139.08071,37.40342],[139.08992,37.40572],[139.09468,37.40953],[139.10829,37.41053],[139.12326,37.40987],[139.12407,37.41968],[139.12239,37.42645],[139.10871,37.43837],[139.09327,37.45006],[139.08757,37.46796],[139.08848,37.47513],[139.09549,37.47659],[139.10588,37.48554],[139.1027,37.49224],[139.10586,37.49651],[139.10524,37.50122],[139.11008,37.5036],[139.11227,37.51074],[139.11025,37.51555],[139.10369,37.5158],[139.09264,37.52146],[139.08422,37.52073],[139.08072,37.52525],[139.0737,37.52835],[139.07189,37.52472],[139.06429,37.52454],[139.05254,37.52122],[139.04128,37.52323],[139.02756,37.5299],[139.00035,37.52576],[138.9962,37.5161],[138.98869,37.51316],[138.98739,37.50181],[138.98577,37.49798],[138.98088,37.49641],[138.97743,37.49936],[138.97176,37.49554],[138.96648,37.49435],[138.95635,37.48941],[138.95614,37.48272],[138.96147,37.48305],[138.96634,37.47703],[138.96521,37.47403],[138.9488,37.46834],[138.94086,37.47027],[138.9377,37.48362],[138.93303,37.48855],[138.91642,37.48824],[138.90118,37.49206],[138.90285,37.4983],[138.90992,37.50084],[138.90405,37.50876],[138.90137,37.50339],[138.8887,37.50486],[138.88715,37.50907],[138.89363,37.51156],[138.88586,37.51641],[138.87904,37.52547],[138.87935,37.53117],[138.88287,37.53549],[138.87904,37.54058],[138.88502,37.54689],[138.87861,37.55133],[138.87504,37.55625],[138.8758,37.56071],[138.87136,37.56808],[138.87638,37.57571],[138.87355,37.59217],[138.87516,37.59942],[138.88071,37.60391],[138.88229,37.6167],[138.88098,37.62011],[138.8516,37.61138],[138.84082,37.60522],[138.83109,37.59367],[138.83115,37.60386],[138.82481,37.60423],[138.82564,37.60868],[138.83192,37.61644],[138.83751,37.61819],[138.82352,37.63574],[138.82292,37.64526],[138.81352,37.64327],[138.81286,37.63878],[138.8081,37.63669],[138.8024,37.6405],[138.79823,37.64563],[138.78726,37.65531],[138.78816,37.67172],[138.79362,37.6789],[138.80561,37.67798],[138.80481,37.68594],[138.80881,37.69152],[138.81139,37.70084],[138.80841,37.70681],[138.79717,37.71023],[138.79128,37.70548],[138.78555,37.70724]]],[[[138.9013,37.28874],[138.89459,37.29208],[138.8887,37.29061],[138.88394,37.30026],[138.87637,37.29848],[138.87268,37.30253],[138.8557,37.30804],[138.84969,37.3084],[138.84925,37.29979],[138.84363,37.3009],[138.83886,37.29231],[138.83453,37.28967],[138.83748,37.28638],[138.83586,37.28268],[138.83023,37.28327],[138.82657,37.2751],[138.84135,37.26258],[138.84054,37.25906],[138.84722,37.25614],[138.85236,37.25011],[138.84904,37.2447],[138.84265,37.24188],[138.83655,37.243],[138.8318,37.23878],[138.83434,37.23349],[138.83139,37.22699],[138.8375,37.22346],[138.84182,37.21288],[138.83918,37.20761],[138.8336,37.20593],[138.83317,37.20151],[138.83664,37.18809],[138.83266,37.17742],[138.83487,37.17648],[138.84852,37.18465],[138.85277,37.18987],[138.85777,37.20304],[138.86362,37.20264],[138.86886,37.20799],[138.87166,37.21629],[138.87093,37.22016],[138.87521,37.224],[138.88034,37.22418],[138.88227,37.23058],[138.88034,37.23492],[138.88141,37.2398],[138.88776,37.24327],[138.88832,37.24976],[138.89299,37.25512],[138.8886,37.26019],[138.88755,37.26483],[138.88991,37.27007],[138.88854,37.2754],[138.89135,37.27914],[138.89885,37.2809],[138.9013,37.28874]]]]},"properties":{"pref":"新潟県","city":"長岡市","code5":"15202","code6":"152021"}},
{"type":"Feature","geometry":{"type":"Polygon","coordinates":[[[139.25122,37.45244],[139.25192,37.45677],[139.25789,37.46129],[139.2573,37.46446],[139.26859,37.47195],[139.27629,37.47547],[139.28313,37.48373],[139.2982,37.48493],[139.29577,37.49253],[139.29008,37.49767],[139.28737,37.50752],[139.27794,37.50684],[139.27609,37.5097],[139.27404,37.51581],[139.26606,37.51231],[139.25978,37.51207],[139.26012,37.51927],[139.25564,37.52644],[139.25872,37.53574],[139.24763,37.53835],[139.24228,37.54946],[139.23398,37.55496],[139.23241,37.55887],[139.22659,37.5564],[139.2223,37.55903],[139.21025,37.56099],[139.19585,37.55475],[139.17456,37.55575],[139.16467,37.55872],[139.15222,37.56101],[139.14697,37.56421],[139.14034,37.56421],[139.13353,37.56663],[139.12219,37.58033],[139.11695,37.58244],[139.1123,37.58041],[139.1077,37.58217],[139.10793,37.59055],[139.09868,37.59453],[139.08506,37.59347],[139.0828,37.59731],[139.07601,37.60001],[139.07773,37.60715],[139.07586,37.61109],[139.06963,37.61269],[139.06697,37.61027],[139.05783,37.61165],[139.05663,37.61601],[139.05205,37.61624],[139.04059,37.61307],[139.03187,37.61956],[139.03896,37.63102],[139.03896,37.63796],[139.0348,37.64492],[139.02708,37.6476],[139.02354,37.65411],[139.01917,37.65569],[139.01209,37.6624],[139.00491,37.66124],[139.00508,37.66547],[139.01039,37.67365],[139.00685,37.6777],[138.99275,37.67977],[138.98392,37.67897],[138.96825,37.67947],[138.96692,37.68074],[138.9613,37.67841],[138.95603,37.67282],[138.95684,37.66351],[138.95384,37.65816],[138.94561,37.65239],[138.93639,37.64819],[138.92637,37.65535],[138.92239,37.65224],[138.92675,37.64788],[138.92724,37.64066],[138.93508,37.63559],[138.93271,37.63101],[138.91955,37.63092],[138.91066,37.62679],[138.89858,37.62266],[138.88551,37.62307],[138.88098,37.62011],[138.88229,37.6167],[138.88071,37.60391],[138.87516,37.59942],[138.87355,37.59217],[138.87863,37.59353],[138.89108,37.58329],[138.89867,37.57427],[138.9031,37.57397],[138.91057,37.56542],[138.92276,37.56276],[138.92823,37.56358],[138.93482,37.55435],[138.94427,37.5558],[138.94663,37.5486],[138.95352,37.54751],[138.95446,37.54073],[138.95864,37.54125],[138.96562,37.54585],[138.96807,37.55488],[138.97625,37.5621],[138.98057,37.56029],[138.9861,37.55003],[138.98179,37.54705],[138.98257,37.54026],[138.98623,37.53684],[138.99115,37.53824],[139.00074,37.533],[139.00035,37.52576],[139.02756,37.5299],[139.04128,37.52323],[139.05254,37.52122],[139.06429,37.52454],[139.07189,37.52472],[139.0737,37.52835],[139.08072,37.52525],[139.08422,37.52073],[139.09264,37.52146],[139.10369,37.5158],[139.11025,37.51555],[139.11227,37.51074],[139.11008,37.5036],[139.10524,37.50122],[139.10586,37.49651],[139.1027,37.49224],[139.10588,37.48554],[139.09549,37.47659],[139.08848,37.47513],[139.08757,37.46796],[139.09327,37.45006],[139.10871,37.43837],[139.12239,37.42645],[139.12407,37.41968],[139.12326,37.40987],[139.12758,37.40138],[139.13653,37.39768],[139.1426,37.39797],[139.14814,37.40416],[139.16384,37.41335],[139.17227,37.41036],[139.18729,37.41184],[139.19725,37.41077],[139.19869,37.41303],[139.20837,37.41707],[139.20673,37.42413],[139.20753,37.42891],[139.21362,37.43661],[139.21303,37.43865],[139.223,37.44862],[139.23747,37.44515],[139.25122,37.45244]]]},"properties":{"pref":"新潟県","city":"三条市","code5":"15204","code6":"152048"}},
{"type":"Feature","geometry":{"type":"Polygon","coordinates":[[[138.69887,37.4017],[138.69191,37.40431],[138.69247,37.40685],[138.68493,37.41518],[138.6813,37.41688],[138.6786,37.42294],[138.68112,37.42568],[138.68066,37.4334],[138.68764,37.43464],[138.69112,37.43819],[138.69517,37.44353],[138.69508,37.44862],[138.69862,37.45613],[138.70355,37.46076],[138.7045,37.4656],[138.71515,37.47659],[138.72177,37.48744],[138.71966,37.48977],[138.71025,37.4922],[138.70477,37.49641],[138.69766,37.49838],[138.69755,37.50311],[138.69279,37.5033],[138.68952,37.49802],[138.6749,37.49527],[138.67513,37.50129],[138.6724,37.50795],[138.67604,37.50934],[138.67978,37.51714],[138.67862,37.52199],[138.67404,37.52354],[138.66262,37.52212],[138.66022,37.52352],[138.65485,37.5199],[138.65487,37.51631],[138.64797,37.50907],[138.64742,37.50623],[138.64035,37.49854],[138.63458,37.49535],[138.63006,37.48702],[138.61731,37.48407],[138.6176,37.4732],[138.60869,37.45471],[138.59155,37.42882],[138.58784,37.42083],[138.58273,37.41525],[138.57802,37.40742],[138.55902,37.38339],[138.55159,37.37563],[138.54859,37.37508],[138.54392,37.36869],[138.52679,37.36566],[138.51518,37.3568],[138.50035,37.35193],[138.48867,37.35146],[138.48576,37.34621],[138.48099,37.34545],[138.47371,37.34006],[138.46794,37.33663],[138.4612,37.33648],[138.44629,37.32416],[138.43705,37.32222],[138.4181,37.30659],[138.42381,37.30236],[138.42002,37.30001],[138.42292,37.2944],[138.42794,37.30051],[138.43357,37.30156],[138.43715,37.29442],[138.4439,37.29672],[138.45213,37.29591],[138.45796,37.2927],[138.46891,37.2924],[138.47333,37.2898],[138.4901,37.28807],[138.49957,37.28001],[138.51214,37.27327],[138.52293,37.27647],[138.52975,37.27291],[138.53448,37.26685],[138.53485,37.26207],[138.51996,37.25252],[138.51505,37.24641],[138.5134,37.24128],[138.51552,37.23834],[138.50497,37.2289],[138.5049,37.22597],[138.51239,37.225],[138.52175,37.22129],[138.52661,37.21713],[138.52787,37.20532],[138.53152,37.20459],[138.53652,37.19842],[138.5486,37.2018],[138.55185,37.20395],[138.55611,37.19855],[138.55389,37.19028],[138.55983,37.18534],[138.56343,37.18519],[138.56889,37.17899],[138.56577,37.17036],[138.5744,37.16717],[138.58425,37.16665],[138.59395,37.17121],[138.59986,37.17152],[138.61226,37.16435],[138.61888,37.16423],[138.62129,37.16794],[138.61807,37.17115],[138.61877,37.17769],[138.62391,37.17949],[138.63985,37.17459],[138.64296,37.17232],[138.64956,37.17719],[138.65082,37.18886],[138.65513,37.19432],[138.66211,37.19731],[138.66422,37.20246],[138.67257,37.20753],[138.67266,37.21818],[138.67738,37.22215],[138.67136,37.22902],[138.6752,37.23323],[138.6747,37.23719],[138.66831,37.25079],[138.66089,37.26427],[138.66128,37.26848],[138.65388,37.27027],[138.65231,37.27594],[138.64733,37.27701],[138.644,37.2834],[138.64412,37.29443],[138.64781,37.29899],[138.65193,37.29883],[138.65834,37.31004],[138.6568,37.31466],[138.66357,37.31901],[138.66131,37.32314],[138.66745,37.32927],[138.67608,37.33],[138.67631,37.33464],[138.68108,37.33889],[138.68185,37.34382],[138.68635,37.34574],[138.68961,37.3505],[138.69923,37.35211],[138.70102,37.36002],[138.7048,37.3621],[138.7066,37.36749],[138.7144,37.37457],[138.71798,37.38678],[138.70585,37.39496],[138.70109,37.39555],[138.69887,37.4017]],[[138.63072,37.45386],[138.63478,37.4572],[138.64217,37.45364],[138.63638,37.44294],[138.63676,37.43879],[138.63185,37.43419],[138.64497,37.43102],[138.66148,37.41762],[138.6652,37.41714],[138.66948,37.41192],[138.66488,37.40621],[138.65839,37.40594],[138.64603,37.40779],[138.63243,37.41358],[138.63025,37.4093],[138.62463,37.40785],[138.62178,37.40241],[138.60952,37.403],[138.59334,37.39895],[138.59059,37.40196],[138.6002,37.41442],[138.60764,37.4302],[138.60601,37.43488],[138.59929,37.43663],[138.60305,37.44288],[138.60838,37.44057],[138.6101,37.44759],[138.61803,37.451],[138.63072,37.45386]]]},"properties":{"pref":"新潟県","city":"柏崎市","code5":"15205","code6":"152056"}},
{"type":"Feature","geometry":{"type":"Polygon","coordinates":[[[139.62932,37.89366],[139.62424,37.89111],[139.6065,37.88617],[139.60593,37.8804],[139.59996,37.87602],[139.59541,37.86973],[139.59093,37.87036],[139.58572,37.86359],[139.56743,37.8613],[139.55593,37.86345],[139.55889,37.87407],[139.55321,37.87816],[139.55259,37.88223],[139.54121,37.88481],[139.53959,37.88815],[139.53226,37.88798],[139.52922,37.88575],[139.52114,37.88788],[139.50697,37.88885],[139.50062,37.89821],[139.50004,37.90139],[139.50747,37.91263],[139.51183,37.92122],[139.50787,37.93062],[139.50358,37.93321],[139.5036,37.93834],[139.4968,37.94597],[139.49189,37.9494],[139.49222,37.95914],[139.48921,37.96266],[139.49051,37.97612],[139.49387,37.98404],[139.49243,37.98981],[139.49309,37.99806],[139.48598,37.99937],[139.48556,38.00296],[139.47688,38.00324],[139.47431,38.0096],[139.46003,38.00821],[139.45848,38.01144],[139.45034,38.01603],[139.43454,38.02237],[139.42634,38.01997],[139.41749,38.02027],[139.40763,38.02748],[139.39905,38.03074],[139.38933,38.02808],[139.38248,38.03313],[139.35998,38.03185],[139.35604,38.02015],[139.35078,38.01965],[139.33985,38.02683],[139.3224,38.03691],[139.31357,38.04947],[139.30321,38.04094],[139.28831,38.03057],[139.29006,38.02332],[139.2999,38.01366],[139.29227,38.00715],[139.28844,38.00823],[139.28485,38.00426],[139.27175,37.99613],[139.27099,37.99458],[139.28242,37.98972],[139.28601,37.98564],[139.29758,37.98716],[139.2993,37.98947],[139.31355,37.98573],[139.30546,37.97024],[139.29847,37.96735],[139.29741,37.9624],[139.29289,37.95559],[139.26858,37.95346],[139.25704,37.95543],[139.25017,37.95373],[139.24165,37.94959],[139.24238,37.94681],[139.24841,37.94649],[139.25929,37.93773],[139.24969,37.93331],[139.24765,37.91617],[139.25313,37.91829],[139.25528,37.91179],[139.26202,37.90818],[139.26535,37.9019],[139.26044,37.89218],[139.27057,37.88524],[139.27187,37.87838],[139.27737,37.87522],[139.27997,37.86924],[139.28641,37.86618],[139.29889,37.85743],[139.30727,37.86217],[139.3102,37.85838],[139.3182,37.85965],[139.32691,37.86414],[139.33081,37.86399],[139.33656,37.85898],[139.3448,37.8555],[139.35599,37.85351],[139.36018,37.84708],[139.36915,37.84584],[139.36487,37.83946],[139.35957,37.82473],[139.36164,37.8218],[139.3736,37.82498],[139.37723,37.8241],[139.3898,37.82663],[139.41073,37.81417],[139.42317,37.81671],[139.42892,37.81518],[139.43401,37.8097],[139.44318,37.80608],[139.45451,37.79691],[139.45483,37.79419],[139.46809,37.79083],[139.47489,37.79283],[139.48177,37.79697],[139.48962,37.79374],[139.507,37.79696],[139.52415,37.79315],[139.53316,37.79663],[139.53531,37.80413],[139.55012,37.80653],[139.55617,37.80395],[139.56303,37.80615],[139.56831,37.8113],[139.57289,37.80937],[139.5782,37.81251],[139.58492,37.81089],[139.59397,37.81528],[139.6077,37.81898],[139.61064,37.82473],[139.61569,37.8261],[139.61983,37.83031],[139.63004,37.83025],[139.63329,37.83273],[139.64283,37.83141],[139.6451,37.82941],[139.66031,37.83289],[139.67344,37.83813],[139.67816,37.84489],[139.68185,37.84674],[139.68083,37.84695],[139.679,37.85153],[139.65713,37.86354],[139.6567,37.87174],[139.65045,37.87588],[139.63846,37.88002],[139.63795,37.88378],[139.62932,37.89366]]]},"properties":{"pref":"新潟県","city":"新発田市","code5":"15206","code6":"152064"}},
{"type":"Feature","geometry":{"type":"Polygon","coordinates":[[[138.72514,37.22949],[138.72625,37.22173],[138.73217,37.21797],[138.75494,37.21735],[138.75944,37.21578],[138.77597,37.22015],[138.78143,37.22571],[138.78511,37.21965],[138.79417,37.21708],[138.80782,37.21759],[138.8195,37.21562],[138.82755,37.20847],[138.8336,37.20593],[138.83918,37.20761],[138.84182,37.21288],[138.8375,37.22346],[138.83139,37.22699],[138.83434,37.23349],[138.8318,37.23878],[138.83655,37.243],[138.84265,37.24188],[138.84904,37.2447],[138.85236,37.25011],[138.84722,37.25614],[138.84054,37.25906],[138.84135,37.26258],[138.82657,37.2751],[138.83023,37.28327],[138.83586,37.28268],[138.83748,37.28638],[138.83453,37.28967],[138.83886,37.29231],[138.84363,37.3009],[138.84925,37.29979],[138.84969,37.3084],[138.8557,37.30804],[138.87268,37.30253],[138.87637,37.29848],[138.88394,37.30026],[138.8887,37.29061],[138.89459,37.29208],[138.9013,37.28874],[138.90539,37.29326],[138.91105,37.29336],[138.91496,37.29875],[138.90593,37.30572],[138.9012,37.30238],[138.89535,37.30967],[138.8851,37.31187],[138.8835,37.31419],[138.87588,37.31527],[138.87263,37.32047],[138.86739,37.32117],[138.87603,37.33531],[138.87771,37.34034],[138.87529,37.34447],[138.87046,37.34684],[138.8694,37.35192],[138.86157,37.352],[138.86077,37.3479],[138.85344,37.34305],[138.83318,37.33828],[138.82734,37.33473],[138.82318,37.33908],[138.82348,37.34654],[138.82108,37.35743],[138.81115,37.36702],[138.80745,37.36901],[138.80155,37.36728],[138.79332,37.37356],[138.79521,37.3799],[138.78998,37.38226],[138.77439,37.38431],[138.76865,37.38157],[138.76396,37.37498],[138.75977,37.36237],[138.75752,37.3589],[138.76235,37.34843],[138.75947,37.34709],[138.75186,37.32634],[138.755,37.31661],[138.75183,37.31139],[138.75507,37.30442],[138.75025,37.29994],[138.75139,37.29505],[138.74727,37.29301],[138.74744,37.28711],[138.75194,37.28548],[138.75215,37.28155],[138.74363,37.27598],[138.74682,37.2707],[138.7477,37.26475],[138.73964,37.25721],[138.73237,37.24669],[138.72967,37.23372],[138.72514,37.22949]]]},"properties":{"pref":"新潟県","city":"小千谷市","code5":"15208","code6":"152081"}},
{"type":"Feature","geometry":{"type":"Polygon","coordinates":[[[138.99275,37.67977],[139.00685,37.6777],[139.01039,37.67365],[139.00508,37.66547],[139.00491,37.66124],[139.01209,37.6624],[139.01917,37.65569],[139.02354,37.65411],[139.02708,37.6476],[139.0348,37.64492],[139.03896,37.63796],[139.03896,37.63102],[139.03187,37.61956],[139.04059,37.61307],[139.05205,37.61624],[139.05663,37.61601],[139.05783,37.61165],[139.06697,37.61027],[139.06963,37.61269],[139.07586,37.61109],[139.07773,37.60715],[139.07601,37.60001],[139.0828,37.59731],[139.08506,37.59347],[139.09868,37.59453],[139.10793,37.59055],[139.1077,37.58217],[139.1123,37.58041],[139.11695,37.58244],[139.12219,37.58033],[139.13353,37.56663],[139.14034,37.56421],[139.14697,37.56421],[139.15222,37.56101],[139.16467,37.55872],[139.17456,37.55575],[139.19585,37.55475],[139.21025,37.56099],[139.2223,37.55903],[139.22659,37.5564],[139.23241,37.55887],[139.23373,37.56837],[139.23014,37.57433],[139.231,37.57773],[139.22491,37.58226],[139.21931,37.59434],[139.21862,37.60224],[139.21498,37.60322],[139.20403,37.61104],[139.19431,37.61419],[139.1895,37.60703],[139.18027,37.59958],[139.16979,37.59925],[139.16753,37.60414],[139.15437,37.60864],[139.15177,37.61329],[139.15344,37.61992],[139.15044,37.62588],[139.14023,37.62947],[139.13944,37.63747],[139.13389,37.64215],[139.13157,37.65079],[139.1341,37.65678],[139.12051,37.65679],[139.109,37.65187],[139.10448,37.65675],[139.10938,37.66076],[139.10411,37.66804],[139.09988,37.66965],[139.10101,37.6779],[139.0983,37.67962],[139.09272,37.68029],[139.06936,37.67418],[139.04621,37.6711],[139.04022,37.6846],[139.0318,37.69071],[139.03259,37.69347],[139.02499,37.69464],[139.02492,37.70583],[139.01692,37.71061],[139.01353,37.71],[139.00647,37.70391],[139.00094,37.70373],[138.99279,37.69567],[138.99011,37.68538],[138.99275,37.67977]]]},"properties":{"pref":"新潟県","city":"加茂市","code5":"15209","code6":"152099"}},
{"type":"Feature","geometry":{"type":"Polygon","coordinates":[[[138.6747,37.23719],[138.6752,37.23323],[138.67136,37.22902],[138.67738,37.22215],[138.67266,37.21818],[138.67257,37.20753],[138.66422,37.20246],[138.66211,37.19731],[138.65513,37.19432],[138.65082,37.18886],[138.64956,37.17719],[138.64296,37.17232],[138.63985,37.17459],[138.62391,37.17949],[138.61877,37.17769],[138.61807,37.17115],[138.62129,37.16794],[138.61888,37.16423],[138.61226,37.16435],[138.59986,37.17152],[138.59395,37.17121],[138.58425,37.16665],[138.5744,37.16717],[138.56577,37.17036],[138.56565,37.16339],[138.56196,37.15538],[138.54913,37.14692],[138.54213,37.13908],[138.52922,37.13782],[138.52531,37.12886],[138.52933,37.12378],[138.52712,37.11599],[138.52317,37.11148],[138.52591,37.10532],[138.53114,37.10299],[138.53423,37.09884],[138.53485,37.09156],[138.5445,37.08571],[138.53594,37.07167],[138.54089,37.0655],[138.53763,37.06387],[138.53673,37.05599],[138.54076,37.04772],[138.54035,37.04474],[138.52511,37.0343],[138.52467,37.03038],[138.52876,37.02477],[138.53651,37.02093],[138.54851,37.02119],[138.55254,37.02362],[138.56589,37.02126],[138.5681,37.02589],[138.57762,37.03114],[138.58749,37.0306],[138.59097,37.0345],[138.59878,37.03893],[138.6138,37.03973],[138.61797,37.04399],[138.62616,37.04155],[138.6331,37.04389],[138.63647,37.04944],[138.64286,37.04936],[138.64453,37.05657],[138.65702,37.06217],[138.66356,37.06208],[138.66736,37.06544],[138.67551,37.06275],[138.67914,37.05946],[138.6859,37.05721],[138.68274,37.05039],[138.69059,37.04067],[138.6919,37.0361],[138.68378,37.03016],[138.6846,37.01143],[138.69141,37.01474],[138.69915,37.00288],[138.69857,36.99009],[138.70364,36.9835],[138.70861,36.9806],[138.71009,36.97522],[138.70795,36.96873],[138.71607,36.96108],[138.71254,36.95431],[138.71129,36.94725],[138.70344,36.9461],[138.68948,36.93938],[138.68995,36.94987],[138.6822,36.94503],[138.67439,36.9422],[138.67115,36.93781],[138.66442,36.93495],[138.66169,36.92736],[138.66066,36.91727],[138.66188,36.91309],[138.65351,36.90689],[138.65991,36.89579],[138.66809,36.89212],[138.67466,36.88123],[138.6807,36.88031],[138.68965,36.87617],[138.69249,36.8765],[138.70043,36.86822],[138.70695,36.8695],[138.71378,36.87377],[138.71451,36.88167],[138.72116,36.89011],[138.72863,36.89642],[138.7326,36.90237],[138.7306,36.90917],[138.73817,36.91247],[138.74424,36.92204],[138.75258,36.9263],[138.75319,36.93089],[138.7628,36.93519],[138.77291,36.94641],[138.77421,36.95158],[138.77897,36.95778],[138.7686,36.96324],[138.76779,36.96882],[138.76491,36.97178],[138.76462,36.97747],[138.77108,36.9834],[138.77186,36.9934],[138.77371,37.00016],[138.77851,37.00548],[138.77541,37.00975],[138.78121,37.01282],[138.78153,37.01642],[138.78802,37.02984],[138.79193,37.03002],[138.80154,37.04436],[138.80339,37.05398],[138.8116,37.05917],[138.81122,37.06697],[138.81902,37.0723],[138.82227,37.07215],[138.83014,37.07656],[138.82866,37.08151],[138.82353,37.08691],[138.827,37.09131],[138.82962,37.10191],[138.83411,37.10322],[138.8396,37.11229],[138.84079,37.11851],[138.8578,37.12509],[138.85933,37.13116],[138.87005,37.13318],[138.87475,37.1404],[138.86815,37.14894],[138.86076,37.14856],[138.85863,37.15432],[138.85425,37.15837],[138.84565,37.1619],[138.8449,37.16548],[138.84106,37.16686],[138.83924,37.17256],[138.83487,37.17648],[138.83266,37.17742],[138.83664,37.18809],[138.83317,37.20151],[138.8336,37.20593],[138.82755,37.20847],[138.8195,37.21562],[138.80782,37.21759],[138.79417,37.21708],[138.78511,37.21965],[138.78143,37.22571],[138.77597,37.22015],[138.75944,37.21578],[138.75494,37.21735],[138.73217,37.21797],[138.72625,37.22173],[138.72514,37.22949],[138.71878,37.23492],[138.70301,37.23314],[138.68743,37.23557],[138.68262,37.23396],[138.6747,37.23719]]]},"properties":{"pref":"新潟県","city":"十日町市","code5":"15210","code6":"152102"}},
{"type":"Feature","geometry":{"type":"Polygon","coordinates":[[[139.00035,37.52576],[139.00074,37.533],[138.99115,37.53824],[138.98623,37.53684],[138.98257,37.54026],[138.98179,37.54705],[138.9861,37.55003],[138.98057,37.56029],[138.97625,37.5621],[138.96807,37.55488],[138.96562,37.54585],[138.95864,37.54125],[138.95446,37.54073],[138.95352,37.54751],[138.94663,37.5486],[138.94427,37.5558],[138.93482,37.55435],[138.92823,37.56358],[138.92276,37.56276],[138.91057,37.56542],[138.9031,37.57397],[138.89867,37.57427],[138.89108,37.58329],[138.87863,37.59353],[138.87355,37.59217],[138.87638,37.57571],[138.87136,37.56808],[138.8758,37.56071],[138.87504,37.55625],[138.87861,37.55133],[138.88502,37.54689],[138.87904,37.54058],[138.88287,37.53549],[138.87935,37.53117],[138.87904,37.52547],[138.88586,37.51641],[138.89363,37.51156],[138.88715,37.50907],[138.8887,37.50486],[138.90137,37.50339],[138.90405,37.50876],[138.90992,37.50084],[138.90285,37.4983],[138.90118,37.49206],[138.91642,37.48824],[138.93303,37.48855],[138.9377,37.48362],[138.94086,37.47027],[138.9488,37.46834],[138.96521,37.47403],[138.96634,37.47703],[138.96147,37.48305],[138.95614,37.48272],[138.95635,37.48941],[138.96648,37.49435],[138.97176,37.49554],[138.97743,37.49936],[138.98088,37.49641],[138.98577,37.49798],[138.98739,37.50181],[138.98869,37.51316],[138.9962,37.5161],[139.00035,37.52576]]]},"properties":{"pref":"新潟県","city":"見附市","code5":"15211","code6":"152111"}},
{"type":"Feature","geometry":{"type":"Polygon","coordinates":[[[139.54781,38.55295],[139.55004,38.55122],[139.54991,38.54328],[139.53779,38.52426],[139.52716,38.51089],[139.52183,38.50568],[139.51998,38.49864],[139.51443,38.49064],[139.50796,38.48448],[139.50717,38.47716],[139.50134,38.46912],[139.49495,38.45437],[139.48435,38.44495],[139.48188,38.43993],[139.48257,38.43362],[139.47578,38.42736],[139.46767,38.41727],[139.46722,38.41059],[139.46251,38.40592],[139.46251,38.40112],[139.45729,38.39754],[139.45504,38.38982],[139.45674,38.38424],[139.4602,38.38164],[139.45459,38.36783],[139.45092,38.36148],[139.45108,38.35126],[139.45163,38.34931],[139.45242,38.3452],[139.45129,38.33256],[139.4512,38.32494],[139.44887,38.31932],[139.44888,38.31282],[139.45119,38.30928],[139.44988,38.3015],[139.44662,38.29441],[139.44885,38.29278],[139.44821,38.28235],[139.44874,38.27316],[139.44556,38.26776],[139.44669,38.26201],[139.44133,38.24703],[139.45015,38.24175],[139.44933,38.23408],[139.44328,38.22372],[139.43677,38.21549],[139.42804,38.19737],[139.43001,38.18129],[139.41421,38.15966],[139.40903,38.14976],[139.41201,38.14421],[139.40801,38.13935],[139.41085,38.13548],[139.40798,38.13014],[139.41023,38.12565],[139.40843,38.12052],[139.41794,38.11287],[139.41418,38.10894],[139.43013,38.09744],[139.44242,38.10253],[139.44396,38.09512],[139.45251,38.0897],[139.46988,38.08138],[139.48122,38.07823],[139.48653,38.07874],[139.48992,38.08473],[139.4948,38.09044],[139.5009,38.09238],[139.5059,38.09976],[139.51148,38.09992],[139.51231,38.10862],[139.50175,38.11608],[139.50384,38.12355],[139.51409,38.12701],[139.50362,38.13477],[139.50877,38.13898],[139.51088,38.14346],[139.52053,38.1422],[139.52899,38.14926],[139.53403,38.14827],[139.53797,38.15112],[139.54563,38.14791],[139.55649,38.14852],[139.56104,38.15691],[139.56577,38.15917],[139.57703,38.1608],[139.5795,38.16492],[139.58653,38.16668],[139.58747,38.16973],[139.60095,38.16647],[139.61117,38.16737],[139.61537,38.164],[139.6375,38.16566],[139.64488,38.16467],[139.65457,38.16834],[139.66305,38.1612],[139.66948,38.1579],[139.67925,38.16059],[139.68473,38.15942],[139.68553,38.16649],[139.68246,38.16961],[139.68751,38.17806],[139.69637,38.18659],[139.69837,38.19506],[139.70261,38.19948],[139.69864,38.20295],[139.70888,38.20431],[139.71322,38.20664],[139.73138,38.20083],[139.73865,38.2021],[139.7469,38.19637],[139.75824,38.19304],[139.76374,38.19896],[139.77008,38.19723],[139.77606,38.19815],[139.78117,38.19424],[139.78648,38.19417],[139.7905,38.198],[139.80019,38.20238],[139.8023,38.20657],[139.80689,38.20705],[139.81095,38.21152],[139.81928,38.21279],[139.83862,38.22355],[139.84698,38.22456],[139.86019,38.23107],[139.86385,38.23489],[139.86392,38.23886],[139.86858,38.24799],[139.87569,38.25213],[139.8766,38.26179],[139.88416,38.26502],[139.88869,38.26942],[139.8999,38.27581],[139.89802,38.27804],[139.89982,38.28744],[139.89889,38.29315],[139.88852,38.30096],[139.87933,38.30343],[139.87481,38.31677],[139.86688,38.32163],[139.86532,38.32577],[139.85689,38.33228],[139.84773,38.33658],[139.84838,38.3428],[139.83872,38.34279],[139.82724,38.345],[139.82545,38.35034],[139.81997,38.3519],[139.81649,38.35601],[139.80357,38.35507],[139.79816,38.35157],[139.78964,38.34871],[139.78394,38.35297],[139.77502,38.35397],[139.77072,38.35291],[139.76163,38.36106],[139.75228,38.35897],[139.73288,38.37142],[139.72894,38.37684],[139.73112,38.38145],[139.72624,38.38735],[139.72581,38.39164],[139.72206,38.39402],[139.71233,38.38694],[139.7048,38.39356],[139.70339,38.40022],[139.70589,38.40758],[139.71204,38.4127],[139.71704,38.42099],[139.71856,38.42922],[139.71651,38.43213],[139.72013,38.45069],[139.71515,38.45944],[139.71597,38.46721],[139.71204,38.47173],[139.71227,38.47921],[139.71605,38.47903],[139.72576,38.48656],[139.72083,38.49216],[139.72072,38.49635],[139.70162,38.5016],[139.69291,38.50683],[139.68288,38.50496],[139.66711,38.5065],[139.66203,38.50846],[139.65306,38.50697],[139.64736,38.51059],[139.64052,38.51083],[139.63139,38.52178],[139.62168,38.5254],[139.61389,38.52625],[139.59945,38.52222],[139.59547,38.52682],[139.58283,38.53253],[139.57714,38.53962],[139.57176,38.53851],[139.56509,38.54256],[139.5566,38.54524],[139.55134,38.55197],[139.54781,38.55295]]]},"properties":{"pref":"新潟県","city":"村上市","code5":"15212","code6":"152129"}},
{"type":"Feature","geometry":{"type":"Polygon","coordinates":[[[138.96692,37.68074],[138.9743,37.68188],[138.97261,37.68853],[138.96483,37.68978],[138.9616,37.69265],[138.96529,37.69953],[138.96601,37.70533],[138.96186,37.70592],[138.95584,37.70315],[138.949,37.70264],[138.94589,37.70461],[138.9464,37.71581],[138.94046,37.72013],[138.93069,37.7212],[138.93285,37.73044],[138.93026,37.73212],[138.92297,37.7298],[138.91498,37.7303],[138.91197,37.71854],[138.90018,37.71431],[138.89278,37.71423],[138.88631,37.71114],[138.88434,37.71358],[138.87195,37.71139],[138.86524,37.70673],[138.86519,37.70136],[138.87207,37.69628],[138.86635,37.6919],[138.87171,37.68545],[138.86832,37.67089],[138.85514,37.67317],[138.84757,37.65804],[138.84385,37.65598],[138.83888,37.65756],[138.84335,37.66449],[138.85025,37.66966],[138.84752,37.67423],[138.84271,37.66887],[138.82557,37.67032],[138.81657,37.6733],[138.809,37.67393],[138.80561,37.67798],[138.79362,37.6789],[138.78816,37.67172],[138.78726,37.65531],[138.79823,37.64563],[138.8024,37.6405],[138.8081,37.63669],[138.81286,37.63878],[138.81352,37.64327],[138.82292,37.64526],[138.82352,37.63574],[138.83751,37.61819],[138.83192,37.61644],[138.82564,37.60868],[138.82481,37.60423],[138.83115,37.60386],[138.83109,37.59367],[138.84082,37.60522],[138.8516,37.61138],[138.88098,37.62011],[138.88551,37.62307],[138.89858,37.62266],[138.91066,37.62679],[138.91955,37.63092],[138.93271,37.63101],[138.93508,37.63559],[138.92724,37.64066],[138.92675,37.64788],[138.92239,37.65224],[138.92637,37.65535],[138.93639,37.64819],[138.94561,37.65239],[138.95384,37.65816],[138.95684,37.66351],[138.95603,37.67282],[138.9613,37.67841],[138.96692,37.68074]]]},"properties":{"pref":"新潟県","city":"燕市","code5":"15213","code6":"152137"}},
{"type":"Feature","geometry":{"type":"Polygon","coordinates":[[[138.10234,36.97133],[138.0938,36.97612],[138.09614,36.98388],[138.09433,36.99537],[138.08737,37.01451],[138.08961,37.02336],[138.08817,37.0303],[138.09012,37.03385],[138.09004,37.04264],[138.09294,37.04717],[138.09565,37.06194],[138.08536,37.06919],[138.08711,37.07935],[138.08233,37.08425],[138.0807,37.09063],[138.07444,37.0913],[138.07554,37.10269],[138.08236,37.10854],[138.0809,37.11209],[138.0844,37.12098],[138.07913,37.12894],[138.07784,37.13465],[138.07463,37.1375],[138.07305,37.14487],[138.06777,37.14817],[138.05996,37.14336],[138.05794,37.13787],[138.05297,37.13451],[138.04872,37.12791],[138.03826,37.12203],[138.03264,37.12063],[138.0275,37.11667],[138.01718,37.1141],[138.01362,37.11572],[138.00508,37.11523],[137.99531,37.11012],[137.98863,37.10433],[137.97596,37.09885],[137.97341,37.0946],[137.96144,37.08852],[137.94925,37.08588],[137.94286,37.08087],[137.94035,37.07537],[137.92892,37.0705],[137.91248,37.06091],[137.88501,37.05225],[137.84607,37.04447],[137.82925,37.03968],[137.81391,37.03007],[137.80218,37.02753],[137.7903,37.02343],[137.7673,37.01755],[137.74165,37.0083],[137.72877,37.00419],[137.72655,37.00228],[137.71116,36.99862],[137.70043,36.99445],[137.68005,36.99061],[137.66805,36.98588],[137.65839,36.98488],[137.65116,36.98064],[137.63498,36.9798],[137.63767,36.97655],[137.65154,36.96902],[137.65774,36.95983],[137.66621,36.95369],[137.67984,36.94836],[137.68746,36.9432],[137.69864,36.94227],[137.71116,36.94423],[137.71337,36.93505],[137.72046,36.92669],[137.71793,36.92264],[137.71784,36.9078],[137.71257,36.90408],[137.71418,36.89992],[137.71298,36.89376],[137.72491,36.8779],[137.73207,36.87369],[137.73516,36.85519],[137.73287,36.84504],[137.73265,36.83614],[137.73444,36.8314],[137.73007,36.82676],[137.73199,36.82364],[137.74487,36.81522],[137.74925,36.80969],[137.75097,36.80056],[137.75429,36.79659],[137.75086,36.79131],[137.74967,36.77971],[137.75784,36.7745],[137.76339,36.76823],[137.76244,36.76616],[137.76485,36.76769],[137.76742,36.77052],[137.77573,36.77364],[137.78194,36.77298],[137.7915,36.7792],[137.79328,36.78666],[137.79943,36.78839],[137.81998,36.79822],[137.82278,36.80598],[137.83098,36.80801],[137.83257,36.81151],[137.83105,36.81781],[137.84018,36.82769],[137.84374,36.82968],[137.84522,36.83462],[137.85137,36.83784],[137.85686,36.84383],[137.85592,36.8495],[137.86818,36.86273],[137.8734,36.86358],[137.87785,36.87319],[137.8683,36.87779],[137.86626,36.88722],[137.86167,36.89078],[137.86502,36.89624],[137.8686,36.89742],[137.87143,36.9027],[137.86262,36.90695],[137.86347,36.91289],[137.86814,36.9159],[137.87465,36.91585],[137.87861,36.91271],[137.89326,36.90996],[137.90072,36.91159],[137.90276,36.91427],[137.91098,36.91786],[137.91974,36.91987],[137.92512,36.91859],[137.93212,36.91427],[137.94737,36.91303],[137.95321,36.90501],[137.96235,36.90211],[137.96597,36.90457],[137.96958,36.91081],[137.97645,36.90829],[137.99157,36.91069],[138.00286,36.90501],[138.01374,36.90402],[138.01537,36.91058],[138.02419,36.91149],[138.02855,36.91844],[138.03313,36.92115],[138.04193,36.91839],[138.05374,36.92151],[138.06108,36.92004],[138.06743,36.92225],[138.07327,36.93044],[138.07947,36.94222],[138.0882,36.94378],[138.10041,36.94782],[138.10767,36.94672],[138.1126,36.95611],[138.10258,36.96699],[138.10234,36.97133]]]},"properties":{"pref":"新潟県","city":"糸魚川市","code5":"15216","code6":"152161"}},
{"type":"Feature","geometry":{"type":"Polygon","coordinates":[[[138.01374,36.90402],[138.0157,36.9014],[138.01558,36.89321],[138.02174,36.89052],[138.03106,36.89136],[138.03285,36.88619],[138.03162,36.87814],[138.02641,36.87353],[138.02096,36.86349],[138.01659,36.8604],[138.01583,36.85239],[138.01888,36.85044],[138.02007,36.84222],[138.0142,36.83871],[138.00346,36.82641],[138.01104,36.82343],[138.01704,36.81883],[138.0219,36.81945],[138.02888,36.81711],[138.0338,36.80883],[138.03876,36.80771],[138.04496,36.80978],[138.05185,36.80746],[138.05222,36.79996],[138.06482,36.80443],[138.06817,36.80384],[138.07523,36.8105],[138.07302,36.81685],[138.08145,36.82992],[138.08916,36.83573],[138.09929,36.84351],[138.10635,36.84378],[138.11505,36.85039],[138.12533,36.84806],[138.13184,36.85067],[138.14151,36.84717],[138.14774,36.84922],[138.15027,36.84647],[138.16282,36.8443],[138.16902,36.84507],[138.17665,36.84842],[138.17783,36.85181],[138.19559,36.85367],[138.20574,36.85912],[138.20641,36.86299],[138.21303,36.8683],[138.2169,36.86652],[138.22937,36.86418],[138.24237,36.86403],[138.24931,36.86533],[138.25488,36.86994],[138.25802,36.86398],[138.26836,36.86046],[138.27172,36.85505],[138.27053,36.84424],[138.2749,36.84085],[138.28761,36.84571],[138.28875,36.85102],[138.29561,36.85509],[138.29624,36.85825],[138.28857,36.86844],[138.29333,36.87331],[138.293,36.87812],[138.29937,36.88672],[138.29528,36.88849],[138.29456,36.89304],[138.29029,36.89681],[138.29404,36.90093],[138.29633,36.91082],[138.30903,36.92032],[138.31757,36.92519],[138.32932,36.92688],[138.3376,36.92489],[138.3432,36.9208],[138.34897,36.92901],[138.35771,36.93385],[138.35971,36.93998],[138.36452,36.94428],[138.36378,36.95337],[138.3682,36.95728],[138.36952,36.96401],[138.37605,36.9723],[138.38227,36.97642],[138.3787,36.98044],[138.37148,36.97707],[138.36242,36.97566],[138.35904,36.9777],[138.35399,36.97568],[138.34788,36.97654],[138.34604,36.98284],[138.34287,36.98578],[138.33471,36.98747],[138.32971,36.99221],[138.31602,36.99415],[138.31078,36.99831],[138.30686,36.99644],[138.29666,36.99743],[138.29231,37.00175],[138.29078,37.00711],[138.2869,37.01201],[138.28877,37.01784],[138.28027,37.03565],[138.2829,37.04135],[138.27587,37.04687],[138.27007,37.04518],[138.2674,37.05058],[138.27384,37.05529],[138.27953,37.06342],[138.26982,37.06587],[138.26428,37.06543],[138.26347,37.05749],[138.25306,37.06127],[138.25267,37.06534],[138.24448,37.06556],[138.23545,37.06789],[138.22581,37.06518],[138.21735,37.06506],[138.20813,37.07076],[138.20666,37.06807],[138.19544,37.06619],[138.19078,37.0624],[138.17801,37.06133],[138.17586,37.05897],[138.18128,37.05152],[138.18318,37.04485],[138.17696,37.04325],[138.16265,37.0451],[138.15854,37.04344],[138.15901,37.03619],[138.14733,37.03136],[138.13791,37.03097],[138.13517,37.02194],[138.139,37.01681],[138.1408,37.01088],[138.1377,37.00938],[138.14021,36.99702],[138.13572,36.99099],[138.13167,36.98943],[138.12951,36.97657],[138.13371,36.96889],[138.13913,36.97082],[138.15278,36.96469],[138.16148,36.97088],[138.16727,36.97208],[138.17423,36.97086],[138.18454,36.98488],[138.2013,36.99173],[138.2062,36.99533],[138.21846,37.00054],[138.22255,36.99467],[138.22696,36.9956],[138.23792,37.00812],[138.2485,37.01127],[138.24841,37.00048],[138.24535,36.99755],[138.24344,36.99024],[138.24457,36.98516],[138.24915,36.98204],[138.2502,36.97825],[138.24514,36.97315],[138.24232,36.96726],[138.23985,36.95667],[138.23636,36.95275],[138.23053,36.9507],[138.23103,36.94469],[138.22489,36.94458],[138.22134,36.94089],[138.21194,36.94265],[138.21302,36.9469],[138.20591,36.95232],[138.19567,36.95018],[138.1927,36.94773],[138.17701,36.94586],[138.16704,36.94758],[138.16132,36.94482],[138.15258,36.94429],[138.15473,36.95089],[138.1492,36.94978],[138.14213,36.9554],[138.12909,36.95959],[138.12378,36.96592],[138.10727,36.97613],[138.10234,36.97133],[138.10258,36.96699],[138.1126,36.95611],[138.10767,36.94672],[138.10041,36.94782],[138.0882,36.94378],[138.07947,36.94222],[138.07327,36.93044],[138.06743,36.92225],[138.06108,36.92004],[138.05374,36.92151],[138.04193,36.91839],[138.03313,36.92115],[138.02855,36.91844],[138.02419,36.91149],[138.01537,36.91058],[138.01374,36.90402]]]},"properties":{"pref":"新潟県","city":"妙高市","code5":"15217","code6":"152170"}},
{"type":"Feature","geometry":{"type":"Polygon","coordinates":[[[139.10792,37.7258],[139.10008,37.72065],[139.09804,37.71329],[139.0933,37.7095],[139.09878,37.70631],[139.10033,37.70236],[139.10501,37.70035],[139.10551,37.69467],[139.1,37.68892],[139.10199,37.68443],[139.0983,37.67962],[139.10101,37.6779],[139.09988,37.66965],[139.10411,37.66804],[139.10938,37.66076],[139.10448,37.65675],[139.109,37.65187],[139.12051,37.65679],[139.1341,37.65678],[139.13157,37.65079],[139.13389,37.64215],[139.13944,37.63747],[139.14023,37.62947],[139.15044,37.62588],[139.15344,37.61992],[139.15177,37.61329],[139.15437,37.60864],[139.16753,37.60414],[139.16979,37.59925],[139.18027,37.59958],[139.1895,37.60703],[139.19431,37.61419],[139.20403,37.61104],[139.21498,37.60322],[139.21862,37.60224],[139.21931,37.59434],[139.22491,37.58226],[139.231,37.57773],[139.23014,37.57433],[139.23373,37.56837],[139.23241,37.55887],[139.23398,37.55496],[139.24228,37.54946],[139.24763,37.53835],[139.25872,37.53574],[139.25564,37.52644],[139.26012,37.51927],[139.25978,37.51207],[139.26606,37.51231],[139.27404,37.51581],[139.27609,37.5097],[139.28228,37.5121],[139.29072,37.51797],[139.30171,37.52993],[139.30821,37.53128],[139.32209,37.54335],[139.32061,37.55058],[139.31351,37.55323],[139.30929,37.559],[139.30869,37.56492],[139.31601,37.57654],[139.32553,37.58891],[139.31926,37.59382],[139.32259,37.59619],[139.33887,37.59606],[139.34851,37.60075],[139.3479,37.60673],[139.34324,37.61111],[139.34543,37.61681],[139.34478,37.62375],[139.34807,37.62968],[139.33505,37.63732],[139.32861,37.6391],[139.32191,37.6473],[139.32632,37.65056],[139.32317,37.65516],[139.32403,37.66216],[139.31392,37.66702],[139.3078,37.67498],[139.3101,37.68739],[139.30185,37.69484],[139.29278,37.69419],[139.28695,37.69542],[139.28044,37.70206],[139.28516,37.70722],[139.28413,37.71591],[139.28568,37.72076],[139.29108,37.72292],[139.2965,37.729],[139.29292,37.73819],[139.28719,37.73759],[139.28473,37.73498],[139.27202,37.7386],[139.26178,37.74299],[139.24675,37.74539],[139.23774,37.74577],[139.23145,37.74167],[139.22341,37.74472],[139.22563,37.75131],[139.22084,37.75786],[139.21145,37.7641],[139.18784,37.77391],[139.18044,37.77747],[139.16896,37.77461],[139.17082,37.76966],[139.1592,37.7653],[139.15498,37.76768],[139.14742,37.76316],[139.14751,37.75583],[139.14514,37.75199],[139.1405,37.7533],[139.13335,37.74781],[139.13126,37.73799],[139.1209,37.73293],[139.11128,37.73435],[139.10792,37.7258]]]},"properties":{"pref":"新潟県","city":"五泉市","code5":"15218","code6":"152188"}},
{"type":"Feature","geometry":{"type":"Polygon","coordinates":[[[138.4181,37.30659],[138.39341,37.28593],[138.38192,37.27572],[138.37677,37.27231],[138.35534,37.25471],[138.31563,37.2247],[138.2854,37.20407],[138.27759,37.21179],[138.27169,37.20807],[138.27008,37.20418],[138.2758,37.19833],[138.26741,37.19494],[138.26493,37.19778],[138.25489,37.1918],[138.24309,37.18086],[138.23332,37.17517],[138.21626,37.16927],[138.20723,37.16805],[138.19672,37.17013],[138.17722,37.16415],[138.16623,37.16199],[138.15163,37.16113],[138.1478,37.16323],[138.13169,37.16418],[138.1228,37.17026],[138.10637,37.17253],[138.10179,37.17406],[138.09151,37.17017],[138.08294,37.15801],[138.06777,37.14817],[138.07305,37.14487],[138.07463,37.1375],[138.07784,37.13465],[138.07913,37.12894],[138.0844,37.12098],[138.0809,37.11209],[138.08236,37.10854],[138.07554,37.10269],[138.07444,37.0913],[138.0807,37.09063],[138.08233,37.08425],[138.08711,37.07935],[138.08536,37.06919],[138.09565,37.06194],[138.09294,37.04717],[138.09004,37.04264],[138.09012,37.03385],[138.08817,37.0303],[138.08961,37.02336],[138.08737,37.01451],[138.09433,36.99537],[138.09614,36.98388],[138.0938,36.97612],[138.10234,36.97133],[138.10727,36.97613],[138.12378,36.96592],[138.12909,36.95959],[138.14213,36.9554],[138.1492,36.94978],[138.15473,36.95089],[138.15258,36.94429],[138.16132,36.94482],[138.16704,36.94758],[138.17701,36.94586],[138.1927,36.94773],[138.19567,36.95018],[138.20591,36.95232],[138.21302,36.9469],[138.21194,36.94265],[138.22134,36.94089],[138.22489,36.94458],[138.23103,36.94469],[138.23053,36.9507],[138.23636,36.95275],[138.23985,36.95667],[138.24232,36.96726],[138.24514,36.97315],[138.2502,36.97825],[138.24915,36.98204],[138.24457,36.98516],[138.24344,36.99024],[138.24535,36.99755],[138.24841,37.00048],[138.2485,37.01127],[138.23792,37.00812],[138.22696,36.9956],[138.22255,36.99467],[138.21846,37.00054],[138.2062,36.99533],[138.2013,36.99173],[138.18454,36.98488],[138.17423,36.97086],[138.16727,36.97208],[138.16148,36.97088],[138.15278,36.96469],[138.13913,36.97082],[138.13371,36.96889],[138.12951,36.97657],[138.13167,36.98943],[138.13572,36.99099],[138.14021,36.99702],[138.1377,37.00938],[138.1408,37.01088],[138.139,37.01681],[138.13517,37.02194],[138.13791,37.03097],[138.14733,37.03136],[138.15901,37.03619],[138.15854,37.04344],[138.16265,37.0451],[138.17696,37.04325],[138.18318,37.04485],[138.18128,37.05152],[138.17586,37.05897],[138.17801,37.06133],[138.19078,37.0624],[138.19544,37.06619],[138.20666,37.06807],[138.20813,37.07076],[138.21735,37.06506],[138.22581,37.06518],[138.23545,37.06789],[138.24448,37.06556],[138.25267,37.06534],[138.25306,37.06127],[138.26347,37.05749],[138.26428,37.06543],[138.26982,37.06587],[138.27953,37.06342],[138.27384,37.05529],[138.2674,37.05058],[138.27007,37.04518],[138.27587,37.04687],[138.2829,37.04135],[138.28027,37.03565],[138.28877,37.01784],[138.2869,37.01201],[138.29078,37.00711],[138.29231,37.00175],[138.29666,36.99743],[138.30686,36.99644],[138.31078,36.99831],[138.31602,36.99415],[138.32971,36.99221],[138.33471,36.98747],[138.34287,36.98578],[138.34604,36.98284],[138.34788,36.97654],[138.35399,36.97568],[138.35904,36.9777],[138.36242,36.97566],[138.37148,36.97707],[138.3787,36.98044],[138.39066,36.98845],[138.39383,36.99512],[138.40043,36.99786],[138.41104,36.99866],[138.4119,37.00203],[138.42256,37.0053],[138.43138,37.00608],[138.44265,37.01302],[138.45094,37.015],[138.45513,37.01961],[138.46801,37.01783],[138.48141,37.02155],[138.49172,37.02046],[138.49744,37.02645],[138.50143,37.02507],[138.51279,37.0278],[138.51986,37.02783],[138.52467,37.03038],[138.52511,37.0343],[138.54035,37.04474],[138.54076,37.04772],[138.53673,37.05599],[138.53763,37.06387],[138.54089,37.0655],[138.53594,37.07167],[138.5445,37.08571],[138.53485,37.09156],[138.53423,37.09884],[138.53114,37.10299],[138.52591,37.10532],[138.52317,37.11148],[138.52712,37.11599],[138.52933,37.12378],[138.52531,37.12886],[138.52922,37.13782],[138.54213,37.13908],[138.54913,37.14692],[138.56196,37.15538],[138.56565,37.16339],[138.56577,37.17036],[138.56889,37.17899],[138.56343,37.18519],[138.55983,37.18534],[138.55389,37.19028],[138.55611,37.19855],[138.55185,37.20395],[138.5486,37.2018],[138.53652,37.19842],[138.53152,37.20459],[138.52787,37.20532],[138.52661,37.21713],[138.52175,37.22129],[138.51239,37.225],[138.5049,37.22597],[138.50497,37.2289],[138.51552,37.23834],[138.5134,37.24128],[138.51505,37.24641],[138.51996,37.25252],[138.53485,37.26207],[138.53448,37.26685],[138.52975,37.27291],[138.52293,37.27647],[138.51214,37.27327],[138.49957,37.28001],[138.4901,37.28807],[138.47333,37.2898],[138.46891,37.2924],[138.45796,37.2927],[138.45213,37.29591],[138.4439,37.29672],[138.43715,37.29442],[138.43357,37.30156],[138.42794,37.30051],[138.42292,37.2944],[138.42002,37.30001],[138.42381,37.30236],[138.4181,37.30659]]]},"properties":{"pref":"新潟県","city":"上越市","code5":"15222","code6":"152226"}},
{"type":"Feature","geometry":{"type":"Polygon","coordinates":[[[139.26044,37.89218],[139.26023,37.88362],[139.25545,37.88315],[139.2491,37.88978],[139.24522,37.87571],[139.23618,37.87497],[139.23599,37.86984],[139.23306,37.86453],[139.2268,37.86362],[139.21214,37.86463],[139.20548,37.86691],[139.1982,37.8661],[139.19205,37.86205],[139.17818,37.86488],[139.15905,37.8505],[139.15795,37.84567],[139.15271,37.84215],[139.1584,37.83617],[139.17393,37.83207],[139.17712,37.8295],[139.17492,37.82166],[139.16945,37.82086],[139.16328,37.82326],[139.15287,37.81817],[139.15091,37.81507],[139.15538,37.80746],[139.16392,37.8074],[139.17841,37.80481],[139.18,37.7995],[139.17493,37.79339],[139.17375,37.78709],[139.177,37.77981],[139.18337,37.78073],[139.18858,37.77881],[139.18784,37.77391],[139.21145,37.7641],[139.22084,37.75786],[139.22563,37.75131],[139.22341,37.74472],[139.23145,37.74167],[139.23774,37.74577],[139.24675,37.74539],[139.26178,37.74299],[139.27202,37.7386],[139.28473,37.73498],[139.28719,37.73759],[139.29212,37.7438],[139.28871,37.75335],[139.28937,37.75679],[139.29881,37.76176],[139.31459,37.76578],[139.32439,37.7704],[139.32734,37.77897],[139.33427,37.7818],[139.33351,37.78603],[139.34052,37.79244],[139.3434,37.79931],[139.3484,37.80101],[139.3556,37.80927],[139.36412,37.81491],[139.36164,37.8218],[139.35957,37.82473],[139.36487,37.83946],[139.36915,37.84584],[139.36018,37.84708],[139.35599,37.85351],[139.3448,37.8555],[139.33656,37.85898],[139.33081,37.86399],[139.32691,37.86414],[139.3182,37.85965],[139.3102,37.85838],[139.30727,37.86217],[139.29889,37.85743],[139.28641,37.86618],[139.27997,37.86924],[139.27737,37.87522],[139.27187,37.87838],[139.27057,37.88524],[139.26044,37.89218]]]},"properties":{"pref":"新潟県","city":"阿賀野市","code5":"15223","code6":"152234"}},
{"type":"Feature","geometry":{"type":"Polygon","coordinates":[[[138.24944,38.09204],[138.24408,38.08895],[138.23967,38.08069],[138.24696,38.07939],[138.24786,38.07603],[138.24069,38.06687],[138.23319,38.06219],[138.23617,38.05521],[138.23485,38.05145],[138.23796,38.04692],[138.23505,38.03886],[138.23892,38.03147],[138.2362,38.02539],[138.22801,38.02305],[138.2214,38.01447],[138.22732,38.01023],[138.23313,38.00893],[138.23535,37.9954],[138.23342,37.99114],[138.23463,37.98387],[138.22671,37.98278],[138.22718,37.97972],[138.24826,37.96829],[138.25311,37.96425],[138.2578,37.96979],[138.25734,37.973],[138.26198,37.98465],[138.27281,37.99242],[138.2742,38.0022],[138.28631,38.0066],[138.29873,38.00705],[138.3065,38.00532],[138.31863,37.99917],[138.32822,37.99144],[138.34131,37.97784],[138.34369,37.96545],[138.34076,37.95988],[138.3326,37.95614],[138.32932,37.94979],[138.32286,37.94641],[138.30543,37.9397],[138.30079,37.93147],[138.29259,37.92398],[138.28518,37.92023],[138.2848,37.91541],[138.27846,37.90747],[138.28214,37.90194],[138.28944,37.8969],[138.28986,37.88546],[138.28346,37.87731],[138.28544,37.87458],[138.28017,37.86286],[138.26921,37.84784],[138.25962,37.84163],[138.24967,37.84329],[138.24535,37.83812],[138.23201,37.83876],[138.22511,37.83548],[138.21673,37.83724],[138.21104,37.82955],[138.20749,37.82837],[138.20449,37.82024],[138.21268,37.81414],[138.21513,37.81052],[138.22126,37.80973],[138.23055,37.80625],[138.2363,37.80766],[138.24967,37.80309],[138.26408,37.80614],[138.27075,37.81109],[138.28032,37.81132],[138.28154,37.81612],[138.29181,37.82206],[138.29776,37.82095],[138.3044,37.82662],[138.32083,37.8268],[138.32473,37.82445],[138.33934,37.82666],[138.34444,37.82499],[138.34957,37.829],[138.35956,37.83048],[138.38149,37.8433],[138.38585,37.84874],[138.39386,37.85414],[138.40032,37.86068],[138.41066,37.86322],[138.41096,37.86899],[138.41685,37.8715],[138.42725,37.87977],[138.44169,37.88328],[138.44866,37.89034],[138.45711,37.89396],[138.46163,37.8935],[138.47066,37.89703],[138.473,37.90282],[138.48994,37.91963],[138.49915,37.91975],[138.49903,37.92472],[138.50372,37.9369],[138.50286,37.94391],[138.51067,37.9542],[138.51215,37.96027],[138.52067,37.97347],[138.52087,37.9777],[138.52685,37.98276],[138.53103,37.99151],[138.53813,37.99857],[138.53919,38.00324],[138.54641,38.00803],[138.55133,38.01945],[138.55069,38.02417],[138.55354,38.03119],[138.56358,38.04218],[138.56304,38.04593],[138.56733,38.05588],[138.57257,38.0623],[138.57267,38.0675],[138.56954,38.07434],[138.5726,38.07865],[138.5687,38.08396],[138.56092,38.0863],[138.55316,38.08121],[138.54501,38.08115],[138.53574,38.0786],[138.52115,38.07137],[138.50934,38.07032],[138.50579,38.07232],[138.49202,38.06987],[138.48369,38.06296],[138.48018,38.06233],[138.46711,38.06569],[138.45111,38.0719],[138.44422,38.07776],[138.43653,38.08212],[138.43435,38.09386],[138.43778,38.10175],[138.43776,38.10876],[138.43516,38.11485],[138.44151,38.1278],[138.44697,38.13376],[138.45007,38.14612],[138.45917,38.15743],[138.46007,38.16155],[138.4709,38.17448],[138.47669,38.17997],[138.48124,38.1882],[138.48176,38.19262],[138.48857,38.20186],[138.49114,38.20221],[138.49354,38.21703],[138.49378,38.22502],[138.4965,38.227],[138.49944,38.23608],[138.50325,38.24074],[138.50807,38.26346],[138.50767,38.27112],[138.50922,38.2849],[138.50795,38.29551],[138.51057,38.30043],[138.51224,38.31465],[138.52101,38.32233],[138.5171,38.32497],[138.51497,38.33205],[138.51065,38.33108],[138.49399,38.33211],[138.4786,38.32616],[138.47333,38.3222],[138.4635,38.32339],[138.46385,38.31492],[138.45926,38.31037],[138.45308,38.30845],[138.45155,38.30057],[138.44649,38.29304],[138.44203,38.29138],[138.43998,38.28676],[138.44386,38.27758],[138.43702,38.27],[138.43925,38.26694],[138.43727,38.26204],[138.42866,38.25432],[138.41658,38.25406],[138.40505,38.24953],[138.40238,38.25435],[138.39773,38.25138],[138.39934,38.24533],[138.39034,38.23914],[138.38754,38.23248],[138.37631,38.22744],[138.37258,38.22044],[138.36389,38.21295],[138.35496,38.20945],[138.3511,38.2044],[138.33974,38.19896],[138.32613,38.19729],[138.32625,38.19398],[138.31535,38.17861],[138.31171,38.16878],[138.3035,38.16556],[138.30282,38.15853],[138.29933,38.15724],[138.30211,38.15196],[138.29523,38.14389],[138.29129,38.14271],[138.29005,38.13387],[138.27098,38.12158],[138.27226,38.11483],[138.26014,38.10186],[138.25801,38.09518],[138.24944,38.09204]]]},"properties":{"pref":"新潟県","city":"佐渡市","code5":"15224","code6":"152242"}},
{"type":"Feature","geometry":{"type":"Polygon","coordinates":[[[139.23788,37.18784],[139.23565,37.18849],[139.22844,37.19709],[139.22624,37.20353],[139.22178,37.20448],[139.21785,37.20949],[139.21309,37.19964],[139.20527,37.19422],[139.19672,37.19401],[139.19479,37.20396],[139.18713,37.20971],[139.18306,37.21739],[139.17254,37.22495],[139.1659,37.23217],[139.16476,37.23943],[139.17469,37.25635],[139.19177,37.26934],[139.19296,37.2733],[139.19758,37.27539],[139.20541,37.28361],[139.21229,37.28621],[139.21468,37.29212],[139.21525,37.30027],[139.21771,37.30525],[139.21569,37.30864],[139.22211,37.31501],[139.22422,37.32143],[139.22109,37.32368],[139.21787,37.33403],[139.22187,37.33572],[139.22815,37.34328],[139.23362,37.34361],[139.23484,37.35077],[139.23355,37.35701],[139.23759,37.36813],[139.23803,37.37295],[139.23497,37.37877],[139.23146,37.38023],[139.23167,37.38738],[139.22194,37.39333],[139.2153,37.39126],[139.20771,37.39622],[139.2076,37.4006],[139.20195,37.40866],[139.19725,37.41077],[139.18729,37.41184],[139.17227,37.41036],[139.16384,37.41335],[139.14814,37.40416],[139.1426,37.39797],[139.13653,37.39768],[139.12758,37.40138],[139.12326,37.40987],[139.10829,37.41053],[139.09468,37.40953],[139.08992,37.40572],[139.08071,37.40342],[139.06907,37.40564],[139.06181,37.40554],[139.05534,37.41355],[139.04981,37.41256],[139.04661,37.40832],[139.04921,37.40165],[139.04226,37.39996],[139.03404,37.39986],[139.02862,37.39779],[139.01851,37.38862],[139.01899,37.3859],[139.01417,37.37822],[139.00003,37.37452],[138.99412,37.3715],[138.98838,37.37253],[138.97976,37.37972],[138.96867,37.38382],[138.96205,37.37407],[138.9568,37.37334],[138.9557,37.36718],[138.95691,37.36016],[138.96414,37.35392],[138.95494,37.35129],[138.95143,37.34508],[138.94046,37.33988],[138.9329,37.3386],[138.93684,37.33151],[138.93608,37.3272],[138.93987,37.32459],[138.93897,37.31812],[138.9316,37.31276],[138.93356,37.30416],[138.93206,37.3005],[138.92633,37.29653],[138.91452,37.29228],[138.91105,37.29336],[138.90539,37.29326],[138.9013,37.28874],[138.89885,37.2809],[138.89135,37.27914],[138.88854,37.2754],[138.88991,37.27007],[138.88755,37.26483],[138.8886,37.26019],[138.89299,37.25512],[138.88832,37.24976],[138.88776,37.24327],[138.88141,37.2398],[138.88034,37.23492],[138.88227,37.23058],[138.88034,37.22418],[138.87521,37.224],[138.87093,37.22016],[138.87166,37.21629],[138.86886,37.20799],[138.86362,37.20264],[138.85777,37.20304],[138.85277,37.18987],[138.84852,37.18465],[138.83487,37.17648],[138.83924,37.17256],[138.84106,37.16686],[138.8449,37.16548],[138.84781,37.17368],[138.85686,37.1765],[138.85779,37.18068],[138.86305,37.18076],[138.86778,37.18681],[138.86868,37.19334],[138.87251,37.19435],[138.88214,37.19107],[138.88546,37.17752],[138.88988,37.17151],[138.8966,37.17505],[138.90463,37.1745],[138.91028,37.1804],[138.91175,37.18521],[138.9077,37.19408],[138.91324,37.1965],[138.91499,37.20084],[138.93276,37.20862],[138.93585,37.20329],[138.94443,37.19804],[138.93841,37.19034],[138.92796,37.18066],[138.9389,37.17166],[138.94631,37.17512],[138.95337,37.17533],[138.95561,37.18549],[138.96373,37.19187],[138.96846,37.19131],[138.97966,37.19462],[138.99269,37.19385],[139.00264,37.18747],[139.01721,37.18769],[139.02569,37.18356],[139.02279,37.18035],[139.02119,37.16787],[139.02776,37.16561],[139.02532,37.15505],[139.02655,37.14931],[139.03461,37.14744],[139.03948,37.14447],[139.04815,37.1444],[139.05508,37.14233],[139.05442,37.13816],[139.0632,37.13361],[139.07839,37.13119],[139.08016,37.12592],[139.07564,37.12219],[139.07785,37.11597],[139.07855,37.09839],[139.08071,37.09185],[139.07659,37.08639],[139.07771,37.0818],[139.08347,37.07459],[139.09785,37.06639],[139.09702,37.05863],[139.11131,37.05521],[139.11539,37.04752],[139.12295,37.04714],[139.12446,37.04096],[139.12905,37.03401],[139.13191,37.02573],[139.1394,37.02319],[139.14533,37.01894],[139.14958,37.01022],[139.16207,37.00409],[139.171,37.00198],[139.17408,36.99576],[139.17945,36.99076],[139.17719,36.98536],[139.17523,36.9736],[139.18031,36.96452],[139.18649,36.95992],[139.19352,36.96105],[139.19843,36.95767],[139.20545,36.95594],[139.21454,36.95782],[139.21866,36.96071],[139.22871,36.9612],[139.23779,36.94635],[139.2319,36.94053],[139.24042,36.94125],[139.2434,36.94462],[139.24182,36.94907],[139.24624,36.95553],[139.24992,36.9559],[139.25116,36.96203],[139.24807,36.97141],[139.25215,36.97657],[139.24718,36.9802],[139.2532,36.98369],[139.25379,36.99033],[139.25103,37.00462],[139.24337,37.01513],[139.24851,37.02395],[139.24854,37.0309],[139.2532,37.03431],[139.25462,37.04025],[139.25956,37.0433],[139.25734,37.05594],[139.24702,37.07079],[139.24873,37.08137],[139.24257,37.0849],[139.23865,37.09051],[139.24088,37.09374],[139.23574,37.10246],[139.23537,37.11394],[139.23746,37.11953],[139.2433,37.12716],[139.24567,37.14486],[139.24984,37.15158],[139.24989,37.15642],[139.25299,37.16125],[139.25116,37.16592],[139.24642,37.16628],[139.24322,37.17038],[139.24458,37.18114],[139.23788,37.18784]]]},"properties":{"pref":"新潟県","city":"魚沼市","code5":"15225","code6":"152251"}},
{"type":"Feature","geometry":{"type":"Polygon","coordinates":[[[139.09702,37.05863],[139.09785,37.06639],[139.08347,37.07459],[139.07771,37.0818],[139.07659,37.08639],[139.08071,37.09185],[139.07855,37.09839],[139.07785,37.11597],[139.07564,37.12219],[139.08016,37.12592],[139.07839,37.13119],[139.0632,37.13361],[139.05442,37.13816],[139.05508,37.14233],[139.04815,37.1444],[139.03948,37.14447],[139.03461,37.14744],[139.02655,37.14931],[139.02532,37.15505],[139.02776,37.16561],[139.02119,37.16787],[139.02279,37.18035],[139.02569,37.18356],[139.01721,37.18769],[139.00264,37.18747],[138.99269,37.19385],[138.97966,37.19462],[138.96846,37.19131],[138.96373,37.19187],[138.95561,37.18549],[138.95337,37.17533],[138.94631,37.17512],[138.9389,37.17166],[138.92796,37.18066],[138.93841,37.19034],[138.94443,37.19804],[138.93585,37.20329],[138.93276,37.20862],[138.91499,37.20084],[138.91324,37.1965],[138.9077,37.19408],[138.91175,37.18521],[138.91028,37.1804],[138.90463,37.1745],[138.8966,37.17505],[138.88988,37.17151],[138.88546,37.17752],[138.88214,37.19107],[138.87251,37.19435],[138.86868,37.19334],[138.86778,37.18681],[138.86305,37.18076],[138.85779,37.18068],[138.85686,37.1765],[138.84781,37.17368],[138.8449,37.16548],[138.84565,37.1619],[138.85425,37.15837],[138.85863,37.15432],[138.86076,37.14856],[138.86815,37.14894],[138.87475,37.1404],[138.87005,37.13318],[138.85933,37.13116],[138.8578,37.12509],[138.84079,37.11851],[138.8396,37.11229],[138.83411,37.10322],[138.82962,37.10191],[138.827,37.09131],[138.82353,37.08691],[138.82866,37.08151],[138.83014,37.07656],[138.82227,37.07215],[138.81902,37.0723],[138.81122,37.06697],[138.8116,37.05917],[138.80339,37.05398],[138.80154,37.04436],[138.79193,37.03002],[138.78802,37.02984],[138.78153,37.01642],[138.78121,37.01282],[138.77541,37.00975],[138.77851,37.00548],[138.77371,37.00016],[138.77186,36.9934],[138.77108,36.9834],[138.76462,36.97747],[138.76491,36.97178],[138.76779,36.96882],[138.7686,36.96324],[138.77897,36.95778],[138.78443,36.96385],[138.79618,36.9638],[138.80143,36.96143],[138.80703,36.96209],[138.8164,36.95712],[138.82021,36.95106],[138.83818,36.95419],[138.84077,36.95987],[138.85049,36.96129],[138.85493,36.95989],[138.85889,36.94989],[138.86464,36.94753],[138.87534,36.95123],[138.8838,36.95108],[138.88944,36.94939],[138.89949,36.94078],[138.8982,36.93636],[138.91337,36.93194],[138.91591,36.92873],[138.91628,36.92281],[138.92066,36.92018],[138.92617,36.91281],[138.92586,36.90478],[138.93244,36.89355],[138.9404,36.89512],[138.94966,36.89306],[138.95372,36.8952],[138.96705,36.89105],[138.97155,36.88727],[138.97917,36.89118],[138.97973,36.90446],[138.9744,36.91315],[138.97669,36.92079],[138.9668,36.93079],[138.9657,36.9433],[138.9638,36.95277],[138.9661,36.95761],[138.96576,36.96787],[138.96775,36.97341],[138.96648,36.97884],[138.96985,36.98141],[138.98358,36.97986],[139.00065,36.97921],[139.0155,36.98829],[139.03033,36.9837],[139.04773,36.98767],[139.05012,36.99487],[139.05463,36.99851],[139.06243,37.00152],[139.06556,37.00491],[139.07354,37.00853],[139.0805,37.00864],[139.09119,37.01997],[139.08884,37.02893],[139.09149,37.03986],[139.09041,37.04492],[139.09702,37.05863]]]},"properties":{"pref":"新潟県","city":"南魚沼市","code5":"15226","code6":"152269"}},
{"type":"Feature","geometry":{"type":"Polygon","coordinates":[[[139.62499,37.91839],[139.61029,37.92635],[139.60648,37.93526],[139.5987,37.93374],[139.58515,37.93508],[139.58123,37.93257],[139.56794,37.93185],[139.56739,37.93592],[139.56306,37.93949],[139.56137,37.94415],[139.56243,37.95552],[139.55647,37.95701],[139.55706,37.96223],[139.56277,37.96581],[139.56249,37.97647],[139.56507,37.98419],[139.56349,37.98814],[139.55852,37.98941],[139.55305,37.99558],[139.54561,37.9982],[139.54272,38.00642],[139.53103,38.01299],[139.53517,38.01936],[139.53366,38.02336],[139.53957,38.03227],[139.53655,38.04102],[139.52695,38.04962],[139.52811,38.05199],[139.52263,38.06256],[139.52333,38.07036],[139.52665,38.07438],[139.52447,38.08265],[139.51352,38.08302],[139.50851,38.08864],[139.49766,38.08839],[139.48992,38.08473],[139.48653,38.07874],[139.48122,38.07823],[139.46988,38.08138],[139.45251,38.0897],[139.44396,38.09512],[139.44242,38.10253],[139.43013,38.09744],[139.41418,38.10894],[139.41794,38.11287],[139.40843,38.12052],[139.41023,38.12565],[139.40798,38.13014],[139.41085,38.13548],[139.40801,38.13935],[139.41201,38.14421],[139.40903,38.14976],[139.40673,38.14831],[139.38662,38.12255],[139.36431,38.09713],[139.34983,38.08157],[139.33517,38.06781],[139.31357,38.04947],[139.3224,38.03691],[139.33985,38.02683],[139.35078,38.01965],[139.35604,38.02015],[139.35998,38.03185],[139.38248,38.03313],[139.38933,38.02808],[139.39905,38.03074],[139.40763,38.02748],[139.41749,38.02027],[139.42634,38.01997],[139.43454,38.02237],[139.45034,38.01603],[139.45848,38.01144],[139.46003,38.00821],[139.47431,38.0096],[139.47688,38.00324],[139.48556,38.00296],[139.48598,37.99937],[139.49309,37.99806],[139.49243,37.98981],[139.49387,37.98404],[139.49051,37.97612],[139.48921,37.96266],[139.49222,37.95914],[139.49189,37.9494],[139.4968,37.94597],[139.5036,37.93834],[139.50358,37.93321],[139.50787,37.93062],[139.51183,37.92122],[139.50747,37.91263],[139.50004,37.90139],[139.50062,37.89821],[139.50697,37.88885],[139.52114,37.88788],[139.52922,37.88575],[139.53226,37.88798],[139.53959,37.88815],[139.54121,37.88481],[139.55259,37.88223],[139.55321,37.87816],[139.55889,37.87407],[139.55593,37.86345],[139.56743,37.8613],[139.58572,37.86359],[139.59093,37.87036],[139.59541,37.86973],[139.59996,37.87602],[139.60593,37.8804],[139.6065,37.88617],[139.62424,37.89111],[139.62932,37.89366],[139.63197,37.89897],[139.62634,37.90917],[139.62861,37.91244],[139.62499,37.91839]]]},"properties":{"pref":"新潟県","city":"胎内市","code5":"15227","code6":"152277"}},
{"type":"Feature","geometry":{"type":"Polygon","coordinates":[[[139.24238,37.94681],[139.24165,37.94959],[139.25017,37.95373],[139.25704,37.95543],[139.26858,37.95346],[139.29289,37.95559],[139.29741,37.9624],[139.29847,37.96735],[139.30546,37.97024],[139.31355,37.98573],[139.2993,37.98947],[139.29758,37.98716],[139.28601,37.98564],[139.28242,37.98972],[139.27099,37.99458],[139.27175,37.99613],[139.28485,38.00426],[139.28844,38.00823],[139.29227,38.00715],[139.2999,38.01366],[139.29006,38.02332],[139.28831,38.03057],[139.2769,38.02253],[139.26177,38.01362],[139.25532,38.01074],[139.24596,38.0045],[139.24132,38.00686],[139.22744,37.99903],[139.2304,37.99429],[139.22554,37.99198],[139.23061,37.98072],[139.23849,37.97204],[139.23396,37.97172],[139.23307,37.96577],[139.23122,37.9634],[139.23557,37.95559],[139.23167,37.94813],[139.23473,37.94634],[139.24238,37.94681]]]},"properties":{"pref":"新潟県","county":"北蒲原郡","city":"聖籠町","code5":"15307","code6":"153079"}},
{"type":"Feature","geometry":{"type":"Polygon","coordinates":[[[138.80841,37.70681],[138.81139,37.70084],[138.80881,37.69152],[138.80481,37.68594],[138.80561,37.67798],[138.809,37.67393],[138.81657,37.6733],[138.82557,37.67032],[138.84271,37.66887],[138.84752,37.67423],[138.85025,37.66966],[138.84335,37.66449],[138.83888,37.65756],[138.84385,37.65598],[138.84757,37.65804],[138.85514,37.67317],[138.86832,37.67089],[138.87171,37.68545],[138.86635,37.6919],[138.87207,37.69628],[138.86519,37.70136],[138.86524,37.70673],[138.85155,37.70907],[138.84562,37.71156],[138.84442,37.71466],[138.83303,37.71441],[138.81645,37.71841],[138.80841,37.70681]]]},"properties":{"pref":"新潟県","county":"西蒲原郡","city":"弥彦村","code5":"15342","code6":"153427"}},
{"type":"Feature","geometry":{"type":"Polygon","coordinates":[[[139.10792,37.7258],[139.09914,37.734],[139.08788,37.73153],[139.08268,37.72668],[139.06866,37.73066],[139.06168,37.72825],[139.0594,37.7258],[139.04724,37.71946],[139.04207,37.7103],[139.0363,37.70615],[139.0325,37.70068],[139.03259,37.69347],[139.0318,37.69071],[139.04022,37.6846],[139.04621,37.6711],[139.06936,37.67418],[139.09272,37.68029],[139.0983,37.67962],[139.10199,37.68443],[139.1,37.68892],[139.10551,37.69467],[139.10501,37.70035],[139.10033,37.70236],[139.09878,37.70631],[139.0933,37.7095],[139.09804,37.71329],[139.10008,37.72065],[139.10792,37.7258]]]},"properties":{"pref":"新潟県","county":"南蒲原郡","city":"田上町","code5":"15361","code6":"153613"}},
{"type":"Feature","geometry":{"type":"Polygon","coordinates":[[[139.68185,37.84674],[139.67816,37.84489],[139.67344,37.83813],[139.66031,37.83289],[139.6451,37.82941],[139.64283,37.83141],[139.63329,37.83273],[139.63004,37.83025],[139.61983,37.83031],[139.61569,37.8261],[139.61064,37.82473],[139.6077,37.81898],[139.59397,37.81528],[139.58492,37.81089],[139.5782,37.81251],[139.57289,37.80937],[139.56831,37.8113],[139.56303,37.80615],[139.55617,37.80395],[139.55012,37.80653],[139.53531,37.80413],[139.53316,37.79663],[139.52415,37.79315],[139.507,37.79696],[139.48962,37.79374],[139.48177,37.79697],[139.47489,37.79283],[139.46809,37.79083],[139.45483,37.79419],[139.45451,37.79691],[139.44318,37.80608],[139.43401,37.8097],[139.42892,37.81518],[139.42317,37.81671],[139.41073,37.81417],[139.3898,37.82663],[139.37723,37.8241],[139.3736,37.82498],[139.36164,37.8218],[139.36412,37.81491],[139.3556,37.80927],[139.3484,37.80101],[139.3434,37.79931],[139.34052,37.79244],[139.33351,37.78603],[139.33427,37.7818],[139.32734,37.77897],[139.32439,37.7704],[139.31459,37.76578],[139.29881,37.76176],[139.28937,37.75679],[139.28871,37.75335],[139.29212,37.7438],[139.28719,37.73759],[139.29292,37.73819],[139.2965,37.729],[139.29108,37.72292],[139.28568,37.72076],[139.28413,37.71591],[139.28516,37.70722],[139.28044,37.70206],[139.28695,37.69542],[139.29278,37.69419],[139.30185,37.69484],[139.3101,37.68739],[139.3078,37.67498],[139.31392,37.66702],[139.32403,37.66216],[139.32317,37.65516],[139.32632,37.65056],[139.32191,37.6473],[139.32861,37.6391],[139.33505,37.63732],[139.34807,37.62968],[139.34478,37.62375],[139.34543,37.61681],[139.34324,37.61111],[139.3479,37.60673],[139.34851,37.60075],[139.33887,37.59606],[139.32259,37.59619],[139.31926,37.59382],[139.32553,37.58891],[139.31601,37.57654],[139.30869,37.56492],[139.30929,37.559],[139.31351,37.55323],[139.32061,37.55058],[139.32209,37.54335],[139.30821,37.53128],[139.30171,37.52993],[139.29072,37.51797],[139.28228,37.5121],[139.27609,37.5097],[139.27794,37.50684],[139.28737,37.50752],[139.29008,37.49767],[139.29577,37.49253],[139.2982,37.48493],[139.28313,37.48373],[139.27629,37.47547],[139.26859,37.47195],[139.2573,37.46446],[139.25789,37.46129],[139.25192,37.45677],[139.25122,37.45244],[139.25633,37.45092],[139.25892,37.44706],[139.27722,37.45283],[139.28203,37.44983],[139.28651,37.45224],[139.30712,37.4586],[139.31048,37.45565],[139.31522,37.45922],[139.32647,37.46239],[139.32754,37.45996],[139.33514,37.45779],[139.34583,37.46027],[139.35125,37.46556],[139.36255,37.46997],[139.36854,37.46541],[139.37961,37.46311],[139.38552,37.46361],[139.39751,37.45984],[139.40636,37.46621],[139.4047,37.46804],[139.40579,37.47757],[139.40985,37.48389],[139.40697,37.48668],[139.40789,37.49246],[139.41403,37.4968],[139.41066,37.50202],[139.41422,37.5083],[139.42843,37.51425],[139.43895,37.51319],[139.45065,37.51736],[139.4572,37.51787],[139.4636,37.5129],[139.46609,37.50833],[139.47178,37.50638],[139.4758,37.50258],[139.48376,37.50692],[139.48599,37.51031],[139.49674,37.51257],[139.50836,37.51075],[139.51379,37.50862],[139.5201,37.51384],[139.54285,37.51203],[139.55523,37.50607],[139.55594,37.50429],[139.56703,37.50235],[139.58511,37.5129],[139.59058,37.52794],[139.57853,37.53016],[139.57656,37.53457],[139.5702,37.53906],[139.57063,37.544],[139.56574,37.54611],[139.57022,37.55053],[139.56759,37.56275],[139.57183,37.56827],[139.5704,37.57951],[139.56415,37.58883],[139.56571,37.59281],[139.56235,37.60011],[139.55437,37.6024],[139.54851,37.60987],[139.5481,37.61365],[139.55215,37.61875],[139.54789,37.62176],[139.54604,37.62889],[139.54773,37.634],[139.55169,37.63682],[139.5526,37.64249],[139.54932,37.64909],[139.56306,37.65381],[139.56849,37.65313],[139.57999,37.66087],[139.5848,37.66232],[139.58866,37.66725],[139.59383,37.66508],[139.60092,37.66883],[139.60532,37.67477],[139.60941,37.68427],[139.61783,37.68883],[139.62728,37.68836],[139.62832,37.69195],[139.62172,37.69982],[139.62449,37.70835],[139.63527,37.71986],[139.64034,37.72296],[139.64295,37.72761],[139.64961,37.72906],[139.65236,37.73794],[139.65723,37.74085],[139.6591,37.75041],[139.65789,37.75501],[139.6665,37.757],[139.66871,37.76326],[139.67769,37.77009],[139.68019,37.77504],[139.69656,37.78512],[139.70495,37.79584],[139.71354,37.79899],[139.72162,37.80942],[139.72833,37.81224],[139.74151,37.81771],[139.73598,37.82792],[139.72894,37.83128],[139.72716,37.83488],[139.72378,37.83684],[139.72056,37.83957],[139.71619,37.84641],[139.71492,37.84989],[139.71497,37.8526],[139.71069,37.85439],[139.69775,37.84769],[139.68185,37.84674]]]},"properties":{"pref":"新潟県","county":"東蒲原郡","city":"阿賀町","code5":"15385","code6":"153851"}},
{"type":"Feature","geometry":{"type":"Polygon","coordinates":[[[138.72666,37.57807],[138.72245,37.57067],[138.71309,37.55863],[138.70906,37.55531],[138.69952,37.55098],[138.69072,37.54487],[138.67628,37.53833],[138.66528,37.52985],[138.66022,37.52352],[138.66262,37.52212],[138.67404,37.52354],[138.67862,37.52199],[138.67978,37.51714],[138.67604,37.50934],[138.6724,37.50795],[138.67513,37.50129],[138.6749,37.49527],[138.68952,37.49802],[138.69279,37.5033],[138.69755,37.50311],[138.69766,37.49838],[138.70477,37.49641],[138.71025,37.4922],[138.71966,37.48977],[138.72177,37.48744],[138.72849,37.49157],[138.73879,37.49037],[138.73992,37.49702],[138.73356,37.49952],[138.73367,37.50266],[138.74201,37.50963],[138.742,37.51567],[138.75209,37.51619],[138.75348,37.52343],[138.75834,37.5245],[138.76149,37.53334],[138.75449,37.5381],[138.75367,37.54103],[138.74096,37.54716],[138.74087,37.55109],[138.74557,37.55331],[138.749,37.56221],[138.74225,37.56147],[138.73361,37.56488],[138.7229,37.56563],[138.72272,37.57],[138.72693,37.57283],[138.72666,37.57807]]]},"properties":{"pref":"新潟県","county":"三島郡","city":"出雲崎町","code5":"15405","code6":"154059"}},
{"type":"Feature","geometry":{"type":"Polygon","coordinates":[[[138.78942,36.74487],[138.79271,36.74794],[138.79534,36.75814],[138.80629,36.76453],[138.81036,36.76509],[138.81777,36.76159],[138.82111,36.76386],[138.82692,36.77229],[138.82505,36.77577],[138.8297,36.78589],[138.8291,36.79537],[138.82615,36.80537],[138.82159,36.81309],[138.82174,36.81763],[138.82954,36.81779],[138.83637,36.81544],[138.83957,36.81718],[138.85095,36.81203],[138.85731,36.81209],[138.86458,36.8163],[138.87558,36.81859],[138.87953,36.82498],[138.8849,36.82619],[138.9026,36.82712],[138.92907,36.83264],[138.9298,36.8375],[138.92405,36.84723],[138.91705,36.84894],[138.91794,36.85684],[138.92211,36.86104],[138.92149,36.86561],[138.91717,36.87037],[138.92202,36.87876],[138.92301,36.88338],[138.93053,36.88697],[138.93244,36.89355],[138.92586,36.90478],[138.92617,36.91281],[138.92066,36.92018],[138.91628,36.92281],[138.91591,36.92873],[138.91337,36.93194],[138.8982,36.93636],[138.89949,36.94078],[138.88944,36.94939],[138.8838,36.95108],[138.87534,36.95123],[138.86464,36.94753],[138.85889,36.94989],[138.85493,36.95989],[138.85049,36.96129],[138.84077,36.95987],[138.83818,36.95419],[138.82021,36.95106],[138.8164,36.95712],[138.80703,36.96209],[138.80143,36.96143],[138.79618,36.9638],[138.78443,36.96385],[138.77897,36.95778],[138.77421,36.95158],[138.77291,36.94641],[138.7628,36.93519],[138.75319,36.93089],[138.75258,36.9263],[138.74424,36.92204],[138.73817,36.91247],[138.7306,36.90917],[138.7326,36.90237],[138.72863,36.89642],[138.72116,36.89011],[138.71451,36.88167],[138.71378,36.87377],[138.70695,36.8695],[138.70043,36.86822],[138.70641,36.859],[138.70308,36.84989],[138.69035,36.84566],[138.69165,36.84147],[138.69001,36.83235],[138.68067,36.82416],[138.68028,36.82015],[138.68718,36.81805],[138.68998,36.81289],[138.69579,36.80906],[138.68915,36.79844],[138.68945,36.79357],[138.68421,36.78792],[138.67171,36.78359],[138.669,36.77908],[138.66954,36.77366],[138.68001,36.76644],[138.688,36.76585],[138.69153,36.75858],[138.69195,36.74612],[138.69593,36.73851],[138.70528,36.73658],[138.71307,36.73922],[138.71578,36.74575],[138.72187,36.74969],[138.72139,36.75924],[138.72703,36.76417],[138.73491,36.76281],[138.74058,36.75935],[138.74601,36.75859],[138.75333,36.75498],[138.76128,36.74906],[138.77034,36.74616],[138.77796,36.7477],[138.78942,36.74487]]]},"properties":{"pref":"新潟県","county":"南魚沼郡","city":"湯沢町","code5":"15461","code6":"154610"}},
{"type":"Feature","geometry":{"type":"Polygon","coordinates":[[[138.56589,37.02126],[138.5698,37.01546],[138.57099,37.0054],[138.57324,37.00454],[138.57566,36.99662],[138.58124,36.9929],[138.5863,36.98689],[138.58817,36.97694],[138.58551,36.95741],[138.58656,36.95403],[138.58452,36.93189],[138.58716,36.92613],[138.59201,36.92541],[138.58929,36.91545],[138.59619,36.90711],[138.61287,36.90855],[138.62101,36.90408],[138.61774,36.89721],[138.61781,36.89188],[138.62342,36.88466],[138.64091,36.87858],[138.64181,36.87565],[138.65097,36.87442],[138.65736,36.86805],[138.66671,36.86661],[138.6765,36.86725],[138.68845,36.86063],[138.69356,36.85243],[138.69035,36.84566],[138.70308,36.84989],[138.70641,36.859],[138.70043,36.86822],[138.69249,36.8765],[138.68965,36.87617],[138.6807,36.88031],[138.67466,36.88123],[138.66809,36.89212],[138.65991,36.89579],[138.65351,36.90689],[138.66188,36.91309],[138.66066,36.91727],[138.66169,36.92736],[138.66442,36.93495],[138.67115,36.93781],[138.67439,36.9422],[138.6822,36.94503],[138.68995,36.94987],[138.68948,36.93938],[138.70344,36.9461],[138.71129,36.94725],[138.71254,36.95431],[138.71607,36.96108],[138.70795,36.96873],[138.71009,36.97522],[138.70861,36.9806],[138.70364,36.9835],[138.69857,36.99009],[138.69915,37.00288],[138.69141,37.01474],[138.6846,37.01143],[138.68378,37.03016],[138.6919,37.0361],[138.69059,37.04067],[138.68274,37.05039],[138.6859,37.05721],[138.67914,37.05946],[138.67551,37.06275],[138.66736,37.06544],[138.66356,37.06208],[138.65702,37.06217],[138.64453,37.05657],[138.64286,37.04936],[138.63647,37.04944],[138.6331,37.04389],[138.62616,37.04155],[138.61797,37.04399],[138.6138,37.03973],[138.59878,37.03893],[138.59097,37.0345],[138.58749,37.0306],[138.57762,37.03114],[138.5681,37.02589],[138.56589,37.02126]]]},"properties":{"pref":"新潟県","county":"中魚沼郡","city":"津南町","code5":"15482","code6":"154822"}},
{"type":"Feature","geometry":{"type":"MultiPolygon","coordinates":[[[[138.63072,37.45386],[138.61803,37.451],[138.6101,37.44759],[138.60838,37.44057],[138.60305,37.44288],[138.59929,37.43663],[138.60601,37.43488],[138.60764,37.4302],[138.6002,37.41442],[138.59059,37.40196],[138.59334,37.39895],[138.60952,37.403],[138.62178,37.40241],[138.62463,37.40785],[138.63025,37.4093],[138.63243,37.41358],[138.64603,37.40779],[138.65839,37.40594],[138.66488,37.40621],[138.66948,37.41192],[138.6652,37.41714],[138.66148,37.41762],[138.64497,37.43102],[138.63185,37.43419],[138.63676,37.43879],[138.63638,37.44294],[138.64217,37.45364],[138.63478,37.4572],[138.63072,37.45386]]],[[[138.69112,37.43819],[138.68764,37.43464],[138.68066,37.4334],[138.68112,37.42568],[138.6786,37.42294],[138.6813,37.41688],[138.68493,37.41518],[138.69247,37.40685],[138.69191,37.40431],[138.69887,37.4017],[138.70424,37.41371],[138.70826,37.41936],[138.70166,37.42078],[138.69714,37.42557],[138.69728,37.43239],[138.69112,37.43819]]]]},"properties":{"pref":"新潟県","county":"刈羽郡","city":"刈羽村","code5":"15504","code6":"155047"}},
{"type":"Feature","geometry":{"type":"Polygon","coordinates":[[[139.68473,38.15942],[139.67925,38.16059],[139.66948,38.1579],[139.66305,38.1612],[139.65457,38.16834],[139.64488,38.16467],[139.6375,38.16566],[139.61537,38.164],[139.61117,38.16737],[139.60095,38.16647],[139.58747,38.16973],[139.58653,38.16668],[139.5795,38.16492],[139.57703,38.1608],[139.56577,38.15917],[139.56104,38.15691],[139.55649,38.14852],[139.54563,38.14791],[139.53797,38.15112],[139.53403,38.14827],[139.52899,38.14926],[139.52053,38.1422],[139.51088,38.14346],[139.50877,38.13898],[139.50362,38.13477],[139.51409,38.12701],[139.50384,38.12355],[139.50175,38.11608],[139.51231,38.10862],[139.51148,38.09992],[139.5059,38.09976],[139.5009,38.09238],[139.4948,38.09044],[139.48992,38.08473],[139.49766,38.08839],[139.50851,38.08864],[139.51352,38.08302],[139.52447,38.08265],[139.52665,38.07438],[139.52333,38.07036],[139.52263,38.06256],[139.52811,38.05199],[139.52695,38.04962],[139.53655,38.04102],[139.53957,38.03227],[139.53366,38.02336],[139.53517,38.01936],[139.53103,38.01299],[139.54272,38.00642],[139.54561,37.9982],[139.55305,37.99558],[139.55852,37.98941],[139.56349,37.98814],[139.56507,37.98419],[139.56249,37.97647],[139.56277,37.96581],[139.55706,37.96223],[139.55647,37.95701],[139.56243,37.95552],[139.56137,37.94415],[139.56306,37.93949],[139.56739,37.93592],[139.56794,37.93185],[139.58123,37.93257],[139.58515,37.93508],[139.5987,37.93374],[139.60648,37.93526],[139.61029,37.92635],[139.62499,37.91839],[139.62705,37.92434],[139.63179,37.9303],[139.63939,37.93472],[139.643,37.94683],[139.6401,37.95234],[139.64525,37.96263],[139.64292,37.96711],[139.63861,37.96865],[139.64426,37.97978],[139.63934,37.98437],[139.64497,37.99189],[139.64351,37.99455],[139.65429,37.99651],[139.65263,38.00296],[139.65441,38.01474],[139.65239,38.02056],[139.65676,38.02852],[139.65756,38.0374],[139.66267,38.04001],[139.67483,38.04058],[139.68015,38.04327],[139.68205,38.04953],[139.69027,38.05243],[139.69273,38.05703],[139.68655,38.06598],[139.69157,38.07119],[139.68647,38.07689],[139.68181,38.07538],[139.67234,38.07693],[139.67479,38.09158],[139.68267,38.10807],[139.69215,38.113],[139.68837,38.13466],[139.69157,38.14524],[139.69052,38.15528],[139.68473,38.15942]]]},"properties":{"pref":"新潟県","county":"岩船郡","city":"関川村","code5":"15581","code6":"155811"}},
{"type":"Feature","geometry":{"type":"Polygon","coordinates":[[[139.25607,38.49098],[139.23734,38.47466],[139.23852,38.47112],[139.23175,38.46382],[139.22657,38.46241],[139.22331,38.45859],[139.22501,38.45427],[139.22283,38.44751],[139.21495,38.43748],[139.22646,38.43735],[139.23708,38.44602],[139.24799,38.45329],[139.25425,38.46208],[139.25378,38.46518],[139.25869,38.48248],[139.26424,38.48892],[139.25607,38.49098]]]},"properties":{"pref":"新潟県","county":"岩船郡","city":"粟島浦村","code5":"15586","code6":"155861"}},
{"type":"Feature","geometry":{"type":"Polygon","coordinates":[[[139.23307,37.96577],[139.22782,37.97112],[139.22836,37.9755],[139.22125,37.98941],[139.21513,37.99304],[139.20484,37.98849],[139.20108,37.98246],[139.18046,37.97587],[139.16759,37.97309],[139.12964,37.96018],[139.12315,37.96217],[139.1094,37.95846],[139.09441,37.95853],[139.09058,37.95431],[139.07557,37.9516],[139.06914,37.94846],[139.06626,37.94439],[139.05803,37.94649],[139.05361,37.9411],[139.03686,37.93035],[139.00987,37.91432],[139.00536,37.91283],[139.00076,37.90827],[138.98891,37.90239],[138.96776,37.89051],[138.94778,37.88044],[138.94026,37.8786],[138.93775,37.87581],[138.92557,37.87125],[138.9179,37.86536],[138.89839,37.85606],[138.8826,37.84705],[138.86962,37.83872],[138.8602,37.83154],[138.84184,37.81665],[138.83403,37.80733],[138.81619,37.78807],[138.80992,37.76982],[138.8012,37.75539],[138.79692,37.74502],[138.79347,37.73101],[138.78609,37.72091],[138.78483,37.71517],[138.78724,37.7103],[138.78555,37.70724],[138.79128,37.70548],[138.79717,37.71023],[138.80841,37.70681],[138.81645,37.71841],[138.83303,37.71441],[138.84442,37.71466],[138.84562,37.71156],[138.85155,37.70907],[138.86524,37.70673],[138.87195,37.71139],[138.88434,37.71358],[138.88631,37.71114],[138.89278,37.71423],[138.90018,37.71431],[138.91197,37.71854],[138.91498,37.7303],[138.92297,37.7298],[138.93026,37.73212],[138.93285,37.73044],[138.93069,37.7212],[138.94046,37.72013],[138.9464,37.71581],[138.94589,37.70461],[138.949,37.70264],[138.95584,37.70315],[138.96186,37.70592],[138.96601,37.70533],[138.96529,37.69953],[138.9616,37.69265],[138.96483,37.68978],[138.97261,37.68853],[138.9743,37.68188],[138.96692,37.68074],[138.96825,37.67947],[138.98392,37.67897],[138.99275,37.67977],[138.99011,37.68538],[138.99279,37.69567],[139.00094,37.70373],[139.00647,37.70391],[139.01353,37.71],[139.01692,37.71061],[139.02492,37.70583],[139.02499,37.69464],[139.03259,37.69347],[139.0325,37.70068],[139.0363,37.70615],[139.04207,37.7103],[139.04724,37.71946],[139.0594,37.7258],[139.06168,37.72825],[139.06866,37.73066],[139.08268,37.72668],[139.08788,37.73153],[139.09914,37.734],[139.10792,37.7258],[139.11128,37.73435],[139.1209,37.73293],[139.13126,37.73799],[139.13335,37.74781],[139.1405,37.7533],[139.14514,37.75199],[139.14751,37.75583],[139.14742,37.76316],[139.15498,37.76768],[139.1592,37.7653],[139.17082,37.76966],[139.16896,37.77461],[139.18044,37.77747],[139.18784,37.77391],[139.18858,37.77881],[139.18337,37.78073],[139.177,37.77981],[139.17375,37.78709],[139.17493,37.79339],[139.18,37.7995],[139.17841,37.80481],[139.16392,37.8074],[139.15538,37.80746],[139.15091,37.81507],[139.15287,37.81817],[139.16328,37.82326],[139.16945,37.82086],[139.17492,37.82166],[139.17712,37.8295],[139.17393,37.83207],[139.1584,37.83617],[139.15271,37.84215],[139.15795,37.84567],[139.15905,37.8505],[139.17818,37.86488],[139.19205,37.86205],[139.1982,37.8661],[139.20548,37.86691],[139.21214,37.86463],[139.2268,37.86362],[139.23306,37.86453],[139.23599,37.86984],[139.23618,37.87497],[139.24522,37.87571],[139.2491,37.88978],[139.25545,37.88315],[139.26023,37.88362],[139.26044,37.89218],[139.26535,37.9019],[139.26202,37.90818],[139.25528,37.91179],[139.25313,37.91829],[139.24765,37.91617],[139.24969,37.93331],[139.25929,37.93773],[139.24841,37.94649],[139.24238,37.94681],[139.23473,37.94634],[139.23167,37.94813],[139.23557,37.95559],[139.23122,37.9634],[139.23307,37.96577]]]},"properties":{"pref":"新潟県","city":"新潟市","code5":"15100","code6":"151009"}}
]}