{"type":"FeatureCollection", "features": [
{"type":"Feature","geometry":{"type":"Polygon","coordinates":[[[137.31601,36.7586],[137.31071,36.75941],[137.29424,36.75688],[137.2716,36.7614],[137.26023,36.76188],[137.24284,36.76556],[137.22915,36.7647],[137.22423,36.76169],[137.20461,36.75932],[137.19368,36.76108],[137.18907,36.75734],[137.18013,36.75796],[137.179,36.74822],[137.16672,36.74323],[137.1512,36.74062],[137.1473,36.73151],[137.14588,36.72448],[137.13209,36.72516],[137.13089,36.71997],[137.12454,36.71771],[137.12405,36.71192],[137.11908,36.71116],[137.1233,36.70229],[137.12506,36.69521],[137.12165,36.68603],[137.11422,36.68581],[137.10774,36.68075],[137.09983,36.68357],[137.08736,36.6591],[137.0802,36.66366],[137.07312,36.6492],[137.06657,36.65189],[137.0639,36.65682],[137.05692,36.65224],[137.05166,36.64605],[137.05865,36.64487],[137.06534,36.63833],[137.05649,36.63009],[137.05375,36.62149],[137.05609,36.61876],[137.05336,36.61325],[137.05377,36.6003],[137.04972,36.60074],[137.04923,36.59421],[137.04443,36.58964],[137.04562,36.58448],[137.03959,36.57997],[137.04078,36.57042],[137.03726,36.56524],[137.03826,36.55636],[137.03613,36.54099],[137.03262,36.5331],[137.03376,36.52924],[137.03459,36.51395],[137.02828,36.50607],[137.03142,36.5],[137.03816,36.50524],[137.04434,36.50626],[137.05022,36.50307],[137.055,36.47835],[137.05995,36.47067],[137.05891,36.4635],[137.06119,36.4617],[137.06428,36.45213],[137.0562,36.44153],[137.0547,36.43732],[137.0573,36.43059],[137.06214,36.42698],[137.05612,36.41188],[137.05835,36.39766],[137.05455,36.39292],[137.04858,36.37933],[137.04703,36.37216],[137.05067,36.36975],[137.05845,36.37198],[137.06555,36.37517],[137.07873,36.38431],[137.08997,36.38274],[137.09488,36.38397],[137.09481,36.39282],[137.09189,36.39637],[137.09618,36.3994],[137.10193,36.39919],[137.11151,36.41538],[137.122,36.41715],[137.12423,36.42209],[137.13699,36.4378],[137.14351,36.43864],[137.14227,36.44315],[137.15486,36.44913],[137.1597,36.45644],[137.16865,36.45548],[137.17594,36.45103],[137.19089,36.45503],[137.19385,36.45359],[137.19474,36.44664],[137.20487,36.43677],[137.20476,36.4326],[137.21255,36.43023],[137.21319,36.43797],[137.21823,36.43861],[137.22218,36.44363],[137.23136,36.44426],[137.2401,36.45279],[137.24242,36.45767],[137.24761,36.46196],[137.25209,36.45811],[137.25638,36.45114],[137.26282,36.45545],[137.26394,36.45841],[137.27777,36.46482],[137.286,36.46123],[137.29833,36.45826],[137.30661,36.46388],[137.31678,36.46099],[137.31779,36.45118],[137.31331,36.44894],[137.31387,36.44167],[137.30515,36.43621],[137.30674,36.43221],[137.3129,36.42534],[137.31953,36.42446],[137.32457,36.42844],[137.3331,36.42976],[137.33862,36.43389],[137.35011,36.43297],[137.358,36.43631],[137.35773,36.44321],[137.3615,36.45005],[137.38907,36.45726],[137.39487,36.45557],[137.39522,36.4364],[137.40376,36.42726],[137.41016,36.42463],[137.4172,36.42564],[137.4207,36.42277],[137.43601,36.42039],[137.4422,36.41425],[137.45258,36.41602],[137.46083,36.41224],[137.46831,36.41688],[137.47399,36.42535],[137.48302,36.42367],[137.49145,36.42357],[137.49696,36.42609],[137.50424,36.42571],[137.51172,36.42345],[137.51272,36.41638],[137.52026,36.40607],[137.53001,36.40329],[137.53997,36.3927],[137.55951,36.38745],[137.57766,36.39295],[137.58735,36.3898],[137.59241,36.38967],[137.60072,36.39948],[137.60536,36.40254],[137.6038,36.40871],[137.6092,36.41791],[137.6174,36.4186],[137.62262,36.42356],[137.6333,36.42502],[137.63779,36.43137],[137.63991,36.44583],[137.64321,36.44866],[137.64529,36.45453],[137.64947,36.45484],[137.65507,36.45873],[137.65664,36.47041],[137.65078,36.48012],[137.652,36.4882],[137.65765,36.49311],[137.66624,36.49322],[137.66875,36.50946],[137.67425,36.51087],[137.67726,36.51435],[137.68307,36.5127],[137.69691,36.5145],[137.70547,36.51789],[137.70366,36.52668],[137.69945,36.52669],[137.6973,36.5225],[137.69151,36.51967],[137.67229,36.52658],[137.66206,36.52366],[137.65562,36.51965],[137.6471,36.52486],[137.59968,36.54776],[137.59073,36.55415],[137.58338,36.55576],[137.57086,36.55571],[137.55917,36.55066],[137.54314,36.54599],[137.53747,36.54891],[137.52962,36.54825],[137.52207,36.54465],[137.51098,36.54713],[137.50938,36.55293],[137.50159,36.55895],[137.49826,36.55759],[137.48789,36.56525],[137.48173,36.5669],[137.47438,36.56584],[137.46727,36.57034],[137.45694,36.57264],[137.44909,36.57932],[137.44249,36.58082],[137.43725,36.58507],[137.42526,36.58271],[137.41891,36.58398],[137.40541,36.5794],[137.3916,36.57626],[137.38774,36.57668],[137.37332,36.57222],[137.35992,36.57128],[137.35394,36.5735],[137.34551,36.57427],[137.33377,36.57931],[137.33133,36.58301],[137.32457,36.58597],[137.31895,36.59211],[137.3177,36.59885],[137.30968,36.61053],[137.3035,36.61626],[137.2884,36.63473],[137.28478,36.64144],[137.28263,36.65161],[137.28329,36.67289],[137.27753,36.69499],[137.28559,36.69589],[137.29101,36.69826],[137.29318,36.70392],[137.30015,36.7106],[137.30563,36.71318],[137.31022,36.70913],[137.31678,36.71217],[137.32227,36.72044],[137.32134,36.72688],[137.33187,36.72616],[137.33707,36.72398],[137.34336,36.72608],[137.34096,36.73078],[137.33512,36.7342],[137.33877,36.73861],[137.33672,36.74276],[137.33076,36.74451],[137.32805,36.75107],[137.32331,36.75068],[137.31601,36.7586]]]},"properties":{"pref":"富山県","city":"富山市","code5":"16201","code6":"162019"}},
{"type":"Feature","geometry":{"type":"Polygon","coordinates":[[[137.06815,36.79391],[137.06436,36.7976],[137.06809,36.80076],[137.063,36.805],[137.05682,36.8016],[137.05082,36.80868],[137.0444,36.81406],[137.03432,36.8187],[137.01677,36.82939],[137.01162,36.82359],[137.01253,36.8156],[137.00388,36.81313],[137.00027,36.81012],[137.00558,36.80271],[137.01328,36.80233],[137.01797,36.79717],[137.01311,36.79047],[136.99651,36.79579],[136.99062,36.79314],[136.98564,36.79427],[136.98211,36.78887],[136.97599,36.79051],[136.9661,36.78667],[136.95865,36.78234],[136.95673,36.7894],[136.95404,36.7908],[136.94744,36.78757],[136.94862,36.78188],[136.9428,36.78062],[136.94013,36.77666],[136.9268,36.77001],[136.91902,36.77346],[136.90921,36.77544],[136.90571,36.78032],[136.89882,36.77401],[136.89426,36.77398],[136.88738,36.77758],[136.88834,36.78278],[136.88414,36.78509],[136.87317,36.78205],[136.85844,36.78599],[136.85083,36.78693],[136.84325,36.78131],[136.84874,36.77627],[136.85106,36.76848],[136.84903,36.75901],[136.84512,36.75568],[136.83909,36.7451],[136.83346,36.74308],[136.83657,36.74211],[136.84166,36.73602],[136.85054,36.73594],[136.85753,36.73281],[136.85958,36.72616],[136.86784,36.72492],[136.87057,36.72092],[136.87701,36.71704],[136.88557,36.71618],[136.88656,36.70626],[136.89006,36.70418],[136.89072,36.69892],[136.89736,36.69969],[136.90386,36.70271],[136.90831,36.70029],[136.90687,36.69527],[136.91384,36.68702],[136.92047,36.69065],[136.92379,36.6851],[136.93348,36.6857],[136.9449,36.67942],[136.95009,36.6799],[136.95357,36.67119],[136.95672,36.67006],[136.95622,36.66059],[136.96545,36.65971],[136.96609,36.66488],[136.97431,36.66517],[136.97801,36.67075],[136.98967,36.66933],[136.98666,36.65706],[136.99137,36.65685],[136.99799,36.65997],[137.00751,36.65921],[137.00795,36.66601],[137.01161,36.6722],[137.02343,36.67073],[137.02222,36.66634],[137.03265,36.66246],[137.03264,36.66028],[137.04159,36.65822],[137.04711,36.65976],[137.0474,36.6637],[137.04306,36.66697],[137.04287,36.67284],[137.03514,36.67938],[137.03877,36.68976],[137.03215,36.69267],[137.01717,36.69661],[137.01103,36.69922],[137.03959,36.73095],[137.03885,36.73587],[137.04476,36.7398],[137.05096,36.75485],[137.04867,36.76413],[137.05014,36.77013],[137.05375,36.77227],[137.06017,36.7682],[137.0685,36.76727],[137.07948,36.7623],[137.08492,36.76462],[137.09241,36.76279],[137.10038,36.7664],[137.1039,36.76972],[137.09246,36.77196],[137.08683,36.77578],[137.07771,36.7737],[137.07424,36.78105],[137.0684,36.78361],[137.05889,36.78522],[137.05853,36.78818],[137.06815,36.79391]]]},"properties":{"pref":"富山県","city":"高岡市","code5":"16202","code6":"162027"}},
{"type":"Feature","geometry":{"type":"Polygon","coordinates":[[[137.59042,36.68119],[137.58943,36.68641],[137.58595,36.68952],[137.58695,36.69895],[137.59472,36.70271],[137.60027,36.70935],[137.60588,36.71328],[137.61042,36.71886],[137.61116,36.72587],[137.60777,36.73],[137.59933,36.7311],[137.59029,36.73912],[137.58307,36.7533],[137.56944,36.76047],[137.56431,36.76152],[137.56326,36.76583],[137.54403,36.77039],[137.53309,36.78164],[137.52122,36.77776],[137.51758,36.77878],[137.50601,36.78683],[137.5067,36.79562],[137.49953,36.80341],[137.50646,36.81709],[137.50638,36.82403],[137.48653,36.83115],[137.48095,36.83449],[137.47366,36.83387],[137.45841,36.83685],[137.45207,36.84096],[137.43719,36.84539],[137.43431,36.85034],[137.42996,36.84863],[137.42287,36.85528],[137.40964,36.86098],[137.41142,36.84823],[137.39881,36.83506],[137.39735,36.83103],[137.39736,36.83101],[137.39687,36.82948],[137.39686,36.82945],[137.39322,36.82546],[137.39399,36.8151],[137.39281,36.80713],[137.38226,36.80036],[137.39576,36.7861],[137.40188,36.77446],[137.41503,36.75732],[137.42639,36.74747],[137.43462,36.73154],[137.44109,36.72582],[137.44806,36.71354],[137.45659,36.70175],[137.46223,36.70203],[137.46475,36.70695],[137.47019,36.70366],[137.47632,36.71639],[137.47511,36.72279],[137.48224,36.72407],[137.49342,36.72287],[137.49938,36.72061],[137.51118,36.70602],[137.50793,36.69901],[137.50926,36.68583],[137.51741,36.67873],[137.52614,36.68064],[137.53435,36.67664],[137.54152,36.67813],[137.5505,36.67602],[137.55277,36.67378],[137.5624,36.67578],[137.56927,36.67294],[137.57992,36.67322],[137.58933,36.67665],[137.59042,36.68119]]]},"properties":{"pref":"富山県","city":"魚津市","code5":"16204","code6":"162043"}},
{"type":"Feature","geometry":{"type":"MultiPolygon","coordinates":[[[[137.01677,36.82939],[137.00135,36.84163],[136.9924,36.85202],[136.99153,36.85321],[136.99115,36.85374],[136.99008,36.86097],[136.98522,36.86916],[136.98508,36.87728],[136.99304,36.87941],[136.99416,36.88392],[137.00295,36.88958],[137.01147,36.8996],[137.0179,36.91076],[137.02525,36.91392],[137.03162,36.92724],[137.02842,36.93241],[137.02701,36.93913],[137.04034,36.95086],[137.05169,36.95917],[137.04545,36.96365],[137.03767,36.96712],[137.02724,36.96243],[137.02148,36.96386],[137.00427,36.96144],[136.997,36.96655],[136.98665,36.9672],[136.98588,36.96516],[136.98149,36.95142],[136.97375,36.94431],[136.97113,36.94743],[136.96332,36.94872],[136.95399,36.95596],[136.94876,36.95552],[136.92762,36.94762],[136.92734,36.94418],[136.92243,36.93749],[136.91499,36.93048],[136.90836,36.92921],[136.90584,36.92648],[136.89558,36.92472],[136.89156,36.91803],[136.88567,36.91379],[136.87898,36.90627],[136.87787,36.8995],[136.88137,36.88833],[136.88561,36.88519],[136.88209,36.88086],[136.88303,36.87682],[136.87611,36.86772],[136.8734,36.86765],[136.87124,36.86268],[136.86239,36.86033],[136.86112,36.85482],[136.86695,36.8506],[136.862,36.84785],[136.86328,36.84284],[136.85644,36.83979],[136.86002,36.82908],[136.84875,36.81288],[136.85042,36.80181],[136.854,36.79518],[136.85083,36.78693],[136.85844,36.78599],[136.87317,36.78205],[136.88414,36.78509],[136.88834,36.78278],[136.88738,36.77758],[136.89426,36.77398],[136.89882,36.77401],[136.90571,36.78032],[136.90921,36.77544],[136.91902,36.77346],[136.9268,36.77001],[136.94013,36.77666],[136.9428,36.78062],[136.94862,36.78188],[136.94744,36.78757],[136.95404,36.7908],[136.95673,36.7894],[136.95865,36.78234],[136.9661,36.78667],[136.97599,36.79051],[136.98211,36.78887],[136.98564,36.79427],[136.99062,36.79314],[136.99651,36.79579],[137.01311,36.79047],[137.01797,36.79717],[137.01328,36.80233],[137.00558,36.80271],[137.00027,36.81012],[137.00388,36.81313],[137.01253,36.8156],[137.01162,36.82359],[137.01677,36.82939]]],[[[137.04061,36.93201],[137.04187,36.93217],[137.04144,36.93242],[137.04062,36.93202],[137.04061,36.93201]]]]},"properties":{"pref":"富山県","city":"氷見市","code5":"16205","code6":"162051"}},
{"type":"Feature","geometry":{"type":"Polygon","coordinates":[[[137.33877,36.73861],[137.36588,36.72517],[137.37016,36.72615],[137.37865,36.7234],[137.38324,36.72413],[137.39077,36.71768],[137.39677,36.71825],[137.4053,36.7241],[137.41175,36.72151],[137.41921,36.72109],[137.42614,36.72774],[137.43005,36.72498],[137.43201,36.72003],[137.4371,36.71878],[137.43257,36.70749],[137.44093,36.70546],[137.44539,36.70099],[137.45005,36.70889],[137.44806,36.71354],[137.44109,36.72582],[137.43462,36.73154],[137.42639,36.74747],[137.41503,36.75732],[137.40188,36.77446],[137.39576,36.7861],[137.38226,36.80036],[137.37554,36.79607],[137.3688,36.79419],[137.35652,36.78665],[137.34973,36.78241],[137.34435,36.77706],[137.34307,36.77214],[137.33241,36.76214],[137.31601,36.7586],[137.32331,36.75068],[137.32805,36.75107],[137.33076,36.74451],[137.33672,36.74276],[137.33877,36.73861]]]},"properties":{"pref":"富山県","city":"滑川市","code5":"16206","code6":"162060"}},
{"type":"Feature","geometry":{"type":"Polygon","coordinates":[[[137.59042,36.68119],[137.60192,36.67004],[137.61433,36.65524],[137.61952,36.65459],[137.6224,36.64619],[137.62737,36.63965],[137.63814,36.63851],[137.64449,36.63931],[137.64692,36.6352],[137.66236,36.63626],[137.67464,36.63557],[137.68198,36.63947],[137.68508,36.64494],[137.69205,36.64347],[137.70151,36.63785],[137.7166,36.62656],[137.72767,36.62282],[137.74263,36.62541],[137.74678,36.62456],[137.75133,36.62675],[137.75256,36.63505],[137.75626,36.64689],[137.75668,36.6586],[137.7606,36.66459],[137.76174,36.66697],[137.75847,36.67615],[137.75974,36.68593],[137.75422,36.68746],[137.75661,36.69413],[137.75528,36.69846],[137.75114,36.70054],[137.75006,36.70498],[137.7527,36.71933],[137.75097,36.72689],[137.75929,36.74061],[137.75177,36.75111],[137.75413,36.75403],[137.75084,36.7582],[137.74693,36.76724],[137.64707,36.83638],[137.64884,36.84168],[137.64441,36.8511],[137.63652,36.85203],[137.63176,36.85061],[137.61863,36.86424],[137.6108,36.86648],[137.59932,36.85751],[137.5951,36.85261],[137.58908,36.8519],[137.5861,36.86365],[137.58214,36.8674],[137.57322,36.86852],[137.56062,36.87649],[137.5512,36.87559],[137.54657,36.88975],[137.54209,36.89405],[137.53812,36.89355],[137.54433,36.8801],[137.54155,36.86841],[137.53408,36.87391],[137.52449,36.87507],[137.51294,36.88112],[137.49985,36.89088],[137.48373,36.89676],[137.4527,36.90367],[137.43867,36.91179],[137.42615,36.92221],[137.42054,36.91719],[137.41865,36.91121],[137.40981,36.89881],[137.40966,36.89659],[137.41573,36.8892],[137.41898,36.88064],[137.41671,36.8678],[137.40964,36.86098],[137.42287,36.85528],[137.42996,36.84863],[137.43431,36.85034],[137.43719,36.84539],[137.45207,36.84096],[137.45841,36.83685],[137.47366,36.83387],[137.48095,36.83449],[137.48653,36.83115],[137.50638,36.82403],[137.50646,36.81709],[137.49953,36.80341],[137.5067,36.79562],[137.50601,36.78683],[137.51758,36.77878],[137.52122,36.77776],[137.53309,36.78164],[137.54403,36.77039],[137.56326,36.76583],[137.56431,36.76152],[137.56944,36.76047],[137.58307,36.7533],[137.59029,36.73912],[137.59933,36.7311],[137.60777,36.73],[137.61116,36.72587],[137.61042,36.71886],[137.60588,36.71328],[137.60027,36.70935],[137.59472,36.70271],[137.58695,36.69895],[137.58595,36.68952],[137.58943,36.68641],[137.59042,36.68119]]]},"properties":{"pref":"富山県","city":"黒部市","code5":"16207","code6":"162078"}},
{"type":"Feature","geometry":{"type":"Polygon","coordinates":[[[137.05166,36.64605],[137.05304,36.6519],[137.04854,36.65541],[137.04711,36.65976],[137.04159,36.65822],[137.03264,36.66028],[137.03265,36.66246],[137.02222,36.66634],[137.02343,36.67073],[137.01161,36.6722],[137.00795,36.66601],[137.00751,36.65921],[136.99799,36.65997],[136.99137,36.65685],[136.98666,36.65706],[136.98967,36.66933],[136.97801,36.67075],[136.97431,36.66517],[136.96609,36.66488],[136.96545,36.65971],[136.95622,36.66059],[136.95672,36.67006],[136.95357,36.67119],[136.95009,36.6799],[136.9449,36.67942],[136.93348,36.6857],[136.92379,36.6851],[136.93104,36.67745],[136.93367,36.6725],[136.92043,36.67422],[136.91387,36.66509],[136.91761,36.65571],[136.91308,36.65142],[136.9197,36.63875],[136.90719,36.62674],[136.90608,36.62266],[136.90881,36.62136],[136.92323,36.61795],[136.92377,36.61214],[136.94125,36.60535],[136.94532,36.60515],[136.95733,36.59795],[136.95986,36.5929],[136.9704,36.58503],[136.97353,36.57699],[136.97199,36.57475],[136.97811,36.56902],[136.98405,36.56065],[136.98785,36.56144],[136.98977,36.55476],[136.99511,36.55184],[137.00378,36.54963],[137.0029,36.54401],[137.01116,36.54351],[137.02174,36.54116],[137.03613,36.54099],[137.03826,36.55636],[137.03726,36.56524],[137.04078,36.57042],[137.03959,36.57997],[137.04562,36.58448],[137.04443,36.58964],[137.04923,36.59421],[137.04972,36.60074],[137.05377,36.6003],[137.05336,36.61325],[137.05609,36.61876],[137.05375,36.62149],[137.05649,36.63009],[137.06534,36.63833],[137.05865,36.64487],[137.05166,36.64605]]]},"properties":{"pref":"富山県","city":"砺波市","code5":"16208","code6":"162086"}},
{"type":"Feature","geometry":{"type":"Polygon","coordinates":[[[136.83346,36.74308],[136.82172,36.73998],[136.81986,36.73065],[136.79954,36.73005],[136.79377,36.72696],[136.79388,36.72221],[136.78985,36.71746],[136.79888,36.70979],[136.80395,36.70855],[136.80755,36.70465],[136.81317,36.703],[136.81389,36.69877],[136.81137,36.69318],[136.8111,36.68496],[136.81759,36.68543],[136.82255,36.68061],[136.82056,36.67496],[136.82378,36.66971],[136.81863,36.6676],[136.81404,36.65924],[136.80723,36.65312],[136.80755,36.64801],[136.79976,36.64458],[136.7999,36.6364],[136.79388,36.63105],[136.78613,36.62961],[136.78423,36.62705],[136.78346,36.61513],[136.7895,36.60542],[136.7948,36.60428],[136.79961,36.60923],[136.79676,36.61317],[136.80117,36.61698],[136.81185,36.61605],[136.8131,36.61339],[136.80992,36.60441],[136.81413,36.60109],[136.82356,36.6002],[136.83087,36.59786],[136.83277,36.59498],[136.84442,36.58563],[136.8509,36.58697],[136.85221,36.59665],[136.8557,36.59979],[136.86615,36.60458],[136.86831,36.6021],[136.87538,36.60396],[136.8813,36.60266],[136.88859,36.60343],[136.9004,36.60214],[136.90247,36.60928],[136.9091,36.61472],[136.90809,36.62068],[136.90405,36.62379],[136.90719,36.62674],[136.9197,36.63875],[136.91308,36.65142],[136.91761,36.65571],[136.91387,36.66509],[136.92043,36.67422],[136.93367,36.6725],[136.93104,36.67745],[136.92379,36.6851],[136.92047,36.69065],[136.91384,36.68702],[136.90687,36.69527],[136.90831,36.70029],[136.90386,36.70271],[136.89736,36.69969],[136.89072,36.69892],[136.89006,36.70418],[136.88656,36.70626],[136.88557,36.71618],[136.87701,36.71704],[136.87057,36.72092],[136.86784,36.72492],[136.85958,36.72616],[136.85753,36.73281],[136.85054,36.73594],[136.84166,36.73602],[136.83657,36.74211],[136.83346,36.74308]]]},"properties":{"pref":"富山県","city":"小矢部市","code5":"16209","code6":"162094"}},
{"type":"Feature","geometry":{"type":"Polygon","coordinates":[[[137.03613,36.54099],[137.02174,36.54116],[137.01116,36.54351],[137.0029,36.54401],[137.00378,36.54963],[136.99511,36.55184],[136.98977,36.55476],[136.98785,36.56144],[136.98405,36.56065],[136.97811,36.56902],[136.97199,36.57475],[136.97353,36.57699],[136.9704,36.58503],[136.95986,36.5929],[136.95733,36.59795],[136.94532,36.60515],[136.94125,36.60535],[136.92377,36.61214],[136.92323,36.61795],[136.90881,36.62136],[136.90608,36.62266],[136.90719,36.62674],[136.90405,36.62379],[136.90809,36.62068],[136.9091,36.61472],[136.90247,36.60928],[136.9004,36.60214],[136.88859,36.60343],[136.8813,36.60266],[136.87538,36.60396],[136.86831,36.6021],[136.86615,36.60458],[136.8557,36.59979],[136.85221,36.59665],[136.8509,36.58697],[136.84442,36.58563],[136.83277,36.59498],[136.83087,36.59786],[136.82356,36.6002],[136.81413,36.60109],[136.80992,36.60441],[136.8131,36.61339],[136.81185,36.61605],[136.80117,36.61698],[136.79676,36.61317],[136.79961,36.60923],[136.7948,36.60428],[136.7895,36.60542],[136.78831,36.59302],[136.79417,36.58988],[136.79529,36.58338],[136.79093,36.56981],[136.80244,36.56877],[136.80784,36.56205],[136.81178,36.5606],[136.81711,36.55279],[136.81679,36.54849],[136.81286,36.5381],[136.80765,36.53054],[136.80396,36.5225],[136.79511,36.51081],[136.79709,36.50199],[136.79493,36.49633],[136.80263,36.48473],[136.79988,36.48304],[136.79555,36.47489],[136.79818,36.46886],[136.79504,36.46406],[136.79828,36.46182],[136.78915,36.45452],[136.78899,36.44941],[136.79521,36.4434],[136.78632,36.43842],[136.77818,36.43088],[136.77438,36.43273],[136.76946,36.43071],[136.76853,36.42333],[136.77165,36.42025],[136.77124,36.41403],[136.77886,36.41437],[136.79514,36.40126],[136.7982,36.38418],[136.80048,36.38065],[136.80059,36.36939],[136.80666,36.36328],[136.80819,36.35869],[136.80597,36.3554],[136.79667,36.35205],[136.79529,36.34954],[136.78719,36.34826],[136.78447,36.34228],[136.78686,36.33327],[136.78397,36.32899],[136.78912,36.32487],[136.79063,36.31593],[136.78836,36.31233],[136.79229,36.29921],[136.7954,36.30266],[136.80418,36.30619],[136.80915,36.30271],[136.81699,36.30343],[136.82657,36.30258],[136.8304,36.30774],[136.83252,36.31542],[136.83829,36.32316],[136.84249,36.33326],[136.83921,36.33839],[136.83735,36.34731],[136.84397,36.35109],[136.85165,36.34757],[136.85519,36.34956],[136.8651,36.34966],[136.86423,36.35546],[136.86884,36.36388],[136.87605,36.36073],[136.87654,36.34686],[136.88277,36.34204],[136.89009,36.34556],[136.90747,36.36084],[136.91308,36.35757],[136.92281,36.35496],[136.93235,36.34848],[136.93964,36.34921],[136.94676,36.3458],[136.95107,36.33924],[136.9549,36.33935],[136.96143,36.32756],[136.96379,36.31924],[136.97112,36.31554],[136.9722,36.31065],[136.96883,36.30492],[136.96549,36.29218],[136.96051,36.28778],[136.96161,36.28471],[136.95824,36.27768],[136.96672,36.27745],[136.97531,36.27436],[136.98023,36.27927],[136.98622,36.28233],[136.99015,36.28712],[137.00256,36.2869],[137.00784,36.28967],[137.01081,36.29803],[137.02125,36.30918],[137.01841,36.31588],[137.03757,36.31744],[137.05228,36.32951],[137.05253,36.33854],[137.05874,36.3425],[137.04898,36.34569],[137.05455,36.35234],[137.062,36.36575],[137.05845,36.37198],[137.05067,36.36975],[137.04703,36.37216],[137.04858,36.37933],[137.05455,36.39292],[137.05835,36.39766],[137.05612,36.41188],[137.06214,36.42698],[137.0573,36.43059],[137.0547,36.43732],[137.0562,36.44153],[137.06428,36.45213],[137.06119,36.4617],[137.05891,36.4635],[137.05995,36.47067],[137.055,36.47835],[137.05022,36.50307],[137.04434,36.50626],[137.03816,36.50524],[137.03142,36.5],[137.02828,36.50607],[137.03459,36.51395],[137.03376,36.52924],[137.03262,36.5331],[137.03613,36.54099]]]},"properties":{"pref":"富山県","city":"南砺市","code5":"16210","code6":"162108"}},
{"type":"Feature","geometry":{"type":"MultiPolygon","coordinates":[[[[137.18013,36.75796],[137.15584,36.76318],[137.14833,36.76701],[137.13603,36.77071],[137.13702,36.77542],[137.12192,36.77947],[137.11763,36.77533],[137.11832,36.76651],[137.12603,36.76213],[137.13435,36.75988],[137.13316,36.7569],[137.12461,36.75842],[137.11362,36.76512],[137.11209,36.76789],[137.1039,36.76972],[137.10038,36.7664],[137.09241,36.76279],[137.08492,36.76462],[137.07948,36.7623],[137.0685,36.76727],[137.06017,36.7682],[137.05375,36.77227],[137.05014,36.77013],[137.04867,36.76413],[137.05096,36.75485],[137.04476,36.7398],[137.03885,36.73587],[137.03959,36.73095],[137.01103,36.69922],[137.01717,36.69661],[137.03215,36.69267],[137.03877,36.68976],[137.03514,36.67938],[137.04287,36.67284],[137.04306,36.66697],[137.0474,36.6637],[137.04711,36.65976],[137.04854,36.65541],[137.05304,36.6519],[137.05166,36.64605],[137.05692,36.65224],[137.0639,36.65682],[137.06657,36.65189],[137.07312,36.6492],[137.0802,36.66366],[137.08736,36.6591],[137.09983,36.68357],[137.10774,36.68075],[137.11422,36.68581],[137.12165,36.68603],[137.12506,36.69521],[137.1233,36.70229],[137.11908,36.71116],[137.12405,36.71192],[137.12454,36.71771],[137.13089,36.71997],[137.13209,36.72516],[137.14588,36.72448],[137.1473,36.73151],[137.1512,36.74062],[137.16672,36.74323],[137.179,36.74822],[137.18013,36.75796]]],[[[137.09246,36.77196],[137.09357,36.77274],[137.09417,36.77502],[137.10937,36.77289],[137.11373,36.77534],[137.10799,36.77909],[137.11338,36.78142],[137.10043,36.78503],[137.09648,36.78105],[137.08629,36.78346],[137.07355,36.79183],[137.06815,36.79391],[137.05853,36.78818],[137.05889,36.78522],[137.0684,36.78361],[137.07424,36.78105],[137.07771,36.7737],[137.08683,36.77578],[137.09246,36.77196]]]]},"properties":{"pref":"富山県","city":"射水市","code5":"16211","code6":"162116"}},
{"type":"Feature","geometry":{"type":"Polygon","coordinates":[[[137.29318,36.70392],[137.29911,36.70431],[137.29999,36.69693],[137.29711,36.68834],[137.30599,36.68709],[137.31009,36.69104],[137.309,36.69474],[137.31747,36.69975],[137.31651,36.70419],[137.31678,36.71217],[137.31022,36.70913],[137.30563,36.71318],[137.30015,36.7106],[137.29318,36.70392]]]},"properties":{"pref":"富山県","county":"中新川郡","city":"舟橋村","code5":"16321","code6":"163210"}},
{"type":"Feature","geometry":{"type":"Polygon","coordinates":[[[137.31678,36.71217],[137.31651,36.70419],[137.32825,36.70506],[137.33187,36.70244],[137.33289,36.69775],[137.32998,36.69506],[137.33274,36.69102],[137.33944,36.69052],[137.34284,36.68314],[137.35241,36.68227],[137.35606,36.67659],[137.35527,36.66924],[137.36003,36.66908],[137.36336,36.66322],[137.36941,36.6569],[137.37763,36.65671],[137.38024,36.65186],[137.38653,36.64986],[137.389,36.6432],[137.39376,36.63791],[137.39652,36.63869],[137.40598,36.63288],[137.40561,36.62697],[137.41346,36.62772],[137.42413,36.62491],[137.42785,36.62545],[137.4378,36.6161],[137.44035,36.61224],[137.44172,36.60485],[137.44883,36.60216],[137.45839,36.60248],[137.46232,36.60482],[137.47474,36.60876],[137.482,36.60742],[137.48737,36.61054],[137.501,36.60744],[137.50206,36.60043],[137.51926,36.60104],[137.53106,36.60765],[137.54051,36.60708],[137.54608,36.6011],[137.55519,36.59611],[137.56391,36.59573],[137.57253,36.59924],[137.58197,36.59758],[137.58436,36.59272],[137.5954,36.59201],[137.60248,36.59406],[137.60998,36.59936],[137.60805,36.60651],[137.61387,36.61205],[137.61477,36.62096],[137.6232,36.62963],[137.61991,36.63399],[137.62737,36.63965],[137.6224,36.64619],[137.61952,36.65459],[137.61433,36.65524],[137.60192,36.67004],[137.59042,36.68119],[137.58933,36.67665],[137.57992,36.67322],[137.56927,36.67294],[137.5624,36.67578],[137.55277,36.67378],[137.5505,36.67602],[137.54152,36.67813],[137.53435,36.67664],[137.52614,36.68064],[137.51741,36.67873],[137.50926,36.68583],[137.50793,36.69901],[137.51118,36.70602],[137.49938,36.72061],[137.49342,36.72287],[137.48224,36.72407],[137.47511,36.72279],[137.47632,36.71639],[137.47019,36.70366],[137.46475,36.70695],[137.46223,36.70203],[137.45659,36.70175],[137.44806,36.71354],[137.45005,36.70889],[137.44539,36.70099],[137.44093,36.70546],[137.43257,36.70749],[137.4371,36.71878],[137.43201,36.72003],[137.43005,36.72498],[137.42614,36.72774],[137.41921,36.72109],[137.41175,36.72151],[137.4053,36.7241],[137.39677,36.71825],[137.39077,36.71768],[137.38324,36.72413],[137.37865,36.7234],[137.37016,36.72615],[137.36588,36.72517],[137.33877,36.73861],[137.33512,36.7342],[137.34096,36.73078],[137.34336,36.72608],[137.33707,36.72398],[137.33187,36.72616],[137.32134,36.72688],[137.32227,36.72044],[137.31678,36.71217]]]},"properties":{"pref":"富山県","county":"中新川郡","city":"上市町","code5":"16322","code6":"163228"}},
{"type":"Feature","geometry":{"type":"Polygon","coordinates":[[[137.70366,36.52668],[137.71012,36.53458],[137.70411,36.53676],[137.6846,36.53781],[137.6895,36.55357],[137.68774,36.56207],[137.69389,36.56906],[137.69853,36.56961],[137.71321,36.57708],[137.71812,36.58224],[137.72511,36.5867],[137.73068,36.58796],[137.74786,36.58685],[137.7531,36.59372],[137.75077,36.60064],[137.74781,36.60365],[137.74394,36.61275],[137.74678,36.62456],[137.74263,36.62541],[137.72767,36.62282],[137.7166,36.62656],[137.70151,36.63785],[137.69205,36.64347],[137.68508,36.64494],[137.68198,36.63947],[137.67464,36.63557],[137.66236,36.63626],[137.64692,36.6352],[137.64449,36.63931],[137.63814,36.63851],[137.62737,36.63965],[137.61991,36.63399],[137.6232,36.62963],[137.61477,36.62096],[137.61387,36.61205],[137.60805,36.60651],[137.60998,36.59936],[137.60248,36.59406],[137.5954,36.59201],[137.58436,36.59272],[137.58197,36.59758],[137.57253,36.59924],[137.56391,36.59573],[137.55519,36.59611],[137.54608,36.6011],[137.54051,36.60708],[137.53106,36.60765],[137.51926,36.60104],[137.50206,36.60043],[137.501,36.60744],[137.48737,36.61054],[137.482,36.60742],[137.47474,36.60876],[137.46232,36.60482],[137.45839,36.60248],[137.44883,36.60216],[137.44172,36.60485],[137.44035,36.61224],[137.4378,36.6161],[137.42785,36.62545],[137.42413,36.62491],[137.41346,36.62772],[137.40561,36.62697],[137.40598,36.63288],[137.39652,36.63869],[137.39376,36.63791],[137.389,36.6432],[137.38653,36.64986],[137.38024,36.65186],[137.37763,36.65671],[137.36941,36.6569],[137.36336,36.66322],[137.36003,36.66908],[137.35527,36.66924],[137.35606,36.67659],[137.35241,36.68227],[137.34284,36.68314],[137.33944,36.69052],[137.33274,36.69102],[137.32998,36.69506],[137.33289,36.69775],[137.33187,36.70244],[137.32825,36.70506],[137.31651,36.70419],[137.31747,36.69975],[137.309,36.69474],[137.31009,36.69104],[137.30599,36.68709],[137.29711,36.68834],[137.29999,36.69693],[137.29911,36.70431],[137.29318,36.70392],[137.29101,36.69826],[137.28559,36.69589],[137.27753,36.69499],[137.28329,36.67289],[137.28263,36.65161],[137.28478,36.64144],[137.2884,36.63473],[137.3035,36.61626],[137.30968,36.61053],[137.3177,36.59885],[137.31895,36.59211],[137.32457,36.58597],[137.33133,36.58301],[137.33377,36.57931],[137.34551,36.57427],[137.35394,36.5735],[137.35992,36.57128],[137.37332,36.57222],[137.38774,36.57668],[137.3916,36.57626],[137.40541,36.5794],[137.41891,36.58398],[137.42526,36.58271],[137.43725,36.58507],[137.44249,36.58082],[137.44909,36.57932],[137.45694,36.57264],[137.46727,36.57034],[137.47438,36.56584],[137.48173,36.5669],[137.48789,36.56525],[137.49826,36.55759],[137.50159,36.55895],[137.50938,36.55293],[137.51098,36.54713],[137.52207,36.54465],[137.52962,36.54825],[137.53747,36.54891],[137.54314,36.54599],[137.55917,36.55066],[137.57086,36.55571],[137.58338,36.55576],[137.59073,36.55415],[137.59968,36.54776],[137.6471,36.52486],[137.65562,36.51965],[137.66206,36.52366],[137.67229,36.52658],[137.69151,36.51967],[137.6973,36.5225],[137.69945,36.52669],[137.70366,36.52668]]]},"properties":{"pref":"富山県","county":"中新川郡","city":"立山町","code5":"16323","code6":"163236"}},
{"type":"Feature","geometry":{"type":"Polygon","coordinates":[[[137.6108,36.86648],[137.60713,36.87448],[137.60219,36.87653],[137.59157,36.88753],[137.58306,36.8813],[137.56716,36.88336],[137.5638,36.88676],[137.55779,36.88815],[137.55526,36.89305],[137.55883,36.90083],[137.55874,36.91057],[137.54031,36.91057],[137.53175,36.90887],[137.52974,36.91716],[137.52737,36.9194],[137.52691,36.9258],[137.53126,36.94116],[137.53707,36.94151],[137.54037,36.94607],[137.54281,36.96106],[137.53581,36.96103],[137.51035,36.95858],[137.49064,36.95418],[137.47658,36.94613],[137.46902,36.94423],[137.46002,36.93846],[137.43599,36.931],[137.42839,36.92649],[137.42615,36.92221],[137.43867,36.91179],[137.4527,36.90367],[137.48373,36.89676],[137.49985,36.89088],[137.51294,36.88112],[137.52449,36.87507],[137.53408,36.87391],[137.54155,36.86841],[137.54433,36.8801],[137.53812,36.89355],[137.54209,36.89405],[137.54657,36.88975],[137.5512,36.87559],[137.56062,36.87649],[137.57322,36.86852],[137.58214,36.8674],[137.5861,36.86365],[137.58908,36.8519],[137.5951,36.85261],[137.59932,36.85751],[137.6108,36.86648]]]},"properties":{"pref":"富山県","county":"下新川郡","city":"入善町","code5":"16342","code6":"163422"}},
{"type":"Feature","geometry":{"type":"Polygon","coordinates":[[[137.63498,36.9798],[137.61157,36.97639],[137.58957,36.97518],[137.57458,36.96413],[137.54479,36.96174],[137.54281,36.96106],[137.54037,36.94607],[137.53707,36.94151],[137.53126,36.94116],[137.52691,36.9258],[137.52737,36.9194],[137.52974,36.91716],[137.53175,36.90887],[137.54031,36.91057],[137.55874,36.91057],[137.55883,36.90083],[137.55526,36.89305],[137.55779,36.88815],[137.5638,36.88676],[137.56716,36.88336],[137.58306,36.8813],[137.59157,36.88753],[137.60219,36.87653],[137.60713,36.87448],[137.6108,36.86648],[137.61863,36.86424],[137.63176,36.85061],[137.63652,36.85203],[137.64441,36.8511],[137.64884,36.84168],[137.64707,36.83638],[137.74693,36.76724],[137.75084,36.7582],[137.75413,36.75403],[137.76244,36.76616],[137.76339,36.76823],[137.75784,36.7745],[137.74967,36.77971],[137.75086,36.79131],[137.75429,36.79659],[137.75097,36.80056],[137.74925,36.80969],[137.74487,36.81522],[137.73199,36.82364],[137.73007,36.82676],[137.73444,36.8314],[137.73265,36.83614],[137.73287,36.84504],[137.73516,36.85519],[137.73207,36.87369],[137.72491,36.8779],[137.71298,36.89376],[137.71418,36.89992],[137.71257,36.90408],[137.71784,36.9078],[137.71793,36.92264],[137.72046,36.92669],[137.71337,36.93505],[137.71116,36.94423],[137.69864,36.94227],[137.68746,36.9432],[137.67984,36.94836],[137.66621,36.95369],[137.65774,36.95983],[137.65154,36.96902],[137.63767,36.97655],[137.63498,36.9798]]]},"properties":{"pref":"富山県","county":"下新川郡","city":"朝日町","code5":"16343","code6":"163431"}}
]}