{"type":"FeatureCollection", "features": [
{"type":"Feature","geometry":{"type":"Polygon","coordinates":[[[136.78613,36.62961],[136.77978,36.62987],[136.77836,36.63357],[136.77306,36.63475],[136.76792,36.63324],[136.75523,36.63908],[136.75277,36.63546],[136.74474,36.63618],[136.74402,36.64138],[136.73771,36.64026],[136.73503,36.64247],[136.72634,36.64386],[136.71537,36.64724],[136.71042,36.64672],[136.70334,36.65229],[136.68973,36.66004],[136.69664,36.66811],[136.68599,36.67416],[136.66659,36.65205],[136.65357,36.64403],[136.63284,36.62558],[136.63162,36.62817],[136.61824,36.63905],[136.61335,36.63904],[136.60356,36.62806],[136.60851,36.62493],[136.60682,36.62168],[136.60049,36.62054],[136.59432,36.6141],[136.58647,36.60929],[136.58812,36.60626],[136.58506,36.59825],[136.56454,36.5772],[136.55706,36.56775],[136.56961,36.56196],[136.57674,36.56286],[136.58005,36.55247],[136.59087,36.54835],[136.59226,36.54515],[136.59455,36.55284],[136.60072,36.55487],[136.60514,36.54018],[136.61128,36.54104],[136.61191,36.54605],[136.61714,36.54713],[136.62205,36.54456],[136.62483,36.53747],[136.62204,36.53382],[136.63083,36.53137],[136.62838,36.52465],[136.61993,36.52567],[136.61534,36.52326],[136.61511,36.51005],[136.61296,36.50436],[136.61349,36.4967],[136.61991,36.49611],[136.62994,36.48966],[136.63341,36.48517],[136.6435,36.48444],[136.63616,36.47531],[136.64057,36.46999],[136.64655,36.46814],[136.64533,36.46297],[136.65441,36.45164],[136.64861,36.44529],[136.65006,36.43974],[136.65706,36.44037],[136.65813,36.43553],[136.65663,36.42648],[136.66063,36.41825],[136.66549,36.41676],[136.66548,36.41162],[136.66211,36.4059],[136.66571,36.40348],[136.67336,36.40283],[136.67616,36.39923],[136.68282,36.39685],[136.68999,36.38959],[136.70556,36.3922],[136.7103,36.39135],[136.71001,36.38082],[136.71593,36.37684],[136.71588,36.37153],[136.72073,36.36877],[136.72769,36.36868],[136.74194,36.36241],[136.74787,36.35513],[136.75555,36.34878],[136.75909,36.34996],[136.77006,36.34613],[136.7708,36.3396],[136.77761,36.33822],[136.78447,36.34228],[136.78719,36.34826],[136.79529,36.34954],[136.79667,36.35205],[136.80597,36.3554],[136.80819,36.35869],[136.80666,36.36328],[136.80059,36.36939],[136.80048,36.38065],[136.7982,36.38418],[136.79514,36.40126],[136.77886,36.41437],[136.77124,36.41403],[136.77165,36.42025],[136.76853,36.42333],[136.76946,36.43071],[136.77438,36.43273],[136.77818,36.43088],[136.78632,36.43842],[136.79521,36.4434],[136.78899,36.44941],[136.78915,36.45452],[136.79828,36.46182],[136.79504,36.46406],[136.79818,36.46886],[136.79555,36.47489],[136.79988,36.48304],[136.80263,36.48473],[136.79493,36.49633],[136.79709,36.50199],[136.79511,36.51081],[136.80396,36.5225],[136.80765,36.53054],[136.81286,36.5381],[136.81679,36.54849],[136.81711,36.55279],[136.81178,36.5606],[136.80784,36.56205],[136.80244,36.56877],[136.79093,36.56981],[136.79529,36.58338],[136.79417,36.58988],[136.78831,36.59302],[136.7895,36.60542],[136.78346,36.61513],[136.78423,36.62705],[136.78613,36.62961]]]},"properties":{"pref":"石川県","city":"金沢市","code5":"17201","code6":"172014"}},
{"type":"Feature","geometry":{"type":"MultiPolygon","coordinates":[[[[137.05169,36.95917],[137.05658,36.96756],[137.05059,36.97568],[137.05121,36.97981],[137.04874,36.98709],[137.0526,36.99048],[137.05328,36.99483],[137.04725,37.00328],[137.04627,37.01098],[137.05111,37.02012],[137.04559,37.0377],[137.0489,37.04258],[137.04749,37.0479],[137.05007,37.05331],[137.04916,37.05997],[137.05252,37.0634],[137.05446,37.07511],[137.05122,37.0796],[137.05058,37.08799],[137.05259,37.09449],[137.04949,37.10115],[137.05405,37.10647],[137.04838,37.10754],[137.03782,37.10585],[137.03435,37.10338],[137.02835,37.10329],[137.02089,37.09854],[137.01567,37.09433],[137.01041,37.08121],[137.00702,37.0766],[137.00241,37.06618],[137.00744,37.06287],[137.00515,37.05709],[137.00013,37.05514],[136.99635,37.05981],[136.98848,37.05637],[136.9904,37.05154],[136.98417,37.04821],[136.97619,37.05316],[136.97267,37.04694],[136.95567,37.05722],[136.96293,37.06602],[136.95452,37.06833],[136.94044,37.06791],[136.93625,37.07188],[136.93526,37.07886],[136.9414,37.08221],[136.93778,37.08597],[136.93155,37.08743],[136.92651,37.08642],[136.92591,37.08764],[136.91131,37.09066],[136.9065,37.08886],[136.90357,37.08343],[136.90609,37.07933],[136.90173,37.07372],[136.89728,37.07157],[136.89002,37.07436],[136.88785,37.06832],[136.87373,37.07029],[136.86671,37.07433],[136.8599,37.07565],[136.85951,37.08001],[136.86897,37.08969],[136.86565,37.09702],[136.86762,37.11103],[136.87387,37.114],[136.88004,37.10961],[136.88306,37.115],[136.88818,37.11109],[136.89288,37.11075],[136.89286,37.11838],[136.89922,37.13158],[136.90039,37.13712],[136.8932,37.13889],[136.89148,37.14354],[136.88537,37.14092],[136.87498,37.14055],[136.87817,37.15046],[136.88297,37.1589],[136.88477,37.1648],[136.88911,37.16893],[136.88397,37.16987],[136.88253,37.17382],[136.872,37.1793],[136.86348,37.17585],[136.85555,37.17506],[136.85101,37.18383],[136.85094,37.19576],[136.84737,37.19838],[136.83136,37.20101],[136.82168,37.19831],[136.81484,37.19371],[136.80936,37.19389],[136.80132,37.18289],[136.80043,37.17381],[136.79691,37.16736],[136.78942,37.15858],[136.78507,37.15648],[136.78591,37.15064],[136.78139,37.14449],[136.78222,37.13741],[136.78605,37.13437],[136.78463,37.12719],[136.77932,37.12528],[136.77634,37.11944],[136.78214,37.10997],[136.78605,37.10844],[136.78618,37.10336],[136.78941,37.09804],[136.79826,37.09327],[136.80371,37.09217],[136.81018,37.08514],[136.81086,37.07931],[136.81585,37.08129],[136.81876,37.07866],[136.82806,37.07574],[136.83779,37.07108],[136.83668,37.06596],[136.83221,37.06222],[136.83409,37.05931],[136.84239,37.06221],[136.84402,37.05515],[136.85027,37.05302],[136.85824,37.047],[136.86004,37.04023],[136.85638,37.03703],[136.8531,37.02858],[136.85735,37.02713],[136.85761,37.02288],[136.86192,37.01944],[136.86994,37.01705],[136.88617,37.01626],[136.89594,37.01418],[136.91351,37.0155],[136.91807,37.01723],[136.92523,37.00339],[136.92765,36.99632],[136.93801,36.99281],[136.9431,36.99391],[136.95322,36.98724],[136.95578,36.98281],[136.94916,36.97697],[136.96097,36.97173],[136.9691,36.97205],[136.97667,36.97657],[136.98588,36.96516],[136.98665,36.9672],[136.997,36.96655],[137.00427,36.96144],[137.02148,36.96386],[137.02724,36.96243],[137.03767,36.96712],[137.04545,36.96365],[137.05169,36.95917]]],[[[137.03775,37.1681],[137.03319,37.16636],[137.02556,37.15846],[137.02426,37.14503],[137.01375,37.14077],[137.00807,37.13722],[136.99401,37.13892],[136.98893,37.14232],[136.9863,37.15105],[136.97987,37.14702],[136.97342,37.15285],[136.96885,37.15456],[136.96742,37.1476],[136.96231,37.14284],[136.95525,37.14319],[136.9443,37.14063],[136.93965,37.14078],[136.93095,37.13788],[136.93191,37.13386],[136.92784,37.13177],[136.92294,37.13342],[136.92299,37.14162],[136.92489,37.1447],[136.91717,37.14884],[136.91656,37.15293],[136.91138,37.15496],[136.90831,37.15043],[136.9018,37.15227],[136.90378,37.14451],[136.90195,37.14143],[136.90661,37.13849],[136.90622,37.13356],[136.91496,37.13355],[136.91864,37.12649],[136.92277,37.12359],[136.93125,37.12263],[136.93894,37.11588],[136.94649,37.09893],[136.95104,37.09712],[136.9572,37.10148],[136.96566,37.10456],[136.96854,37.09862],[136.97633,37.0975],[136.97846,37.10433],[136.98768,37.11319],[136.99394,37.11778],[137.00533,37.11739],[137.01432,37.11193],[137.02318,37.11153],[137.02615,37.11621],[137.03848,37.11796],[137.04108,37.11713],[137.05003,37.12308],[137.05027,37.12926],[137.04508,37.131],[137.04065,37.13785],[137.04314,37.14443],[137.05335,37.15093],[137.04952,37.15308],[137.04863,37.15824],[137.04079,37.16792],[137.03775,37.1681]]]]},"properties":{"pref":"石川県","city":"七尾市","code5":"17202","code6":"172022"}},
{"type":"Feature","geometry":{"type":"Polygon","coordinates":[[[136.57843,36.39388],[136.57468,36.39664],[136.56622,36.39865],[136.55949,36.39423],[136.5521,36.40102],[136.55218,36.40658],[136.54089,36.40936],[136.54074,36.41483],[136.53351,36.41981],[136.52638,36.42877],[136.51802,36.42619],[136.50928,36.42509],[136.50848,36.42274],[136.49357,36.42103],[136.48942,36.42461],[136.48761,36.4165],[136.48232,36.41591],[136.48391,36.42394],[136.47878,36.42477],[136.48412,36.43395],[136.48734,36.43502],[136.4884,36.44116],[136.48318,36.43998],[136.48051,36.44339],[136.47385,36.44208],[136.47257,36.43558],[136.44371,36.43506],[136.43117,36.42723],[136.42622,36.43031],[136.41394,36.41719],[136.38914,36.39637],[136.37233,36.38341],[136.3805,36.37702],[136.38471,36.36875],[136.39043,36.36822],[136.39441,36.36412],[136.38735,36.35355],[136.4006,36.3402],[136.40874,36.34015],[136.41548,36.33333],[136.41716,36.32263],[136.40855,36.31842],[136.40319,36.31392],[136.40445,36.31114],[136.41492,36.30501],[136.41275,36.29973],[136.4155,36.29631],[136.41583,36.29008],[136.41167,36.28525],[136.41662,36.27769],[136.42118,36.2761],[136.42027,36.26767],[136.42985,36.26394],[136.44794,36.26543],[136.45399,36.26376],[136.4608,36.26486],[136.46677,36.25592],[136.4759,36.25265],[136.47396,36.24258],[136.47802,36.23637],[136.48485,36.23564],[136.4835,36.22909],[136.48486,36.21619],[136.49084,36.20677],[136.49001,36.19337],[136.49109,36.18848],[136.49794,36.18513],[136.4969,36.17015],[136.49169,36.15829],[136.49707,36.14967],[136.50304,36.14966],[136.5057,36.14663],[136.51194,36.14627],[136.52153,36.15138],[136.52668,36.14812],[136.53769,36.15038],[136.55183,36.15491],[136.54996,36.16255],[136.55741,36.1757],[136.55747,36.18416],[136.56222,36.19324],[136.56567,36.19641],[136.56741,36.20405],[136.58287,36.21504],[136.58722,36.21412],[136.5937,36.21614],[136.59922,36.23006],[136.598,36.2366],[136.60362,36.24595],[136.60233,36.2489],[136.60648,36.25654],[136.61207,36.26008],[136.60889,36.26282],[136.59941,36.26409],[136.59443,36.27408],[136.58771,36.27916],[136.57241,36.28438],[136.56343,36.28378],[136.55728,36.28028],[136.5501,36.28342],[136.54935,36.28748],[136.5547,36.29633],[136.54943,36.30089],[136.55529,36.3073],[136.55223,36.30926],[136.54896,36.32106],[136.55946,36.32728],[136.56009,36.33442],[136.56947,36.33399],[136.57936,36.34175],[136.58071,36.35733],[136.57671,36.36084],[136.58037,36.36555],[136.58079,36.37043],[136.58685,36.37287],[136.58763,36.3758],[136.57843,36.39388]]]},"properties":{"pref":"石川県","city":"小松市","code5":"17203","code6":"172031"}},
{"type":"Feature","geometry":{"type":"MultiPolygon","coordinates":[[[[137.13168,37.40253],[137.13974,37.40796],[137.15257,37.40887],[137.15609,37.41437],[137.16186,37.41896],[137.17041,37.42194],[137.16688,37.427],[137.14236,37.43223],[137.13234,37.43664],[137.12853,37.44021],[137.12727,37.44884],[137.13273,37.45426],[137.12699,37.45932],[137.11914,37.4592],[137.10687,37.45355],[137.09674,37.4537],[137.09085,37.46258],[137.0859,37.46596],[137.08158,37.46417],[137.07309,37.45568],[137.05805,37.44962],[137.04824,37.44926],[137.04539,37.44436],[137.02934,37.43274],[137.01822,37.43305],[137.00434,37.42867],[137.00197,37.42674],[136.98559,37.4211],[136.97706,37.41661],[136.97439,37.41311],[136.967,37.41281],[136.95523,37.40846],[136.94143,37.40123],[136.92427,37.39499],[136.91401,37.39498],[136.89915,37.40098],[136.9016,37.40549],[136.89603,37.40672],[136.8944,37.40182],[136.88971,37.40143],[136.87962,37.40628],[136.86838,37.40705],[136.86667,37.40518],[136.84766,37.40169],[136.83045,37.38993],[136.81152,37.3866],[136.80601,37.38225],[136.80294,37.37695],[136.79394,37.37695],[136.77643,37.36833],[136.77307,37.3659],[136.75645,37.3648],[136.75264,37.35419],[136.75637,37.35039],[136.75339,37.346],[136.73983,37.34084],[136.72539,37.32816],[136.7217,37.32044],[136.72456,37.31727],[136.72409,37.30973],[136.72763,37.30501],[136.72486,37.29477],[136.73179,37.29283],[136.73501,37.28836],[136.73388,37.2795],[136.72666,37.26508],[136.72088,37.2559],[136.71198,37.24818],[136.70715,37.24891],[136.70309,37.24568],[136.70038,37.2379],[136.70506,37.23109],[136.70134,37.22327],[136.69622,37.21964],[136.70494,37.22007],[136.7121,37.22242],[136.71612,37.21797],[136.71059,37.2088],[136.71885,37.20626],[136.72482,37.20673],[136.73163,37.20421],[136.73564,37.19819],[136.74648,37.19158],[136.7543,37.19732],[136.76362,37.19754],[136.76574,37.20077],[136.77246,37.20377],[136.78037,37.21322],[136.79229,37.2202],[136.78843,37.22575],[136.79494,37.22552],[136.79704,37.23205],[136.80167,37.23353],[136.80263,37.2416],[136.80625,37.24667],[136.81227,37.24912],[136.8079,37.25527],[136.81491,37.25865],[136.82119,37.25965],[136.83025,37.25308],[136.82695,37.24809],[136.83395,37.24826],[136.83628,37.24322],[136.84413,37.2504],[136.84983,37.25172],[136.85298,37.25823],[136.86037,37.2606],[136.86937,37.26854],[136.87344,37.27575],[136.87665,37.2768],[136.89289,37.27203],[136.90254,37.27981],[136.91755,37.28234],[136.92836,37.28228],[136.9329,37.28043],[136.93884,37.28288],[136.94293,37.28813],[136.95485,37.2904],[136.95689,37.29476],[136.96686,37.29424],[136.96688,37.2997],[136.97073,37.30312],[136.96289,37.30793],[136.9642,37.31171],[136.96973,37.31553],[136.97132,37.32227],[136.97772,37.32342],[136.97913,37.33036],[136.97138,37.34014],[136.9793,37.34973],[136.97006,37.36106],[136.97162,37.368],[136.96772,37.37047],[136.97013,37.37757],[136.97525,37.37794],[136.97994,37.38317],[136.98942,37.38528],[136.99199,37.38924],[137.00141,37.39551],[137.00572,37.39317],[137.01901,37.39443],[137.02605,37.39016],[137.03317,37.39192],[137.03703,37.38735],[137.04424,37.38351],[137.05606,37.37905],[137.06397,37.3872],[137.0627,37.39271],[137.07227,37.39495],[137.08225,37.39281],[137.08521,37.38709],[137.09393,37.38978],[137.09844,37.38652],[137.10471,37.38818],[137.10423,37.39466],[137.10993,37.39745],[137.11606,37.39749],[137.11773,37.40183],[137.12292,37.40035],[137.13168,37.40253]]],[[[136.92196,37.85533],[136.9158,37.85254],[136.91873,37.84966],[136.92444,37.85228],[136.92196,37.85533]]]]},"properties":{"pref":"石川県","city":"輪島市","code5":"17204","code6":"172049"}},
{"type":"Feature","geometry":{"type":"Polygon","coordinates":[[[137.13168,37.40253],[137.13439,37.39731],[137.13292,37.38965],[137.13652,37.38596],[137.14179,37.38531],[137.14741,37.37757],[137.14702,37.37306],[137.15351,37.36322],[137.15069,37.3592],[137.15392,37.35476],[137.16216,37.35604],[137.16448,37.35825],[137.1804,37.36203],[137.1868,37.36152],[137.20024,37.36641],[137.20766,37.36624],[137.21664,37.36931],[137.22887,37.36919],[137.23595,37.37346],[137.23903,37.37322],[137.237,37.3857],[137.24025,37.39406],[137.24488,37.39724],[137.24398,37.40749],[137.24692,37.41356],[137.24722,37.41431],[137.24738,37.41504],[137.24753,37.41575],[137.25039,37.42369],[137.25681,37.43136],[137.26549,37.4353],[137.27412,37.43946],[137.28726,37.44235],[137.29882,37.4429],[137.31149,37.43772],[137.33171,37.43928],[137.34899,37.44333],[137.36048,37.45078],[137.35721,37.46517],[137.34718,37.4732],[137.3403,37.48309],[137.3402,37.48683],[137.34396,37.4944],[137.34965,37.49711],[137.35108,37.50198],[137.3434,37.51072],[137.34604,37.51461],[137.34197,37.51672],[137.32875,37.51938],[137.32639,37.5295],[137.31306,37.52737],[137.30447,37.52828],[137.29884,37.52617],[137.28835,37.52987],[137.28242,37.52704],[137.27805,37.52896],[137.2753,37.53343],[137.26575,37.52824],[137.26351,37.53121],[137.25089,37.52493],[137.24606,37.52551],[137.24542,37.52005],[137.23632,37.52015],[137.23347,37.51651],[137.22651,37.51717],[137.21622,37.50877],[137.21028,37.50615],[137.20232,37.50643],[137.18029,37.49957],[137.17269,37.50279],[137.16379,37.50228],[137.14989,37.499],[137.14446,37.499],[137.13143,37.49356],[137.12298,37.4917],[137.11742,37.48704],[137.11152,37.48691],[137.10728,37.48438],[137.10547,37.48],[137.09489,37.47866],[137.0859,37.46596],[137.09085,37.46258],[137.09674,37.4537],[137.10687,37.45355],[137.11914,37.4592],[137.12699,37.45932],[137.13273,37.45426],[137.12727,37.44884],[137.12853,37.44021],[137.13234,37.43664],[137.14236,37.43223],[137.16688,37.427],[137.17041,37.42194],[137.16186,37.41896],[137.15609,37.41437],[137.15257,37.40887],[137.13974,37.40796],[137.13168,37.40253]]]},"properties":{"pref":"石川県","city":"珠洲市","code5":"17205","code6":"172057"}},
{"type":"Feature","geometry":{"type":"Polygon","coordinates":[[[136.37233,36.38341],[136.34543,36.36475],[136.33656,36.36022],[136.32164,36.35449],[136.3137,36.35261],[136.29964,36.3517],[136.29171,36.34548],[136.28865,36.33734],[136.28151,36.33198],[136.27722,36.3208],[136.268,36.31215],[136.25754,36.30405],[136.24386,36.2953],[136.24925,36.29176],[136.25859,36.28932],[136.2562,36.27991],[136.26153,36.27336],[136.26827,36.26927],[136.28949,36.26041],[136.29465,36.26075],[136.30211,36.25752],[136.30494,36.25047],[136.30842,36.24682],[136.3153,36.24588],[136.31762,36.24078],[136.31668,36.23508],[136.32326,36.23167],[136.3324,36.22959],[136.32901,36.2243],[136.33118,36.21838],[136.32787,36.2099],[136.3294,36.20202],[136.33696,36.19079],[136.33761,36.18373],[136.34412,36.17298],[136.3551,36.16884],[136.35797,36.16514],[136.36592,36.16616],[136.3689,36.16983],[136.39071,36.16753],[136.3977,36.17053],[136.40482,36.17028],[136.40931,36.17223],[136.41327,36.16695],[136.41164,36.16008],[136.41429,36.15662],[136.42419,36.15458],[136.42681,36.1489],[136.43176,36.14347],[136.43784,36.14232],[136.44039,36.13736],[136.44881,36.14069],[136.45651,36.13629],[136.46445,36.13793],[136.47006,36.14543],[136.47413,36.14662],[136.47707,36.15144],[136.48334,36.15686],[136.49169,36.15829],[136.4969,36.17015],[136.49794,36.18513],[136.49109,36.18848],[136.49001,36.19337],[136.49084,36.20677],[136.48486,36.21619],[136.4835,36.22909],[136.48485,36.23564],[136.47802,36.23637],[136.47396,36.24258],[136.4759,36.25265],[136.46677,36.25592],[136.4608,36.26486],[136.45399,36.26376],[136.44794,36.26543],[136.42985,36.26394],[136.42027,36.26767],[136.42118,36.2761],[136.41662,36.27769],[136.41167,36.28525],[136.41583,36.29008],[136.4155,36.29631],[136.41275,36.29973],[136.41492,36.30501],[136.40445,36.31114],[136.40319,36.31392],[136.40855,36.31842],[136.41716,36.32263],[136.41548,36.33333],[136.40874,36.34015],[136.4006,36.3402],[136.38735,36.35355],[136.39441,36.36412],[136.39043,36.36822],[136.38471,36.36875],[136.3805,36.37702],[136.37233,36.38341]]]},"properties":{"pref":"石川県","city":"加賀市","code5":"17206","code6":"172065"}},
{"type":"Feature","geometry":{"type":"Polygon","coordinates":[[[136.88567,36.91379],[136.87917,36.91317],[136.87655,36.91602],[136.87734,36.92074],[136.87351,36.92792],[136.86711,36.93219],[136.86539,36.93634],[136.85343,36.93818],[136.8544,36.94633],[136.84166,36.94187],[136.82907,36.94294],[136.82553,36.94907],[136.81816,36.94284],[136.80827,36.94301],[136.79658,36.95166],[136.79489,36.95784],[136.80234,36.96278],[136.79337,36.96587],[136.78911,36.96243],[136.7943,36.95783],[136.79618,36.95191],[136.79103,36.94618],[136.78269,36.955],[136.78362,36.959],[136.77702,36.96465],[136.76845,36.96368],[136.76624,36.95687],[136.75887,36.95042],[136.76183,36.94393],[136.75149,36.93472],[136.74996,36.92722],[136.7534,36.92376],[136.75701,36.92413],[136.76386,36.92092],[136.76735,36.91362],[136.76746,36.90258],[136.76293,36.88275],[136.75793,36.86611],[136.77744,36.86659],[136.78442,36.86479],[136.7836,36.87301],[136.79083,36.8738],[136.79205,36.8821],[136.79919,36.8912],[136.80094,36.88757],[136.81895,36.88878],[136.82619,36.88762],[136.82882,36.88148],[136.83433,36.87685],[136.8361,36.8711],[136.84768,36.87316],[136.8577,36.87306],[136.86826,36.87096],[136.8734,36.86765],[136.87611,36.86772],[136.88303,36.87682],[136.88209,36.88086],[136.88561,36.88519],[136.88137,36.88833],[136.87787,36.8995],[136.87898,36.90627],[136.88567,36.91379]]]},"properties":{"pref":"石川県","city":"羽咋市","code5":"17207","code6":"172073"}},
{"type":"Feature","geometry":{"type":"Polygon","coordinates":[[[136.81662,36.7675],[136.8097,36.77281],[136.79033,36.77466],[136.78964,36.77947],[136.78112,36.77964],[136.77678,36.78681],[136.76212,36.78647],[136.75457,36.7839],[136.74985,36.78486],[136.74876,36.79161],[136.74191,36.79214],[136.73394,36.78934],[136.72428,36.78986],[136.6994,36.74671],[136.66942,36.70103],[136.68705,36.69449],[136.682,36.68846],[136.69297,36.68227],[136.69504,36.68502],[136.6957,36.69468],[136.70058,36.69419],[136.701,36.69942],[136.72156,36.70089],[136.72979,36.69921],[136.73502,36.70156],[136.73831,36.70986],[136.74423,36.71197],[136.74259,36.71842],[136.75227,36.72273],[136.75582,36.72832],[136.76621,36.73935],[136.76184,36.74323],[136.76367,36.75368],[136.7704,36.75849],[136.78274,36.75426],[136.79377,36.76063],[136.80329,36.7632],[136.81662,36.76499],[136.81662,36.7675]]]},"properties":{"pref":"石川県","city":"かほく市","code5":"17209","code6":"172090"}},
{"type":"Feature","geometry":{"type":"Polygon","coordinates":[[[136.78447,36.34228],[136.77761,36.33822],[136.7708,36.3396],[136.77006,36.34613],[136.75909,36.34996],[136.75555,36.34878],[136.74787,36.35513],[136.74194,36.36241],[136.72769,36.36868],[136.72073,36.36877],[136.71588,36.37153],[136.71593,36.37684],[136.71001,36.38082],[136.7103,36.39135],[136.70556,36.3922],[136.68999,36.38959],[136.68282,36.39685],[136.67616,36.39923],[136.67336,36.40283],[136.66571,36.40348],[136.66211,36.4059],[136.66548,36.41162],[136.66549,36.41676],[136.66063,36.41825],[136.65663,36.42648],[136.65813,36.43553],[136.65706,36.44037],[136.65006,36.43974],[136.64861,36.44529],[136.65441,36.45164],[136.64533,36.46297],[136.64655,36.46814],[136.64057,36.46999],[136.63616,36.47531],[136.6435,36.48444],[136.63341,36.48517],[136.62994,36.48966],[136.61991,36.49611],[136.61349,36.4967],[136.60782,36.49864],[136.59823,36.4977],[136.59751,36.50267],[136.59172,36.50237],[136.58935,36.51004],[136.59345,36.51381],[136.59538,36.52491],[136.59134,36.52692],[136.59049,36.53241],[136.58556,36.53142],[136.58521,36.53687],[136.59187,36.53688],[136.59437,36.54113],[136.59226,36.54515],[136.59087,36.54835],[136.58005,36.55247],[136.57674,36.56286],[136.56961,36.56196],[136.55706,36.56775],[136.55197,36.56333],[136.51367,36.5215],[136.50072,36.50967],[136.49256,36.501],[136.47933,36.49015],[136.4804,36.48823],[136.47217,36.48121],[136.4651,36.4718],[136.47546,36.46577],[136.48072,36.46821],[136.48922,36.47956],[136.49316,36.48201],[136.50677,36.47764],[136.51888,36.47768],[136.5249,36.47377],[136.53212,36.47205],[136.54118,36.47578],[136.54298,36.48184],[136.55419,36.47942],[136.57995,36.46795],[136.58991,36.46924],[136.5938,36.46675],[136.60125,36.4582],[136.61211,36.4556],[136.61984,36.44964],[136.62234,36.44281],[136.63194,36.43756],[136.63001,36.43054],[136.62629,36.43041],[136.62282,36.42601],[136.62084,36.41655],[136.6116,36.40553],[136.60557,36.4054],[136.60278,36.40222],[136.60122,36.39482],[136.59317,36.39237],[136.59069,36.38858],[136.58263,36.39458],[136.57843,36.39388],[136.58763,36.3758],[136.58685,36.37287],[136.58079,36.37043],[136.58037,36.36555],[136.57671,36.36084],[136.58071,36.35733],[136.57936,36.34175],[136.56947,36.33399],[136.56009,36.33442],[136.55946,36.32728],[136.54896,36.32106],[136.55223,36.30926],[136.55529,36.3073],[136.54943,36.30089],[136.5547,36.29633],[136.54935,36.28748],[136.5501,36.28342],[136.55728,36.28028],[136.56343,36.28378],[136.57241,36.28438],[136.58771,36.27916],[136.59443,36.27408],[136.59941,36.26409],[136.60889,36.26282],[136.61207,36.26008],[136.60648,36.25654],[136.60233,36.2489],[136.60362,36.24595],[136.598,36.2366],[136.59922,36.23006],[136.5937,36.21614],[136.58722,36.21412],[136.58287,36.21504],[136.56741,36.20405],[136.56567,36.19641],[136.56222,36.19324],[136.55747,36.18416],[136.55741,36.1757],[136.54996,36.16255],[136.55183,36.15491],[136.56009,36.15301],[136.56285,36.14637],[136.57632,36.14223],[136.58171,36.13633],[136.59048,36.13122],[136.59537,36.13207],[136.60341,36.12794],[136.60443,36.12218],[136.61227,36.11682],[136.61143,36.11276],[136.61473,36.10831],[136.62217,36.10646],[136.63226,36.09941],[136.64207,36.09807],[136.65134,36.09223],[136.65335,36.08645],[136.65682,36.08457],[136.65497,36.07775],[136.65868,36.06951],[136.66229,36.06763],[136.67424,36.06723],[136.67852,36.07054],[136.6956,36.07444],[136.69905,36.07388],[136.7071,36.07956],[136.71533,36.08207],[136.72476,36.08235],[136.73882,36.08039],[136.7453,36.08515],[136.75428,36.08629],[136.75618,36.09911],[136.76496,36.10561],[136.77055,36.11575],[136.76958,36.11778],[136.7725,36.12616],[136.77862,36.12959],[136.78073,36.14138],[136.77583,36.14391],[136.77183,36.15502],[136.77351,36.15721],[136.76599,36.16088],[136.76842,36.16418],[136.77731,36.16642],[136.78644,36.16619],[136.79841,36.17256],[136.79944,36.18131],[136.81068,36.19619],[136.81867,36.20109],[136.82099,36.21074],[136.83168,36.21767],[136.83229,36.22361],[136.83588,36.2265],[136.84385,36.2368],[136.8504,36.25192],[136.84525,36.25337],[136.84402,36.25762],[136.83355,36.26486],[136.81458,36.2664],[136.8144,36.27031],[136.806,36.27581],[136.80612,36.28364],[136.80086,36.29034],[136.79546,36.29249],[136.79229,36.29921],[136.78836,36.31233],[136.79063,36.31593],[136.78912,36.32487],[136.78397,36.32899],[136.78686,36.33327],[136.78447,36.34228]]]},"properties":{"pref":"石川県","city":"白山市","code5":"17210","code6":"172103"}},
{"type":"Feature","geometry":{"type":"Polygon","coordinates":[[[136.57843,36.39388],[136.58263,36.39458],[136.59069,36.38858],[136.59317,36.39237],[136.60122,36.39482],[136.60278,36.40222],[136.60557,36.4054],[136.6116,36.40553],[136.62084,36.41655],[136.62282,36.42601],[136.62629,36.43041],[136.63001,36.43054],[136.63194,36.43756],[136.62234,36.44281],[136.61984,36.44964],[136.61211,36.4556],[136.60125,36.4582],[136.58086,36.46015],[136.5493,36.46091],[136.52358,36.46224],[136.52361,36.46621],[136.5191,36.46788],[136.51081,36.46744],[136.49313,36.46095],[136.48881,36.46204],[136.48072,36.46821],[136.47546,36.46577],[136.4651,36.4718],[136.44374,36.44908],[136.43642,36.44015],[136.42622,36.43031],[136.43117,36.42723],[136.44371,36.43506],[136.47257,36.43558],[136.47385,36.44208],[136.48051,36.44339],[136.48318,36.43998],[136.4884,36.44116],[136.48734,36.43502],[136.48412,36.43395],[136.47878,36.42477],[136.48391,36.42394],[136.48232,36.41591],[136.48761,36.4165],[136.48942,36.42461],[136.49357,36.42103],[136.50848,36.42274],[136.50928,36.42509],[136.51802,36.42619],[136.52638,36.42877],[136.53351,36.41981],[136.54074,36.41483],[136.54089,36.40936],[136.55218,36.40658],[136.5521,36.40102],[136.55949,36.39423],[136.56622,36.39865],[136.57468,36.39664],[136.57843,36.39388]]]},"properties":{"pref":"石川県","city":"能美市","code5":"17211","code6":"172111"}},
{"type":"Feature","geometry":{"type":"Polygon","coordinates":[[[136.59226,36.54515],[136.59437,36.54113],[136.59187,36.53688],[136.58521,36.53687],[136.58556,36.53142],[136.59049,36.53241],[136.59134,36.52692],[136.59538,36.52491],[136.59345,36.51381],[136.58935,36.51004],[136.59172,36.50237],[136.59751,36.50267],[136.59823,36.4977],[136.60782,36.49864],[136.61349,36.4967],[136.61296,36.50436],[136.61511,36.51005],[136.61534,36.52326],[136.61993,36.52567],[136.62838,36.52465],[136.63083,36.53137],[136.62204,36.53382],[136.62483,36.53747],[136.62205,36.54456],[136.61714,36.54713],[136.61191,36.54605],[136.61128,36.54104],[136.60514,36.54018],[136.60072,36.55487],[136.59455,36.55284],[136.59226,36.54515]]]},"properties":{"pref":"石川県","city":"野々市市","code5":"17212","code6":"172120"}},
{"type":"Feature","geometry":{"type":"Polygon","coordinates":[[[136.48072,36.46821],[136.48881,36.46204],[136.49313,36.46095],[136.51081,36.46744],[136.5191,36.46788],[136.52361,36.46621],[136.52358,36.46224],[136.5493,36.46091],[136.58086,36.46015],[136.60125,36.4582],[136.5938,36.46675],[136.58991,36.46924],[136.57995,36.46795],[136.55419,36.47942],[136.54298,36.48184],[136.54118,36.47578],[136.53212,36.47205],[136.5249,36.47377],[136.51888,36.47768],[136.50677,36.47764],[136.49316,36.48201],[136.48922,36.47956],[136.48072,36.46821]]]},"properties":{"pref":"石川県","county":"能美郡","city":"川北町","code5":"17324","code6":"173240"}},
{"type":"Feature","geometry":{"type":"Polygon","coordinates":[[[136.84512,36.75568],[136.83403,36.76268],[136.83341,36.77345],[136.82813,36.77923],[136.82447,36.77271],[136.81662,36.7675],[136.81662,36.76499],[136.80329,36.7632],[136.79377,36.76063],[136.78274,36.75426],[136.7704,36.75849],[136.76367,36.75368],[136.76184,36.74323],[136.76621,36.73935],[136.75582,36.72832],[136.75227,36.72273],[136.74259,36.71842],[136.74423,36.71197],[136.73831,36.70986],[136.73502,36.70156],[136.72979,36.69921],[136.72156,36.70089],[136.701,36.69942],[136.70058,36.69419],[136.6957,36.69468],[136.69504,36.68502],[136.69297,36.68227],[136.68599,36.67416],[136.69664,36.66811],[136.68973,36.66004],[136.70334,36.65229],[136.71042,36.64672],[136.71537,36.64724],[136.72634,36.64386],[136.73503,36.64247],[136.73771,36.64026],[136.74402,36.64138],[136.74474,36.63618],[136.75277,36.63546],[136.75523,36.63908],[136.76792,36.63324],[136.77306,36.63475],[136.77836,36.63357],[136.77978,36.62987],[136.78613,36.62961],[136.79388,36.63105],[136.7999,36.6364],[136.79976,36.64458],[136.80755,36.64801],[136.80723,36.65312],[136.81404,36.65924],[136.81863,36.6676],[136.82378,36.66971],[136.82056,36.67496],[136.82255,36.68061],[136.81759,36.68543],[136.8111,36.68496],[136.81137,36.69318],[136.81389,36.69877],[136.81317,36.703],[136.80755,36.70465],[136.80395,36.70855],[136.79888,36.70979],[136.78985,36.71746],[136.79388,36.72221],[136.79377,36.72696],[136.79954,36.73005],[136.81986,36.73065],[136.82172,36.73998],[136.83346,36.74308],[136.83909,36.7451],[136.84512,36.75568]]]},"properties":{"pref":"石川県","county":"河北郡","city":"津幡町","code5":"17361","code6":"173614"}},
{"type":"Feature","geometry":{"type":"Polygon","coordinates":[[[136.68599,36.67416],[136.69297,36.68227],[136.682,36.68846],[136.68705,36.69449],[136.66942,36.70103],[136.66368,36.69236],[136.63752,36.65811],[136.62602,36.6452],[136.61824,36.63905],[136.63162,36.62817],[136.63284,36.62558],[136.65357,36.64403],[136.66659,36.65205],[136.68599,36.67416]]]},"properties":{"pref":"石川県","county":"河北郡","city":"内灘町","code5":"17365","code6":"173657"}},
{"type":"Feature","geometry":{"type":"Polygon","coordinates":[[[136.82168,37.19831],[136.8231,37.20138],[136.81884,37.20811],[136.82456,37.21234],[136.8257,37.21653],[136.82113,37.21856],[136.82143,37.22572],[136.81464,37.2274],[136.80837,37.22489],[136.80114,37.21933],[136.79229,37.2202],[136.78037,37.21322],[136.77246,37.20377],[136.76574,37.20077],[136.76362,37.19754],[136.7543,37.19732],[136.74648,37.19158],[136.73564,37.19819],[136.73163,37.20421],[136.72482,37.20673],[136.71885,37.20626],[136.71059,37.2088],[136.71612,37.21797],[136.7121,37.22242],[136.70494,37.22007],[136.69622,37.21964],[136.694,37.21509],[136.68846,37.21387],[136.68022,37.20721],[136.67924,37.20432],[136.6778,37.19972],[136.68232,37.19577],[136.67535,37.18442],[136.67676,37.17588],[136.67295,37.16977],[136.67655,37.1664],[136.67403,37.15745],[136.66983,37.14885],[136.67132,37.14343],[136.67614,37.13815],[136.68568,37.14067],[136.68583,37.13667],[136.69688,37.14104],[136.70066,37.14948],[136.71105,37.14838],[136.71869,37.14442],[136.72743,37.13516],[136.72685,37.12039],[136.72552,37.11563],[136.72938,37.09727],[136.72132,37.08633],[136.71836,37.07954],[136.71875,37.07158],[136.72171,37.068],[136.72183,37.05781],[136.72658,37.05055],[136.73379,37.04952],[136.7333,37.04325],[136.74067,37.03618],[136.74084,37.03006],[136.74661,37.02926],[136.74233,37.01734],[136.74342,37.01204],[136.75095,37.01078],[136.75316,37.00665],[136.76247,37.00488],[136.76931,36.99908],[136.77018,36.99308],[136.76697,36.98647],[136.77041,36.98133],[136.76845,36.96368],[136.77702,36.96465],[136.78362,36.959],[136.78269,36.955],[136.79103,36.94618],[136.79618,36.95191],[136.7943,36.95783],[136.78911,36.96243],[136.79337,36.96587],[136.80234,36.96278],[136.79489,36.95784],[136.79658,36.95166],[136.80827,36.94301],[136.81816,36.94284],[136.82553,36.94907],[136.83307,36.95088],[136.84244,36.95892],[136.85083,36.96362],[136.84433,36.97819],[136.84225,36.98784],[136.84333,36.99466],[136.84937,37.00393],[136.85084,37.02385],[136.8531,37.02858],[136.85638,37.03703],[136.86004,37.04023],[136.85824,37.047],[136.85027,37.05302],[136.84402,37.05515],[136.84239,37.06221],[136.83409,37.05931],[136.83221,37.06222],[136.83668,37.06596],[136.83779,37.07108],[136.82806,37.07574],[136.81876,37.07866],[136.81585,37.08129],[136.81086,37.07931],[136.81018,37.08514],[136.80371,37.09217],[136.79826,37.09327],[136.78941,37.09804],[136.78618,37.10336],[136.78605,37.10844],[136.78214,37.10997],[136.77634,37.11944],[136.77932,37.12528],[136.78463,37.12719],[136.78605,37.13437],[136.78222,37.13741],[136.78139,37.14449],[136.78591,37.15064],[136.78507,37.15648],[136.78942,37.15858],[136.79691,37.16736],[136.80043,37.17381],[136.80132,37.18289],[136.80936,37.19389],[136.81484,37.19371],[136.82168,37.19831]]]},"properties":{"pref":"石川県","county":"羽咋郡","city":"志賀町","code5":"17384","code6":"173843"}},
{"type":"Feature","geometry":{"type":"Polygon","coordinates":[[[136.85083,36.78693],[136.854,36.79518],[136.85042,36.80181],[136.84875,36.81288],[136.86002,36.82908],[136.85644,36.83979],[136.86328,36.84284],[136.862,36.84785],[136.86695,36.8506],[136.86112,36.85482],[136.86239,36.86033],[136.87124,36.86268],[136.8734,36.86765],[136.86826,36.87096],[136.8577,36.87306],[136.84768,36.87316],[136.8361,36.8711],[136.83433,36.87685],[136.82882,36.88148],[136.82619,36.88762],[136.81895,36.88878],[136.80094,36.88757],[136.79919,36.8912],[136.79205,36.8821],[136.79083,36.8738],[136.7836,36.87301],[136.78442,36.86479],[136.77744,36.86659],[136.75793,36.86611],[136.75257,36.84889],[136.74359,36.82708],[136.7275,36.79515],[136.72428,36.78986],[136.73394,36.78934],[136.74191,36.79214],[136.74876,36.79161],[136.74985,36.78486],[136.75457,36.7839],[136.76212,36.78647],[136.77678,36.78681],[136.78112,36.77964],[136.78964,36.77947],[136.79033,36.77466],[136.8097,36.77281],[136.81662,36.7675],[136.82447,36.77271],[136.82813,36.77923],[136.83341,36.77345],[136.83403,36.76268],[136.84512,36.75568],[136.84903,36.75901],[136.85106,36.76848],[136.84874,36.77627],[136.84325,36.78131],[136.85083,36.78693]]]},"properties":{"pref":"石川県","county":"羽咋郡","city":"宝達志水町","code5":"17386","code6":"173860"}},
{"type":"Feature","geometry":{"type":"Polygon","coordinates":[[[136.98588,36.96516],[136.97667,36.97657],[136.9691,36.97205],[136.96097,36.97173],[136.94916,36.97697],[136.95578,36.98281],[136.95322,36.98724],[136.9431,36.99391],[136.93801,36.99281],[136.92765,36.99632],[136.92523,37.00339],[136.91807,37.01723],[136.91351,37.0155],[136.89594,37.01418],[136.88617,37.01626],[136.86994,37.01705],[136.86192,37.01944],[136.85761,37.02288],[136.85735,37.02713],[136.8531,37.02858],[136.85084,37.02385],[136.84937,37.00393],[136.84333,36.99466],[136.84225,36.98784],[136.84433,36.97819],[136.85083,36.96362],[136.84244,36.95892],[136.83307,36.95088],[136.82553,36.94907],[136.82907,36.94294],[136.84166,36.94187],[136.8544,36.94633],[136.85343,36.93818],[136.86539,36.93634],[136.86711,36.93219],[136.87351,36.92792],[136.87734,36.92074],[136.87655,36.91602],[136.87917,36.91317],[136.88567,36.91379],[136.89156,36.91803],[136.89558,36.92472],[136.90584,36.92648],[136.90836,36.92921],[136.91499,36.93048],[136.92243,36.93749],[136.92734,36.94418],[136.92762,36.94762],[136.94876,36.95552],[136.95399,36.95596],[136.96332,36.94872],[136.97113,36.94743],[136.97375,36.94431],[136.98149,36.95142],[136.98588,36.96516]]]},"properties":{"pref":"石川県","county":"鹿島郡","city":"中能登町","code5":"17407","code6":"174076"}},
{"type":"Feature","geometry":{"type":"Polygon","coordinates":[[[136.88911,37.16893],[136.89564,37.17483],[136.89675,37.17802],[136.90433,37.18514],[136.90586,37.1912],[136.91236,37.19369],[136.90999,37.199],[136.92051,37.20499],[136.92585,37.2018],[136.93013,37.2062],[136.92332,37.20982],[136.92035,37.21502],[136.90811,37.22049],[136.917,37.22277],[136.92339,37.21958],[136.92712,37.22195],[136.9272,37.2298],[136.93747,37.22986],[136.93786,37.22584],[136.94532,37.22734],[136.95416,37.23508],[136.96043,37.23655],[136.96551,37.23225],[136.95862,37.23019],[136.951,37.2217],[136.95891,37.21293],[136.96327,37.2046],[136.97109,37.20098],[136.98083,37.20367],[136.99123,37.19971],[137.00337,37.18875],[137.00591,37.18367],[137.01856,37.18878],[137.02626,37.18802],[137.02907,37.195],[137.02947,37.20189],[137.03479,37.20656],[137.04327,37.2071],[137.05201,37.21084],[137.05653,37.20822],[137.06023,37.21291],[137.06372,37.21309],[137.06943,37.21811],[137.06673,37.22301],[137.06796,37.23153],[137.07082,37.23315],[137.07362,37.24077],[137.07782,37.24556],[137.08328,37.24815],[137.07729,37.24981],[137.07505,37.25344],[137.06298,37.25642],[137.06124,37.26019],[137.05072,37.26113],[137.04784,37.25348],[137.04217,37.24926],[137.03218,37.2519],[137.01676,37.2497],[137.01238,37.25785],[137.01198,37.26507],[137.00505,37.26431],[137.00432,37.2699],[136.99891,37.2684],[136.99366,37.27316],[136.99529,37.27657],[136.9927,37.28436],[136.99853,37.28854],[136.99435,37.29288],[136.98668,37.29469],[136.99004,37.29897],[136.99492,37.30052],[136.99216,37.30524],[136.98482,37.30521],[136.98,37.30117],[136.96686,37.29424],[136.95689,37.29476],[136.95485,37.2904],[136.94293,37.28813],[136.93884,37.28288],[136.9329,37.28043],[136.92836,37.28228],[136.91755,37.28234],[136.90254,37.27981],[136.89289,37.27203],[136.87665,37.2768],[136.87344,37.27575],[136.86937,37.26854],[136.86037,37.2606],[136.85298,37.25823],[136.84983,37.25172],[136.84413,37.2504],[136.83628,37.24322],[136.83395,37.24826],[136.82695,37.24809],[136.83025,37.25308],[136.82119,37.25965],[136.81491,37.25865],[136.8079,37.25527],[136.81227,37.24912],[136.80625,37.24667],[136.80263,37.2416],[136.80167,37.23353],[136.79704,37.23205],[136.79494,37.22552],[136.78843,37.22575],[136.79229,37.2202],[136.80114,37.21933],[136.80837,37.22489],[136.81464,37.2274],[136.82143,37.22572],[136.82113,37.21856],[136.8257,37.21653],[136.82456,37.21234],[136.81884,37.20811],[136.8231,37.20138],[136.82168,37.19831],[136.83136,37.20101],[136.84737,37.19838],[136.85094,37.19576],[136.85101,37.18383],[136.85555,37.17506],[136.86348,37.17585],[136.872,37.1793],[136.88253,37.17382],[136.88397,37.16987],[136.88911,37.16893]]]},"properties":{"pref":"石川県","county":"鳳珠郡","city":"穴水町","code5":"17461","code6":"174611"}},
{"type":"Feature","geometry":{"type":"Polygon","coordinates":[[[136.96686,37.29424],[136.98,37.30117],[136.98482,37.30521],[136.99216,37.30524],[136.99492,37.30052],[136.99004,37.29897],[136.98668,37.29469],[136.99435,37.29288],[136.99853,37.28854],[136.9927,37.28436],[136.99529,37.27657],[136.99366,37.27316],[136.99891,37.2684],[137.00432,37.2699],[137.00505,37.26431],[137.01198,37.26507],[137.01238,37.25785],[137.01676,37.2497],[137.03218,37.2519],[137.04217,37.24926],[137.04784,37.25348],[137.05072,37.26113],[137.06124,37.26019],[137.06298,37.25642],[137.07505,37.25344],[137.07729,37.24981],[137.08328,37.24815],[137.09416,37.2638],[137.09536,37.27145],[137.09892,37.27898],[137.10736,37.28082],[137.11645,37.28853],[137.12666,37.29052],[137.13716,37.29452],[137.14447,37.29895],[137.15009,37.29624],[137.15322,37.2982],[137.15278,37.30317],[137.16311,37.30116],[137.16908,37.30242],[137.18417,37.29889],[137.18649,37.30074],[137.19515,37.2979],[137.1984,37.29979],[137.20875,37.30154],[137.20489,37.29578],[137.21358,37.29567],[137.22177,37.29712],[137.22794,37.29557],[137.22911,37.29941],[137.23566,37.30861],[137.24184,37.30448],[137.24697,37.30749],[137.25115,37.31758],[137.26398,37.32538],[137.26202,37.33138],[137.2677,37.33682],[137.26567,37.34085],[137.25899,37.33805],[137.25278,37.33986],[137.25465,37.34383],[137.26047,37.34437],[137.26229,37.35006],[137.26116,37.3549],[137.25358,37.35264],[137.24886,37.35407],[137.24293,37.36273],[137.23903,37.37322],[137.23595,37.37346],[137.22887,37.36919],[137.21664,37.36931],[137.20766,37.36624],[137.20024,37.36641],[137.1868,37.36152],[137.1804,37.36203],[137.16448,37.35825],[137.16216,37.35604],[137.15392,37.35476],[137.15069,37.3592],[137.15351,37.36322],[137.14702,37.37306],[137.14741,37.37757],[137.14179,37.38531],[137.13652,37.38596],[137.13292,37.38965],[137.13439,37.39731],[137.13168,37.40253],[137.12292,37.40035],[137.11773,37.40183],[137.11606,37.39749],[137.10993,37.39745],[137.10423,37.39466],[137.10471,37.38818],[137.09844,37.38652],[137.09393,37.38978],[137.08521,37.38709],[137.08225,37.39281],[137.07227,37.39495],[137.0627,37.39271],[137.06397,37.3872],[137.05606,37.37905],[137.04424,37.38351],[137.03703,37.38735],[137.03317,37.39192],[137.02605,37.39016],[137.01901,37.39443],[137.00572,37.39317],[137.00141,37.39551],[136.99199,37.38924],[136.98942,37.38528],[136.97994,37.38317],[136.97525,37.37794],[136.97013,37.37757],[136.96772,37.37047],[136.97162,37.368],[136.97006,37.36106],[136.9793,37.34973],[136.97138,37.34014],[136.97913,37.33036],[136.97772,37.32342],[136.97132,37.32227],[136.96973,37.31553],[136.9642,37.31171],[136.96289,37.30793],[136.97073,37.30312],[136.96688,37.2997],[136.96686,37.29424]]]},"properties":{"pref":"石川県","county":"鳳珠郡","city":"能登町","code5":"17463","code6":"174637"}}
]}