{"type":"FeatureCollection", "features": [
{"type":"Feature","geometry":{"type":"Polygon","coordinates":[[[136.26997,36.10407],[136.25693,36.10492],[136.25366,36.10651],[136.25548,36.11316],[136.25407,36.12365],[136.24559,36.11821],[136.24293,36.12071],[136.23388,36.11866],[136.23066,36.12078],[136.20952,36.12048],[136.19794,36.1215],[136.19373,36.12378],[136.19179,36.13042],[136.17783,36.13368],[136.17505,36.13941],[136.16808,36.14311],[136.16441,36.14885],[136.1619,36.15878],[136.15673,36.16416],[136.15155,36.1669],[136.14788,36.16341],[136.13821,36.16327],[136.13532,36.16953],[136.13102,36.16384],[136.12604,36.16277],[136.11937,36.16585],[136.1073,36.16943],[136.10003,36.17289],[136.09039,36.16053],[136.09503,36.15785],[136.09337,36.15322],[136.0766,36.13846],[136.06652,36.13191],[136.06118,36.13181],[136.05407,36.12753],[136.05431,36.12712],[136.05411,36.1267],[136.05411,36.12666],[136.05432,36.12104],[136.05052,36.1184],[136.04862,36.10983],[136.03786,36.10424],[136.03229,36.09726],[136.03038,36.08601],[136.02379,36.07453],[136.01922,36.06479],[136.01794,36.05566],[136.01552,36.05149],[136.01488,36.04864],[136.0135,36.04756],[136.01349,36.04755],[136.01115,36.04519],[136.01062,36.03333],[136.00498,36.02952],[135.99961,36.02334],[135.99469,36.01709],[135.99468,36.01708],[135.98559,36.00892],[135.97501,36.00468],[135.96437,35.99751],[135.96984,35.99187],[135.98556,35.98778],[135.99072,35.98284],[135.9962,35.98269],[136.00224,35.98636],[136.00404,35.99101],[136.00248,35.99687],[136.00349,36.00544],[136.00571,36.01],[136.01173,36.01424],[136.02257,36.00558],[136.02714,35.99739],[136.03292,35.997],[136.04756,36.00429],[136.04821,36.00749],[136.05506,36.01507],[136.0573,36.02693],[136.0636,36.02777],[136.08176,36.01893],[136.09244,36.01268],[136.09654,36.006],[136.11031,36.00224],[136.12084,36.00105],[136.12809,36.00388],[136.14118,35.99221],[136.15523,35.99229],[136.16053,35.99689],[136.16592,35.99626],[136.176,35.99981],[136.18069,35.99914],[136.17981,35.99446],[136.18938,35.99107],[136.19465,35.99078],[136.20638,35.98573],[136.20378,35.97525],[136.21512,35.98042],[136.21995,35.9879],[136.22383,35.99046],[136.23209,35.99067],[136.23888,35.98346],[136.25454,35.97932],[136.25938,35.98042],[136.27113,35.97797],[136.27485,35.97215],[136.28257,35.97176],[136.29008,35.974],[136.30007,35.96865],[136.30378,35.96444],[136.312,35.96612],[136.31736,35.96357],[136.3184,35.95802],[136.32306,35.95673],[136.32294,35.95186],[136.33605,35.95141],[136.33157,35.94293],[136.33395,35.93934],[136.33374,35.92867],[136.34149,35.93281],[136.34558,35.93144],[136.35019,35.93432],[136.3522,35.94235],[136.3583,35.94754],[136.36701,35.94789],[136.37544,35.9517],[136.38935,35.95229],[136.40027,35.94828],[136.40675,35.94898],[136.42302,35.9388],[136.42933,35.93833],[136.43608,35.9357],[136.4398,35.93226],[136.43868,35.92781],[136.45225,35.92146],[136.46052,35.92055],[136.46718,35.92158],[136.46365,35.92577],[136.45557,35.92861],[136.45481,35.93183],[136.46408,35.9328],[136.46149,35.93883],[136.4619,35.94474],[136.46536,35.95082],[136.45636,35.95455],[136.4545,35.95879],[136.45631,35.96925],[136.45215,35.97416],[136.45235,35.97946],[136.4488,35.98554],[136.45627,35.99189],[136.45158,35.9969],[136.45473,36.00096],[136.44894,36.01012],[136.45783,36.01645],[136.44547,36.02203],[136.44102,36.03236],[136.432,36.04332],[136.42561,36.03979],[136.4133,36.04249],[136.40745,36.04594],[136.39017,36.04786],[136.38429,36.04708],[136.36738,36.03355],[136.35999,36.03396],[136.3508,36.03657],[136.34615,36.04259],[136.34063,36.05299],[136.33545,36.05261],[136.3289,36.04835],[136.32036,36.04777],[136.31852,36.04182],[136.31474,36.0414],[136.29727,36.04614],[136.2913,36.0529],[136.28645,36.05608],[136.28455,36.0687],[136.28163,36.07409],[136.2888,36.07581],[136.29241,36.07882],[136.28728,36.08275],[136.28013,36.09301],[136.28837,36.09491],[136.28807,36.09836],[136.28131,36.09894],[136.28068,36.10359],[136.26997,36.10407]]]},"properties":{"pref":"福井県","city":"福井市","code5":"18201","code6":"182010"}},
{"type":"Feature","geometry":{"type":"Polygon","coordinates":[[[136.15035,35.69772],[136.14712,35.69927],[136.14879,35.71065],[136.1426,35.71606],[136.13199,35.72269],[136.13357,35.72495],[136.13262,35.73733],[136.12693,35.74245],[136.12365,35.7484],[136.11854,35.75185],[136.11764,35.75772],[136.11277,35.76542],[136.09831,35.76524],[136.10121,35.75815],[136.09993,35.74668],[136.09456,35.74217],[136.08817,35.74134],[136.08649,35.73817],[136.09552,35.73656],[136.09603,35.72947],[136.09857,35.72631],[136.09496,35.72004],[136.09096,35.71694],[136.09242,35.71104],[136.07854,35.70356],[136.0814,35.68917],[136.08616,35.68534],[136.0825,35.68141],[136.07429,35.67806],[136.07429,35.6674],[136.06255,35.66806],[136.07185,35.66068],[136.05601,35.65667],[136.04828,35.65706],[136.04323,35.65997],[136.04557,35.66345],[136.04285,35.66948],[136.02653,35.6791],[136.02546,35.6835],[136.03152,35.69164],[136.03624,35.69433],[136.04419,35.69114],[136.04419,35.69802],[136.04101,35.69863],[136.04177,35.70594],[136.03769,35.70982],[136.03998,35.71291],[136.03578,35.72103],[136.0384,35.72522],[136.03641,35.72963],[136.02895,35.73636],[136.02921,35.74456],[136.03625,35.74194],[136.03029,35.75322],[136.02595,35.75482],[136.01999,35.76366],[136.00909,35.75534],[136.00537,35.75609],[136.00116,35.74988],[135.99481,35.74866],[135.9845,35.73973],[135.9811,35.7331],[135.97443,35.7353],[135.96845,35.73512],[135.96459,35.73011],[135.96839,35.72549],[135.98138,35.72434],[135.9932,35.72701],[135.9951,35.72598],[136.00529,35.73005],[136.01255,35.725],[136.01361,35.71736],[136.01017,35.70837],[136.01028,35.70125],[136.01276,35.69727],[136.01076,35.69331],[136.01292,35.68402],[136.00905,35.67783],[136.00941,35.6706],[136.01311,35.66509],[135.99822,35.65212],[136.00375,35.64627],[136.00595,35.63635],[136.00914,35.63152],[136.0065,35.62317],[136.00625,35.61364],[136.0094,35.60905],[136.00673,35.5973],[136.00446,35.59587],[136.00925,35.5865],[136.01207,35.58486],[136.01892,35.58705],[136.02625,35.58624],[136.02888,35.57884],[136.02967,35.56919],[136.02341,35.56107],[136.02514,35.55129],[136.02389,35.54624],[136.02766,35.54252],[136.02653,35.5295],[136.04094,35.53218],[136.04638,35.53018],[136.04835,35.53453],[136.06072,35.53187],[136.06235,35.52815],[136.06923,35.52625],[136.07705,35.53054],[136.0767,35.53443],[136.08323,35.54056],[136.09356,35.53734],[136.10562,35.52882],[136.1072,35.53037],[136.10609,35.53864],[136.10941,35.54512],[136.10905,35.54966],[136.10545,35.55542],[136.1101,35.55929],[136.10889,35.5672],[136.1126,35.57341],[136.11222,35.57984],[136.12158,35.57616],[136.13282,35.57453],[136.13869,35.57567],[136.14333,35.57115],[136.15087,35.57288],[136.16324,35.57114],[136.16688,35.56535],[136.17033,35.57109],[136.16647,35.58265],[136.17749,35.59498],[136.17437,35.60359],[136.1708,35.60868],[136.16689,35.61862],[136.15987,35.62523],[136.15977,35.63496],[136.15731,35.64126],[136.15154,35.64828],[136.1504,35.65886],[136.14782,35.66252],[136.13749,35.66508],[136.13449,35.66982],[136.14349,35.68304],[136.15026,35.69112],[136.15035,35.69772]]]},"properties":{"pref":"福井県","city":"敦賀市","code5":"18202","code6":"182028"}},
{"type":"Feature","geometry":{"type":"Polygon","coordinates":[[[135.81518,35.57165],[135.81023,35.57149],[135.8032,35.56837],[135.80501,35.56429],[135.81283,35.56338],[135.81167,35.55901],[135.81875,35.55682],[135.82459,35.55259],[135.8274,35.54351],[135.83106,35.54226],[135.83373,35.5359],[135.82722,35.53328],[135.81642,35.53296],[135.81195,35.52755],[135.80645,35.52824],[135.80588,35.53204],[135.79622,35.52612],[135.78846,35.53142],[135.78577,35.53655],[135.79006,35.54046],[135.78484,35.54298],[135.77966,35.5503],[135.77349,35.55044],[135.76593,35.55731],[135.76428,35.5532],[135.77143,35.54664],[135.76951,35.54331],[135.76399,35.54497],[135.75883,35.54257],[135.75397,35.546],[135.75006,35.55565],[135.75277,35.55807],[135.75077,35.56565],[135.74508,35.56431],[135.73583,35.57135],[135.72867,35.56905],[135.7151,35.56999],[135.70766,35.5643],[135.70355,35.55809],[135.69007,35.54878],[135.68915,35.54488],[135.69446,35.54268],[135.70289,35.54431],[135.71678,35.54074],[135.71852,35.53584],[135.71664,35.52539],[135.71807,35.5197],[135.72719,35.52157],[135.73207,35.52544],[135.73714,35.53528],[135.74337,35.53701],[135.75055,35.53613],[135.75801,35.53864],[135.76333,35.53758],[135.76341,35.53106],[135.75198,35.53206],[135.75068,35.51745],[135.74919,35.51381],[135.7406,35.50267],[135.73842,35.49525],[135.73391,35.49308],[135.72,35.49112],[135.71963,35.48504],[135.71421,35.48322],[135.7077,35.48983],[135.70217,35.48949],[135.70022,35.49278],[135.69174,35.48772],[135.67547,35.48757],[135.66027,35.4921],[135.65778,35.4869],[135.65777,35.48687],[135.65433,35.48042],[135.64517,35.4786],[135.64475,35.47517],[135.6481,35.46474],[135.64302,35.46294],[135.64163,35.45604],[135.64717,35.4501],[135.63186,35.44463],[135.62353,35.44527],[135.61609,35.44005],[135.60668,35.4405],[135.59949,35.43452],[135.5926,35.43457],[135.58885,35.43013],[135.59837,35.42473],[135.59876,35.41909],[135.60446,35.41583],[135.61014,35.41708],[135.61533,35.41445],[135.62092,35.42193],[135.62682,35.42133],[135.63185,35.42654],[135.64105,35.4245],[135.64353,35.41667],[135.65437,35.41574],[135.6657,35.41029],[135.67252,35.41787],[135.68214,35.41867],[135.68466,35.41516],[135.69347,35.41033],[135.7019,35.40936],[135.70489,35.41076],[135.71349,35.40949],[135.71934,35.4148],[135.72768,35.41392],[135.73,35.41852],[135.73616,35.41605],[135.75559,35.41235],[135.76041,35.40978],[135.76387,35.405],[135.76805,35.40389],[135.77024,35.39699],[135.77377,35.39353],[135.78573,35.39135],[135.79089,35.38664],[135.7991,35.38492],[135.80753,35.38536],[135.81007,35.39177],[135.80809,35.39524],[135.81056,35.40326],[135.81076,35.40947],[135.81321,35.41298],[135.81923,35.41255],[135.8267,35.41465],[135.83204,35.41224],[135.83837,35.41422],[135.84968,35.41059],[135.85313,35.41154],[135.85728,35.41736],[135.85916,35.4323],[135.84905,35.44233],[135.8409,35.44135],[135.82916,35.44847],[135.81961,35.45094],[135.81528,35.45693],[135.81561,35.46194],[135.81008,35.46613],[135.81187,35.47569],[135.80183,35.48],[135.79692,35.48968],[135.80619,35.49083],[135.81196,35.48903],[135.82348,35.47977],[135.83473,35.48348],[135.84331,35.4844],[135.84478,35.48691],[135.84236,35.49564],[135.84536,35.50199],[135.84212,35.50696],[135.84145,35.51301],[135.83752,35.51553],[135.83205,35.5225],[135.84959,35.53735],[135.85134,35.54104],[135.84417,35.5492],[135.83942,35.55007],[135.83548,35.55414],[135.82222,35.5597],[135.81907,35.56604],[135.8143,35.56721],[135.81518,35.57165]]]},"properties":{"pref":"福井県","city":"小浜市","code5":"18204","code6":"182044"}},
{"type":"Feature","geometry":{"type":"Polygon","coordinates":[[[136.65868,36.06951],[136.6503,36.06732],[136.63754,36.06174],[136.63173,36.05349],[136.62553,36.05178],[136.62153,36.0463],[136.61389,36.04447],[136.61031,36.03858],[136.59925,36.0383],[136.58812,36.03302],[136.57854,36.02403],[136.57128,36.02193],[136.56857,36.01762],[136.56801,36.01088],[136.56155,36.0086],[136.55206,36.0121],[136.54384,36.00698],[136.53418,36.01383],[136.52328,36.01819],[136.50293,36.01947],[136.49668,36.02535],[136.47895,36.02638],[136.47482,36.02925],[136.47057,36.02765],[136.4668,36.01865],[136.45783,36.01645],[136.44894,36.01012],[136.45473,36.00096],[136.45158,35.9969],[136.45627,35.99189],[136.4488,35.98554],[136.45235,35.97946],[136.45215,35.97416],[136.45631,35.96925],[136.4545,35.95879],[136.45636,35.95455],[136.46536,35.95082],[136.4619,35.94474],[136.46149,35.93883],[136.46408,35.9328],[136.45481,35.93183],[136.45557,35.92861],[136.46365,35.92577],[136.46718,35.92158],[136.46052,35.92055],[136.45566,35.91356],[136.44661,35.91015],[136.43877,35.90864],[136.43759,35.90105],[136.43252,35.89635],[136.43296,35.88886],[136.43926,35.88601],[136.43986,35.87792],[136.43307,35.87194],[136.43496,35.86715],[136.42765,35.85885],[136.43558,35.84964],[136.42832,35.84119],[136.42886,35.83899],[136.42341,35.83253],[136.42676,35.82333],[136.42293,35.82086],[136.42324,35.81302],[136.43256,35.80714],[136.43126,35.79792],[136.42283,35.79336],[136.41597,35.78245],[136.41896,35.7823],[136.43073,35.77503],[136.44121,35.77518],[136.4458,35.77291],[136.45154,35.77665],[136.46158,35.77871],[136.46758,35.77322],[136.47459,35.77275],[136.48458,35.77514],[136.49651,35.76553],[136.49707,35.76076],[136.50336,35.75087],[136.51371,35.76225],[136.51196,35.77191],[136.52524,35.78797],[136.53065,35.78415],[136.54528,35.77871],[136.55068,35.78108],[136.56159,35.77869],[136.57232,35.77804],[136.57707,35.78152],[136.586,35.78443],[136.58609,35.79152],[136.59001,35.79566],[136.59543,35.79537],[136.59915,35.79853],[136.61145,35.7888],[136.62302,35.78777],[136.62775,35.79107],[136.62611,35.79542],[136.63818,35.79749],[136.6408,35.80349],[136.6452,35.80683],[136.65251,35.79873],[136.65433,35.78588],[136.65767,35.78348],[136.66614,35.78514],[136.67205,35.79131],[136.67759,35.79209],[136.68141,35.78984],[136.68978,35.78928],[136.70004,35.79417],[136.70512,35.79143],[136.71005,35.79204],[136.72058,35.80022],[136.72452,35.80815],[136.73238,35.80658],[136.7411,35.80107],[136.75447,35.80924],[136.76391,35.81061],[136.77439,35.80667],[136.77414,35.80005],[136.7834,35.79811],[136.78925,35.7994],[136.79279,35.80695],[136.79587,35.80906],[136.79844,35.82122],[136.79709,35.8281],[136.79942,35.83134],[136.80229,35.84403],[136.81545,35.84254],[136.82512,35.84541],[136.83107,35.85181],[136.83236,35.85744],[136.83015,35.86557],[136.82575,35.87008],[136.82601,35.87458],[136.82022,35.8794],[136.82377,35.89277],[136.8137,35.91092],[136.80583,35.91288],[136.79947,35.92032],[136.7865,35.9223],[136.78386,35.92778],[136.78686,35.93365],[136.79339,35.94092],[136.79346,35.94559],[136.78906,35.94866],[136.77665,35.95119],[136.7721,35.95023],[136.75786,35.95571],[136.75287,35.95646],[136.74885,35.9636],[136.75348,35.96814],[136.75334,35.97821],[136.74969,35.9909],[136.74141,35.99195],[136.72708,35.99562],[136.7294,36.00146],[136.72889,36.00936],[136.73235,36.01328],[136.73087,36.01757],[136.73439,36.02099],[136.7332,36.02748],[136.73573,36.03231],[136.7354,36.04789],[136.74443,36.05994],[136.75273,36.06237],[136.75902,36.06708],[136.76426,36.06768],[136.76407,36.0742],[136.75428,36.08629],[136.7453,36.08515],[136.73882,36.08039],[136.72476,36.08235],[136.71533,36.08207],[136.7071,36.07956],[136.69905,36.07388],[136.6956,36.07444],[136.67852,36.07054],[136.67424,36.06723],[136.66229,36.06763],[136.65868,36.06951]]]},"properties":{"pref":"福井県","city":"大野市","code5":"18205","code6":"182052"}},
{"type":"Feature","geometry":{"type":"Polygon","coordinates":[[[136.49169,36.15829],[136.48334,36.15686],[136.47707,36.15144],[136.47413,36.14662],[136.47006,36.14543],[136.46445,36.13793],[136.45651,36.13629],[136.44881,36.14069],[136.44039,36.13736],[136.43961,36.13481],[136.42897,36.13212],[136.42534,36.13368],[136.40688,36.12837],[136.39936,36.12501],[136.39278,36.12494],[136.39133,36.11617],[136.39695,36.11361],[136.39824,36.10911],[136.40417,36.0992],[136.39565,36.09221],[136.3884,36.0908],[136.38829,36.08752],[136.40948,36.08101],[136.42909,36.07631],[136.43801,36.07543],[136.43933,36.06948],[136.43252,36.05423],[136.43547,36.0502],[136.432,36.04332],[136.44102,36.03236],[136.44547,36.02203],[136.45783,36.01645],[136.4668,36.01865],[136.47057,36.02765],[136.47482,36.02925],[136.47895,36.02638],[136.49668,36.02535],[136.50293,36.01947],[136.52328,36.01819],[136.53418,36.01383],[136.54384,36.00698],[136.55206,36.0121],[136.56155,36.0086],[136.56801,36.01088],[136.56857,36.01762],[136.57128,36.02193],[136.57854,36.02403],[136.58812,36.03302],[136.59925,36.0383],[136.61031,36.03858],[136.61389,36.04447],[136.62153,36.0463],[136.62553,36.05178],[136.63173,36.05349],[136.63754,36.06174],[136.6503,36.06732],[136.65868,36.06951],[136.65497,36.07775],[136.65682,36.08457],[136.65335,36.08645],[136.65134,36.09223],[136.64207,36.09807],[136.63226,36.09941],[136.62217,36.10646],[136.61473,36.10831],[136.61143,36.11276],[136.61227,36.11682],[136.60443,36.12218],[136.60341,36.12794],[136.59537,36.13207],[136.59048,36.13122],[136.58171,36.13633],[136.57632,36.14223],[136.56285,36.14637],[136.56009,36.15301],[136.55183,36.15491],[136.53769,36.15038],[136.52668,36.14812],[136.52153,36.15138],[136.51194,36.14627],[136.5057,36.14663],[136.50304,36.14966],[136.49707,36.14967],[136.49169,36.15829]]]},"properties":{"pref":"福井県","city":"勝山市","code5":"18206","code6":"182061"}},
{"type":"Feature","geometry":{"type":"Polygon","coordinates":[[[136.15523,35.99229],[136.15617,35.98717],[136.15403,35.98249],[136.13824,35.96962],[136.13879,35.96419],[136.1327,35.95695],[136.1293,35.94874],[136.12456,35.94561],[136.12668,35.94002],[136.13472,35.93277],[136.14035,35.9376],[136.15,35.93574],[136.16094,35.9361],[136.16093,35.93992],[136.16665,35.93998],[136.16911,35.93612],[136.17541,35.9367],[136.17815,35.9302],[136.19969,35.93067],[136.20095,35.92887],[136.21678,35.9293],[136.21779,35.93255],[136.22459,35.93086],[136.22562,35.93838],[136.23205,35.94082],[136.24063,35.9482],[136.24879,35.94849],[136.25024,35.94144],[136.25554,35.94311],[136.26138,35.94098],[136.28188,35.94165],[136.28935,35.94518],[136.29671,35.94302],[136.29915,35.94441],[136.30908,35.94264],[136.31432,35.93716],[136.31976,35.93559],[136.32458,35.92957],[136.33374,35.92867],[136.33395,35.93934],[136.33157,35.94293],[136.33605,35.95141],[136.32294,35.95186],[136.32306,35.95673],[136.3184,35.95802],[136.31736,35.96357],[136.312,35.96612],[136.30378,35.96444],[136.30007,35.96865],[136.29008,35.974],[136.28257,35.97176],[136.27485,35.97215],[136.27113,35.97797],[136.25938,35.98042],[136.25454,35.97932],[136.23888,35.98346],[136.23209,35.99067],[136.22383,35.99046],[136.21995,35.9879],[136.21512,35.98042],[136.20378,35.97525],[136.20638,35.98573],[136.19465,35.99078],[136.18938,35.99107],[136.17981,35.99446],[136.18069,35.99914],[136.176,35.99981],[136.16592,35.99626],[136.16053,35.99689],[136.15523,35.99229]]]},"properties":{"pref":"福井県","city":"鯖江市","code5":"18207","code6":"182079"}},
{"type":"Feature","geometry":{"type":"Polygon","coordinates":[[[136.24386,36.2953],[136.24317,36.29425],[136.24317,36.29422],[136.24075,36.29115],[136.21736,36.27585],[136.19687,36.26454],[136.18319,36.25762],[136.1829,36.25171],[136.18887,36.24958],[136.19548,36.2512],[136.2007,36.2461],[136.19367,36.24085],[136.19436,36.23387],[136.18442,36.23294],[136.18495,36.22832],[136.18196,36.22405],[136.1748,36.2218],[136.17504,36.21856],[136.16951,36.21642],[136.1668,36.2126],[136.17548,36.21129],[136.17276,36.1988],[136.17602,36.19824],[136.18049,36.1929],[136.1903,36.19291],[136.19676,36.19115],[136.21553,36.19243],[136.22863,36.19731],[136.23549,36.19015],[136.23743,36.18384],[136.25182,36.18542],[136.25724,36.18354],[136.26242,36.17841],[136.27693,36.17771],[136.28547,36.17462],[136.29748,36.17923],[136.30523,36.18489],[136.30567,36.18848],[136.31687,36.19322],[136.32055,36.19909],[136.3294,36.20202],[136.32787,36.2099],[136.33118,36.21838],[136.32901,36.2243],[136.3324,36.22959],[136.32326,36.23167],[136.31668,36.23508],[136.31762,36.24078],[136.3153,36.24588],[136.30842,36.24682],[136.30494,36.25047],[136.30211,36.25752],[136.29465,36.26075],[136.28949,36.26041],[136.26827,36.26927],[136.26153,36.27336],[136.2562,36.27991],[136.25859,36.28932],[136.24925,36.29176],[136.24386,36.2953]]]},"properties":{"pref":"福井県","city":"あわら市","code5":"18208","code6":"182087"}},
{"type":"Feature","geometry":{"type":"Polygon","coordinates":[[[136.13472,35.93277],[136.13215,35.92654],[136.12879,35.92464],[136.12567,35.91599],[136.11704,35.91478],[136.09579,35.91021],[136.09332,35.91646],[136.08967,35.91817],[136.088,35.92299],[136.07864,35.92552],[136.07423,35.92324],[136.07359,35.91905],[136.06167,35.91708],[136.05663,35.91923],[136.0481,35.91717],[136.04399,35.91274],[136.04214,35.90392],[136.03728,35.90376],[136.02847,35.90017],[136.02015,35.89449],[136.01873,35.8879],[136.01968,35.87895],[136.02249,35.87436],[136.03269,35.87086],[136.04051,35.8665],[136.04256,35.86179],[136.04854,35.85964],[136.05629,35.86021],[136.05394,35.85585],[136.05521,35.85035],[136.06915,35.84835],[136.077,35.85003],[136.08263,35.84357],[136.10007,35.84439],[136.1073,35.84265],[136.11478,35.84689],[136.12646,35.84321],[136.13157,35.82807],[136.1299,35.82486],[136.13374,35.81611],[136.13458,35.8101],[136.13885,35.80796],[136.14303,35.81216],[136.15313,35.81693],[136.15777,35.82626],[136.15887,35.83397],[136.16586,35.83708],[136.17414,35.84332],[136.17507,35.85019],[136.18193,35.85666],[136.19629,35.8575],[136.20294,35.85945],[136.20857,35.85747],[136.22387,35.856],[136.24396,35.84453],[136.24919,35.84552],[136.25592,35.84215],[136.26612,35.84854],[136.27325,35.86075],[136.28015,35.86562],[136.28587,35.86451],[136.29398,35.86677],[136.29971,35.8732],[136.30635,35.87774],[136.30496,35.88036],[136.31165,35.88714],[136.31212,35.89295],[136.30902,35.89526],[136.31181,35.90372],[136.31516,35.90773],[136.31403,35.91266],[136.30997,35.91391],[136.31372,35.92034],[136.32427,35.91997],[136.33357,35.92489],[136.33374,35.92867],[136.32458,35.92957],[136.31976,35.93559],[136.31432,35.93716],[136.30908,35.94264],[136.29915,35.94441],[136.29671,35.94302],[136.28935,35.94518],[136.28188,35.94165],[136.26138,35.94098],[136.25554,35.94311],[136.25024,35.94144],[136.24879,35.94849],[136.24063,35.9482],[136.23205,35.94082],[136.22562,35.93838],[136.22459,35.93086],[136.21779,35.93255],[136.21678,35.9293],[136.20095,35.92887],[136.19969,35.93067],[136.17815,35.9302],[136.17541,35.9367],[136.16911,35.93612],[136.16665,35.93998],[136.16093,35.93992],[136.16094,35.9361],[136.15,35.93574],[136.14035,35.9376],[136.13472,35.93277]]]},"properties":{"pref":"福井県","city":"越前市","code5":"18209","code6":"182095"}},
{"type":"Feature","geometry":{"type":"Polygon","coordinates":[[[136.3294,36.20202],[136.32055,36.19909],[136.31687,36.19322],[136.30567,36.18848],[136.30523,36.18489],[136.29748,36.17923],[136.28547,36.17462],[136.27693,36.17771],[136.26242,36.17841],[136.25724,36.18354],[136.25182,36.18542],[136.23743,36.18384],[136.23549,36.19015],[136.22863,36.19731],[136.21553,36.19243],[136.19676,36.19115],[136.1903,36.19291],[136.18049,36.1929],[136.17602,36.19824],[136.17276,36.1988],[136.17548,36.21129],[136.1668,36.2126],[136.16951,36.21642],[136.17504,36.21856],[136.1748,36.2218],[136.18196,36.22405],[136.18495,36.22832],[136.18442,36.23294],[136.19436,36.23387],[136.19367,36.24085],[136.2007,36.2461],[136.19548,36.2512],[136.18887,36.24958],[136.1829,36.25171],[136.18319,36.25762],[136.17189,36.25257],[136.16203,36.24978],[136.15391,36.25341],[136.14116,36.25283],[136.13648,36.25046],[136.1234,36.25003],[136.13084,36.2418],[136.12597,36.23618],[136.13317,36.2284],[136.13471,36.22075],[136.12966,36.21903],[136.13202,36.21392],[136.12183,36.20114],[136.12655,36.19892],[136.1311,36.20519],[136.13399,36.20383],[136.12726,36.19443],[136.12765,36.19009],[136.12106,36.18961],[136.11442,36.19269],[136.10003,36.17289],[136.1073,36.16943],[136.11937,36.16585],[136.12604,36.16277],[136.13102,36.16384],[136.13532,36.16953],[136.13821,36.16327],[136.14788,36.16341],[136.15155,36.1669],[136.15673,36.16416],[136.1619,36.15878],[136.16441,36.14885],[136.16808,36.14311],[136.17505,36.13941],[136.17783,36.13368],[136.19179,36.13042],[136.19373,36.12378],[136.19794,36.1215],[136.20952,36.12048],[136.23066,36.12078],[136.23388,36.11866],[136.24293,36.12071],[136.24559,36.11821],[136.25407,36.12365],[136.25548,36.11316],[136.25366,36.10651],[136.25693,36.10492],[136.26997,36.10407],[136.28137,36.1135],[136.28049,36.1209],[136.2853,36.11957],[136.284,36.11116],[136.2904,36.116],[136.29867,36.11154],[136.29625,36.10731],[136.30631,36.10377],[136.32296,36.10276],[136.32449,36.1067],[136.33293,36.10964],[136.33592,36.11241],[136.34363,36.11127],[136.34594,36.11381],[136.35542,36.11686],[136.36021,36.12451],[136.36023,36.12743],[136.37168,36.13006],[136.37578,36.12592],[136.38475,36.12691],[136.39278,36.12494],[136.39936,36.12501],[136.40688,36.12837],[136.42534,36.13368],[136.42897,36.13212],[136.43961,36.13481],[136.44039,36.13736],[136.43784,36.14232],[136.43176,36.14347],[136.42681,36.1489],[136.42419,36.15458],[136.41429,36.15662],[136.41164,36.16008],[136.41327,36.16695],[136.40931,36.17223],[136.40482,36.17028],[136.3977,36.17053],[136.39071,36.16753],[136.3689,36.16983],[136.36592,36.16616],[136.35797,36.16514],[136.3551,36.16884],[136.34412,36.17298],[136.33761,36.18373],[136.33696,36.19079],[136.3294,36.20202]]]},"properties":{"pref":"福井県","city":"坂井市","code5":"18210","code6":"182109"}},
{"type":"Feature","geometry":{"type":"Polygon","coordinates":[[[136.432,36.04332],[136.43547,36.0502],[136.43252,36.05423],[136.43933,36.06948],[136.43801,36.07543],[136.42909,36.07631],[136.40948,36.08101],[136.38829,36.08752],[136.3884,36.0908],[136.39565,36.09221],[136.40417,36.0992],[136.39824,36.10911],[136.39695,36.11361],[136.39133,36.11617],[136.39278,36.12494],[136.38475,36.12691],[136.37578,36.12592],[136.37168,36.13006],[136.36023,36.12743],[136.36021,36.12451],[136.35542,36.11686],[136.34594,36.11381],[136.34363,36.11127],[136.33592,36.11241],[136.33293,36.10964],[136.32449,36.1067],[136.32296,36.10276],[136.30631,36.10377],[136.29625,36.10731],[136.29867,36.11154],[136.2904,36.116],[136.284,36.11116],[136.2853,36.11957],[136.28049,36.1209],[136.28137,36.1135],[136.26997,36.10407],[136.28068,36.10359],[136.28131,36.09894],[136.28807,36.09836],[136.28837,36.09491],[136.28013,36.09301],[136.28728,36.08275],[136.29241,36.07882],[136.2888,36.07581],[136.28163,36.07409],[136.28455,36.0687],[136.28645,36.05608],[136.2913,36.0529],[136.29727,36.04614],[136.31474,36.0414],[136.31852,36.04182],[136.32036,36.04777],[136.3289,36.04835],[136.33545,36.05261],[136.34063,36.05299],[136.34615,36.04259],[136.3508,36.03657],[136.35999,36.03396],[136.36738,36.03355],[136.38429,36.04708],[136.39017,36.04786],[136.40745,36.04594],[136.4133,36.04249],[136.42561,36.03979],[136.432,36.04332]]]},"properties":{"pref":"福井県","county":"吉田郡","city":"永平寺町","code5":"18322","code6":"183229"}},
{"type":"Feature","geometry":{"type":"Polygon","coordinates":[[[136.33374,35.92867],[136.33357,35.92489],[136.32427,35.91997],[136.31372,35.92034],[136.30997,35.91391],[136.31403,35.91266],[136.31516,35.90773],[136.31181,35.90372],[136.30902,35.89526],[136.31212,35.89295],[136.31165,35.88714],[136.30496,35.88036],[136.30635,35.87774],[136.29971,35.8732],[136.29398,35.86677],[136.28587,35.86451],[136.28015,35.86562],[136.27325,35.86075],[136.26612,35.84854],[136.25592,35.84215],[136.25964,35.83768],[136.26014,35.83071],[136.25786,35.8253],[136.26772,35.82247],[136.27291,35.82377],[136.28556,35.82045],[136.30184,35.82887],[136.30776,35.82423],[136.31307,35.82237],[136.31469,35.81737],[136.31937,35.81809],[136.32516,35.82391],[136.33086,35.82024],[136.34032,35.82272],[136.34946,35.81281],[136.34643,35.8072],[136.3535,35.8009],[136.35121,35.79639],[136.35434,35.7878],[136.35709,35.78683],[136.36407,35.78818],[136.37666,35.79518],[136.38896,35.79179],[136.3895,35.78804],[136.40014,35.78937],[136.40166,35.78608],[136.40885,35.7803],[136.41597,35.78245],[136.42283,35.79336],[136.43126,35.79792],[136.43256,35.80714],[136.42324,35.81302],[136.42293,35.82086],[136.42676,35.82333],[136.42341,35.83253],[136.42886,35.83899],[136.42832,35.84119],[136.43558,35.84964],[136.42765,35.85885],[136.43496,35.86715],[136.43307,35.87194],[136.43986,35.87792],[136.43926,35.88601],[136.43296,35.88886],[136.43252,35.89635],[136.43759,35.90105],[136.43877,35.90864],[136.44661,35.91015],[136.45566,35.91356],[136.46052,35.92055],[136.45225,35.92146],[136.43868,35.92781],[136.4398,35.93226],[136.43608,35.9357],[136.42933,35.93833],[136.42302,35.9388],[136.40675,35.94898],[136.40027,35.94828],[136.38935,35.95229],[136.37544,35.9517],[136.36701,35.94789],[136.3583,35.94754],[136.3522,35.94235],[136.35019,35.93432],[136.34558,35.93144],[136.34149,35.93281],[136.33374,35.92867]]]},"properties":{"pref":"福井県","county":"今立郡","city":"池田町","code5":"18382","code6":"183822"}},
{"type":"Feature","geometry":{"type":"Polygon","coordinates":[[[136.15035,35.69772],[136.15675,35.70037],[136.16604,35.69725],[136.16677,35.70221],[136.17459,35.70374],[136.17836,35.70181],[136.18528,35.70373],[136.19309,35.70076],[136.1985,35.68957],[136.20419,35.68679],[136.20804,35.68769],[136.21181,35.68245],[136.21947,35.68435],[136.22768,35.68047],[136.23441,35.68246],[136.24465,35.67379],[136.25037,35.67625],[136.25748,35.67128],[136.26403,35.67106],[136.26936,35.66873],[136.28053,35.66128],[136.28074,35.65863],[136.28445,35.66339],[136.29042,35.66583],[136.28917,35.67173],[136.29893,35.67881],[136.29192,35.68407],[136.29177,35.69039],[136.29762,35.69178],[136.30474,35.70153],[136.31085,35.70567],[136.31309,35.71289],[136.32269,35.71563],[136.32052,35.72293],[136.32361,35.72497],[136.32696,35.73152],[136.32404,35.74046],[136.32503,35.74466],[136.32005,35.74729],[136.3184,35.75098],[136.32166,35.7653],[136.32795,35.7751],[136.33281,35.77639],[136.34677,35.77624],[136.34841,35.78002],[136.35709,35.78683],[136.35434,35.7878],[136.35121,35.79639],[136.3535,35.8009],[136.34643,35.8072],[136.34946,35.81281],[136.34032,35.82272],[136.33086,35.82024],[136.32516,35.82391],[136.31937,35.81809],[136.31469,35.81737],[136.31307,35.82237],[136.30776,35.82423],[136.30184,35.82887],[136.28556,35.82045],[136.27291,35.82377],[136.26772,35.82247],[136.25786,35.8253],[136.26014,35.83071],[136.25964,35.83768],[136.25592,35.84215],[136.24919,35.84552],[136.24396,35.84453],[136.22387,35.856],[136.20857,35.85747],[136.20294,35.85945],[136.19629,35.8575],[136.18193,35.85666],[136.17507,35.85019],[136.17414,35.84332],[136.16586,35.83708],[136.15887,35.83397],[136.15777,35.82626],[136.15313,35.81693],[136.14303,35.81216],[136.13885,35.80796],[136.13458,35.8101],[136.13374,35.81611],[136.1299,35.82486],[136.13157,35.82807],[136.12646,35.84321],[136.11478,35.84689],[136.1073,35.84265],[136.10007,35.84439],[136.08263,35.84357],[136.077,35.85003],[136.06915,35.84835],[136.05521,35.85035],[136.05394,35.85585],[136.05629,35.86021],[136.04854,35.85964],[136.04256,35.86179],[136.04051,35.8665],[136.03269,35.87086],[136.02249,35.87436],[136.01968,35.87895],[136.01123,35.87236],[136.02098,35.86517],[136.03874,35.85055],[136.04339,35.8441],[136.05256,35.83669],[136.06157,35.82968],[136.07031,35.82483],[136.0764,35.81165],[136.08384,35.80112],[136.08768,35.79787],[136.09014,35.79112],[136.0998,35.77916],[136.09831,35.76524],[136.11277,35.76542],[136.11764,35.75772],[136.11854,35.75185],[136.12365,35.7484],[136.12693,35.74245],[136.13262,35.73733],[136.13357,35.72495],[136.13199,35.72269],[136.1426,35.71606],[136.14879,35.71065],[136.14712,35.69927],[136.15035,35.69772]]]},"properties":{"pref":"福井県","county":"南条郡","city":"南越前町","code5":"18404","code6":"184047"}},
{"type":"Feature","geometry":{"type":"Polygon","coordinates":[[[135.96437,35.99751],[135.9653,35.99196],[135.95769,35.98177],[135.95851,35.97612],[135.96198,35.97163],[135.96699,35.96967],[135.96954,35.9624],[135.9812,35.95441],[135.98672,35.94898],[135.98647,35.94397],[135.99672,35.93583],[135.99762,35.92329],[135.99517,35.91225],[135.99786,35.90297],[135.99528,35.8985],[135.995,35.89234],[135.99755,35.88449],[136.01123,35.87236],[136.01968,35.87895],[136.01873,35.8879],[136.02015,35.89449],[136.02847,35.90017],[136.03728,35.90376],[136.04214,35.90392],[136.04399,35.91274],[136.0481,35.91717],[136.05663,35.91923],[136.06167,35.91708],[136.07359,35.91905],[136.07423,35.92324],[136.07864,35.92552],[136.088,35.92299],[136.08967,35.91817],[136.09332,35.91646],[136.09579,35.91021],[136.11704,35.91478],[136.12567,35.91599],[136.12879,35.92464],[136.13215,35.92654],[136.13472,35.93277],[136.12668,35.94002],[136.12456,35.94561],[136.1293,35.94874],[136.1327,35.95695],[136.13879,35.96419],[136.13824,35.96962],[136.15403,35.98249],[136.15617,35.98717],[136.15523,35.99229],[136.14118,35.99221],[136.12809,36.00388],[136.12084,36.00105],[136.11031,36.00224],[136.09654,36.006],[136.09244,36.01268],[136.08176,36.01893],[136.0636,36.02777],[136.0573,36.02693],[136.05506,36.01507],[136.04821,36.00749],[136.04756,36.00429],[136.03292,35.997],[136.02714,35.99739],[136.02257,36.00558],[136.01173,36.01424],[136.00571,36.01],[136.00349,36.00544],[136.00248,35.99687],[136.00404,35.99101],[136.00224,35.98636],[135.9962,35.98269],[135.99072,35.98284],[135.98556,35.98778],[135.96984,35.99187],[135.96437,35.99751]]]},"properties":{"pref":"福井県","county":"丹生郡","city":"越前町","code5":"18423","code6":"184233"}},
{"type":"Feature","geometry":{"type":"Polygon","coordinates":[[[135.96459,35.73011],[135.95876,35.727],[135.9544,35.72012],[135.95943,35.71668],[135.95855,35.71076],[135.95966,35.70182],[135.96672,35.70152],[135.96557,35.71075],[135.97124,35.71181],[135.9707,35.70418],[135.97543,35.69827],[135.97757,35.68669],[135.97301,35.67753],[135.96825,35.67424],[135.96682,35.65969],[135.96316,35.65718],[135.97462,35.65465],[135.97627,35.65098],[135.98559,35.64319],[135.98489,35.63649],[135.97829,35.62758],[135.9689,35.62248],[135.96235,35.62245],[135.95458,35.62909],[135.95141,35.62863],[135.94476,35.62312],[135.93878,35.61461],[135.9258,35.61011],[135.9135,35.60939],[135.91117,35.61379],[135.90756,35.61728],[135.90759,35.62458],[135.90757,35.6246],[135.90037,35.62373],[135.89576,35.62192],[135.89614,35.61602],[135.89626,35.61555],[135.89329,35.61163],[135.88766,35.61649],[135.87985,35.61635],[135.87664,35.61033],[135.87015,35.6083],[135.85926,35.61107],[135.85691,35.61812],[135.85929,35.62317],[135.85553,35.6247],[135.84906,35.62277],[135.84357,35.62662],[135.84596,35.63497],[135.83937,35.63763],[135.83441,35.6365],[135.82769,35.63885],[135.82282,35.64416],[135.81464,35.64224],[135.8206,35.64145],[135.83421,35.63444],[135.84089,35.63307],[135.83987,35.62698],[135.84812,35.61759],[135.84814,35.6149],[135.85589,35.60784],[135.86451,35.60286],[135.87055,35.60134],[135.87407,35.60729],[135.88148,35.60714],[135.88528,35.59887],[135.88922,35.59783],[135.90202,35.60319],[135.9087,35.59434],[135.90774,35.58955],[135.91493,35.58548],[135.91681,35.58075],[135.92062,35.57938],[135.93162,35.5797],[135.9402,35.5741],[135.94262,35.56197],[135.94618,35.55498],[135.9449,35.55115],[135.95264,35.54114],[135.95428,35.52633],[135.94702,35.52048],[135.95182,35.51122],[135.95237,35.50622],[135.95759,35.50596],[135.96258,35.50133],[135.96719,35.50298],[135.97265,35.50011],[135.98095,35.48669],[135.98951,35.49268],[135.99319,35.49159],[136.00666,35.49182],[136.01169,35.49762],[136.01173,35.50484],[136.01596,35.51227],[136.02013,35.5119],[136.02353,35.51923],[136.02884,35.52343],[136.02653,35.5295],[136.02766,35.54252],[136.02389,35.54624],[136.02514,35.55129],[136.02341,35.56107],[136.02967,35.56919],[136.02888,35.57884],[136.02625,35.58624],[136.01892,35.58705],[136.01207,35.58486],[136.00925,35.5865],[136.00446,35.59587],[136.00673,35.5973],[136.0094,35.60905],[136.00625,35.61364],[136.0065,35.62317],[136.00914,35.63152],[136.00595,35.63635],[136.00375,35.64627],[135.99822,35.65212],[136.01311,35.66509],[136.00941,35.6706],[136.00905,35.67783],[136.01292,35.68402],[136.01076,35.69331],[136.01276,35.69727],[136.01028,35.70125],[136.01017,35.70837],[136.01361,35.71736],[136.01255,35.725],[136.00529,35.73005],[135.9951,35.72598],[135.9932,35.72701],[135.98138,35.72434],[135.96839,35.72549],[135.96459,35.73011]]]},"properties":{"pref":"福井県","county":"三方郡","city":"美浜町","code5":"18442","code6":"184420"}},
{"type":"Feature","geometry":{"type":"Polygon","coordinates":[[[135.60253,35.51389],[135.59191,35.50241],[135.58082,35.4982],[135.57686,35.49959],[135.57488,35.49338],[135.56446,35.49033],[135.55607,35.49057],[135.54995,35.49342],[135.53614,35.48887],[135.51904,35.49378],[135.51421,35.4972],[135.50731,35.5057],[135.50784,35.50778],[135.51053,35.50885],[135.5089,35.5122],[135.5138,35.51636],[135.51668,35.5261],[135.51414,35.53575],[135.51645,35.53958],[135.51832,35.54961],[135.50368,35.54949],[135.49943,35.54752],[135.5013,35.5401],[135.50925,35.53692],[135.50281,35.53328],[135.50263,35.52473],[135.49316,35.5231],[135.49377,35.52833],[135.48867,35.52906],[135.48751,35.52281],[135.48088,35.52194],[135.47855,35.52434],[135.48351,35.5343],[135.48062,35.53534],[135.46998,35.52963],[135.46824,35.53144],[135.47795,35.54212],[135.4799,35.54662],[135.47857,35.55111],[135.4866,35.55794],[135.46684,35.55191],[135.46048,35.54846],[135.45964,35.54343],[135.45414,35.53693],[135.45454,35.53415],[135.44986,35.52725],[135.44993,35.5208],[135.46666,35.50949],[135.47622,35.50549],[135.47258,35.50118],[135.4763,35.48968],[135.47067,35.4893],[135.46959,35.48479],[135.46248,35.47881],[135.45843,35.46886],[135.46277,35.46225],[135.46945,35.45816],[135.47032,35.45449],[135.48086,35.44808],[135.48609,35.4486],[135.49507,35.44972],[135.51005,35.46108],[135.51625,35.463],[135.52103,35.46066],[135.52481,35.45565],[135.53627,35.45988],[135.54626,35.45925],[135.56131,35.46181],[135.56311,35.46504],[135.58017,35.46935],[135.58568,35.46651],[135.59488,35.46803],[135.60069,35.47342],[135.59979,35.47551],[135.60523,35.48369],[135.59796,35.48831],[135.59679,35.49214],[135.60629,35.49026],[135.60357,35.49403],[135.60732,35.49843],[135.61066,35.5064],[135.60901,35.50988],[135.60253,35.51389]]]},"properties":{"pref":"福井県","county":"大飯郡","city":"高浜町","code5":"18481","code6":"184811"}},
{"type":"Feature","geometry":{"type":"MultiPolygon","coordinates":[[[[135.64517,35.4786],[135.6318,35.48245],[135.6238,35.4827],[135.62142,35.48513],[135.6214,35.48514],[135.61729,35.48541],[135.60523,35.48369],[135.59979,35.47551],[135.60069,35.47342],[135.59488,35.46803],[135.58568,35.46651],[135.58017,35.46935],[135.56311,35.46504],[135.56131,35.46181],[135.54626,35.45925],[135.53627,35.45988],[135.52481,35.45565],[135.52103,35.46066],[135.51625,35.463],[135.51005,35.46108],[135.49507,35.44972],[135.48609,35.4486],[135.49098,35.43855],[135.49779,35.43755],[135.50049,35.43255],[135.49536,35.42641],[135.50569,35.4209],[135.51014,35.42442],[135.5159,35.42195],[135.52081,35.42293],[135.52702,35.41842],[135.52997,35.40842],[135.5252,35.40308],[135.53164,35.3928],[135.52878,35.39072],[135.52754,35.38022],[135.5345,35.37744],[135.53698,35.37667],[135.55878,35.37648],[135.56584,35.37733],[135.57173,35.37426],[135.57961,35.37487],[135.5881,35.36826],[135.59387,35.37048],[135.60706,35.3715],[135.62347,35.3699],[135.63664,35.36371],[135.64236,35.36672],[135.65244,35.35994],[135.66134,35.35634],[135.6682,35.35707],[135.67711,35.34984],[135.70099,35.34369],[135.71072,35.348],[135.71279,35.35308],[135.71894,35.3553],[135.72502,35.35174],[135.73637,35.35115],[135.74414,35.35894],[135.75518,35.35445],[135.76437,35.35652],[135.76879,35.35601],[135.77007,35.35998],[135.77775,35.36594],[135.77915,35.37352],[135.79196,35.38112],[135.79089,35.38664],[135.78573,35.39135],[135.77377,35.39353],[135.77024,35.39699],[135.76805,35.40389],[135.76387,35.405],[135.76041,35.40978],[135.75559,35.41235],[135.73616,35.41605],[135.73,35.41852],[135.72768,35.41392],[135.71934,35.4148],[135.71349,35.40949],[135.70489,35.41076],[135.7019,35.40936],[135.69347,35.41033],[135.68466,35.41516],[135.68214,35.41867],[135.67252,35.41787],[135.6657,35.41029],[135.65437,35.41574],[135.64353,35.41667],[135.64105,35.4245],[135.63185,35.42654],[135.62682,35.42133],[135.62092,35.42193],[135.61533,35.41445],[135.61014,35.41708],[135.60446,35.41583],[135.59876,35.41909],[135.59837,35.42473],[135.58885,35.43013],[135.5926,35.43457],[135.59949,35.43452],[135.60668,35.4405],[135.61609,35.44005],[135.62353,35.44527],[135.63186,35.44463],[135.64717,35.4501],[135.64163,35.45604],[135.64302,35.46294],[135.6481,35.46474],[135.64475,35.47517],[135.64517,35.4786]]],[[[135.60629,35.49026],[135.61611,35.49242],[135.6285,35.49185],[135.63027,35.49636],[135.63642,35.50395],[135.64205,35.50688],[135.63738,35.51243],[135.63955,35.51675],[135.63477,35.51885],[135.64426,35.5257],[135.6547,35.53093],[135.66124,35.52924],[135.66182,35.52579],[135.66863,35.52466],[135.66567,35.53363],[135.65963,35.53473],[135.66069,35.545],[135.66068,35.54526],[135.6608,35.54544],[135.65272,35.54602],[135.6519,35.54267],[135.64338,35.542],[135.64196,35.5392],[135.63126,35.53674],[135.62006,35.52692],[135.62064,35.52149],[135.61791,35.51881],[135.60604,35.51655],[135.60253,35.51389],[135.60901,35.50988],[135.61066,35.5064],[135.60732,35.49843],[135.60357,35.49403],[135.60629,35.49026]]]]},"properties":{"pref":"福井県","county":"大飯郡","city":"おおい町","code5":"18483","code6":"184837"}},
{"type":"Feature","geometry":{"type":"MultiPolygon","coordinates":[[[[135.85313,35.41154],[135.85561,35.40903],[135.85434,35.40078],[135.86043,35.39525],[135.86453,35.39442],[135.87555,35.3974],[135.88029,35.4006],[135.89057,35.40318],[135.89355,35.41073],[135.89298,35.41985],[135.90098,35.42576],[135.90271,35.42943],[135.90808,35.42952],[135.91416,35.43211],[135.91246,35.44869],[135.91558,35.45612],[135.91733,35.46676],[135.91601,35.47058],[135.92169,35.47612],[135.92374,35.4817],[135.92229,35.48582],[135.92483,35.48997],[135.92983,35.49196],[135.93321,35.50231],[135.93802,35.51116],[135.93965,35.52054],[135.94702,35.52048],[135.95428,35.52633],[135.95264,35.54114],[135.9449,35.55115],[135.94618,35.55498],[135.94262,35.56197],[135.9402,35.5741],[135.93162,35.5797],[135.92062,35.57938],[135.91681,35.58075],[135.91493,35.58548],[135.90774,35.58955],[135.9087,35.59434],[135.90202,35.60319],[135.88922,35.59783],[135.88528,35.59887],[135.88148,35.60714],[135.87407,35.60729],[135.87055,35.60134],[135.86451,35.60286],[135.85589,35.60784],[135.84814,35.6149],[135.84812,35.61759],[135.83987,35.62698],[135.84089,35.63307],[135.83421,35.63444],[135.8206,35.64145],[135.81464,35.64224],[135.81307,35.63494],[135.8155,35.63253],[135.82206,35.6375],[135.82771,35.63526],[135.83309,35.63043],[135.82357,35.63135],[135.82375,35.6244],[135.83403,35.62289],[135.83924,35.61914],[135.83868,35.61614],[135.83165,35.61287],[135.83055,35.61212],[135.83054,35.6121],[135.82663,35.60939],[135.82738,35.60821],[135.82745,35.60812],[135.82747,35.60809],[135.82789,35.60798],[135.82789,35.60742],[135.82787,35.60738],[135.82794,35.60735],[135.82795,35.6074],[135.82817,35.60733],[135.82818,35.60732],[135.82861,35.60733],[135.83223,35.60315],[135.837,35.60655],[135.84304,35.60754],[135.84628,35.60141],[135.8463,35.6014],[135.84645,35.60145],[135.84807,35.60238],[135.85562,35.60035],[135.85449,35.59456],[135.85751,35.58952],[135.85696,35.58397],[135.8541,35.57842],[135.84885,35.57766],[135.85007,35.57341],[135.84257,35.57004],[135.83969,35.56315],[135.83468,35.56178],[135.82794,35.56401],[135.82783,35.56852],[135.82342,35.57033],[135.82346,35.57064],[135.82164,35.57317],[135.82054,35.57355],[135.82037,35.57371],[135.81983,35.57403],[135.8192,35.5734],[135.81728,35.57265],[135.81518,35.57165],[135.8143,35.56721],[135.81907,35.56604],[135.82222,35.5597],[135.83548,35.55414],[135.83942,35.55007],[135.84417,35.5492],[135.85134,35.54104],[135.84959,35.53735],[135.83205,35.5225],[135.83752,35.51553],[135.84145,35.51301],[135.84212,35.50696],[135.84536,35.50199],[135.84236,35.49564],[135.84478,35.48691],[135.84331,35.4844],[135.83473,35.48348],[135.82348,35.47977],[135.81196,35.48903],[135.80619,35.49083],[135.79692,35.48968],[135.80183,35.48],[135.81187,35.47569],[135.81008,35.46613],[135.81561,35.46194],[135.81528,35.45693],[135.81961,35.45094],[135.82916,35.44847],[135.8409,35.44135],[135.84905,35.44233],[135.85916,35.4323],[135.85728,35.41736],[135.85313,35.41154]]],[[[135.80502,35.63938],[135.80238,35.63065],[135.80648,35.63125],[135.80502,35.63938]]]]},"properties":{"pref":"福井県","county":"三方上中郡","city":"若狭町","code5":"18501","code6":"185019"}}
]}