{"type":"FeatureCollection", "features": [
{"type":"Feature","geometry":{"type":"Polygon","coordinates":[[[138.66095,35.87389],[138.65593,35.87587],[138.65196,35.87395],[138.64252,35.87477],[138.63423,35.87005],[138.62834,35.87333],[138.62159,35.87045],[138.62053,35.86185],[138.61539,35.85901],[138.60919,35.85984],[138.60381,35.84845],[138.59446,35.84787],[138.59028,35.84389],[138.58474,35.83092],[138.5802,35.82778],[138.57209,35.82871],[138.55633,35.828],[138.55571,35.82023],[138.55834,35.81703],[138.556,35.81205],[138.54941,35.80704],[138.54817,35.80045],[138.55041,35.79191],[138.5467,35.78836],[138.54445,35.78018],[138.54023,35.77312],[138.54049,35.76576],[138.54267,35.76036],[138.55488,35.75909],[138.55377,35.74896],[138.56138,35.74699],[138.56547,35.74022],[138.56072,35.73297],[138.54887,35.72604],[138.54853,35.72029],[138.5448,35.71935],[138.54262,35.71323],[138.53533,35.71404],[138.52858,35.70776],[138.52511,35.70742],[138.52356,35.69724],[138.52648,35.69553],[138.53631,35.68004],[138.53666,35.67392],[138.53397,35.67198],[138.53082,35.66435],[138.53658,35.65516],[138.53245,35.65176],[138.53876,35.6469],[138.54328,35.65132],[138.55316,35.64408],[138.54728,35.63892],[138.55099,35.63053],[138.54719,35.62711],[138.54799,35.62218],[138.55352,35.62032],[138.55368,35.61699],[138.55414,35.60874],[138.55941,35.60492],[138.55991,35.59757],[138.55625,35.59249],[138.56263,35.59115],[138.56303,35.58593],[138.55995,35.58279],[138.56881,35.57892],[138.57613,35.57199],[138.57559,35.56777],[138.57937,35.56279],[138.57894,35.55914],[138.58422,35.55785],[138.58405,35.55157],[138.59368,35.54959],[138.59661,35.54563],[138.59443,35.54015],[138.59011,35.53712],[138.58886,35.52852],[138.59282,35.52519],[138.59468,35.51881],[138.59582,35.5122],[138.59966,35.51003],[138.60241,35.50489],[138.61112,35.50408],[138.61468,35.50198],[138.621,35.50229],[138.62438,35.5056],[138.6366,35.5133],[138.64492,35.51316],[138.6504,35.51621],[138.65023,35.52075],[138.642,35.52633],[138.64004,35.53353],[138.63177,35.53489],[138.63049,35.53935],[138.62564,35.54432],[138.61691,35.54833],[138.62428,35.55654],[138.62459,35.56123],[138.62136,35.56427],[138.61742,35.57511],[138.61237,35.57797],[138.60502,35.5776],[138.59451,35.58334],[138.58916,35.58879],[138.58924,35.59439],[138.60862,35.60351],[138.60608,35.61069],[138.60781,35.61721],[138.59856,35.61793],[138.59739,35.62798],[138.59838,35.63413],[138.60649,35.63756],[138.61032,35.641],[138.63207,35.65047],[138.62763,35.65865],[138.62635,35.6686],[138.62242,35.67036],[138.61662,35.68231],[138.61042,35.69061],[138.61245,35.6928],[138.6196,35.69242],[138.62432,35.6988],[138.61802,35.70729],[138.61688,35.71154],[138.62126,35.71721],[138.61796,35.71976],[138.61235,35.71781],[138.59363,35.72776],[138.59807,35.73507],[138.59481,35.73749],[138.59588,35.74509],[138.59459,35.75055],[138.60562,35.75953],[138.61129,35.77207],[138.61641,35.7775],[138.6167,35.78065],[138.61303,35.78954],[138.61562,35.79381],[138.62252,35.79916],[138.62624,35.79839],[138.62999,35.80412],[138.6351,35.80368],[138.63684,35.81279],[138.6311,35.81517],[138.63118,35.82515],[138.63453,35.82809],[138.63897,35.84559],[138.63584,35.8525],[138.64191,35.8555],[138.6481,35.86304],[138.65686,35.86915],[138.66095,35.87389]]]},"properties":{"pref":"山梨県","city":"甲府市","code5":"19201","code6":"192015"}},
{"type":"Feature","geometry":{"type":"Polygon","coordinates":[[[138.85586,35.50507],[138.85029,35.50247],[138.84019,35.50141],[138.83727,35.50325],[138.83349,35.51093],[138.83699,35.52011],[138.83359,35.52589],[138.82248,35.52764],[138.81917,35.53223],[138.80633,35.5327],[138.80225,35.52476],[138.79371,35.52004],[138.7867,35.51249],[138.78677,35.50811],[138.78059,35.50324],[138.78215,35.49558],[138.77946,35.4922],[138.77085,35.49321],[138.77133,35.4885],[138.78349,35.48884],[138.76958,35.48153],[138.76347,35.47081],[138.76184,35.45886],[138.7584,35.45088],[138.75013,35.44201],[138.7276,35.42237],[138.73345,35.39359],[138.73028,35.36939],[138.73078,35.3628],[138.74687,35.36633],[138.79945,35.37667],[138.80837,35.37566],[138.81557,35.37644],[138.82194,35.37418],[138.82893,35.37797],[138.83398,35.38385],[138.84373,35.38659],[138.85083,35.39046],[138.85634,35.388],[138.8624,35.39008],[138.86355,35.39348],[138.849,35.40051],[138.82851,35.41207],[138.83395,35.42465],[138.83359,35.42928],[138.80269,35.43818],[138.80935,35.43923],[138.81044,35.45057],[138.80638,35.45636],[138.81264,35.46167],[138.81428,35.47218],[138.81694,35.47642],[138.83109,35.46894],[138.83603,35.46921],[138.84143,35.47224],[138.84617,35.4712],[138.85412,35.47518],[138.85653,35.47842],[138.8649,35.48054],[138.86622,35.48534],[138.86448,35.49309],[138.85721,35.49869],[138.85586,35.50507]]]},"properties":{"pref":"山梨県","city":"富士吉田市","code5":"19202","code6":"192023"}},
{"type":"Feature","geometry":{"type":"Polygon","coordinates":[[[138.86622,35.48534],[138.87664,35.48572],[138.88245,35.4795],[138.88426,35.47139],[138.88256,35.4682],[138.88809,35.46439],[138.89441,35.45429],[138.90129,35.45048],[138.90795,35.45034],[138.92387,35.45796],[138.92719,35.45941],[138.92663,35.46854],[138.92924,35.47403],[138.92937,35.48442],[138.93997,35.49384],[138.94762,35.49474],[138.95441,35.49884],[138.96736,35.50479],[138.97133,35.50893],[138.97445,35.52128],[138.97999,35.52042],[138.99799,35.52421],[139.00431,35.5285],[139.00687,35.53506],[139.0056,35.53898],[139.01234,35.5432],[139.02438,35.54434],[139.0275,35.54958],[139.01835,35.55427],[139.01768,35.56162],[139.00722,35.57158],[139.00504,35.579],[138.99653,35.581],[138.99119,35.57787],[138.98506,35.57891],[138.98249,35.57576],[138.97442,35.57523],[138.96829,35.57101],[138.96233,35.57174],[138.95685,35.56928],[138.95058,35.57442],[138.94886,35.584],[138.95017,35.59154],[138.9434,35.59632],[138.94001,35.60458],[138.92988,35.6012],[138.9266,35.59465],[138.92237,35.59586],[138.91357,35.58974],[138.90368,35.58834],[138.89772,35.58175],[138.8949,35.58278],[138.88552,35.57958],[138.88005,35.57441],[138.87589,35.57634],[138.86845,35.57602],[138.86317,35.57403],[138.83777,35.58355],[138.82962,35.58389],[138.81845,35.58123],[138.81131,35.57558],[138.7995,35.57222],[138.7992,35.56713],[138.80137,35.55818],[138.81026,35.55066],[138.81762,35.55091],[138.8228,35.54914],[138.83253,35.54837],[138.83809,35.54973],[138.84744,35.54538],[138.85328,35.53851],[138.85783,35.53913],[138.85896,35.53432],[138.86549,35.53154],[138.85472,35.52711],[138.8534,35.52265],[138.85586,35.50507],[138.85721,35.49869],[138.86448,35.49309],[138.86622,35.48534]]]},"properties":{"pref":"山梨県","city":"都留市","code5":"19204","code6":"192040"}},
{"type":"Feature","geometry":{"type":"Polygon","coordinates":[[[138.72901,35.90922],[138.72411,35.90799],[138.70797,35.90964],[138.70568,35.90595],[138.70016,35.90306],[138.69193,35.89585],[138.68585,35.89387],[138.68268,35.88146],[138.67599,35.86984],[138.66095,35.87389],[138.65686,35.86915],[138.6481,35.86304],[138.64191,35.8555],[138.63584,35.8525],[138.63897,35.84559],[138.63453,35.82809],[138.63118,35.82515],[138.6311,35.81517],[138.63684,35.81279],[138.6351,35.80368],[138.62999,35.80412],[138.62624,35.79839],[138.62252,35.79916],[138.61562,35.79381],[138.61303,35.78954],[138.6167,35.78065],[138.61641,35.7775],[138.61129,35.77207],[138.60562,35.75953],[138.59459,35.75055],[138.59588,35.74509],[138.59481,35.73749],[138.59807,35.73507],[138.59363,35.72776],[138.61235,35.71781],[138.61796,35.71976],[138.62126,35.71721],[138.61688,35.71154],[138.62188,35.70976],[138.62752,35.70327],[138.63581,35.69759],[138.64762,35.68775],[138.64241,35.68465],[138.65612,35.67848],[138.67211,35.67444],[138.66596,35.66251],[138.67907,35.66067],[138.68751,35.66097],[138.69587,35.66304],[138.70772,35.66305],[138.70691,35.6705],[138.70011,35.67482],[138.71565,35.68562],[138.71005,35.69494],[138.71342,35.70845],[138.7022,35.71232],[138.70565,35.71617],[138.70766,35.72343],[138.71156,35.72754],[138.71057,35.73385],[138.714,35.735],[138.72072,35.74198],[138.72345,35.75321],[138.74192,35.76415],[138.74543,35.77741],[138.74125,35.77899],[138.73924,35.78399],[138.74088,35.78921],[138.75954,35.78854],[138.76147,35.79021],[138.77389,35.78914],[138.77657,35.78643],[138.78675,35.78684],[138.78435,35.79373],[138.78576,35.79815],[138.78417,35.80407],[138.78609,35.80812],[138.7842,35.81689],[138.78675,35.82105],[138.78461,35.82537],[138.78967,35.8354],[138.79684,35.83751],[138.8028,35.84109],[138.80414,35.85167],[138.8136,35.86237],[138.8084,35.87002],[138.79697,35.87213],[138.79181,35.87598],[138.79279,35.88193],[138.79112,35.89081],[138.78912,35.89324],[138.77716,35.90042],[138.76567,35.89911],[138.75829,35.90241],[138.74911,35.90161],[138.73918,35.90584],[138.73489,35.904],[138.72901,35.90922]]]},"properties":{"pref":"山梨県","city":"山梨市","code5":"19205","code6":"192058"}},
{"type":"Feature","geometry":{"type":"Polygon","coordinates":[[[139.00504,35.579],[139.01147,35.57927],[139.01963,35.58397],[139.02565,35.58062],[139.03995,35.58444],[139.0546,35.58569],[139.06378,35.58413],[139.06589,35.58646],[139.06454,35.59903],[139.06709,35.60149],[139.06409,35.60642],[139.06375,35.61564],[139.05962,35.61666],[139.04429,35.61182],[139.03289,35.61556],[139.02522,35.61655],[139.02217,35.62245],[139.02129,35.63254],[139.01375,35.63734],[139.02536,35.65377],[139.02005,35.66704],[139.01221,35.66707],[139.00024,35.67017],[138.99253,35.6755],[138.99467,35.68222],[138.98322,35.68924],[138.98034,35.6928],[138.97793,35.70025],[138.97259,35.70117],[138.96845,35.70466],[138.96795,35.70891],[138.97175,35.71231],[138.96637,35.72101],[138.95449,35.72483],[138.94579,35.72941],[138.94299,35.73409],[138.93734,35.73674],[138.93026,35.73729],[138.92374,35.74062],[138.91605,35.73942],[138.90656,35.74212],[138.89647,35.74158],[138.88671,35.73955],[138.882,35.73635],[138.87311,35.734],[138.86777,35.73411],[138.85996,35.7303],[138.85509,35.71465],[138.85674,35.70655],[138.85522,35.70201],[138.85992,35.68874],[138.85779,35.68393],[138.85257,35.682],[138.847,35.67271],[138.84838,35.66374],[138.85049,35.6609],[138.84822,35.65509],[138.85051,35.64914],[138.8416,35.64076],[138.83465,35.6357],[138.82986,35.62915],[138.81995,35.62957],[138.81479,35.62212],[138.80354,35.6233],[138.79353,35.61741],[138.78571,35.61776],[138.7815,35.61567],[138.77925,35.6097],[138.77561,35.60733],[138.76699,35.60534],[138.77404,35.59328],[138.77276,35.58659],[138.77887,35.58427],[138.78489,35.58553],[138.78871,35.58033],[138.78675,35.57487],[138.79325,35.5699],[138.7995,35.57222],[138.81131,35.57558],[138.81845,35.58123],[138.82962,35.58389],[138.83777,35.58355],[138.86317,35.57403],[138.86845,35.57602],[138.87589,35.57634],[138.88005,35.57441],[138.88552,35.57958],[138.8949,35.58278],[138.89772,35.58175],[138.90368,35.58834],[138.91357,35.58974],[138.92237,35.59586],[138.9266,35.59465],[138.92988,35.6012],[138.94001,35.60458],[138.9434,35.59632],[138.95017,35.59154],[138.94886,35.584],[138.95058,35.57442],[138.95685,35.56928],[138.96233,35.57174],[138.96829,35.57101],[138.97442,35.57523],[138.98249,35.57576],[138.98506,35.57891],[138.99119,35.57787],[138.99653,35.581],[139.00504,35.579]]]},"properties":{"pref":"山梨県","city":"大月市","code5":"19206","code6":"192066"}},
{"type":"Feature","geometry":{"type":"Polygon","coordinates":[[[138.50037,35.76968],[138.4891,35.76725],[138.48783,35.76246],[138.47659,35.75312],[138.46882,35.75117],[138.45818,35.74658],[138.44909,35.73608],[138.43545,35.75296],[138.43449,35.75731],[138.42696,35.76819],[138.41849,35.77395],[138.41042,35.76705],[138.40321,35.766],[138.40025,35.77295],[138.39077,35.77231],[138.3744,35.76912],[138.3664,35.76516],[138.37518,35.75428],[138.36438,35.74968],[138.3572,35.7499],[138.35153,35.74593],[138.34321,35.74634],[138.34432,35.73945],[138.34012,35.73292],[138.33474,35.72766],[138.33322,35.72118],[138.31919,35.71075],[138.31222,35.70974],[138.29974,35.71292],[138.29689,35.71033],[138.30852,35.69855],[138.31129,35.69136],[138.315,35.68764],[138.31613,35.68078],[138.32201,35.67627],[138.33701,35.67195],[138.35436,35.67567],[138.35683,35.68367],[138.3634,35.68474],[138.37182,35.68357],[138.37944,35.67984],[138.38731,35.67966],[138.38961,35.67524],[138.39845,35.67153],[138.40915,35.67406],[138.4222,35.66523],[138.42942,35.66514],[138.43131,35.66254],[138.44747,35.66574],[138.45794,35.66988],[138.46877,35.67257],[138.47953,35.67286],[138.48669,35.67681],[138.48079,35.67944],[138.47008,35.68829],[138.47227,35.6901],[138.46543,35.70291],[138.46881,35.71176],[138.47443,35.71872],[138.48193,35.71708],[138.48366,35.7127],[138.48855,35.71446],[138.49606,35.7214],[138.5017,35.72207],[138.5077,35.7265],[138.5116,35.73192],[138.51098,35.73871],[138.5184,35.75384],[138.51952,35.76745],[138.51411,35.77078],[138.50037,35.76968]]]},"properties":{"pref":"山梨県","city":"韮崎市","code5":"19207","code6":"192074"}},
{"type":"Feature","geometry":{"type":"Polygon","coordinates":[[[138.29689,35.71033],[138.28774,35.70974],[138.27756,35.71409],[138.26508,35.72225],[138.26324,35.72717],[138.25492,35.73016],[138.24207,35.73187],[138.2343,35.73797],[138.23432,35.74565],[138.22956,35.75305],[138.22208,35.75048],[138.21925,35.74551],[138.21291,35.74157],[138.20716,35.7356],[138.20055,35.73312],[138.19747,35.72703],[138.18664,35.72215],[138.18185,35.71834],[138.18086,35.71124],[138.18667,35.70443],[138.19116,35.7019],[138.19398,35.69549],[138.1933,35.67226],[138.20549,35.66426],[138.20808,35.65579],[138.21626,35.64846],[138.21867,35.64455],[138.22836,35.64596],[138.22966,35.64856],[138.24144,35.6503],[138.25468,35.64557],[138.25936,35.64647],[138.27755,35.6436],[138.28509,35.64632],[138.3004,35.64381],[138.31104,35.64361],[138.31576,35.63646],[138.31149,35.63193],[138.31489,35.62537],[138.31292,35.61397],[138.30863,35.6073],[138.314,35.602],[138.32295,35.60795],[138.32816,35.60977],[138.33576,35.60418],[138.33468,35.59845],[138.33884,35.59127],[138.34863,35.59021],[138.35312,35.59165],[138.35653,35.58748],[138.36921,35.58643],[138.36972,35.59072],[138.37787,35.59503],[138.38315,35.59117],[138.40166,35.58996],[138.40844,35.5942],[138.41434,35.59191],[138.4124,35.58805],[138.42107,35.58766],[138.42167,35.58179],[138.42854,35.57936],[138.43818,35.57808],[138.45086,35.58104],[138.45942,35.5783],[138.46581,35.57813],[138.47485,35.57253],[138.47476,35.56722],[138.47903,35.5638],[138.48188,35.56701],[138.49587,35.57315],[138.50021,35.58324],[138.50503,35.58608],[138.50932,35.59334],[138.51032,35.59943],[138.50673,35.61169],[138.50683,35.62257],[138.51077,35.6235],[138.50959,35.63345],[138.5055,35.63337],[138.5029,35.65291],[138.49791,35.67091],[138.49509,35.6747],[138.48669,35.67681],[138.47953,35.67286],[138.46877,35.67257],[138.45794,35.66988],[138.44747,35.66574],[138.43131,35.66254],[138.42942,35.66514],[138.4222,35.66523],[138.40915,35.67406],[138.39845,35.67153],[138.38961,35.67524],[138.38731,35.67966],[138.37944,35.67984],[138.37182,35.68357],[138.3634,35.68474],[138.35683,35.68367],[138.35436,35.67567],[138.33701,35.67195],[138.32201,35.67627],[138.31613,35.68078],[138.315,35.68764],[138.31129,35.69136],[138.30852,35.69855],[138.29689,35.71033]]]},"properties":{"pref":"山梨県","city":"南アルプス市","code5":"19208","code6":"192082"}},
{"type":"Feature","geometry":{"type":"Polygon","coordinates":[[[138.62159,35.87045],[138.61076,35.87369],[138.60676,35.87846],[138.60605,35.89185],[138.60723,35.89968],[138.61232,35.90867],[138.60254,35.90984],[138.60052,35.9138],[138.59243,35.91828],[138.58098,35.91705],[138.57667,35.91144],[138.57235,35.91212],[138.56442,35.91733],[138.55803,35.916],[138.55384,35.91899],[138.54536,35.91478],[138.52937,35.91455],[138.52137,35.91869],[138.51306,35.92003],[138.50567,35.91887],[138.50276,35.9122],[138.49767,35.91141],[138.49471,35.90208],[138.48978,35.89645],[138.48214,35.89877],[138.47165,35.89619],[138.46049,35.90352],[138.45422,35.90321],[138.44901,35.91279],[138.44442,35.91773],[138.44728,35.92358],[138.44751,35.92925],[138.45433,35.93831],[138.45056,35.94541],[138.44316,35.95114],[138.42419,35.95897],[138.41683,35.95898],[138.40842,35.96249],[138.39069,35.96634],[138.38177,35.97125],[138.37046,35.97138],[138.36944,35.96722],[138.3619,35.9626],[138.36035,35.95721],[138.36008,35.95101],[138.35216,35.94797],[138.34505,35.94133],[138.34573,35.93525],[138.34203,35.92567],[138.33937,35.9246],[138.33153,35.91438],[138.33091,35.91089],[138.32432,35.90233],[138.31278,35.89097],[138.30768,35.88745],[138.30325,35.87943],[138.29306,35.86706],[138.28364,35.85932],[138.27895,35.86039],[138.27284,35.86493],[138.26444,35.87591],[138.2486,35.88592],[138.23823,35.88238],[138.2326,35.87613],[138.22679,35.8574],[138.22417,35.85621],[138.21892,35.84682],[138.21615,35.84549],[138.21266,35.83702],[138.20678,35.83154],[138.20349,35.82263],[138.20569,35.81573],[138.19332,35.80384],[138.18779,35.79995],[138.18517,35.79108],[138.19149,35.78429],[138.19832,35.78156],[138.20533,35.78259],[138.21729,35.77137],[138.22128,35.77067],[138.22468,35.76569],[138.23216,35.76355],[138.2367,35.75771],[138.22956,35.75305],[138.23432,35.74565],[138.2343,35.73797],[138.24207,35.73187],[138.25492,35.73016],[138.26324,35.72717],[138.26508,35.72225],[138.27756,35.71409],[138.28774,35.70974],[138.29689,35.71033],[138.29974,35.71292],[138.31222,35.70974],[138.31919,35.71075],[138.33322,35.72118],[138.33474,35.72766],[138.34012,35.73292],[138.34432,35.73945],[138.34321,35.74634],[138.35153,35.74593],[138.3572,35.7499],[138.36438,35.74968],[138.37518,35.75428],[138.3664,35.76516],[138.3744,35.76912],[138.39077,35.77231],[138.40025,35.77295],[138.40321,35.766],[138.41042,35.76705],[138.41849,35.77395],[138.42696,35.76819],[138.43449,35.75731],[138.43545,35.75296],[138.44909,35.73608],[138.45818,35.74658],[138.46882,35.75117],[138.47659,35.75312],[138.48783,35.76246],[138.4891,35.76725],[138.50037,35.76968],[138.51075,35.7843],[138.51381,35.79829],[138.5123,35.80223],[138.51857,35.80274],[138.52883,35.80674],[138.53819,35.80185],[138.54817,35.80045],[138.54941,35.80704],[138.556,35.81205],[138.55834,35.81703],[138.55571,35.82023],[138.55633,35.828],[138.57209,35.82871],[138.5802,35.82778],[138.58474,35.83092],[138.59028,35.84389],[138.59446,35.84787],[138.60381,35.84845],[138.60919,35.85984],[138.61539,35.85901],[138.62053,35.86185],[138.62159,35.87045]]]},"properties":{"pref":"山梨県","city":"北杜市","code5":"19209","code6":"192091"}},
{"type":"Feature","geometry":{"type":"Polygon","coordinates":[[[138.54817,35.80045],[138.53819,35.80185],[138.52883,35.80674],[138.51857,35.80274],[138.5123,35.80223],[138.51381,35.79829],[138.51075,35.7843],[138.50037,35.76968],[138.51411,35.77078],[138.51952,35.76745],[138.5184,35.75384],[138.51098,35.73871],[138.5116,35.73192],[138.5077,35.7265],[138.5017,35.72207],[138.49606,35.7214],[138.48855,35.71446],[138.48366,35.7127],[138.48193,35.71708],[138.47443,35.71872],[138.46881,35.71176],[138.46543,35.70291],[138.47227,35.6901],[138.47008,35.68829],[138.48079,35.67944],[138.48669,35.67681],[138.49509,35.6747],[138.49791,35.67091],[138.5029,35.65291],[138.5055,35.63337],[138.50959,35.63345],[138.52874,35.62927],[138.53113,35.63377],[138.52776,35.63787],[138.53876,35.6469],[138.53245,35.65176],[138.53658,35.65516],[138.53082,35.66435],[138.53397,35.67198],[138.53666,35.67392],[138.53631,35.68004],[138.52648,35.69553],[138.52356,35.69724],[138.52511,35.70742],[138.52858,35.70776],[138.53533,35.71404],[138.54262,35.71323],[138.5448,35.71935],[138.54853,35.72029],[138.54887,35.72604],[138.56072,35.73297],[138.56547,35.74022],[138.56138,35.74699],[138.55377,35.74896],[138.55488,35.75909],[138.54267,35.76036],[138.54049,35.76576],[138.54023,35.77312],[138.54445,35.78018],[138.5467,35.78836],[138.55041,35.79191],[138.54817,35.80045]]]},"properties":{"pref":"山梨県","city":"甲斐市","code5":"19210","code6":"192104"}},
{"type":"Feature","geometry":{"type":"Polygon","coordinates":[[[138.6504,35.51621],[138.67653,35.51969],[138.68321,35.52392],[138.68429,35.52788],[138.69041,35.52997],[138.69411,35.53366],[138.70183,35.53509],[138.72669,35.54304],[138.73231,35.54678],[138.75424,35.55375],[138.75901,35.55366],[138.76525,35.55914],[138.78266,35.55859],[138.79163,35.56077],[138.79325,35.5699],[138.78675,35.57487],[138.78871,35.58033],[138.78489,35.58553],[138.77887,35.58427],[138.77276,35.58659],[138.77404,35.59328],[138.76699,35.60534],[138.76659,35.61914],[138.76488,35.6229],[138.75644,35.62019],[138.75128,35.62412],[138.74435,35.62673],[138.73961,35.63077],[138.73806,35.63628],[138.72355,35.63913],[138.71783,35.64767],[138.71317,35.64532],[138.71339,35.66279],[138.70772,35.66305],[138.69587,35.66304],[138.68751,35.66097],[138.67907,35.66067],[138.66596,35.66251],[138.67211,35.67444],[138.65612,35.67848],[138.64241,35.68465],[138.64762,35.68775],[138.63581,35.69759],[138.62752,35.70327],[138.62188,35.70976],[138.61688,35.71154],[138.61802,35.70729],[138.62432,35.6988],[138.6196,35.69242],[138.61245,35.6928],[138.61042,35.69061],[138.61662,35.68231],[138.62242,35.67036],[138.62635,35.6686],[138.62763,35.65865],[138.63207,35.65047],[138.61032,35.641],[138.60649,35.63756],[138.59838,35.63413],[138.59739,35.62798],[138.59856,35.61793],[138.60781,35.61721],[138.60608,35.61069],[138.60862,35.60351],[138.58924,35.59439],[138.58916,35.58879],[138.59451,35.58334],[138.60502,35.5776],[138.61237,35.57797],[138.61742,35.57511],[138.62136,35.56427],[138.62459,35.56123],[138.62428,35.55654],[138.61691,35.54833],[138.62564,35.54432],[138.63049,35.53935],[138.63177,35.53489],[138.64004,35.53353],[138.642,35.52633],[138.65023,35.52075],[138.6504,35.51621]]]},"properties":{"pref":"山梨県","city":"笛吹市","code5":"19211","code6":"192112"}},
{"type":"Feature","geometry":{"type":"Polygon","coordinates":[[[139.01229,35.73867],[139.01188,35.73886],[139.00256,35.72967],[138.9998,35.72498],[138.99193,35.71679],[138.99153,35.71367],[138.97731,35.71416],[138.97175,35.71231],[138.96795,35.70891],[138.96845,35.70466],[138.97259,35.70117],[138.97793,35.70025],[138.98034,35.6928],[138.98322,35.68924],[138.99467,35.68222],[138.99253,35.6755],[139.00024,35.67017],[139.01221,35.66707],[139.02005,35.66704],[139.02536,35.65377],[139.01375,35.63734],[139.02129,35.63254],[139.02217,35.62245],[139.02522,35.61655],[139.03289,35.61556],[139.04429,35.61182],[139.05962,35.61666],[139.06375,35.61564],[139.06409,35.60642],[139.06709,35.60149],[139.06454,35.59903],[139.06589,35.58646],[139.06378,35.58413],[139.0546,35.58569],[139.03995,35.58444],[139.02565,35.58062],[139.01963,35.58397],[139.01147,35.57927],[139.00504,35.579],[139.00722,35.57158],[139.01768,35.56162],[139.01835,35.55427],[139.0275,35.54958],[139.02438,35.54434],[139.02597,35.54297],[139.04227,35.54563],[139.04567,35.54461],[139.05712,35.5471],[139.06481,35.54507],[139.07816,35.54872],[139.08582,35.54784],[139.08907,35.54375],[139.10147,35.54604],[139.11196,35.54979],[139.11522,35.55371],[139.12129,35.55617],[139.12841,35.56265],[139.12964,35.56704],[139.12702,35.57171],[139.12777,35.581],[139.12401,35.58215],[139.12144,35.58692],[139.1246,35.59265],[139.12933,35.5946],[139.13302,35.60648],[139.12779,35.61264],[139.13371,35.61581],[139.12347,35.62406],[139.12362,35.63408],[139.12697,35.6419],[139.11726,35.6549],[139.11981,35.66041],[139.1239,35.66292],[139.13134,35.67199],[139.12685,35.67686],[139.11262,35.68496],[139.10562,35.69102],[139.09711,35.69227],[139.09225,35.69057],[139.08166,35.69552],[139.07211,35.69541],[139.06312,35.70046],[139.05202,35.7049],[139.04667,35.70948],[139.03872,35.71129],[139.03478,35.71496],[139.02898,35.71677],[139.02253,35.72199],[139.0209,35.72728],[139.01379,35.73499],[139.01229,35.73867]]]},"properties":{"pref":"山梨県","city":"上野原市","code5":"19212","code6":"192121"}},
{"type":"Feature","geometry":{"type":"Polygon","coordinates":[[[138.8136,35.86237],[138.80414,35.85167],[138.8028,35.84109],[138.79684,35.83751],[138.78967,35.8354],[138.78461,35.82537],[138.78675,35.82105],[138.7842,35.81689],[138.78609,35.80812],[138.78417,35.80407],[138.78576,35.79815],[138.78435,35.79373],[138.78675,35.78684],[138.77657,35.78643],[138.77389,35.78914],[138.76147,35.79021],[138.75954,35.78854],[138.74088,35.78921],[138.73924,35.78399],[138.74125,35.77899],[138.74543,35.77741],[138.74192,35.76415],[138.72345,35.75321],[138.72072,35.74198],[138.714,35.735],[138.71057,35.73385],[138.71156,35.72754],[138.70766,35.72343],[138.70565,35.71617],[138.7022,35.71232],[138.71342,35.70845],[138.71005,35.69494],[138.71565,35.68562],[138.70011,35.67482],[138.70691,35.6705],[138.70772,35.66305],[138.71339,35.66279],[138.71317,35.64532],[138.71783,35.64767],[138.72355,35.63913],[138.73806,35.63628],[138.73961,35.63077],[138.74435,35.62673],[138.75128,35.62412],[138.75644,35.62019],[138.76488,35.6229],[138.76659,35.61914],[138.76699,35.60534],[138.77561,35.60733],[138.77925,35.6097],[138.7815,35.61567],[138.78571,35.61776],[138.79353,35.61741],[138.80354,35.6233],[138.81479,35.62212],[138.81995,35.62957],[138.82986,35.62915],[138.83465,35.6357],[138.8416,35.64076],[138.85051,35.64914],[138.84822,35.65509],[138.85049,35.6609],[138.84838,35.66374],[138.847,35.67271],[138.85257,35.682],[138.85779,35.68393],[138.85992,35.68874],[138.85522,35.70201],[138.85674,35.70655],[138.85509,35.71465],[138.85996,35.7303],[138.85411,35.73342],[138.85239,35.7409],[138.8457,35.74658],[138.84546,35.7489],[138.82808,35.75507],[138.81952,35.76511],[138.81975,35.77093],[138.81723,35.77663],[138.83283,35.77665],[138.8412,35.77765],[138.84528,35.77588],[138.85279,35.77865],[138.86286,35.77943],[138.86797,35.78291],[138.86706,35.78766],[138.8699,35.79458],[138.86561,35.79524],[138.86293,35.80419],[138.85685,35.8066],[138.86001,35.81613],[138.85125,35.82373],[138.85205,35.82814],[138.86114,35.83208],[138.86006,35.83514],[138.86536,35.84122],[138.86249,35.8471],[138.86428,35.85559],[138.86266,35.85876],[138.85881,35.85757],[138.85663,35.86462],[138.84545,35.86739],[138.84172,35.86491],[138.83243,35.86225],[138.8285,35.86574],[138.81968,35.86523],[138.8136,35.86237]]]},"properties":{"pref":"山梨県","city":"甲州市","code5":"19213","code6":"192139"}},
{"type":"Feature","geometry":{"type":"Polygon","coordinates":[[[138.55368,35.61699],[138.54551,35.61657],[138.5436,35.61883],[138.5334,35.61699],[138.53225,35.60971],[138.52024,35.61029],[138.51606,35.62338],[138.51077,35.6235],[138.50683,35.62257],[138.50673,35.61169],[138.51032,35.59943],[138.50932,35.59334],[138.50503,35.58608],[138.50021,35.58324],[138.49587,35.57315],[138.51573,35.57489],[138.52119,35.57245],[138.52459,35.57695],[138.53439,35.58245],[138.54281,35.57711],[138.54751,35.57692],[138.53909,35.56558],[138.54148,35.56059],[138.53758,35.55499],[138.54131,35.55196],[138.54704,35.55148],[138.55926,35.54655],[138.57338,35.54585],[138.57369,35.55023],[138.58405,35.55157],[138.58422,35.55785],[138.57894,35.55914],[138.57937,35.56279],[138.57559,35.56777],[138.57613,35.57199],[138.56881,35.57892],[138.55995,35.58279],[138.56303,35.58593],[138.56263,35.59115],[138.55625,35.59249],[138.55991,35.59757],[138.55941,35.60492],[138.55414,35.60874],[138.55368,35.61699]]]},"properties":{"pref":"山梨県","city":"中央市","code5":"19214","code6":"192147"}},
{"type":"Feature","geometry":{"type":"Polygon","coordinates":[[[138.58405,35.55157],[138.57369,35.55023],[138.57338,35.54585],[138.55926,35.54655],[138.54704,35.55148],[138.54131,35.55196],[138.53758,35.55499],[138.54148,35.56059],[138.53909,35.56558],[138.54751,35.57692],[138.54281,35.57711],[138.53439,35.58245],[138.52459,35.57695],[138.52119,35.57245],[138.51573,35.57489],[138.49587,35.57315],[138.48188,35.56701],[138.47903,35.5638],[138.47461,35.55302],[138.46584,35.54251],[138.46471,35.53625],[138.45274,35.53628],[138.45083,35.52994],[138.45158,35.52442],[138.45985,35.51987],[138.46587,35.52043],[138.46807,35.51222],[138.46347,35.50691],[138.44727,35.49927],[138.45421,35.49229],[138.45475,35.48611],[138.44736,35.47821],[138.4455,35.46931],[138.44771,35.46828],[138.45577,35.47326],[138.45701,35.47673],[138.46224,35.47777],[138.46419,35.48421],[138.46954,35.48546],[138.478,35.48459],[138.48603,35.49082],[138.49534,35.49476],[138.4989,35.49895],[138.49526,35.50389],[138.50479,35.50992],[138.52361,35.50894],[138.52605,35.51484],[138.53571,35.51897],[138.5429,35.51833],[138.55674,35.51455],[138.5681,35.51723],[138.58985,35.51751],[138.59468,35.51881],[138.59282,35.52519],[138.58886,35.52852],[138.59011,35.53712],[138.59443,35.54015],[138.59661,35.54563],[138.59368,35.54959],[138.58405,35.55157]]]},"properties":{"pref":"山梨県","county":"西八代郡","city":"市川三郷町","code5":"19346","code6":"193461"}},
{"type":"Feature","geometry":{"type":"Polygon","coordinates":[[[138.22836,35.64596],[138.23232,35.6401],[138.22832,35.62721],[138.23608,35.62227],[138.23409,35.61497],[138.23625,35.61273],[138.23568,35.60619],[138.24064,35.60511],[138.24358,35.59152],[138.23943,35.58661],[138.24046,35.57632],[138.24515,35.56932],[138.24445,35.56346],[138.25205,35.55569],[138.25948,35.55298],[138.26008,35.5429],[138.25735,35.53085],[138.26259,35.52713],[138.26468,35.51995],[138.26898,35.51413],[138.26025,35.5059],[138.25891,35.49322],[138.25979,35.48917],[138.25788,35.47602],[138.25348,35.46596],[138.24629,35.46348],[138.24434,35.45412],[138.24831,35.44718],[138.25533,35.44458],[138.25523,35.44121],[138.25944,35.43108],[138.25927,35.42189],[138.25762,35.41479],[138.2581,35.40739],[138.24645,35.3998],[138.24594,35.39107],[138.24012,35.38814],[138.23285,35.37666],[138.23202,35.37122],[138.23729,35.37002],[138.24273,35.36585],[138.24676,35.36715],[138.25126,35.36353],[138.251,35.35835],[138.25514,35.34847],[138.25392,35.34542],[138.25698,35.33859],[138.24874,35.3316],[138.25502,35.32418],[138.2548,35.31982],[138.25792,35.31647],[138.26979,35.3144],[138.27641,35.30742],[138.28527,35.30427],[138.29407,35.31197],[138.29645,35.31651],[138.30293,35.31663],[138.31128,35.31959],[138.31346,35.32261],[138.32446,35.32721],[138.33564,35.3265],[138.34307,35.34105],[138.34262,35.34992],[138.3506,35.35874],[138.37153,35.34889],[138.37551,35.35188],[138.38742,35.35551],[138.39351,35.36531],[138.39507,35.37495],[138.39349,35.38836],[138.39833,35.38963],[138.40449,35.39599],[138.41731,35.39764],[138.42035,35.40276],[138.4195,35.40766],[138.42217,35.41622],[138.41568,35.42056],[138.40972,35.42162],[138.40753,35.42698],[138.39696,35.43446],[138.39475,35.4395],[138.38523,35.44332],[138.37992,35.4486],[138.37809,35.45749],[138.38033,35.46097],[138.37913,35.46673],[138.38437,35.47833],[138.37679,35.48637],[138.3698,35.48827],[138.36836,35.4992],[138.36099,35.50433],[138.35799,35.51739],[138.35366,35.52165],[138.35345,35.53092],[138.35587,35.54099],[138.35541,35.5482],[138.33243,35.55202],[138.3263,35.5488],[138.32487,35.56122],[138.32111,35.56478],[138.32806,35.56842],[138.33287,35.57923],[138.338,35.58398],[138.34676,35.5867],[138.34863,35.59021],[138.33884,35.59127],[138.33468,35.59845],[138.33576,35.60418],[138.32816,35.60977],[138.32295,35.60795],[138.314,35.602],[138.30863,35.6073],[138.31292,35.61397],[138.31489,35.62537],[138.31149,35.63193],[138.31576,35.63646],[138.31104,35.64361],[138.3004,35.64381],[138.28509,35.64632],[138.27755,35.6436],[138.25936,35.64647],[138.25468,35.64557],[138.24144,35.6503],[138.22966,35.64856],[138.22836,35.64596]],[[138.35058,35.37064],[138.35008,35.3738],[138.35312,35.38186],[138.35755,35.38452],[138.35916,35.37423],[138.35058,35.37064]]]},"properties":{"pref":"山梨県","county":"南巨摩郡","city":"早川町","code5":"19364","code6":"193640"}},
{"type":"Feature","geometry":{"type":"MultiPolygon","coordinates":[[[[138.59468,35.51881],[138.58985,35.51751],[138.5681,35.51723],[138.55674,35.51455],[138.5429,35.51833],[138.53571,35.51897],[138.52605,35.51484],[138.52361,35.50894],[138.50479,35.50992],[138.49526,35.50389],[138.4989,35.49895],[138.49534,35.49476],[138.48603,35.49082],[138.478,35.48459],[138.46954,35.48546],[138.46419,35.48421],[138.46224,35.47777],[138.45701,35.47673],[138.45577,35.47326],[138.44771,35.46828],[138.4455,35.46931],[138.44736,35.47821],[138.45475,35.48611],[138.45421,35.49229],[138.44727,35.49927],[138.44271,35.49439],[138.43652,35.49516],[138.42773,35.49981],[138.41598,35.49738],[138.41334,35.49403],[138.40369,35.48896],[138.39699,35.48833],[138.39309,35.482],[138.38437,35.47833],[138.37913,35.46673],[138.38033,35.46097],[138.37809,35.45749],[138.37992,35.4486],[138.38523,35.44332],[138.39475,35.4395],[138.39696,35.43446],[138.40753,35.42698],[138.40972,35.42162],[138.41568,35.42056],[138.42217,35.41622],[138.4195,35.40766],[138.42035,35.40276],[138.41731,35.39764],[138.40449,35.39599],[138.39833,35.38963],[138.39349,35.38836],[138.39507,35.37495],[138.39351,35.36531],[138.38742,35.35551],[138.37551,35.35188],[138.37153,35.34889],[138.3506,35.35874],[138.34262,35.34992],[138.34307,35.34105],[138.33564,35.3265],[138.34337,35.31799],[138.34999,35.31525],[138.35762,35.31776],[138.35947,35.31338],[138.36467,35.31203],[138.37059,35.30477],[138.37248,35.29941],[138.38352,35.29556],[138.40482,35.3003],[138.4056,35.30426],[138.4139,35.30989],[138.41988,35.30818],[138.42866,35.31411],[138.44434,35.31499],[138.44955,35.31621],[138.45262,35.30793],[138.47505,35.30907],[138.48041,35.31276],[138.48227,35.32268],[138.47753,35.32729],[138.4819,35.33114],[138.47944,35.3381],[138.4819,35.34502],[138.48949,35.34701],[138.49324,35.35057],[138.49596,35.3585],[138.50766,35.36205],[138.50762,35.36755],[138.51289,35.37324],[138.51349,35.38026],[138.52029,35.37795],[138.52817,35.37905],[138.53585,35.38988],[138.53125,35.40212],[138.53183,35.40941],[138.5383,35.41418],[138.54575,35.41679],[138.55561,35.42613],[138.55906,35.43421],[138.56332,35.43455],[138.57048,35.43948],[138.57742,35.44089],[138.58189,35.44573],[138.58397,35.44751],[138.58266,35.47439],[138.58574,35.47835],[138.59585,35.48336],[138.59399,35.48813],[138.59455,35.49555],[138.60241,35.50489],[138.59966,35.51003],[138.59582,35.5122],[138.59468,35.51881]]],[[[138.35058,35.37064],[138.35916,35.37423],[138.35755,35.38452],[138.35312,35.38186],[138.35008,35.3738],[138.35058,35.37064]]]]},"properties":{"pref":"山梨県","county":"南巨摩郡","city":"身延町","code5":"19365","code6":"193658"}},
{"type":"Feature","geometry":{"type":"Polygon","coordinates":[[[138.37248,35.29941],[138.36676,35.29032],[138.3667,35.28051],[138.36927,35.27668],[138.36703,35.27019],[138.37356,35.26332],[138.37821,35.25394],[138.38615,35.24624],[138.38671,35.23952],[138.3918,35.22482],[138.39067,35.2199],[138.39429,35.20781],[138.3987,35.20027],[138.40757,35.20293],[138.41903,35.19764],[138.42473,35.18996],[138.42748,35.18267],[138.43094,35.18039],[138.45683,35.17821],[138.46113,35.17949],[138.47222,35.17611],[138.48426,35.17419],[138.49149,35.16838],[138.49629,35.17439],[138.50113,35.17652],[138.50623,35.18607],[138.51231,35.18897],[138.51733,35.19861],[138.52242,35.19916],[138.52848,35.19754],[138.53319,35.20086],[138.53122,35.21111],[138.52738,35.2168],[138.53228,35.22339],[138.52952,35.23108],[138.5269,35.23257],[138.52308,35.24861],[138.52067,35.25543],[138.51424,35.26223],[138.51542,35.26731],[138.52032,35.27088],[138.52166,35.28348],[138.5161,35.29608],[138.51209,35.31356],[138.5254,35.32187],[138.52678,35.32593],[138.53509,35.33056],[138.53485,35.34106],[138.53063,35.34558],[138.52987,35.35963],[138.5307,35.37613],[138.52817,35.37905],[138.52029,35.37795],[138.51349,35.38026],[138.51289,35.37324],[138.50762,35.36755],[138.50766,35.36205],[138.49596,35.3585],[138.49324,35.35057],[138.48949,35.34701],[138.4819,35.34502],[138.47944,35.3381],[138.4819,35.33114],[138.47753,35.32729],[138.48227,35.32268],[138.48041,35.31276],[138.47505,35.30907],[138.45262,35.30793],[138.44955,35.31621],[138.44434,35.31499],[138.42866,35.31411],[138.41988,35.30818],[138.4139,35.30989],[138.4056,35.30426],[138.40482,35.3003],[138.38352,35.29556],[138.37248,35.29941]]]},"properties":{"pref":"山梨県","county":"南巨摩郡","city":"南部町","code5":"19366","code6":"193666"}},
{"type":"Feature","geometry":{"type":"Polygon","coordinates":[[[138.34863,35.59021],[138.34676,35.5867],[138.338,35.58398],[138.33287,35.57923],[138.32806,35.56842],[138.32111,35.56478],[138.32487,35.56122],[138.3263,35.5488],[138.33243,35.55202],[138.35541,35.5482],[138.35587,35.54099],[138.35345,35.53092],[138.35366,35.52165],[138.35799,35.51739],[138.36099,35.50433],[138.36836,35.4992],[138.3698,35.48827],[138.37679,35.48637],[138.38437,35.47833],[138.39309,35.482],[138.39699,35.48833],[138.40369,35.48896],[138.41334,35.49403],[138.41598,35.49738],[138.42773,35.49981],[138.43652,35.49516],[138.44271,35.49439],[138.44727,35.49927],[138.46347,35.50691],[138.46807,35.51222],[138.46587,35.52043],[138.45985,35.51987],[138.45158,35.52442],[138.45083,35.52994],[138.45274,35.53628],[138.46471,35.53625],[138.46584,35.54251],[138.47461,35.55302],[138.47903,35.5638],[138.47476,35.56722],[138.47485,35.57253],[138.46581,35.57813],[138.45942,35.5783],[138.45086,35.58104],[138.43818,35.57808],[138.42854,35.57936],[138.42167,35.58179],[138.42107,35.58766],[138.4124,35.58805],[138.41434,35.59191],[138.40844,35.5942],[138.40166,35.58996],[138.38315,35.59117],[138.37787,35.59503],[138.36972,35.59072],[138.36921,35.58643],[138.35653,35.58748],[138.35312,35.59165],[138.34863,35.59021]]]},"properties":{"pref":"山梨県","county":"南巨摩郡","city":"富士川町","code5":"19368","code6":"193682"}},
{"type":"Feature","geometry":{"type":"Polygon","coordinates":[[[138.53876,35.6469],[138.52776,35.63787],[138.53113,35.63377],[138.52874,35.62927],[138.50959,35.63345],[138.51077,35.6235],[138.51606,35.62338],[138.52024,35.61029],[138.53225,35.60971],[138.5334,35.61699],[138.5436,35.61883],[138.54551,35.61657],[138.55368,35.61699],[138.55352,35.62032],[138.54799,35.62218],[138.54719,35.62711],[138.55099,35.63053],[138.54728,35.63892],[138.55316,35.64408],[138.54328,35.65132],[138.53876,35.6469]]]},"properties":{"pref":"山梨県","county":"中巨摩郡","city":"昭和町","code5":"19384","code6":"193844"}},
{"type":"Feature","geometry":{"type":"Polygon","coordinates":[[[139.11196,35.54979],[139.10147,35.54604],[139.08907,35.54375],[139.08582,35.54784],[139.07816,35.54872],[139.06481,35.54507],[139.05712,35.5471],[139.04567,35.54461],[139.04227,35.54563],[139.02597,35.54297],[139.02438,35.54434],[139.01234,35.5432],[139.0056,35.53898],[139.00687,35.53506],[139.00431,35.5285],[138.99799,35.52421],[138.97999,35.52042],[138.97445,35.52128],[138.97133,35.50893],[138.96736,35.50479],[138.95441,35.49884],[138.94762,35.49474],[138.93997,35.49384],[138.92937,35.48442],[138.92924,35.47403],[138.92663,35.46854],[138.92719,35.45941],[138.92387,35.45796],[138.92536,35.45503],[138.93732,35.44881],[138.94058,35.44957],[138.95448,35.45984],[138.95925,35.46223],[138.96923,35.46352],[138.97346,35.46655],[138.97877,35.46374],[138.98504,35.46855],[138.98882,35.47364],[138.9978,35.47497],[139.00814,35.47456],[139.01486,35.47991],[139.02095,35.47879],[139.02755,35.48097],[139.03062,35.4887],[139.03694,35.49095],[139.04393,35.49944],[139.04602,35.50966],[139.0514,35.51058],[139.06008,35.5075],[139.06604,35.50941],[139.07447,35.50994],[139.08076,35.51274],[139.08579,35.51209],[139.0943,35.52187],[139.10411,35.52689],[139.10664,35.53217],[139.11392,35.53849],[139.11171,35.54454],[139.11196,35.54979]]]},"properties":{"pref":"山梨県","county":"南都留郡","city":"道志村","code5":"19422","code6":"194221"}},
{"type":"Feature","geometry":{"type":"Polygon","coordinates":[[[138.85586,35.50507],[138.8534,35.52265],[138.85472,35.52711],[138.86549,35.53154],[138.85896,35.53432],[138.85783,35.53913],[138.85328,35.53851],[138.84744,35.54538],[138.83809,35.54973],[138.83253,35.54837],[138.8228,35.54914],[138.81762,35.55091],[138.81026,35.55066],[138.80253,35.54567],[138.80585,35.53842],[138.80633,35.5327],[138.81917,35.53223],[138.82248,35.52764],[138.83359,35.52589],[138.83699,35.52011],[138.83349,35.51093],[138.83727,35.50325],[138.84019,35.50141],[138.85029,35.50247],[138.85586,35.50507]]]},"properties":{"pref":"山梨県","county":"南都留郡","city":"西桂町","code5":"19423","code6":"194239"}},
{"type":"Feature","geometry":{"type":"Polygon","coordinates":[[[138.80638,35.45636],[138.83403,35.44049],[138.84732,35.44576],[138.84986,35.45659],[138.8646,35.44992],[138.85816,35.44338],[138.86443,35.43671],[138.87257,35.43989],[138.87927,35.43897],[138.88817,35.44024],[138.89317,35.44257],[138.89537,35.44682],[138.90129,35.45048],[138.89441,35.45429],[138.88809,35.46439],[138.88256,35.4682],[138.88426,35.47139],[138.88245,35.4795],[138.87664,35.48572],[138.86622,35.48534],[138.8649,35.48054],[138.85653,35.47842],[138.85412,35.47518],[138.84617,35.4712],[138.84143,35.47224],[138.83603,35.46921],[138.83109,35.46894],[138.81694,35.47642],[138.81428,35.47218],[138.81264,35.46167],[138.80638,35.45636]]]},"properties":{"pref":"山梨県","county":"南都留郡","city":"忍野村","code5":"19424","code6":"194247"}},
{"type":"Feature","geometry":{"type":"Polygon","coordinates":[[[138.93732,35.44881],[138.92536,35.45503],[138.92387,35.45796],[138.90795,35.45034],[138.90129,35.45048],[138.89537,35.44682],[138.89317,35.44257],[138.88817,35.44024],[138.87927,35.43897],[138.87257,35.43989],[138.86443,35.43671],[138.85816,35.44338],[138.8646,35.44992],[138.84986,35.45659],[138.84732,35.44576],[138.83403,35.44049],[138.80638,35.45636],[138.81044,35.45057],[138.80935,35.43923],[138.80269,35.43818],[138.83359,35.42928],[138.83395,35.42465],[138.82851,35.41207],[138.849,35.40051],[138.86355,35.39348],[138.8624,35.39008],[138.87346,35.38171],[138.87929,35.38595],[138.88794,35.38635],[138.89265,35.39037],[138.89833,35.39183],[138.90287,35.39633],[138.91094,35.39774],[138.9164,35.40061],[138.91807,35.41134],[138.92566,35.41531],[138.93017,35.42087],[138.93064,35.42633],[138.92673,35.43049],[138.9274,35.43764],[138.93739,35.447],[138.93732,35.44881]]]},"properties":{"pref":"山梨県","county":"南都留郡","city":"山中湖村","code5":"19425","code6":"194255"}},
{"type":"Feature","geometry":{"type":"Polygon","coordinates":[[[138.75013,35.44201],[138.74861,35.449],[138.74478,35.45761],[138.73172,35.46322],[138.72336,35.46401],[138.72596,35.47597],[138.72885,35.4797],[138.73131,35.48846],[138.72291,35.49086],[138.71687,35.49549],[138.70653,35.49433],[138.69416,35.48782],[138.68676,35.48755],[138.67865,35.48399],[138.67302,35.48412],[138.66477,35.47802],[138.65477,35.44978],[138.65924,35.44288],[138.65898,35.43196],[138.66443,35.42425],[138.66449,35.42054],[138.65157,35.41696],[138.65034,35.41142],[138.64363,35.40068],[138.63895,35.39828],[138.66339,35.39828],[138.67118,35.39283],[138.68054,35.35768],[138.69865,35.35965],[138.70044,35.36267],[138.72481,35.36525],[138.73078,35.3628],[138.73028,35.36939],[138.73345,35.39359],[138.7276,35.42237],[138.75013,35.44201]]]},"properties":{"pref":"山梨県","county":"南都留郡","city":"鳴沢村","code5":"19429","code6":"194298"}},
{"type":"Feature","geometry":{"type":"Polygon","coordinates":[[[138.60241,35.50489],[138.59455,35.49555],[138.59399,35.48813],[138.59585,35.48336],[138.58574,35.47835],[138.58266,35.47439],[138.58397,35.44751],[138.58189,35.44573],[138.58851,35.4368],[138.59772,35.4318],[138.60914,35.39318],[138.63895,35.39828],[138.64363,35.40068],[138.65034,35.41142],[138.65157,35.41696],[138.66449,35.42054],[138.66443,35.42425],[138.65898,35.43196],[138.65924,35.44288],[138.65477,35.44978],[138.66477,35.47802],[138.67302,35.48412],[138.67865,35.48399],[138.68676,35.48755],[138.69416,35.48782],[138.70653,35.49433],[138.71687,35.49549],[138.72291,35.49086],[138.73131,35.48846],[138.72885,35.4797],[138.72596,35.47597],[138.72336,35.46401],[138.73172,35.46322],[138.74478,35.45761],[138.74861,35.449],[138.75013,35.44201],[138.7584,35.45088],[138.76184,35.45886],[138.76347,35.47081],[138.76958,35.48153],[138.78349,35.48884],[138.77133,35.4885],[138.77085,35.49321],[138.77946,35.4922],[138.78215,35.49558],[138.78059,35.50324],[138.78677,35.50811],[138.7867,35.51249],[138.79371,35.52004],[138.80225,35.52476],[138.80633,35.5327],[138.80585,35.53842],[138.80253,35.54567],[138.81026,35.55066],[138.80137,35.55818],[138.7992,35.56713],[138.7995,35.57222],[138.79325,35.5699],[138.79163,35.56077],[138.78266,35.55859],[138.76525,35.55914],[138.75901,35.55366],[138.75424,35.55375],[138.73231,35.54678],[138.72669,35.54304],[138.70183,35.53509],[138.69411,35.53366],[138.69041,35.52997],[138.68429,35.52788],[138.68321,35.52392],[138.67653,35.51969],[138.6504,35.51621],[138.64492,35.51316],[138.6366,35.5133],[138.62438,35.5056],[138.621,35.50229],[138.61468,35.50198],[138.61112,35.50408],[138.60241,35.50489]]]},"properties":{"pref":"山梨県","county":"南都留郡","city":"富士河口湖町","code5":"19430","code6":"194301"}},
{"type":"Feature","geometry":{"type":"Polygon","coordinates":[[[138.98377,35.76948],[138.97256,35.77042],[138.96452,35.76861],[138.95555,35.77189],[138.94989,35.77045],[138.94588,35.77477],[138.94207,35.77484],[138.93272,35.78024],[138.92042,35.76958],[138.91058,35.76854],[138.89641,35.76431],[138.89095,35.76712],[138.88065,35.76485],[138.87608,35.76166],[138.8746,35.75495],[138.85921,35.74218],[138.85239,35.7409],[138.85411,35.73342],[138.85996,35.7303],[138.86777,35.73411],[138.87311,35.734],[138.882,35.73635],[138.88671,35.73955],[138.89647,35.74158],[138.90656,35.74212],[138.91605,35.73942],[138.92374,35.74062],[138.93026,35.73729],[138.93734,35.73674],[138.94299,35.73409],[138.94579,35.72941],[138.95449,35.72483],[138.96637,35.72101],[138.97175,35.71231],[138.97731,35.71416],[138.99153,35.71367],[138.99193,35.71679],[138.9998,35.72498],[139.00256,35.72967],[139.01188,35.73886],[139.00516,35.75045],[138.99883,35.75114],[138.99243,35.75552],[138.98936,35.76349],[138.98377,35.76948]]]},"properties":{"pref":"山梨県","county":"北都留郡","city":"小菅村","code5":"19442","code6":"194425"}},
{"type":"Feature","geometry":{"type":"Polygon","coordinates":[[[138.86266,35.85876],[138.86428,35.85559],[138.86249,35.8471],[138.86536,35.84122],[138.86006,35.83514],[138.86114,35.83208],[138.85205,35.82814],[138.85125,35.82373],[138.86001,35.81613],[138.85685,35.8066],[138.86293,35.80419],[138.86561,35.79524],[138.8699,35.79458],[138.86706,35.78766],[138.86797,35.78291],[138.86286,35.77943],[138.85279,35.77865],[138.84528,35.77588],[138.8412,35.77765],[138.83283,35.77665],[138.81723,35.77663],[138.81975,35.77093],[138.81952,35.76511],[138.82808,35.75507],[138.84546,35.7489],[138.8457,35.74658],[138.85239,35.7409],[138.85921,35.74218],[138.8746,35.75495],[138.87608,35.76166],[138.88065,35.76485],[138.89095,35.76712],[138.89641,35.76431],[138.91058,35.76854],[138.92042,35.76958],[138.93272,35.78024],[138.94207,35.77484],[138.94588,35.77477],[138.94989,35.77045],[138.95555,35.77189],[138.96452,35.76861],[138.97256,35.77042],[138.98377,35.76948],[138.98643,35.78225],[138.98505,35.78527],[138.97688,35.78903],[138.97711,35.79275],[138.9718,35.799],[138.97032,35.80458],[138.97206,35.8137],[138.96977,35.81585],[138.97048,35.82736],[138.9693,35.83138],[138.9622,35.82961],[138.95326,35.83652],[138.94734,35.8433],[138.94855,35.84954],[138.94393,35.85482],[138.93515,35.85102],[138.92638,35.84892],[138.92262,35.85069],[138.91095,35.85273],[138.89916,35.84672],[138.89204,35.83985],[138.88565,35.84713],[138.8797,35.84692],[138.86943,35.85725],[138.86266,35.85876]]]},"properties":{"pref":"山梨県","county":"北都留郡","city":"丹波山村","code5":"19443","code6":"194433"}}
]}