{"type":"FeatureCollection", "features": [
{"type":"Feature","geometry":{"type":"Polygon","coordinates":[[[136.81522,35.53173],[136.8105,35.52526],[136.81253,35.52117],[136.81208,35.51258],[136.81472,35.51013],[136.80793,35.50551],[136.80319,35.49365],[136.79973,35.49219],[136.79959,35.48498],[136.79292,35.48434],[136.79133,35.49082],[136.78178,35.49123],[136.77836,35.4898],[136.77173,35.49218],[136.76994,35.49804],[136.76356,35.49965],[136.75985,35.50646],[136.75525,35.50398],[136.74732,35.51041],[136.74016,35.51108],[136.73682,35.50793],[136.72928,35.51756],[136.71777,35.52054],[136.71595,35.52458],[136.71085,35.52752],[136.70899,35.53252],[136.69678,35.543],[136.6936,35.53834],[136.68321,35.53775],[136.6787,35.53534],[136.68541,35.53201],[136.68972,35.52631],[136.68287,35.51563],[136.69674,35.50905],[136.69695,35.50432],[136.69227,35.49832],[136.69429,35.49124],[136.6988,35.49154],[136.69806,35.48276],[136.68586,35.4829],[136.68308,35.47546],[136.6928,35.464],[136.69808,35.46291],[136.69843,35.44726],[136.69887,35.42158],[136.69303,35.42131],[136.69321,35.4116],[136.69792,35.40752],[136.70586,35.39035],[136.70644,35.3851],[136.70235,35.37881],[136.69058,35.36679],[136.68849,35.3606],[136.68842,35.35234],[136.69439,35.35616],[136.69985,35.35677],[136.71104,35.35128],[136.71562,35.35537],[136.72581,35.35265],[136.72898,35.35657],[136.73333,35.36122],[136.74304,35.35913],[136.7447,35.36355],[136.75599,35.36487],[136.75181,35.36972],[136.76028,35.37851],[136.76284,35.3785],[136.76655,35.38194],[136.76535,35.3852],[136.7689,35.39316],[136.77228,35.39632],[136.78606,35.39999],[136.79112,35.39806],[136.80361,35.38711],[136.81295,35.38741],[136.81689,35.39613],[136.81418,35.39862],[136.81559,35.41057],[136.81763,35.41852],[136.81475,35.42173],[136.8156,35.42737],[136.82273,35.42676],[136.84212,35.43118],[136.84513,35.42454],[136.85894,35.4253],[136.86021,35.43431],[136.87188,35.43662],[136.86904,35.44412],[136.87813,35.44623],[136.88179,35.44466],[136.88546,35.45736],[136.8698,35.46434],[136.86014,35.46311],[136.85092,35.46925],[136.8376,35.46335],[136.8346,35.47007],[136.84022,35.47598],[136.83953,35.48387],[136.84256,35.4884],[136.84357,35.4997],[136.85128,35.50528],[136.85724,35.50057],[136.85914,35.50681],[136.85729,35.50944],[136.84803,35.50712],[136.84044,35.51237],[136.84019,35.51846],[136.83434,35.52046],[136.83459,35.52374],[136.8288,35.52581],[136.82627,35.53059],[136.82138,35.52931],[136.81522,35.53173]]]},"properties":{"pref":"岐阜県","city":"岐阜市","code5":"21201","code6":"212016"}},
{"type":"Feature","geometry":{"type":"MultiPolygon","coordinates":[[[[136.50167,35.35653],[136.49797,35.36063],[136.4914,35.35746],[136.48102,35.3581],[136.47698,35.35256],[136.4721,35.3427],[136.46596,35.34377],[136.45523,35.32544],[136.45849,35.31735],[136.4554,35.31382],[136.43881,35.30659],[136.42573,35.30674],[136.42951,35.29994],[136.42515,35.29164],[136.41993,35.28748],[136.40847,35.29812],[136.40266,35.30045],[136.39115,35.2902],[136.39173,35.28711],[136.39574,35.28095],[136.39585,35.27476],[136.39354,35.26191],[136.39694,35.25791],[136.38915,35.24977],[136.37913,35.24739],[136.37974,35.24094],[136.38374,35.23953],[136.38569,35.23511],[136.39138,35.23438],[136.39913,35.22606],[136.40827,35.22368],[136.41513,35.21774],[136.4309,35.2294],[136.43454,35.22045],[136.44072,35.21674],[136.4506,35.22413],[136.45376,35.22956],[136.46582,35.23748],[136.46902,35.23337],[136.47422,35.23735],[136.48034,35.23493],[136.48281,35.23976],[136.49039,35.23692],[136.49435,35.23792],[136.50074,35.23512],[136.50598,35.23506],[136.51082,35.23883],[136.51364,35.25042],[136.52767,35.25753],[136.52249,35.26452],[136.52429,35.2708],[136.52154,35.27879],[136.52498,35.28208],[136.52089,35.28572],[136.52327,35.2901],[136.51866,35.29289],[136.52252,35.2969],[136.52249,35.30131],[136.51542,35.30383],[136.51524,35.30855],[136.50733,35.31859],[136.50699,35.32163],[136.51459,35.33034],[136.52095,35.33287],[136.52881,35.32874],[136.53562,35.3331],[136.52896,35.34365],[136.52346,35.34792],[136.5194,35.34833],[136.51473,35.34518],[136.51064,35.34616],[136.50167,35.35653]]],[[[136.58501,35.40816],[136.57823,35.40857],[136.57188,35.40591],[136.56271,35.41087],[136.55602,35.41064],[136.54854,35.40738],[136.54567,35.40279],[136.54596,35.3924],[136.54837,35.38726],[136.54589,35.3779],[136.54948,35.37464],[136.56068,35.37021],[136.56207,35.35896],[136.55911,35.3587],[136.55648,35.35225],[136.56178,35.34671],[136.5606,35.34392],[136.57789,35.34129],[136.58058,35.33901],[136.58283,35.32933],[136.58858,35.32845],[136.58739,35.32228],[136.59382,35.31865],[136.59385,35.30654],[136.59694,35.30108],[136.60803,35.29688],[136.61009,35.29397],[136.61644,35.29601],[136.61844,35.30135],[136.62523,35.30375],[136.63473,35.31107],[136.63927,35.31271],[136.6413,35.31541],[136.63794,35.32825],[136.63817,35.33322],[136.64404,35.33858],[136.65223,35.33903],[136.65793,35.35149],[136.65812,35.36067],[136.65649,35.37692],[136.65271,35.38132],[136.6444,35.38729],[136.64118,35.38761],[136.62872,35.38822],[136.6216,35.39298],[136.62281,35.40385],[136.61076,35.4046],[136.60792,35.39277],[136.60013,35.39322],[136.6,35.39789],[136.59461,35.3977],[136.59046,35.40467],[136.58501,35.40816]]],[[[136.69058,35.36679],[136.67285,35.36718],[136.67629,35.36341],[136.67338,35.35878],[136.67331,35.34704],[136.68094,35.34443],[136.68868,35.34583],[136.68842,35.35234],[136.68849,35.3606],[136.69058,35.36679]]]]},"properties":{"pref":"岐阜県","city":"大垣市","code5":"21202","code6":"212024"}},
{"type":"Feature","geometry":{"type":"Polygon","coordinates":[[[137.53997,36.3927],[137.53149,36.38624],[137.52311,36.3818],[137.51629,36.38127],[137.51051,36.38305],[137.49777,36.38268],[137.49153,36.37474],[137.48411,36.3711],[137.4782,36.37157],[137.47369,36.37585],[137.4542,36.37128],[137.44666,36.36818],[137.43855,36.37217],[137.42926,36.37255],[137.42243,36.37031],[137.41753,36.36143],[137.41402,36.36059],[137.41809,36.35094],[137.40373,36.34356],[137.38763,36.34311],[137.37694,36.34455],[137.36475,36.35091],[137.35878,36.34591],[137.36304,36.335],[137.36035,36.32876],[137.36721,36.32316],[137.36994,36.31897],[137.36583,36.31225],[137.37137,36.30671],[137.36537,36.30294],[137.36399,36.29654],[137.35571,36.29644],[137.3447,36.29967],[137.33589,36.29947],[137.32908,36.28898],[137.32135,36.28679],[137.31672,36.289],[137.30682,36.28657],[137.29743,36.28628],[137.29167,36.2878],[137.27686,36.2864],[137.26937,36.27753],[137.26763,36.27278],[137.26287,36.26803],[137.25357,36.26584],[137.24234,36.25979],[137.23919,36.255],[137.22905,36.25474],[137.21996,36.25654],[137.21283,36.25039],[137.2158,36.24557],[137.21279,36.24168],[137.19903,36.23551],[137.19577,36.23062],[137.20496,36.223],[137.20187,36.21572],[137.1917,36.21936],[137.1882,36.22218],[137.17715,36.21183],[137.17214,36.21415],[137.15965,36.21441],[137.15653,36.21033],[137.15862,36.20453],[137.15346,36.20022],[137.14247,36.20075],[137.13588,36.19162],[137.12136,36.18306],[137.11801,36.18377],[137.11327,36.18976],[137.11347,36.19407],[137.10977,36.19657],[137.10601,36.20343],[137.10744,36.20908],[137.10637,36.21684],[137.10056,36.21967],[137.09196,36.21822],[137.08417,36.215],[137.08191,36.21039],[137.0727,36.20251],[137.0697,36.19786],[137.06023,36.19929],[137.0511,36.19129],[137.04769,36.19509],[137.03847,36.19709],[137.02945,36.19654],[137.02398,36.18996],[137.01066,36.18942],[137.00841,36.19199],[136.9898,36.19404],[136.98325,36.1907],[136.97748,36.19395],[136.96429,36.19499],[136.95925,36.20035],[136.95348,36.20354],[136.95146,36.20945],[136.94628,36.20632],[136.94881,36.19688],[136.94576,36.18805],[136.94704,36.18114],[136.9437,36.17708],[136.94349,36.17009],[136.93714,36.16349],[136.93855,36.15588],[136.93316,36.14271],[136.93775,36.14251],[136.94772,36.13404],[136.95372,36.12362],[136.95348,36.11779],[136.94589,36.1171],[136.93253,36.11198],[136.93491,36.10514],[136.92477,36.09434],[136.91732,36.09689],[136.91451,36.10079],[136.90561,36.10002],[136.8967,36.10466],[136.88321,36.1038],[136.87925,36.10219],[136.86959,36.10223],[136.8662,36.10553],[136.85694,36.10536],[136.85076,36.10051],[136.84424,36.09766],[136.82792,36.09657],[136.81797,36.09324],[136.81326,36.10033],[136.80714,36.10549],[136.79854,36.10602],[136.79498,36.10173],[136.78873,36.0979],[136.77174,36.10477],[136.76496,36.10561],[136.75618,36.09911],[136.75428,36.08629],[136.76407,36.0742],[136.76426,36.06768],[136.76806,36.05787],[136.77719,36.05268],[136.78006,36.05456],[136.78722,36.05189],[136.7951,36.05152],[136.80185,36.04299],[136.79863,36.03988],[136.79893,36.03333],[136.80747,36.02768],[136.81228,36.01483],[136.815,36.01197],[136.82379,36.00993],[136.82886,36.01169],[136.83468,36.00791],[136.8378,36.00144],[136.8454,36.00845],[136.85322,36.00947],[136.86436,36.01461],[136.87461,36.01573],[136.88212,36.0209],[136.88597,36.02136],[136.89591,36.02775],[136.90307,36.02338],[136.90386,36.01832],[136.91221,36.01367],[136.93082,36.00577],[136.93159,35.99834],[136.94043,35.99052],[136.94334,35.98564],[136.95135,35.97974],[136.95938,35.97853],[136.96038,35.97165],[136.96492,35.96801],[136.96556,35.96192],[136.97143,35.95692],[136.97176,35.9531],[136.96847,35.94871],[136.9725,35.9379],[136.97363,35.93004],[136.97198,35.92465],[136.97767,35.9192],[136.98291,35.91753],[136.98748,35.92109],[136.99196,35.92819],[136.9993,35.9307],[136.99778,35.93927],[137.00833,35.9511],[137.01667,35.95259],[137.01878,35.95879],[137.02402,35.96065],[137.03952,35.95372],[137.04486,35.95588],[137.04853,35.96047],[137.05463,35.95682],[137.05789,35.948],[137.06908,35.93915],[137.06536,35.93416],[137.06959,35.91734],[137.07518,35.91174],[137.07903,35.91259],[137.08334,35.9044],[137.08461,35.89903],[137.09026,35.89838],[137.09288,35.90411],[137.09303,35.91327],[137.09064,35.92087],[137.09542,35.92883],[137.10245,35.92563],[137.11227,35.93141],[137.11761,35.9399],[137.12133,35.94848],[137.10741,35.9557],[137.10661,35.95969],[137.10895,35.9661],[137.11675,35.97259],[137.11657,35.97736],[137.12073,35.98546],[137.12557,35.98816],[137.1306,35.99638],[137.13656,35.99765],[137.1381,36.00052],[137.14831,36.00442],[137.14794,36.00621],[137.15917,36.0212],[137.16306,36.02217],[137.17022,36.02928],[137.17458,36.02879],[137.18449,36.03706],[137.18901,36.03578],[137.19671,36.03702],[137.19788,36.03229],[137.20427,36.03],[137.20908,36.02586],[137.21376,36.02739],[137.21784,36.02463],[137.23355,36.02168],[137.2342,36.01443],[137.24111,36.00633],[137.24626,35.99746],[137.25488,35.99276],[137.25832,35.9934],[137.26104,35.9874],[137.26587,35.98981],[137.2777,35.98709],[137.28239,35.98928],[137.29484,35.98644],[137.30543,35.98896],[137.31332,35.99366],[137.32747,35.99449],[137.33051,35.99943],[137.34473,36.00203],[137.34594,35.99908],[137.34237,35.98979],[137.34917,35.98854],[137.35575,35.976],[137.36868,35.97046],[137.37062,35.96572],[137.36775,35.96212],[137.36979,35.95789],[137.36615,35.95561],[137.3646,35.95063],[137.36763,35.94549],[137.38034,35.94843],[137.38518,35.95115],[137.39278,35.95888],[137.40027,35.9619],[137.40009,35.96557],[137.40633,35.96857],[137.41405,35.96765],[137.41791,35.97132],[137.42313,35.97091],[137.42877,35.96234],[137.43791,35.96132],[137.44074,35.9592],[137.44485,35.95013],[137.44553,35.94091],[137.45029,35.9389],[137.45902,35.92839],[137.47349,35.91772],[137.48343,35.91379],[137.48933,35.91982],[137.49242,35.92533],[137.49775,35.92882],[137.50188,35.93761],[137.50557,35.94062],[137.51888,35.93973],[137.52426,35.94496],[137.53256,35.96162],[137.53986,35.96561],[137.54427,35.97238],[137.54346,35.98287],[137.55016,35.98689],[137.56223,35.99008],[137.56911,35.99569],[137.5747,35.99569],[137.58082,36.00136],[137.5903,36.00654],[137.59396,36.01185],[137.59584,36.01921],[137.59949,36.02594],[137.59832,36.04319],[137.60542,36.04869],[137.60697,36.05583],[137.61372,36.05962],[137.6146,36.06313],[137.61091,36.06757],[137.61166,36.07344],[137.60823,36.07793],[137.59681,36.07584],[137.59279,36.08094],[137.58257,36.08543],[137.57772,36.08532],[137.57235,36.08859],[137.56754,36.09702],[137.56296,36.09842],[137.55086,36.10988],[137.55204,36.11671],[137.55692,36.12147],[137.56047,36.13047],[137.55471,36.13766],[137.55975,36.14449],[137.56804,36.14817],[137.56789,36.15338],[137.57774,36.15952],[137.58314,36.16017],[137.59122,36.16412],[137.59203,36.16953],[137.59506,36.17205],[137.59116,36.17835],[137.59112,36.18627],[137.59517,36.19035],[137.58104,36.19531],[137.57512,36.20389],[137.57352,36.21104],[137.57605,36.21433],[137.57298,36.21841],[137.58303,36.2204],[137.58367,36.22721],[137.58968,36.2286],[137.59134,36.23435],[137.59561,36.23743],[137.59635,36.24298],[137.60592,36.24879],[137.607,36.25312],[137.61262,36.25741],[137.61472,36.26293],[137.62092,36.26668],[137.62635,36.2722],[137.6288,36.27837],[137.64782,36.28905],[137.64686,36.29645],[137.65306,36.30467],[137.6489,36.30891],[137.65144,36.31709],[137.65067,36.3274],[137.64637,36.33023],[137.64561,36.34126],[137.63547,36.34255],[137.62445,36.35475],[137.61917,36.36421],[137.6089,36.36662],[137.59994,36.37022],[137.59373,36.36884],[137.58709,36.37196],[137.58612,36.37628],[137.58735,36.3898],[137.57766,36.39295],[137.55951,36.38745],[137.53997,36.3927]]]},"properties":{"pref":"岐阜県","city":"高山市","code5":"21203","code6":"212032"}},
{"type":"Feature","geometry":{"type":"Polygon","coordinates":[[[137.14523,35.37704],[137.13051,35.38114],[137.12372,35.38444],[137.11728,35.37944],[137.12074,35.37536],[137.11326,35.36912],[137.10534,35.37397],[137.09479,35.37062],[137.08536,35.37112],[137.07929,35.37407],[137.07611,35.38023],[137.07623,35.38545],[137.07196,35.38845],[137.06607,35.40024],[137.06204,35.3985],[137.06072,35.3904],[137.05513,35.38339],[137.05292,35.37674],[137.05472,35.36887],[137.04762,35.36469],[137.04985,35.3596],[137.04664,35.34851],[137.04631,35.33954],[137.0499,35.33437],[137.0574,35.33847],[137.06176,35.33903],[137.06822,35.33568],[137.07298,35.32646],[137.06408,35.32066],[137.06717,35.3115],[137.07216,35.30665],[137.07978,35.30678],[137.08144,35.30009],[137.08131,35.29219],[137.09209,35.29277],[137.09628,35.2907],[137.09777,35.29716],[137.10103,35.30162],[137.11895,35.2979],[137.13159,35.29363],[137.14583,35.2798],[137.15254,35.27931],[137.15893,35.28219],[137.16546,35.28226],[137.17305,35.27514],[137.17609,35.27038],[137.18509,35.27466],[137.18646,35.27742],[137.176,35.28379],[137.18175,35.28805],[137.17875,35.29487],[137.17713,35.30359],[137.16475,35.31922],[137.15386,35.32037],[137.16027,35.32755],[137.15722,35.33515],[137.14911,35.34333],[137.14566,35.34997],[137.15582,35.35162],[137.15894,35.35599],[137.15641,35.36133],[137.14794,35.37049],[137.14523,35.37704]]]},"properties":{"pref":"岐阜県","city":"多治見市","code5":"21204","code6":"212041"}},
{"type":"Feature","geometry":{"type":"Polygon","coordinates":[[[136.66614,35.78514],[136.66953,35.77822],[136.67888,35.77156],[136.68292,35.77176],[136.68551,35.76001],[136.69181,35.75281],[136.68471,35.74839],[136.68188,35.74324],[136.68126,35.73455],[136.68646,35.73145],[136.68672,35.72222],[136.69272,35.72079],[136.69575,35.717],[136.69845,35.71865],[136.71358,35.71851],[136.71913,35.71424],[136.72793,35.71566],[136.73037,35.71142],[136.72149,35.69441],[136.72712,35.69133],[136.73375,35.69349],[136.73986,35.68372],[136.74653,35.68435],[136.75692,35.67958],[136.76285,35.68437],[136.76847,35.68317],[136.77041,35.67169],[136.77247,35.66744],[136.78202,35.66704],[136.8006,35.65975],[136.8046,35.65502],[136.80673,35.62216],[136.80357,35.61649],[136.80644,35.60925],[136.79585,35.59871],[136.78589,35.59703],[136.78945,35.59363],[136.79642,35.59161],[136.79222,35.58272],[136.79462,35.57622],[136.79378,35.57127],[136.79994,35.56895],[136.80429,35.57322],[136.81415,35.56595],[136.81715,35.56734],[136.82071,35.56029],[136.81312,35.55471],[136.81316,35.54863],[136.80919,35.54778],[136.80973,35.53589],[136.81522,35.53173],[136.82138,35.52931],[136.82627,35.53059],[136.8288,35.52581],[136.83459,35.52374],[136.83434,35.52046],[136.84019,35.51846],[136.84044,35.51237],[136.84803,35.50712],[136.85729,35.50944],[136.85914,35.50681],[136.85724,35.50057],[136.85128,35.50528],[136.84357,35.4997],[136.84256,35.4884],[136.83953,35.48387],[136.84022,35.47598],[136.8346,35.47007],[136.8376,35.46335],[136.85092,35.46925],[136.86014,35.46311],[136.8698,35.46434],[136.88546,35.45736],[136.88179,35.44466],[136.88617,35.44627],[136.89923,35.44361],[136.90479,35.44625],[136.91638,35.43801],[136.9269,35.43429],[136.93476,35.42957],[136.94219,35.4274],[136.94852,35.42944],[136.95378,35.43069],[136.95487,35.43824],[136.9597,35.44663],[136.95986,35.45234],[136.96301,35.46842],[136.95389,35.4733],[136.95939,35.48214],[136.95943,35.48612],[136.95256,35.48672],[136.95068,35.49521],[136.94719,35.49904],[136.94912,35.50712],[136.95233,35.50804],[136.96164,35.50593],[136.96283,35.50817],[136.9773,35.50864],[136.98359,35.51078],[136.98864,35.50688],[136.99237,35.50812],[136.99295,35.51752],[137.00046,35.51736],[137.00215,35.52322],[137.00916,35.52931],[137.01043,35.53343],[137.01603,35.53708],[137.02897,35.53972],[137.03617,35.55326],[137.04405,35.54962],[137.0512,35.55901],[137.07129,35.57051],[137.07019,35.57468],[137.06388,35.57548],[137.06537,35.5797],[137.05796,35.58418],[137.05666,35.59224],[137.05306,35.59321],[137.05602,35.6042],[137.05906,35.60463],[137.06024,35.61416],[137.06369,35.62317],[137.07119,35.62364],[137.07081,35.62683],[137.07989,35.6282],[137.08297,35.63173],[137.09114,35.63143],[137.09448,35.63699],[137.09283,35.64559],[137.08591,35.64968],[137.08922,35.6557],[137.09622,35.65763],[137.09886,35.67052],[137.09896,35.67939],[137.08244,35.67723],[137.08063,35.68291],[137.0633,35.68755],[137.05101,35.69404],[137.0513,35.68745],[137.04821,35.68061],[137.04898,35.67487],[137.05424,35.66292],[137.04915,35.65725],[137.04779,35.65044],[137.04017,35.65058],[137.035,35.64418],[137.03004,35.64202],[137.02402,35.64235],[137.01925,35.65027],[137.01271,35.65298],[137.00046,35.64983],[136.99241,35.65136],[136.9908,35.6457],[136.98011,35.64191],[136.98236,35.63227],[136.98507,35.62949],[136.98638,35.6194],[136.97867,35.61539],[136.97644,35.60389],[136.97901,35.60124],[136.97246,35.58735],[136.96739,35.58284],[136.96741,35.57203],[136.96043,35.56474],[136.95567,35.56171],[136.95678,35.55605],[136.96018,35.55028],[136.95672,35.54671],[136.94472,35.54639],[136.94279,35.53996],[136.9374,35.53645],[136.93139,35.52782],[136.93213,35.52294],[136.92092,35.52274],[136.91331,35.52612],[136.90222,35.52695],[136.89437,35.51048],[136.88242,35.51511],[136.88193,35.51747],[136.86552,35.52432],[136.86241,35.52432],[136.86065,35.53547],[136.85331,35.5399],[136.85409,35.54626],[136.84893,35.54929],[136.84267,35.55026],[136.83842,35.5593],[136.83864,35.56232],[136.847,35.56733],[136.84762,35.57137],[136.84253,35.58544],[136.84666,35.58949],[136.84169,35.59347],[136.84997,35.60232],[136.85346,35.61094],[136.84759,35.61626],[136.85342,35.62176],[136.85553,35.63542],[136.86307,35.63747],[136.87026,35.63664],[136.86946,35.64699],[136.87965,35.65228],[136.87298,35.65872],[136.87111,35.66513],[136.86578,35.66599],[136.85956,35.67133],[136.85506,35.68422],[136.84799,35.68865],[136.84368,35.69635],[136.83951,35.70085],[136.84019,35.70682],[136.84852,35.71184],[136.84976,35.71922],[136.85325,35.72411],[136.85222,35.72952],[136.85475,35.74617],[136.8385,35.75029],[136.8334,35.75445],[136.8365,35.76619],[136.84322,35.76763],[136.83992,35.77675],[136.83302,35.77744],[136.82787,35.77568],[136.81652,35.78057],[136.81195,35.78017],[136.8072,35.78513],[136.80106,35.78169],[136.79454,35.78481],[136.79217,35.79782],[136.78925,35.7994],[136.7834,35.79811],[136.77414,35.80005],[136.77439,35.80667],[136.76391,35.81061],[136.75447,35.80924],[136.7411,35.80107],[136.73238,35.80658],[136.72452,35.80815],[136.72058,35.80022],[136.71005,35.79204],[136.70512,35.79143],[136.70004,35.79417],[136.68978,35.78928],[136.68141,35.78984],[136.67759,35.79209],[136.67205,35.79131],[136.66614,35.78514]]]},"properties":{"pref":"岐阜県","city":"関市","code5":"21205","code6":"212059"}},
{"type":"Feature","geometry":{"type":"Polygon","coordinates":[[[137.63176,35.50918],[137.61943,35.52141],[137.61884,35.52533],[137.60726,35.53354],[137.6025,35.5307],[137.59705,35.53455],[137.59028,35.53527],[137.58793,35.53805],[137.58093,35.53893],[137.57451,35.54453],[137.5748,35.54932],[137.57081,35.55407],[137.57261,35.55797],[137.57112,35.56263],[137.5646,35.56643],[137.56929,35.57492],[137.57043,35.5799],[137.56544,35.58504],[137.54615,35.58724],[137.5383,35.5848],[137.53166,35.58809],[137.53259,35.59145],[137.52009,35.60011],[137.51995,35.60261],[137.51381,35.60802],[137.51702,35.61848],[137.52265,35.6194],[137.52815,35.63598],[137.53818,35.63833],[137.54093,35.64253],[137.53956,35.64644],[137.54545,35.65108],[137.53596,35.66115],[137.53537,35.66581],[137.52447,35.6715],[137.51925,35.67743],[137.5147,35.67733],[137.50943,35.68238],[137.50199,35.68483],[137.4972,35.68848],[137.49868,35.69622],[137.48604,35.7055],[137.48763,35.71648],[137.48521,35.7247],[137.47887,35.72676],[137.47826,35.73023],[137.47084,35.73579],[137.46554,35.74377],[137.46475,35.75637],[137.45957,35.7614],[137.45336,35.7622],[137.44994,35.75929],[137.44018,35.75855],[137.43368,35.76778],[137.42397,35.77436],[137.41109,35.77727],[137.39995,35.7754],[137.3911,35.78043],[137.39642,35.78516],[137.39638,35.79084],[137.39179,35.79858],[137.38582,35.79877],[137.38122,35.80129],[137.36265,35.79798],[137.36029,35.79597],[137.35325,35.78805],[137.35337,35.78518],[137.34798,35.78137],[137.3442,35.77374],[137.33396,35.76443],[137.33431,35.76167],[137.33005,35.75101],[137.32489,35.74794],[137.3288,35.74109],[137.33109,35.72766],[137.33102,35.71097],[137.34115,35.70739],[137.34426,35.70218],[137.34369,35.69595],[137.35392,35.69471],[137.3642,35.68278],[137.36514,35.67931],[137.37313,35.67207],[137.39425,35.66516],[137.39703,35.66213],[137.40562,35.6612],[137.40915,35.65635],[137.40073,35.64629],[137.41053,35.63757],[137.41268,35.62645],[137.40525,35.62252],[137.40423,35.61448],[137.39305,35.60833],[137.39372,35.60538],[137.38664,35.60314],[137.38778,35.59539],[137.39449,35.5841],[137.39895,35.57944],[137.39896,35.57344],[137.39444,35.56742],[137.39573,35.56292],[137.38617,35.56202],[137.36926,35.56703],[137.3483,35.56299],[137.3431,35.56074],[137.34553,35.55453],[137.34153,35.54793],[137.34267,35.53877],[137.3493,35.53684],[137.35111,35.5318],[137.34884,35.52304],[137.34804,35.51254],[137.35139,35.50931],[137.35679,35.50897],[137.36172,35.50556],[137.36861,35.50419],[137.37681,35.50748],[137.38221,35.50617],[137.39173,35.50779],[137.39531,35.5013],[137.39472,35.49766],[137.38972,35.49213],[137.3936,35.48702],[137.39296,35.48128],[137.40296,35.48147],[137.407,35.48394],[137.41153,35.4782],[137.41862,35.47994],[137.43306,35.47179],[137.4345,35.46684],[137.44175,35.45908],[137.44332,35.45332],[137.45006,35.45091],[137.46205,35.43972],[137.46686,35.44076],[137.48084,35.4401],[137.48242,35.44216],[137.49778,35.44083],[137.50207,35.43779],[137.49333,35.43033],[137.48433,35.42711],[137.47705,35.42796],[137.46887,35.42632],[137.46181,35.42651],[137.4592,35.4239],[137.44461,35.4225],[137.43715,35.41961],[137.43465,35.41637],[137.44317,35.39744],[137.44579,35.3974],[137.44891,35.3898],[137.45605,35.38639],[137.46524,35.37536],[137.46731,35.37042],[137.47387,35.36714],[137.48077,35.3661],[137.48322,35.36349],[137.49171,35.36012],[137.49298,35.36325],[137.5097,35.37369],[137.52471,35.37579],[137.52894,35.37343],[137.536,35.37804],[137.53944,35.37785],[137.54407,35.38394],[137.55318,35.38656],[137.55852,35.3901],[137.5584,35.39631],[137.56795,35.40319],[137.57523,35.40001],[137.57659,35.40047],[137.59067,35.39361],[137.60522,35.39399],[137.61843,35.39174],[137.63369,35.39904],[137.63482,35.40296],[137.63102,35.4069],[137.63205,35.4107],[137.62197,35.4119],[137.62052,35.41725],[137.61568,35.42334],[137.61763,35.42645],[137.6153,35.43084],[137.60642,35.43869],[137.6016,35.43928],[137.59315,35.44692],[137.60721,35.45792],[137.61043,35.45888],[137.6183,35.46779],[137.62842,35.46731],[137.63238,35.47416],[137.62959,35.47738],[137.62443,35.49383],[137.62455,35.50061],[137.63176,35.50918]]]},"properties":{"pref":"岐阜県","city":"中津川市","code5":"21206","code6":"212067"}},
{"type":"Feature","geometry":{"type":"Polygon","coordinates":[[[136.97867,35.61539],[136.97299,35.61767],[136.96736,35.61566],[136.96145,35.6165],[136.95262,35.61501],[136.94432,35.60515],[136.94253,35.59882],[136.93463,35.59871],[136.93069,35.60143],[136.92549,35.60115],[136.91972,35.6096],[136.91611,35.61231],[136.91218,35.62285],[136.90352,35.62776],[136.90147,35.63761],[136.89818,35.64532],[136.87965,35.65228],[136.86946,35.64699],[136.87026,35.63664],[136.86307,35.63747],[136.85553,35.63542],[136.85342,35.62176],[136.84759,35.61626],[136.85346,35.61094],[136.84997,35.60232],[136.84169,35.59347],[136.84666,35.58949],[136.84253,35.58544],[136.84762,35.57137],[136.847,35.56733],[136.83864,35.56232],[136.83842,35.5593],[136.84267,35.55026],[136.84893,35.54929],[136.85409,35.54626],[136.85331,35.5399],[136.86065,35.53547],[136.86241,35.52432],[136.86552,35.52432],[136.88193,35.51747],[136.88242,35.51511],[136.89437,35.51048],[136.90222,35.52695],[136.91331,35.52612],[136.92092,35.52274],[136.93213,35.52294],[136.93139,35.52782],[136.9374,35.53645],[136.94279,35.53996],[136.94472,35.54639],[136.95672,35.54671],[136.96018,35.55028],[136.95678,35.55605],[136.95567,35.56171],[136.96043,35.56474],[136.96741,35.57203],[136.96739,35.58284],[136.97246,35.58735],[136.97901,35.60124],[136.97644,35.60389],[136.97867,35.61539]]]},"properties":{"pref":"岐阜県","city":"美濃市","code5":"21207","code6":"212075"}},
{"type":"Feature","geometry":{"type":"Polygon","coordinates":[[[137.2506,35.46443],[137.24583,35.46356],[137.24359,35.45992],[137.23449,35.45839],[137.2317,35.4648],[137.23246,35.47127],[137.22874,35.47302],[137.22215,35.46935],[137.21452,35.47473],[137.2034,35.46973],[137.19998,35.45801],[137.20298,35.45461],[137.19798,35.44915],[137.19963,35.44261],[137.19848,35.43765],[137.20588,35.42487],[137.19704,35.41661],[137.19944,35.41212],[137.19236,35.41134],[137.19417,35.40382],[137.19596,35.40069],[137.20213,35.3996],[137.20927,35.39494],[137.2171,35.39363],[137.22298,35.36899],[137.21924,35.36519],[137.21948,35.35814],[137.2342,35.34446],[137.23683,35.34529],[137.24316,35.33904],[137.24473,35.33121],[137.25161,35.32743],[137.25801,35.32853],[137.26323,35.32421],[137.27067,35.32478],[137.27547,35.31672],[137.28106,35.31915],[137.27579,35.29061],[137.28292,35.2877],[137.29843,35.28875],[137.30808,35.29116],[137.3151,35.29133],[137.32095,35.29336],[137.32604,35.29106],[137.32817,35.29502],[137.32613,35.30328],[137.33295,35.30779],[137.3378,35.31355],[137.34304,35.31305],[137.34333,35.31873],[137.34082,35.32603],[137.33456,35.33296],[137.31368,35.33121],[137.30847,35.32658],[137.29847,35.3305],[137.30197,35.33917],[137.30835,35.34441],[137.3144,35.35199],[137.32166,35.35315],[137.32438,35.35613],[137.3218,35.36129],[137.32577,35.36823],[137.33437,35.37587],[137.3345,35.37941],[137.34105,35.38243],[137.34023,35.38547],[137.34524,35.39507],[137.34137,35.40463],[137.34234,35.41074],[137.34857,35.4123],[137.35224,35.41685],[137.35079,35.41972],[137.34093,35.42347],[137.33404,35.42767],[137.336,35.43186],[137.3323,35.44076],[137.32624,35.44401],[137.31182,35.44205],[137.2999,35.45065],[137.29969,35.45789],[137.29528,35.46087],[137.287,35.45427],[137.28594,35.44905],[137.2728,35.45153],[137.26576,35.45844],[137.26326,35.46375],[137.25389,35.46266],[137.2506,35.46443]]]},"properties":{"pref":"岐阜県","city":"瑞浪市","code5":"21208","code6":"212083"}},
{"type":"Feature","geometry":{"type":"Polygon","coordinates":[[[136.68842,35.35234],[136.68868,35.34583],[136.68816,35.3329],[136.68518,35.32787],[136.66904,35.31849],[136.66519,35.31226],[136.66522,35.3074],[136.66621,35.30272],[136.67239,35.29214],[136.6773,35.27817],[136.67278,35.26954],[136.66157,35.26311],[136.65723,35.25751],[136.65909,35.25305],[136.66496,35.25148],[136.67171,35.24356],[136.67787,35.24106],[136.6796,35.24503],[136.69064,35.25321],[136.6981,35.26192],[136.70458,35.27558],[136.71038,35.2827],[136.71938,35.28875],[136.7283,35.29969],[136.73652,35.31595],[136.7501,35.33654],[136.75395,35.34489],[136.7485,35.34647],[136.74415,35.34454],[136.73264,35.34877],[136.73501,35.35329],[136.72898,35.35657],[136.72581,35.35265],[136.71562,35.35537],[136.71104,35.35128],[136.69985,35.35677],[136.69439,35.35616],[136.68842,35.35234]]]},"properties":{"pref":"岐阜県","city":"羽島市","code5":"21209","code6":"212091"}},
{"type":"Feature","geometry":{"type":"Polygon","coordinates":[[[137.57523,35.40001],[137.56795,35.40319],[137.5584,35.39631],[137.55852,35.3901],[137.55318,35.38656],[137.54407,35.38394],[137.53944,35.37785],[137.536,35.37804],[137.52894,35.37343],[137.52471,35.37579],[137.5097,35.37369],[137.49298,35.36325],[137.49171,35.36012],[137.48322,35.36349],[137.48077,35.3661],[137.47387,35.36714],[137.46731,35.37042],[137.46524,35.37536],[137.45605,35.38639],[137.44891,35.3898],[137.44579,35.3974],[137.44317,35.39744],[137.43465,35.41637],[137.43715,35.41961],[137.44461,35.4225],[137.4592,35.4239],[137.46181,35.42651],[137.46887,35.42632],[137.47705,35.42796],[137.48433,35.42711],[137.49333,35.43033],[137.50207,35.43779],[137.49778,35.44083],[137.48242,35.44216],[137.48084,35.4401],[137.46686,35.44076],[137.46205,35.43972],[137.45006,35.45091],[137.44332,35.45332],[137.44175,35.45908],[137.4345,35.46684],[137.43306,35.47179],[137.41862,35.47994],[137.41153,35.4782],[137.407,35.48394],[137.40296,35.48147],[137.39296,35.48128],[137.3936,35.48702],[137.38972,35.49213],[137.39472,35.49766],[137.39531,35.5013],[137.39173,35.50779],[137.38221,35.50617],[137.37681,35.50748],[137.36861,35.50419],[137.36172,35.50556],[137.35679,35.50897],[137.35139,35.50931],[137.34804,35.51254],[137.34884,35.52304],[137.35111,35.5318],[137.3493,35.53684],[137.34267,35.53877],[137.34153,35.54793],[137.33794,35.54701],[137.32346,35.53545],[137.31907,35.53416],[137.31067,35.53634],[137.30211,35.53447],[137.30062,35.53219],[137.28529,35.53124],[137.27194,35.5289],[137.26901,35.52698],[137.2732,35.52104],[137.2797,35.5192],[137.28192,35.51359],[137.28686,35.50822],[137.28347,35.50222],[137.27513,35.49586],[137.2712,35.4958],[137.26644,35.491],[137.26283,35.48403],[137.25435,35.47541],[137.25725,35.47039],[137.25178,35.46852],[137.2506,35.46443],[137.25389,35.46266],[137.26326,35.46375],[137.26576,35.45844],[137.2728,35.45153],[137.28594,35.44905],[137.287,35.45427],[137.29528,35.46087],[137.29969,35.45789],[137.2999,35.45065],[137.31182,35.44205],[137.32624,35.44401],[137.3323,35.44076],[137.336,35.43186],[137.33404,35.42767],[137.34093,35.42347],[137.35079,35.41972],[137.35224,35.41685],[137.34857,35.4123],[137.34234,35.41074],[137.34137,35.40463],[137.34524,35.39507],[137.34023,35.38547],[137.34105,35.38243],[137.3345,35.37941],[137.33437,35.37587],[137.32577,35.36823],[137.3218,35.36129],[137.32438,35.35613],[137.32166,35.35315],[137.3144,35.35199],[137.30835,35.34441],[137.30197,35.33917],[137.29847,35.3305],[137.30847,35.32658],[137.31368,35.33121],[137.33456,35.33296],[137.34082,35.32603],[137.34333,35.31873],[137.34304,35.31305],[137.3378,35.31355],[137.33295,35.30779],[137.32613,35.30328],[137.32817,35.29502],[137.32604,35.29106],[137.32095,35.29336],[137.3151,35.29133],[137.30808,35.29116],[137.30808,35.28966],[137.32129,35.28426],[137.32565,35.28045],[137.34463,35.27372],[137.34641,35.27123],[137.33995,35.26455],[137.3441,35.25786],[137.3505,35.25718],[137.36197,35.26097],[137.38512,35.2587],[137.38678,35.25181],[137.38319,35.24672],[137.38819,35.24012],[137.39491,35.23985],[137.401,35.24159],[137.40893,35.23491],[137.41681,35.2404],[137.42492,35.22688],[137.43031,35.22296],[137.43471,35.22414],[137.44205,35.2337],[137.45045,35.23509],[137.45337,35.24051],[137.46214,35.24112],[137.4661,35.24664],[137.46947,35.24548],[137.47658,35.25341],[137.4843,35.25743],[137.49655,35.25902],[137.49724,35.26419],[137.5048,35.26294],[137.51413,35.26996],[137.51874,35.28165],[137.52137,35.28426],[137.52931,35.28418],[137.53176,35.2821],[137.54343,35.28055],[137.55199,35.28423],[137.55801,35.28401],[137.56198,35.28932],[137.55759,35.29472],[137.56012,35.3096],[137.57147,35.31835],[137.57501,35.31698],[137.58758,35.32371],[137.59055,35.33049],[137.60155,35.33104],[137.60393,35.33721],[137.60044,35.34212],[137.59984,35.35177],[137.60257,35.3545],[137.60127,35.36157],[137.59804,35.36567],[137.59839,35.37918],[137.58774,35.38661],[137.58649,35.38943],[137.57795,35.39013],[137.57523,35.40001]]]},"properties":{"pref":"岐阜県","city":"恵那市","code5":"21210","code6":"212105"}},
{"type":"Feature","geometry":{"type":"Polygon","coordinates":[[[136.99237,35.50812],[136.99773,35.50809],[137.00308,35.49913],[136.99734,35.49426],[137.00595,35.49383],[137.01172,35.48662],[137.00479,35.48425],[136.99446,35.47859],[136.98431,35.47939],[136.98394,35.47132],[136.97107,35.47149],[136.96887,35.47994],[136.96505,35.47991],[136.96301,35.46842],[136.95986,35.45234],[136.9597,35.44663],[136.96516,35.4448],[136.96957,35.44744],[136.96985,35.45129],[136.97469,35.45221],[136.98407,35.44811],[136.9875,35.45251],[136.99337,35.45186],[136.99248,35.44318],[137.00112,35.44009],[137.00347,35.43278],[137.0065,35.4299],[137.01157,35.4359],[137.0333,35.4369],[137.04248,35.43999],[137.05216,35.44478],[137.06057,35.44479],[137.07193,35.43951],[137.08015,35.44224],[137.08325,35.44848],[137.0834,35.44941],[137.07681,35.45271],[137.07577,35.4591],[137.08415,35.46129],[137.08666,35.46919],[137.08306,35.47179],[137.07238,35.47445],[137.0702,35.47928],[137.06539,35.47789],[137.05997,35.47064],[137.05309,35.46602],[137.04936,35.47207],[137.05272,35.47911],[137.04829,35.48877],[137.03719,35.49532],[137.03968,35.50397],[137.04523,35.50732],[137.05148,35.50837],[137.05227,35.51659],[137.05655,35.51796],[137.06429,35.52791],[137.06894,35.52987],[137.06527,35.53845],[137.06872,35.54456],[137.06758,35.54771],[137.05808,35.55065],[137.05819,35.54584],[137.05099,35.54594],[137.04405,35.54962],[137.03617,35.55326],[137.02897,35.53972],[137.01603,35.53708],[137.01043,35.53343],[137.00916,35.52931],[137.00215,35.52322],[137.00046,35.51736],[136.99295,35.51752],[136.99237,35.50812]]]},"properties":{"pref":"岐阜県","city":"美濃加茂市","code5":"21211","code6":"212113"}},
{"type":"Feature","geometry":{"type":"Polygon","coordinates":[[[137.17609,35.27038],[137.17637,35.2604],[137.18949,35.25257],[137.19707,35.25334],[137.19996,35.25146],[137.21128,35.25969],[137.22136,35.25994],[137.22457,35.25649],[137.24359,35.26854],[137.24994,35.26855],[137.25376,35.27276],[137.26088,35.27541],[137.25945,35.27871],[137.26266,35.2852],[137.27173,35.28613],[137.27579,35.29061],[137.28106,35.31915],[137.27547,35.31672],[137.27067,35.32478],[137.26323,35.32421],[137.25801,35.32853],[137.25161,35.32743],[137.24473,35.33121],[137.24316,35.33904],[137.23683,35.34529],[137.2342,35.34446],[137.21948,35.35814],[137.21924,35.36519],[137.22298,35.36899],[137.2171,35.39363],[137.20927,35.39494],[137.20213,35.3996],[137.19596,35.40069],[137.19417,35.40382],[137.19215,35.39894],[137.17861,35.39196],[137.17488,35.39431],[137.17026,35.39237],[137.16036,35.3984],[137.15534,35.39425],[137.1527,35.38367],[137.15009,35.3795],[137.14523,35.37704],[137.14794,35.37049],[137.15641,35.36133],[137.15894,35.35599],[137.15582,35.35162],[137.14566,35.34997],[137.14911,35.34333],[137.15722,35.33515],[137.16027,35.32755],[137.15386,35.32037],[137.16475,35.31922],[137.17713,35.30359],[137.17875,35.29487],[137.18175,35.28805],[137.176,35.28379],[137.18646,35.27742],[137.18509,35.27466],[137.17609,35.27038]]]},"properties":{"pref":"岐阜県","city":"土岐市","code5":"21212","code6":"212121"}},
{"type":"Feature","geometry":{"type":"Polygon","coordinates":[[[136.81295,35.38741],[136.81974,35.38497],[136.81887,35.38101],[136.82071,35.3762],[136.8111,35.37409],[136.80243,35.37068],[136.79998,35.36418],[136.79406,35.36607],[136.79289,35.36346],[136.80423,35.36014],[136.81713,35.35932],[136.83404,35.35594],[136.86126,35.36838],[136.86493,35.37261],[136.87805,35.37447],[136.88618,35.37753],[136.89272,35.37809],[136.90853,35.37757],[136.92145,35.37903],[136.92615,35.38104],[136.93512,35.38825],[136.95035,35.39493],[136.9567,35.39645],[136.96171,35.39977],[136.96309,35.40655],[136.96112,35.41458],[136.95308,35.41412],[136.94852,35.42944],[136.94219,35.4274],[136.93476,35.42957],[136.9269,35.43429],[136.91638,35.43801],[136.90479,35.44625],[136.89923,35.44361],[136.88617,35.44627],[136.88179,35.44466],[136.87813,35.44623],[136.86904,35.44412],[136.87188,35.43662],[136.86021,35.43431],[136.85894,35.4253],[136.84513,35.42454],[136.84212,35.43118],[136.82273,35.42676],[136.8156,35.42737],[136.81475,35.42173],[136.81763,35.41852],[136.81559,35.41057],[136.81418,35.39862],[136.81689,35.39613],[136.81295,35.38741]]]},"properties":{"pref":"岐阜県","city":"各務原市","code5":"21213","code6":"212130"}},
{"type":"Feature","geometry":{"type":"MultiPolygon","coordinates":[[[[137.14523,35.37704],[137.15009,35.3795],[137.1527,35.38367],[137.15534,35.39425],[137.16036,35.3984],[137.14651,35.40733],[137.14179,35.40666],[137.13181,35.41468],[137.1222,35.41477],[137.1201,35.41987],[137.11013,35.41593],[137.10546,35.41838],[137.10775,35.42287],[137.10464,35.42617],[137.1068,35.431],[137.08871,35.4358],[137.08076,35.43116],[137.07762,35.43319],[137.07132,35.43196],[137.06902,35.43528],[137.07193,35.43951],[137.06057,35.44479],[137.05216,35.44478],[137.04248,35.43999],[137.0333,35.4369],[137.01157,35.4359],[137.0065,35.4299],[137.0049,35.42466],[136.99321,35.4242],[136.98525,35.41748],[136.98459,35.41189],[136.97858,35.40642],[136.98157,35.40158],[136.98731,35.40198],[136.99149,35.39307],[136.99925,35.39005],[137.00212,35.38148],[137.01417,35.38177],[137.01612,35.37767],[137.023,35.37503],[137.02828,35.37532],[137.0299,35.37072],[137.03398,35.36805],[137.04509,35.36741],[137.04762,35.36469],[137.05472,35.36887],[137.05292,35.37674],[137.05513,35.38339],[137.06072,35.3904],[137.06204,35.3985],[137.06607,35.40024],[137.07196,35.38845],[137.07623,35.38545],[137.07611,35.38023],[137.07929,35.37407],[137.08536,35.37112],[137.09479,35.37062],[137.10534,35.37397],[137.11326,35.36912],[137.12074,35.37536],[137.11728,35.37944],[137.12372,35.38444],[137.13051,35.38114],[137.14523,35.37704]]],[[[137.08325,35.44848],[137.08963,35.44593],[137.09201,35.45303],[137.09995,35.44743],[137.10498,35.45455],[137.11265,35.45833],[137.11077,35.46329],[137.10368,35.46514],[137.09696,35.46247],[137.08447,35.45312],[137.0834,35.44941],[137.08325,35.44848]]]]},"properties":{"pref":"岐阜県","city":"可児市","code5":"21214","code6":"212148"}},
{"type":"Feature","geometry":{"type":"Polygon","coordinates":[[[136.81522,35.53173],[136.80973,35.53589],[136.80919,35.54778],[136.81316,35.54863],[136.81312,35.55471],[136.82071,35.56029],[136.81715,35.56734],[136.81415,35.56595],[136.80429,35.57322],[136.79994,35.56895],[136.79378,35.57127],[136.79462,35.57622],[136.79222,35.58272],[136.79642,35.59161],[136.78945,35.59363],[136.78589,35.59703],[136.79585,35.59871],[136.80644,35.60925],[136.80357,35.61649],[136.80673,35.62216],[136.8046,35.65502],[136.8006,35.65975],[136.78202,35.66704],[136.77247,35.66744],[136.77041,35.67169],[136.76847,35.68317],[136.76285,35.68437],[136.75692,35.67958],[136.74653,35.68435],[136.73986,35.68372],[136.73375,35.69349],[136.72712,35.69133],[136.72149,35.69441],[136.73037,35.71142],[136.72793,35.71566],[136.71913,35.71424],[136.71358,35.71851],[136.69845,35.71865],[136.69575,35.717],[136.69688,35.71407],[136.69365,35.70852],[136.69558,35.69931],[136.69361,35.6946],[136.69489,35.69059],[136.68991,35.68356],[136.69281,35.67392],[136.68881,35.6609],[136.67477,35.65503],[136.67744,35.647],[136.6768,35.63816],[136.67282,35.632],[136.66508,35.6264],[136.66829,35.62209],[136.66896,35.61036],[136.66339,35.60247],[136.66818,35.59717],[136.66912,35.59041],[136.67455,35.58715],[136.68333,35.57628],[136.68117,35.57064],[136.68484,35.56587],[136.68469,35.55883],[136.6903,35.55029],[136.69582,35.5474],[136.69678,35.543],[136.70899,35.53252],[136.71085,35.52752],[136.71595,35.52458],[136.71777,35.52054],[136.72928,35.51756],[136.73682,35.50793],[136.74016,35.51108],[136.74732,35.51041],[136.75525,35.50398],[136.75985,35.50646],[136.76356,35.49965],[136.76994,35.49804],[136.77173,35.49218],[136.77836,35.4898],[136.78178,35.49123],[136.79133,35.49082],[136.79292,35.48434],[136.79959,35.48498],[136.79973,35.49219],[136.80319,35.49365],[136.80793,35.50551],[136.81472,35.51013],[136.81208,35.51258],[136.81253,35.52117],[136.8105,35.52526],[136.81522,35.53173]]]},"properties":{"pref":"岐阜県","city":"山県市","code5":"21215","code6":"212156"}},
{"type":"Feature","geometry":{"type":"Polygon","coordinates":[[[136.69321,35.4116],[136.68687,35.4144],[136.68203,35.41429],[136.68128,35.41944],[136.67064,35.41793],[136.67088,35.42105],[136.6534,35.42117],[136.65148,35.42412],[136.64528,35.42271],[136.64061,35.42872],[136.63299,35.42879],[136.634,35.41986],[136.63835,35.41276],[136.64003,35.40396],[136.64237,35.39491],[136.63787,35.3913],[136.64118,35.38761],[136.6444,35.38729],[136.65271,35.38132],[136.65645,35.38285],[136.66326,35.37431],[136.66315,35.37128],[136.67285,35.36718],[136.69058,35.36679],[136.70235,35.37881],[136.70644,35.3851],[136.70586,35.39035],[136.69792,35.40752],[136.69321,35.4116]]]},"properties":{"pref":"岐阜県","city":"瑞穂市","code5":"21216","code6":"212164"}},
{"type":"Feature","geometry":{"type":"Polygon","coordinates":[[[137.05845,36.37198],[137.062,36.36575],[137.05455,36.35234],[137.04898,36.34569],[137.05874,36.3425],[137.05253,36.33854],[137.05228,36.32951],[137.03757,36.31744],[137.01841,36.31588],[137.02125,36.30918],[137.01081,36.29803],[137.00784,36.28967],[137.00256,36.2869],[136.99015,36.28712],[136.98622,36.28233],[136.98023,36.27927],[136.97531,36.27436],[136.97316,36.26735],[136.96635,36.2658],[136.96268,36.26027],[136.96343,36.25665],[136.95806,36.25198],[136.95418,36.24432],[136.95554,36.23941],[136.95174,36.23749],[136.95799,36.2305],[136.95424,36.22668],[136.95109,36.21694],[136.95146,36.20945],[136.95348,36.20354],[136.95925,36.20035],[136.96429,36.19499],[136.97748,36.19395],[136.98325,36.1907],[136.9898,36.19404],[137.00841,36.19199],[137.01066,36.18942],[137.02398,36.18996],[137.02945,36.19654],[137.03847,36.19709],[137.04769,36.19509],[137.0511,36.19129],[137.06023,36.19929],[137.0697,36.19786],[137.0727,36.20251],[137.08191,36.21039],[137.08417,36.215],[137.09196,36.21822],[137.10056,36.21967],[137.10637,36.21684],[137.10744,36.20908],[137.10601,36.20343],[137.10977,36.19657],[137.11347,36.19407],[137.11327,36.18976],[137.11801,36.18377],[137.12136,36.18306],[137.13588,36.19162],[137.14247,36.20075],[137.15346,36.20022],[137.15862,36.20453],[137.15653,36.21033],[137.15965,36.21441],[137.17214,36.21415],[137.17715,36.21183],[137.1882,36.22218],[137.1917,36.21936],[137.20187,36.21572],[137.20496,36.223],[137.19577,36.23062],[137.19903,36.23551],[137.21279,36.24168],[137.2158,36.24557],[137.21283,36.25039],[137.21996,36.25654],[137.22905,36.25474],[137.23919,36.255],[137.24234,36.25979],[137.25357,36.26584],[137.26287,36.26803],[137.26763,36.27278],[137.26937,36.27753],[137.27686,36.2864],[137.29167,36.2878],[137.29743,36.28628],[137.30682,36.28657],[137.31672,36.289],[137.32135,36.28679],[137.32908,36.28898],[137.33589,36.29947],[137.3447,36.29967],[137.35571,36.29644],[137.36399,36.29654],[137.36537,36.30294],[137.37137,36.30671],[137.36583,36.31225],[137.36994,36.31897],[137.36721,36.32316],[137.36035,36.32876],[137.36304,36.335],[137.35878,36.34591],[137.36475,36.35091],[137.37694,36.34455],[137.38763,36.34311],[137.40373,36.34356],[137.41809,36.35094],[137.41402,36.36059],[137.41753,36.36143],[137.42243,36.37031],[137.42926,36.37255],[137.43855,36.37217],[137.44666,36.36818],[137.4542,36.37128],[137.47369,36.37585],[137.4782,36.37157],[137.48411,36.3711],[137.49153,36.37474],[137.49777,36.38268],[137.51051,36.38305],[137.51629,36.38127],[137.52311,36.3818],[137.53149,36.38624],[137.53997,36.3927],[137.53001,36.40329],[137.52026,36.40607],[137.51272,36.41638],[137.51172,36.42345],[137.50424,36.42571],[137.49696,36.42609],[137.49145,36.42357],[137.48302,36.42367],[137.47399,36.42535],[137.46831,36.41688],[137.46083,36.41224],[137.45258,36.41602],[137.4422,36.41425],[137.43601,36.42039],[137.4207,36.42277],[137.4172,36.42564],[137.41016,36.42463],[137.40376,36.42726],[137.39522,36.4364],[137.39487,36.45557],[137.38907,36.45726],[137.3615,36.45005],[137.35773,36.44321],[137.358,36.43631],[137.35011,36.43297],[137.33862,36.43389],[137.3331,36.42976],[137.32457,36.42844],[137.31953,36.42446],[137.3129,36.42534],[137.30674,36.43221],[137.30515,36.43621],[137.31387,36.44167],[137.31331,36.44894],[137.31779,36.45118],[137.31678,36.46099],[137.30661,36.46388],[137.29833,36.45826],[137.286,36.46123],[137.27777,36.46482],[137.26394,36.45841],[137.26282,36.45545],[137.25638,36.45114],[137.25209,36.45811],[137.24761,36.46196],[137.24242,36.45767],[137.2401,36.45279],[137.23136,36.44426],[137.22218,36.44363],[137.21823,36.43861],[137.21319,36.43797],[137.21255,36.43023],[137.20476,36.4326],[137.20487,36.43677],[137.19474,36.44664],[137.19385,36.45359],[137.19089,36.45503],[137.17594,36.45103],[137.16865,36.45548],[137.1597,36.45644],[137.15486,36.44913],[137.14227,36.44315],[137.14351,36.43864],[137.13699,36.4378],[137.12423,36.42209],[137.122,36.41715],[137.11151,36.41538],[137.10193,36.39919],[137.09618,36.3994],[137.09189,36.39637],[137.09481,36.39282],[137.09488,36.38397],[137.08997,36.38274],[137.07873,36.38431],[137.06555,36.37517],[137.05845,36.37198]]]},"properties":{"pref":"岐阜県","city":"飛騨市","code5":"21217","code6":"212172"}},
{"type":"Feature","geometry":{"type":"Polygon","coordinates":[[[136.51371,35.76225],[136.52215,35.75307],[136.52966,35.75108],[136.53091,35.74203],[136.53536,35.73148],[136.53225,35.72243],[136.52896,35.71698],[136.53228,35.70554],[136.53093,35.70289],[136.53679,35.69847],[136.53568,35.68957],[136.52726,35.68811],[136.52223,35.68532],[136.5213,35.68149],[136.51541,35.67587],[136.5155,35.67302],[136.52095,35.66379],[136.52767,35.65975],[136.53213,35.65387],[136.53726,35.65153],[136.53601,35.64488],[136.54616,35.63932],[136.54699,35.63639],[136.5597,35.6284],[136.55803,35.62098],[136.56305,35.61163],[136.55991,35.60107],[136.56371,35.59672],[136.56451,35.58639],[136.56902,35.58567],[136.57124,35.5807],[136.57675,35.57974],[136.58113,35.58221],[136.58506,35.57769],[136.59524,35.57878],[136.60702,35.5785],[136.61491,35.57698],[136.61757,35.57287],[136.62815,35.5711],[136.63866,35.57522],[136.63954,35.57284],[136.63529,35.56591],[136.64366,35.55391],[136.64334,35.55085],[136.6367,35.5506],[136.63347,35.5484],[136.64149,35.53651],[136.64903,35.53235],[136.6495,35.52836],[136.63975,35.52349],[136.64245,35.51798],[136.64863,35.51683],[136.65385,35.50952],[136.66018,35.50781],[136.65685,35.5007],[136.66004,35.49409],[136.65625,35.47998],[136.64838,35.46887],[136.64492,35.45783],[136.64031,35.44916],[136.63433,35.44775],[136.63299,35.42879],[136.64061,35.42872],[136.64528,35.42271],[136.65148,35.42412],[136.6534,35.42117],[136.67088,35.42105],[136.67064,35.41793],[136.68128,35.41944],[136.68329,35.42271],[136.67862,35.43159],[136.6789,35.44007],[136.6832,35.44203],[136.69159,35.44233],[136.69208,35.44911],[136.69843,35.44726],[136.69808,35.46291],[136.6928,35.464],[136.68308,35.47546],[136.68586,35.4829],[136.69806,35.48276],[136.6988,35.49154],[136.69429,35.49124],[136.69227,35.49832],[136.69695,35.50432],[136.69674,35.50905],[136.68287,35.51563],[136.68972,35.52631],[136.68541,35.53201],[136.6787,35.53534],[136.68321,35.53775],[136.6936,35.53834],[136.69678,35.543],[136.69582,35.5474],[136.6903,35.55029],[136.68469,35.55883],[136.68484,35.56587],[136.68117,35.57064],[136.68333,35.57628],[136.67455,35.58715],[136.66912,35.59041],[136.66818,35.59717],[136.66339,35.60247],[136.66896,35.61036],[136.66829,35.62209],[136.66508,35.6264],[136.67282,35.632],[136.6768,35.63816],[136.67744,35.647],[136.67477,35.65503],[136.68881,35.6609],[136.69281,35.67392],[136.68991,35.68356],[136.69489,35.69059],[136.69361,35.6946],[136.69558,35.69931],[136.69365,35.70852],[136.69688,35.71407],[136.69575,35.717],[136.69272,35.72079],[136.68672,35.72222],[136.68646,35.73145],[136.68126,35.73455],[136.68188,35.74324],[136.68471,35.74839],[136.69181,35.75281],[136.68551,35.76001],[136.68292,35.77176],[136.67888,35.77156],[136.66953,35.77822],[136.66614,35.78514],[136.65767,35.78348],[136.65433,35.78588],[136.65251,35.79873],[136.6452,35.80683],[136.6408,35.80349],[136.63818,35.79749],[136.62611,35.79542],[136.62775,35.79107],[136.62302,35.78777],[136.61145,35.7888],[136.59915,35.79853],[136.59543,35.79537],[136.59001,35.79566],[136.58609,35.79152],[136.586,35.78443],[136.57707,35.78152],[136.57232,35.77804],[136.56159,35.77869],[136.55068,35.78108],[136.54528,35.77871],[136.53065,35.78415],[136.52524,35.78797],[136.51196,35.77191],[136.51371,35.76225]]]},"properties":{"pref":"岐阜県","city":"本巣市","code5":"21218","code6":"212181"}},
{"type":"Feature","geometry":{"type":"Polygon","coordinates":[[[136.78925,35.7994],[136.79217,35.79782],[136.79454,35.78481],[136.80106,35.78169],[136.8072,35.78513],[136.81195,35.78017],[136.81652,35.78057],[136.82787,35.77568],[136.83302,35.77744],[136.83992,35.77675],[136.84322,35.76763],[136.8365,35.76619],[136.8334,35.75445],[136.8385,35.75029],[136.85475,35.74617],[136.85222,35.72952],[136.85325,35.72411],[136.84976,35.71922],[136.84852,35.71184],[136.84019,35.70682],[136.83951,35.70085],[136.84368,35.69635],[136.84799,35.68865],[136.85506,35.68422],[136.85956,35.67133],[136.86578,35.66599],[136.87111,35.66513],[136.87298,35.65872],[136.87965,35.65228],[136.89818,35.64532],[136.90147,35.63761],[136.90352,35.62776],[136.91218,35.62285],[136.91611,35.61231],[136.91972,35.6096],[136.92549,35.60115],[136.93069,35.60143],[136.93463,35.59871],[136.94253,35.59882],[136.94432,35.60515],[136.95262,35.61501],[136.96145,35.6165],[136.96736,35.61566],[136.97299,35.61767],[136.97867,35.61539],[136.98638,35.6194],[136.98507,35.62949],[136.98236,35.63227],[136.98011,35.64191],[136.9908,35.6457],[136.99241,35.65136],[137.00046,35.64983],[137.01271,35.65298],[137.01925,35.65027],[137.02402,35.64235],[137.03004,35.64202],[137.035,35.64418],[137.04017,35.65058],[137.04779,35.65044],[137.04915,35.65725],[137.05424,35.66292],[137.04898,35.67487],[137.04821,35.68061],[137.0513,35.68745],[137.05101,35.69404],[137.05158,35.6993],[137.05786,35.70209],[137.06374,35.70024],[137.06664,35.70381],[137.0666,35.71325],[137.07076,35.71723],[137.06898,35.72001],[137.07334,35.725],[137.07622,35.7227],[137.08132,35.72571],[137.09688,35.72641],[137.09759,35.72954],[137.10716,35.73028],[137.11079,35.73439],[137.12406,35.73596],[137.12277,35.74013],[137.13196,35.74105],[137.13236,35.75227],[137.12998,35.75888],[137.13159,35.76915],[137.12756,35.77685],[137.12886,35.78148],[137.13274,35.7848],[137.12922,35.78914],[137.12839,35.79807],[137.13038,35.80413],[137.1273,35.8115],[137.12697,35.81694],[137.12265,35.83342],[137.12721,35.83919],[137.12919,35.84571],[137.13525,35.84994],[137.1437,35.85068],[137.15542,35.84521],[137.16493,35.84704],[137.16733,35.85165],[137.1654,35.86035],[137.15717,35.86911],[137.15488,35.86908],[137.14813,35.87735],[137.14695,35.88254],[137.14041,35.8827],[137.13553,35.88547],[137.13614,35.88894],[137.12905,35.89889],[137.122,35.9106],[137.11659,35.91424],[137.10845,35.91445],[137.1031,35.92089],[137.10245,35.92563],[137.09542,35.92883],[137.09064,35.92087],[137.09303,35.91327],[137.09288,35.90411],[137.09026,35.89838],[137.08461,35.89903],[137.08334,35.9044],[137.07903,35.91259],[137.07518,35.91174],[137.06959,35.91734],[137.06536,35.93416],[137.06908,35.93915],[137.05789,35.948],[137.05463,35.95682],[137.04853,35.96047],[137.04486,35.95588],[137.03952,35.95372],[137.02402,35.96065],[137.01878,35.95879],[137.01667,35.95259],[137.00833,35.9511],[136.99778,35.93927],[136.9993,35.9307],[136.99196,35.92819],[136.98748,35.92109],[136.98291,35.91753],[136.97767,35.9192],[136.97198,35.92465],[136.97363,35.93004],[136.9725,35.9379],[136.96847,35.94871],[136.97176,35.9531],[136.97143,35.95692],[136.96556,35.96192],[136.96492,35.96801],[136.96038,35.97165],[136.95938,35.97853],[136.95135,35.97974],[136.94334,35.98564],[136.94043,35.99052],[136.93159,35.99834],[136.93082,36.00577],[136.91221,36.01367],[136.90386,36.01832],[136.90307,36.02338],[136.89591,36.02775],[136.88597,36.02136],[136.88212,36.0209],[136.87461,36.01573],[136.86436,36.01461],[136.85322,36.00947],[136.8454,36.00845],[136.8378,36.00144],[136.83468,36.00791],[136.82886,36.01169],[136.82379,36.00993],[136.815,36.01197],[136.81228,36.01483],[136.80747,36.02768],[136.79893,36.03333],[136.79863,36.03988],[136.80185,36.04299],[136.7951,36.05152],[136.78722,36.05189],[136.78006,36.05456],[136.77719,36.05268],[136.76806,36.05787],[136.76426,36.06768],[136.75902,36.06708],[136.75273,36.06237],[136.74443,36.05994],[136.7354,36.04789],[136.73573,36.03231],[136.7332,36.02748],[136.73439,36.02099],[136.73087,36.01757],[136.73235,36.01328],[136.72889,36.00936],[136.7294,36.00146],[136.72708,35.99562],[136.74141,35.99195],[136.74969,35.9909],[136.75334,35.97821],[136.75348,35.96814],[136.74885,35.9636],[136.75287,35.95646],[136.75786,35.95571],[136.7721,35.95023],[136.77665,35.95119],[136.78906,35.94866],[136.79346,35.94559],[136.79339,35.94092],[136.78686,35.93365],[136.78386,35.92778],[136.7865,35.9223],[136.79947,35.92032],[136.80583,35.91288],[136.8137,35.91092],[136.82377,35.89277],[136.82022,35.8794],[136.82601,35.87458],[136.82575,35.87008],[136.83015,35.86557],[136.83236,35.85744],[136.83107,35.85181],[136.82512,35.84541],[136.81545,35.84254],[136.80229,35.84403],[136.79942,35.83134],[136.79709,35.8281],[136.79844,35.82122],[136.79587,35.80906],[136.79279,35.80695],[136.78925,35.7994]]]},"properties":{"pref":"岐阜県","city":"郡上市","code5":"21219","code6":"212199"}},
{"type":"Feature","geometry":{"type":"Polygon","coordinates":[[[137.47617,35.89402],[137.48193,35.90053],[137.4811,35.90575],[137.48446,35.90863],[137.48343,35.91379],[137.47349,35.91772],[137.45902,35.92839],[137.45029,35.9389],[137.44553,35.94091],[137.44485,35.95013],[137.44074,35.9592],[137.43791,35.96132],[137.42877,35.96234],[137.42313,35.97091],[137.41791,35.97132],[137.41405,35.96765],[137.40633,35.96857],[137.40009,35.96557],[137.40027,35.9619],[137.39278,35.95888],[137.38518,35.95115],[137.38034,35.94843],[137.36763,35.94549],[137.3646,35.95063],[137.36615,35.95561],[137.36979,35.95789],[137.36775,35.96212],[137.37062,35.96572],[137.36868,35.97046],[137.35575,35.976],[137.34917,35.98854],[137.34237,35.98979],[137.34594,35.99908],[137.34473,36.00203],[137.33051,35.99943],[137.32747,35.99449],[137.31332,35.99366],[137.30543,35.98896],[137.29484,35.98644],[137.28239,35.98928],[137.2777,35.98709],[137.26587,35.98981],[137.26104,35.9874],[137.25832,35.9934],[137.25488,35.99276],[137.24626,35.99746],[137.24111,36.00633],[137.2342,36.01443],[137.23355,36.02168],[137.21784,36.02463],[137.21376,36.02739],[137.20908,36.02586],[137.20427,36.03],[137.19788,36.03229],[137.19671,36.03702],[137.18901,36.03578],[137.18449,36.03706],[137.17458,36.02879],[137.17022,36.02928],[137.16306,36.02217],[137.15917,36.0212],[137.14794,36.00621],[137.14831,36.00442],[137.1381,36.00052],[137.13656,35.99765],[137.1306,35.99638],[137.12557,35.98816],[137.12073,35.98546],[137.11657,35.97736],[137.11675,35.97259],[137.10895,35.9661],[137.10661,35.95969],[137.10741,35.9557],[137.12133,35.94848],[137.11761,35.9399],[137.11227,35.93141],[137.10245,35.92563],[137.1031,35.92089],[137.10845,35.91445],[137.11659,35.91424],[137.122,35.9106],[137.12905,35.89889],[137.13614,35.88894],[137.13553,35.88547],[137.14041,35.8827],[137.14695,35.88254],[137.14813,35.87735],[137.15488,35.86908],[137.15717,35.86911],[137.1654,35.86035],[137.16733,35.85165],[137.16493,35.84704],[137.15542,35.84521],[137.1437,35.85068],[137.13525,35.84994],[137.12919,35.84571],[137.12721,35.83919],[137.12265,35.83342],[137.12697,35.81694],[137.1273,35.8115],[137.13038,35.80413],[137.12839,35.79807],[137.12922,35.78914],[137.13274,35.7848],[137.12886,35.78148],[137.12756,35.77685],[137.13159,35.76915],[137.12998,35.75888],[137.13236,35.75227],[137.13196,35.74105],[137.12277,35.74013],[137.12406,35.73596],[137.11079,35.73439],[137.10716,35.73028],[137.09759,35.72954],[137.09688,35.72641],[137.08132,35.72571],[137.07622,35.7227],[137.07334,35.725],[137.06898,35.72001],[137.07076,35.71723],[137.0666,35.71325],[137.06664,35.70381],[137.06374,35.70024],[137.05786,35.70209],[137.05158,35.6993],[137.05101,35.69404],[137.0633,35.68755],[137.08063,35.68291],[137.08244,35.67723],[137.09896,35.67939],[137.09886,35.67052],[137.09622,35.65763],[137.08922,35.6557],[137.08591,35.64968],[137.09283,35.64559],[137.09448,35.63699],[137.09114,35.63143],[137.09591,35.62506],[137.10475,35.62588],[137.11237,35.62083],[137.11958,35.62383],[137.12659,35.623],[137.14051,35.62488],[137.14608,35.63123],[137.15938,35.63549],[137.17004,35.63721],[137.17156,35.64089],[137.17872,35.6452],[137.17952,35.65042],[137.18824,35.64795],[137.19031,35.65373],[137.19775,35.65658],[137.19318,35.66796],[137.20191,35.67322],[137.20491,35.67739],[137.21486,35.67848],[137.2184,35.68169],[137.23829,35.67676],[137.24346,35.67475],[137.24784,35.68039],[137.24953,35.68951],[137.26383,35.69459],[137.26792,35.69828],[137.27573,35.69219],[137.28492,35.69126],[137.28843,35.69351],[137.3005,35.69544],[137.30243,35.70218],[137.31259,35.70415],[137.31545,35.70707],[137.32489,35.70848],[137.33102,35.71097],[137.33109,35.72766],[137.3288,35.74109],[137.32489,35.74794],[137.33005,35.75101],[137.33431,35.76167],[137.33396,35.76443],[137.3442,35.77374],[137.34798,35.78137],[137.35337,35.78518],[137.35325,35.78805],[137.36029,35.79597],[137.35372,35.80134],[137.34387,35.79857],[137.33628,35.79883],[137.33232,35.80933],[137.32603,35.81213],[137.32499,35.81667],[137.3288,35.82176],[137.32731,35.82561],[137.33033,35.82916],[137.33214,35.84068],[137.33605,35.84422],[137.34832,35.84243],[137.35678,35.84273],[137.36113,35.84621],[137.36759,35.86067],[137.36632,35.86527],[137.36806,35.87044],[137.36717,35.8768],[137.36437,35.87887],[137.37351,35.88408],[137.38082,35.89242],[137.39781,35.89568],[137.41444,35.90139],[137.4194,35.90447],[137.42435,35.90319],[137.43761,35.90505],[137.44142,35.89944],[137.44868,35.89289],[137.45865,35.88931],[137.46515,35.89265],[137.47617,35.89402]]]},"properties":{"pref":"岐阜県","city":"下呂市","code5":"21220","code6":"212202"}},
{"type":"Feature","geometry":{"type":"Polygon","coordinates":[[[136.67239,35.29214],[136.66836,35.28883],[136.65196,35.28725],[136.65146,35.28445],[136.65542,35.27653],[136.65083,35.27053],[136.64135,35.26803],[136.63761,35.26529],[136.62852,35.26544],[136.62593,35.26069],[136.62747,35.25458],[136.62522,35.2526],[136.61692,35.24611],[136.61767,35.24028],[136.61493,35.23613],[136.60621,35.22818],[136.60242,35.22986],[136.5982,35.23752],[136.59125,35.23897],[136.59203,35.24757],[136.59441,35.25088],[136.59174,35.25785],[136.58716,35.25647],[136.58828,35.25217],[136.58217,35.24929],[136.57797,35.25395],[136.57191,35.25597],[136.56967,35.26094],[136.55313,35.26104],[136.55111,35.25679],[136.5465,35.25528],[136.53846,35.24971],[136.53634,35.2502],[136.54139,35.24575],[136.53978,35.241],[136.54406,35.23514],[136.55028,35.23191],[136.54696,35.22244],[136.54966,35.21921],[136.55683,35.22069],[136.56175,35.20553],[136.5745,35.2017],[136.57734,35.19681],[136.58519,35.19446],[136.5847,35.1886],[136.59174,35.18567],[136.59434,35.18093],[136.59702,35.17731],[136.6023,35.17804],[136.60613,35.17207],[136.60478,35.1685],[136.61251,35.15942],[136.61555,35.14993],[136.62427,35.14653],[136.63049,35.15022],[136.63993,35.14758],[136.64602,35.14766],[136.64619,35.15657],[136.64468,35.16277],[136.64628,35.16581],[136.65564,35.16105],[136.66149,35.1492],[136.66766,35.14115],[136.66963,35.13373],[136.67278,35.13478],[136.67123,35.13984],[136.67434,35.1525],[136.6739,35.16018],[136.67112,35.17341],[136.67232,35.18878],[136.68313,35.19983],[136.68096,35.22378],[136.67988,35.22821],[136.67787,35.24106],[136.67171,35.24356],[136.66496,35.25148],[136.65909,35.25305],[136.65723,35.25751],[136.66157,35.26311],[136.67278,35.26954],[136.6773,35.27817],[136.67239,35.29214]]]},"properties":{"pref":"岐阜県","city":"海津市","code5":"21221","code6":"212211"}},
{"type":"Feature","geometry":{"type":"Polygon","coordinates":[[[136.76284,35.3785],[136.77025,35.37324],[136.77752,35.3733],[136.77805,35.38182],[136.79927,35.37622],[136.80383,35.38184],[136.81193,35.38292],[136.81887,35.38101],[136.81974,35.38497],[136.81295,35.38741],[136.80361,35.38711],[136.79112,35.39806],[136.78606,35.39999],[136.77228,35.39632],[136.7689,35.39316],[136.76535,35.3852],[136.76655,35.38194],[136.76284,35.3785]]]},"properties":{"pref":"岐阜県","county":"羽島郡","city":"岐南町","code5":"21302","code6":"213021"}},
{"type":"Feature","geometry":{"type":"Polygon","coordinates":[[[136.72898,35.35657],[136.73501,35.35329],[136.73264,35.34877],[136.74415,35.34454],[136.7485,35.34647],[136.75395,35.34489],[136.75911,35.35719],[136.76812,35.3669],[136.77464,35.3696],[136.7772,35.3695],[136.79446,35.36833],[136.79406,35.36607],[136.79998,35.36418],[136.80243,35.37068],[136.8111,35.37409],[136.82071,35.3762],[136.81887,35.38101],[136.81193,35.38292],[136.80383,35.38184],[136.79927,35.37622],[136.77805,35.38182],[136.77752,35.3733],[136.77025,35.37324],[136.76284,35.3785],[136.76028,35.37851],[136.75181,35.36972],[136.75599,35.36487],[136.7447,35.36355],[136.74304,35.35913],[136.73333,35.36122],[136.72898,35.35657]]]},"properties":{"pref":"岐阜県","county":"羽島郡","city":"笠松町","code5":"21303","code6":"213039"}},
{"type":"Feature","geometry":{"type":"Polygon","coordinates":[[[136.52767,35.25753],[136.53354,35.25542],[136.53634,35.2502],[136.53846,35.24971],[136.5465,35.25528],[136.55111,35.25679],[136.55313,35.26104],[136.56967,35.26094],[136.57191,35.25597],[136.57797,35.25395],[136.58217,35.24929],[136.58828,35.25217],[136.58716,35.25647],[136.59174,35.25785],[136.59441,35.25088],[136.59203,35.24757],[136.59125,35.23897],[136.5982,35.23752],[136.60242,35.22986],[136.60621,35.22818],[136.61493,35.23613],[136.61767,35.24028],[136.61692,35.24611],[136.62522,35.2526],[136.61219,35.25826],[136.60774,35.26322],[136.60776,35.27628],[136.61059,35.28734],[136.60571,35.29052],[136.61009,35.29397],[136.60803,35.29688],[136.59694,35.30108],[136.59385,35.30654],[136.59382,35.31865],[136.58739,35.32228],[136.58858,35.32845],[136.58283,35.32933],[136.58058,35.33901],[136.57789,35.34129],[136.5606,35.34392],[136.5534,35.34365],[136.55398,35.33521],[136.54866,35.33337],[136.53562,35.3331],[136.52881,35.32874],[136.52095,35.33287],[136.51459,35.33034],[136.50699,35.32163],[136.50733,35.31859],[136.51524,35.30855],[136.51542,35.30383],[136.52249,35.30131],[136.52252,35.2969],[136.51866,35.29289],[136.52327,35.2901],[136.52089,35.28572],[136.52498,35.28208],[136.52154,35.27879],[136.52429,35.2708],[136.52249,35.26452],[136.52767,35.25753]]]},"properties":{"pref":"岐阜県","county":"養老郡","city":"養老町","code5":"21341","code6":"213411"}},
{"type":"Feature","geometry":{"type":"Polygon","coordinates":[[[136.53562,35.3331],[136.54866,35.33337],[136.55398,35.33521],[136.5534,35.34365],[136.5606,35.34392],[136.56178,35.34671],[136.55648,35.35225],[136.55911,35.3587],[136.56207,35.35896],[136.56068,35.37021],[136.54948,35.37464],[136.54589,35.3779],[136.54837,35.38726],[136.54596,35.3924],[136.54567,35.40279],[136.54854,35.40738],[136.55001,35.41063],[136.5443,35.41454],[136.53868,35.41389],[136.52998,35.41935],[136.52298,35.42146],[136.51919,35.43538],[136.51707,35.43776],[136.5126,35.43648],[136.50771,35.43158],[136.49688,35.43365],[136.49015,35.42706],[136.48914,35.42297],[136.47709,35.41476],[136.47113,35.41497],[136.46706,35.41008],[136.46758,35.40638],[136.46378,35.39967],[136.46378,35.39497],[136.4711,35.39037],[136.47785,35.38297],[136.47589,35.37918],[136.48437,35.37084],[136.48918,35.36769],[136.49529,35.37289],[136.50418,35.37526],[136.50495,35.36137],[136.50167,35.35653],[136.51064,35.34616],[136.51473,35.34518],[136.5194,35.34833],[136.52346,35.34792],[136.52896,35.34365],[136.53562,35.3331]]]},"properties":{"pref":"岐阜県","county":"不破郡","city":"垂井町","code5":"21361","code6":"213616"}},
{"type":"Feature","geometry":{"type":"Polygon","coordinates":[[[136.50167,35.35653],[136.50495,35.36137],[136.50418,35.37526],[136.49529,35.37289],[136.48918,35.36769],[136.48437,35.37084],[136.47589,35.37918],[136.47785,35.38297],[136.4711,35.39037],[136.46378,35.39497],[136.45245,35.39398],[136.44814,35.38869],[136.44435,35.38943],[136.43689,35.37913],[136.42608,35.37332],[136.41557,35.37356],[136.41191,35.3699],[136.41353,35.35997],[136.40962,35.35666],[136.42142,35.35392],[136.42233,35.34839],[136.41117,35.32794],[136.41226,35.31556],[136.40678,35.31],[136.40685,35.30526],[136.40266,35.30045],[136.40847,35.29812],[136.41993,35.28748],[136.42515,35.29164],[136.42951,35.29994],[136.42573,35.30674],[136.43881,35.30659],[136.4554,35.31382],[136.45849,35.31735],[136.45523,35.32544],[136.46596,35.34377],[136.4721,35.3427],[136.47698,35.35256],[136.48102,35.3581],[136.4914,35.35746],[136.49797,35.36063],[136.50167,35.35653]]]},"properties":{"pref":"岐阜県","county":"不破郡","city":"関ケ原町","code5":"21362","code6":"213624"}},
{"type":"Feature","geometry":{"type":"Polygon","coordinates":[[[136.64118,35.38761],[136.63787,35.3913],[136.64237,35.39491],[136.64003,35.40396],[136.63168,35.41039],[136.6244,35.41864],[136.63074,35.42138],[136.63037,35.42693],[136.62259,35.42691],[136.6193,35.42372],[136.6072,35.44153],[136.60054,35.44845],[136.5906,35.44421],[136.59011,35.43902],[136.58488,35.43033],[136.58573,35.42373],[136.58455,35.41693],[136.58501,35.40816],[136.59046,35.40467],[136.59461,35.3977],[136.6,35.39789],[136.60013,35.39322],[136.60792,35.39277],[136.61076,35.4046],[136.62281,35.40385],[136.6216,35.39298],[136.62872,35.38822],[136.64118,35.38761]]]},"properties":{"pref":"岐阜県","county":"安八郡","city":"神戸町","code5":"21381","code6":"213811"}},
{"type":"Feature","geometry":{"type":"Polygon","coordinates":[[[136.61009,35.29397],[136.60571,35.29052],[136.61059,35.28734],[136.60776,35.27628],[136.60774,35.26322],[136.61219,35.25826],[136.62522,35.2526],[136.62747,35.25458],[136.62593,35.26069],[136.62852,35.26544],[136.63761,35.26529],[136.64135,35.26803],[136.65083,35.27053],[136.65542,35.27653],[136.65146,35.28445],[136.65196,35.28725],[136.66836,35.28883],[136.67239,35.29214],[136.66621,35.30272],[136.66522,35.3074],[136.66138,35.30976],[136.65116,35.30808],[136.64872,35.31067],[136.63927,35.31271],[136.63473,35.31107],[136.62523,35.30375],[136.61844,35.30135],[136.61644,35.29601],[136.61009,35.29397]]]},"properties":{"pref":"岐阜県","county":"安八郡","city":"輪之内町","code5":"21382","code6":"213829"}},
{"type":"Feature","geometry":{"type":"Polygon","coordinates":[[[136.63927,35.31271],[136.64872,35.31067],[136.65116,35.30808],[136.66138,35.30976],[136.66522,35.3074],[136.66519,35.31226],[136.66904,35.31849],[136.68518,35.32787],[136.68816,35.3329],[136.68868,35.34583],[136.68094,35.34443],[136.67331,35.34704],[136.67338,35.35878],[136.67629,35.36341],[136.67285,35.36718],[136.66315,35.37128],[136.66326,35.37431],[136.65645,35.38285],[136.65271,35.38132],[136.65649,35.37692],[136.65812,35.36067],[136.65793,35.35149],[136.65223,35.33903],[136.64404,35.33858],[136.63817,35.33322],[136.63794,35.32825],[136.6413,35.31541],[136.63927,35.31271]]]},"properties":{"pref":"岐阜県","county":"安八郡","city":"安八町","code5":"21383","code6":"213837"}},
{"type":"Feature","geometry":{"type":"Polygon","coordinates":[[[136.41597,35.78245],[136.40885,35.7803],[136.40166,35.78608],[136.40014,35.78937],[136.3895,35.78804],[136.38896,35.79179],[136.37666,35.79518],[136.36407,35.78818],[136.35709,35.78683],[136.34841,35.78002],[136.34677,35.77624],[136.33281,35.77639],[136.32795,35.7751],[136.32166,35.7653],[136.3184,35.75098],[136.32005,35.74729],[136.32503,35.74466],[136.32404,35.74046],[136.32696,35.73152],[136.32361,35.72497],[136.32052,35.72293],[136.32269,35.71563],[136.31309,35.71289],[136.31085,35.70567],[136.30474,35.70153],[136.29762,35.69178],[136.29177,35.69039],[136.29192,35.68407],[136.29893,35.67881],[136.28917,35.67173],[136.29042,35.66583],[136.28445,35.66339],[136.28074,35.65863],[136.27657,35.65148],[136.28161,35.64755],[136.2831,35.64374],[136.27916,35.63669],[136.28741,35.62795],[136.28856,35.62059],[136.29817,35.61748],[136.30649,35.62226],[136.31556,35.6234],[136.32368,35.61652],[136.32054,35.61072],[136.31504,35.60569],[136.31906,35.6038],[136.32169,35.59826],[136.32275,35.57001],[136.31892,35.56559],[136.31626,35.55594],[136.3175,35.5474],[136.3221,35.54435],[136.32975,35.55096],[136.33732,35.55025],[136.34093,35.53728],[136.34588,35.53611],[136.35666,35.53991],[136.36252,35.55848],[136.37356,35.55939],[136.37577,35.55124],[136.38027,35.54607],[136.381,35.53766],[136.38425,35.53309],[136.4004,35.53008],[136.40176,35.52581],[136.39927,35.52112],[136.4025,35.51897],[136.40229,35.51325],[136.39722,35.50966],[136.38783,35.49683],[136.38688,35.48841],[136.39801,35.48093],[136.40196,35.47347],[136.40177,35.46994],[136.42036,35.46623],[136.42147,35.45564],[136.42617,35.44816],[136.42221,35.44256],[136.42312,35.43973],[136.41573,35.43342],[136.41889,35.42778],[136.41184,35.42241],[136.41181,35.4186],[136.42031,35.41291],[136.42797,35.40078],[136.44089,35.39386],[136.44435,35.38943],[136.44814,35.38869],[136.45245,35.39398],[136.46378,35.39497],[136.46378,35.39967],[136.46758,35.40638],[136.46706,35.41008],[136.47113,35.41497],[136.47709,35.41476],[136.48914,35.42297],[136.49015,35.42706],[136.49688,35.43365],[136.50771,35.43158],[136.5126,35.43648],[136.51707,35.43776],[136.51774,35.44447],[136.52635,35.4634],[136.53588,35.46716],[136.53873,35.47141],[136.54448,35.46872],[136.55177,35.47158],[136.56981,35.47161],[136.57044,35.46401],[136.57395,35.46182],[136.58618,35.46295],[136.59284,35.46031],[136.59907,35.46204],[136.60729,35.46178],[136.60489,35.46873],[136.60532,35.47365],[136.59921,35.4748],[136.59349,35.47805],[136.5926,35.4866],[136.59628,35.48953],[136.60318,35.48929],[136.61327,35.49214],[136.6159,35.49571],[136.63608,35.50545],[136.6434,35.50074],[136.65135,35.50523],[136.65385,35.50952],[136.64863,35.51683],[136.64245,35.51798],[136.63975,35.52349],[136.6495,35.52836],[136.64903,35.53235],[136.64149,35.53651],[136.63347,35.5484],[136.6367,35.5506],[136.64334,35.55085],[136.64366,35.55391],[136.63529,35.56591],[136.63954,35.57284],[136.63866,35.57522],[136.62815,35.5711],[136.61757,35.57287],[136.61491,35.57698],[136.60702,35.5785],[136.59524,35.57878],[136.58506,35.57769],[136.58113,35.58221],[136.57675,35.57974],[136.57124,35.5807],[136.56902,35.58567],[136.56451,35.58639],[136.56371,35.59672],[136.55991,35.60107],[136.56305,35.61163],[136.55803,35.62098],[136.5597,35.6284],[136.54699,35.63639],[136.54616,35.63932],[136.53601,35.64488],[136.53726,35.65153],[136.53213,35.65387],[136.52767,35.65975],[136.52095,35.66379],[136.5155,35.67302],[136.51541,35.67587],[136.5213,35.68149],[136.52223,35.68532],[136.52726,35.68811],[136.53568,35.68957],[136.53679,35.69847],[136.53093,35.70289],[136.53228,35.70554],[136.52896,35.71698],[136.53225,35.72243],[136.53536,35.73148],[136.53091,35.74203],[136.52966,35.75108],[136.52215,35.75307],[136.51371,35.76225],[136.50336,35.75087],[136.49707,35.76076],[136.49651,35.76553],[136.48458,35.77514],[136.47459,35.77275],[136.46758,35.77322],[136.46158,35.77871],[136.45154,35.77665],[136.4458,35.77291],[136.44121,35.77518],[136.43073,35.77503],[136.41896,35.7823],[136.41597,35.78245]]]},"properties":{"pref":"岐阜県","county":"揖斐郡","city":"揖斐川町","code5":"21401","code6":"214019"}},
{"type":"Feature","geometry":{"type":"Polygon","coordinates":[[[136.63299,35.42879],[136.63433,35.44775],[136.64031,35.44916],[136.64492,35.45783],[136.64838,35.46887],[136.65625,35.47998],[136.66004,35.49409],[136.65685,35.5007],[136.66018,35.50781],[136.65385,35.50952],[136.65135,35.50523],[136.6434,35.50074],[136.63608,35.50545],[136.6159,35.49571],[136.61327,35.49214],[136.60318,35.48929],[136.59628,35.48953],[136.5926,35.4866],[136.59349,35.47805],[136.59921,35.4748],[136.60532,35.47365],[136.60489,35.46873],[136.60729,35.46178],[136.59907,35.46204],[136.59284,35.46031],[136.59585,35.4536],[136.60054,35.44845],[136.6072,35.44153],[136.6193,35.42372],[136.62259,35.42691],[136.63037,35.42693],[136.63074,35.42138],[136.6244,35.41864],[136.63168,35.41039],[136.64003,35.40396],[136.63835,35.41276],[136.634,35.41986],[136.63299,35.42879]]]},"properties":{"pref":"岐阜県","county":"揖斐郡","city":"大野町","code5":"21403","code6":"214035"}},
{"type":"Feature","geometry":{"type":"Polygon","coordinates":[[[136.58501,35.40816],[136.58455,35.41693],[136.58573,35.42373],[136.58488,35.43033],[136.59011,35.43902],[136.5906,35.44421],[136.60054,35.44845],[136.59585,35.4536],[136.59284,35.46031],[136.58618,35.46295],[136.57395,35.46182],[136.57044,35.46401],[136.56981,35.47161],[136.55177,35.47158],[136.54448,35.46872],[136.53873,35.47141],[136.53588,35.46716],[136.52635,35.4634],[136.51774,35.44447],[136.51707,35.43776],[136.51919,35.43538],[136.52298,35.42146],[136.52998,35.41935],[136.53868,35.41389],[136.5443,35.41454],[136.55001,35.41063],[136.54854,35.40738],[136.55602,35.41064],[136.56271,35.41087],[136.57188,35.40591],[136.57823,35.40857],[136.58501,35.40816]]]},"properties":{"pref":"岐阜県","county":"揖斐郡","city":"池田町","code5":"21404","code6":"214043"}},
{"type":"Feature","geometry":{"type":"Polygon","coordinates":[[[136.69843,35.44726],[136.69208,35.44911],[136.69159,35.44233],[136.6832,35.44203],[136.6789,35.44007],[136.67862,35.43159],[136.68329,35.42271],[136.68128,35.41944],[136.68203,35.41429],[136.68687,35.4144],[136.69321,35.4116],[136.69303,35.42131],[136.69887,35.42158],[136.69843,35.44726]]]},"properties":{"pref":"岐阜県","county":"本巣郡","city":"北方町","code5":"21421","code6":"214213"}},
{"type":"Feature","geometry":{"type":"Polygon","coordinates":[[[136.94852,35.42944],[136.95308,35.41412],[136.96112,35.41458],[136.96437,35.42094],[136.97442,35.42162],[136.98572,35.42452],[136.99321,35.4242],[137.0049,35.42466],[137.0065,35.4299],[137.00347,35.43278],[137.00112,35.44009],[136.99248,35.44318],[136.99337,35.45186],[136.9875,35.45251],[136.98407,35.44811],[136.97469,35.45221],[136.96985,35.45129],[136.96957,35.44744],[136.96516,35.4448],[136.9597,35.44663],[136.95487,35.43824],[136.95378,35.43069],[136.94852,35.42944]]]},"properties":{"pref":"岐阜県","county":"加茂郡","city":"坂祝町","code5":"21501","code6":"215015"}},
{"type":"Feature","geometry":{"type":"Polygon","coordinates":[[[136.96301,35.46842],[136.96505,35.47991],[136.96887,35.47994],[136.97107,35.47149],[136.98394,35.47132],[136.98431,35.47939],[136.99446,35.47859],[137.00479,35.48425],[137.01172,35.48662],[137.00595,35.49383],[136.99734,35.49426],[137.00308,35.49913],[136.99773,35.50809],[136.99237,35.50812],[136.98864,35.50688],[136.98359,35.51078],[136.9773,35.50864],[136.96283,35.50817],[136.96164,35.50593],[136.95233,35.50804],[136.94912,35.50712],[136.94719,35.49904],[136.95068,35.49521],[136.95256,35.48672],[136.95943,35.48612],[136.95939,35.48214],[136.95389,35.4733],[136.96301,35.46842]]]},"properties":{"pref":"岐阜県","county":"加茂郡","city":"富加町","code5":"21502","code6":"215023"}},
{"type":"Feature","geometry":{"type":"Polygon","coordinates":[[[137.08666,35.46919],[137.09181,35.47285],[137.08449,35.47932],[137.0826,35.48303],[137.08458,35.48847],[137.08915,35.49122],[137.09268,35.48905],[137.10196,35.48905],[137.10788,35.49698],[137.11127,35.49766],[137.11951,35.50377],[137.12657,35.50115],[137.13139,35.50467],[137.13171,35.51343],[137.12305,35.51649],[137.11906,35.51931],[137.10878,35.52137],[137.10608,35.54259],[137.09972,35.54784],[137.10608,35.55008],[137.09874,35.5547],[137.09409,35.55318],[137.09694,35.54893],[137.09472,35.54503],[137.08884,35.5463],[137.07662,35.5522],[137.07061,35.5503],[137.05808,35.55065],[137.06758,35.54771],[137.06872,35.54456],[137.06527,35.53845],[137.06894,35.52987],[137.06429,35.52791],[137.05655,35.51796],[137.05227,35.51659],[137.05148,35.50837],[137.04523,35.50732],[137.03968,35.50397],[137.03719,35.49532],[137.04829,35.48877],[137.05272,35.47911],[137.04936,35.47207],[137.05309,35.46602],[137.05997,35.47064],[137.06539,35.47789],[137.0702,35.47928],[137.07238,35.47445],[137.08306,35.47179],[137.08666,35.46919]]]},"properties":{"pref":"岐阜県","county":"加茂郡","city":"川辺町","code5":"21503","code6":"215031"}},
{"type":"Feature","geometry":{"type":"Polygon","coordinates":[[[137.04405,35.54962],[137.05099,35.54594],[137.05819,35.54584],[137.05808,35.55065],[137.07061,35.5503],[137.07662,35.5522],[137.08884,35.5463],[137.09472,35.54503],[137.09694,35.54893],[137.09409,35.55318],[137.09874,35.5547],[137.10608,35.55008],[137.09972,35.54784],[137.10608,35.54259],[137.10878,35.52137],[137.11906,35.51931],[137.12305,35.51649],[137.12435,35.51879],[137.13441,35.52108],[137.13407,35.52707],[137.1388,35.52937],[137.1455,35.53948],[137.15361,35.544],[137.15971,35.54136],[137.16748,35.54074],[137.17035,35.5453],[137.18048,35.54791],[137.17839,35.55062],[137.18489,35.55337],[137.18362,35.56085],[137.17442,35.57363],[137.16399,35.57789],[137.1536,35.59209],[137.14213,35.59466],[137.13984,35.59836],[137.14819,35.60074],[137.15732,35.60811],[137.15812,35.61279],[137.15104,35.61557],[137.14425,35.61403],[137.13966,35.60938],[137.13542,35.61116],[137.14003,35.61802],[137.14051,35.62488],[137.12659,35.623],[137.11958,35.62383],[137.11237,35.62083],[137.10475,35.62588],[137.09591,35.62506],[137.09114,35.63143],[137.08297,35.63173],[137.07989,35.6282],[137.07081,35.62683],[137.07119,35.62364],[137.06369,35.62317],[137.06024,35.61416],[137.05906,35.60463],[137.05602,35.6042],[137.05306,35.59321],[137.05666,35.59224],[137.05796,35.58418],[137.06537,35.5797],[137.06388,35.57548],[137.07019,35.57468],[137.07129,35.57051],[137.0512,35.55901],[137.04405,35.54962]]]},"properties":{"pref":"岐阜県","county":"加茂郡","city":"七宗町","code5":"21504","code6":"215040"}},
{"type":"Feature","geometry":{"type":"Polygon","coordinates":[[[137.2506,35.46443],[137.25178,35.46852],[137.25725,35.47039],[137.25435,35.47541],[137.26283,35.48403],[137.26644,35.491],[137.2712,35.4958],[137.27513,35.49586],[137.28347,35.50222],[137.28686,35.50822],[137.28192,35.51359],[137.2797,35.5192],[137.2732,35.52104],[137.26901,35.52698],[137.26611,35.52932],[137.25532,35.53098],[137.24955,35.5389],[137.23934,35.54259],[137.23632,35.54742],[137.23195,35.5477],[137.22609,35.55297],[137.21972,35.55367],[137.21286,35.55033],[137.21076,35.54604],[137.20621,35.54628],[137.19826,35.55393],[137.18489,35.55337],[137.17839,35.55062],[137.18048,35.54791],[137.17035,35.5453],[137.16748,35.54074],[137.15971,35.54136],[137.15361,35.544],[137.1455,35.53948],[137.1388,35.52937],[137.13407,35.52707],[137.13441,35.52108],[137.12435,35.51879],[137.12305,35.51649],[137.13171,35.51343],[137.13139,35.50467],[137.12657,35.50115],[137.11951,35.50377],[137.11127,35.49766],[137.10788,35.49698],[137.10196,35.48905],[137.09268,35.48905],[137.08915,35.49122],[137.08458,35.48847],[137.0826,35.48303],[137.08449,35.47932],[137.09181,35.47285],[137.08666,35.46919],[137.08415,35.46129],[137.07577,35.4591],[137.07681,35.45271],[137.0834,35.44941],[137.08447,35.45312],[137.09696,35.46247],[137.10368,35.46514],[137.11077,35.46329],[137.11265,35.45833],[137.11551,35.45399],[137.12001,35.45239],[137.13928,35.45099],[137.14437,35.45566],[137.15922,35.45283],[137.16682,35.45827],[137.16845,35.46711],[137.18159,35.47218],[137.19279,35.47367],[137.2034,35.46973],[137.21452,35.47473],[137.22215,35.46935],[137.22874,35.47302],[137.23246,35.47127],[137.2317,35.4648],[137.23449,35.45839],[137.24359,35.45992],[137.24583,35.46356],[137.2506,35.46443]]]},"properties":{"pref":"岐阜県","county":"加茂郡","city":"八百津町","code5":"21505","code6":"215058"}},
{"type":"Feature","geometry":{"type":"Polygon","coordinates":[[[137.39305,35.60833],[137.37485,35.61267],[137.35859,35.61805],[137.3474,35.61666],[137.33975,35.62082],[137.33306,35.62209],[137.31839,35.611],[137.30919,35.60905],[137.29695,35.60296],[137.28249,35.59754],[137.27509,35.5996],[137.27157,35.606],[137.26299,35.60961],[137.26323,35.61297],[137.25904,35.61805],[137.26144,35.62751],[137.25758,35.63081],[137.26147,35.63404],[137.27153,35.6362],[137.28798,35.64768],[137.28494,35.65068],[137.28704,35.65532],[137.29695,35.6673],[137.30389,35.66651],[137.31382,35.67418],[137.31649,35.6789],[137.32064,35.68047],[137.32022,35.68486],[137.33282,35.69235],[137.34369,35.69595],[137.34426,35.70218],[137.34115,35.70739],[137.33102,35.71097],[137.32489,35.70848],[137.31545,35.70707],[137.31259,35.70415],[137.30243,35.70218],[137.3005,35.69544],[137.28843,35.69351],[137.28492,35.69126],[137.27573,35.69219],[137.26792,35.69828],[137.26383,35.69459],[137.24953,35.68951],[137.24784,35.68039],[137.24346,35.67475],[137.23829,35.67676],[137.2184,35.68169],[137.21486,35.67848],[137.20491,35.67739],[137.20191,35.67322],[137.19318,35.66796],[137.19775,35.65658],[137.19031,35.65373],[137.18824,35.64795],[137.17952,35.65042],[137.17872,35.6452],[137.17156,35.64089],[137.17004,35.63721],[137.15938,35.63549],[137.14608,35.63123],[137.14051,35.62488],[137.14003,35.61802],[137.13542,35.61116],[137.13966,35.60938],[137.14425,35.61403],[137.15104,35.61557],[137.15812,35.61279],[137.15732,35.60811],[137.14819,35.60074],[137.13984,35.59836],[137.14213,35.59466],[137.1536,35.59209],[137.16399,35.57789],[137.17442,35.57363],[137.18362,35.56085],[137.18489,35.55337],[137.19826,35.55393],[137.20621,35.54628],[137.21076,35.54604],[137.21286,35.55033],[137.21972,35.55367],[137.22609,35.55297],[137.23195,35.5477],[137.23632,35.54742],[137.23934,35.54259],[137.24955,35.5389],[137.25532,35.53098],[137.26611,35.52932],[137.26901,35.52698],[137.27194,35.5289],[137.28529,35.53124],[137.30062,35.53219],[137.30211,35.53447],[137.31067,35.53634],[137.31907,35.53416],[137.32346,35.53545],[137.33794,35.54701],[137.34153,35.54793],[137.34553,35.55453],[137.3431,35.56074],[137.3483,35.56299],[137.36926,35.56703],[137.38617,35.56202],[137.39573,35.56292],[137.39444,35.56742],[137.39896,35.57344],[137.39895,35.57944],[137.39449,35.5841],[137.38778,35.59539],[137.38664,35.60314],[137.39372,35.60538],[137.39305,35.60833]]]},"properties":{"pref":"岐阜県","county":"加茂郡","city":"白川町","code5":"21506","code6":"215066"}},
{"type":"Feature","geometry":{"type":"Polygon","coordinates":[[[137.34369,35.69595],[137.33282,35.69235],[137.32022,35.68486],[137.32064,35.68047],[137.31649,35.6789],[137.31382,35.67418],[137.30389,35.66651],[137.29695,35.6673],[137.28704,35.65532],[137.28494,35.65068],[137.28798,35.64768],[137.27153,35.6362],[137.26147,35.63404],[137.25758,35.63081],[137.26144,35.62751],[137.25904,35.61805],[137.26323,35.61297],[137.26299,35.60961],[137.27157,35.606],[137.27509,35.5996],[137.28249,35.59754],[137.29695,35.60296],[137.30919,35.60905],[137.31839,35.611],[137.33306,35.62209],[137.33975,35.62082],[137.3474,35.61666],[137.35859,35.61805],[137.37485,35.61267],[137.39305,35.60833],[137.40423,35.61448],[137.40525,35.62252],[137.41268,35.62645],[137.41053,35.63757],[137.40073,35.64629],[137.40915,35.65635],[137.40562,35.6612],[137.39703,35.66213],[137.39425,35.66516],[137.37313,35.67207],[137.36514,35.67931],[137.3642,35.68278],[137.35392,35.69471],[137.34369,35.69595]]]},"properties":{"pref":"岐阜県","county":"加茂郡","city":"東白川村","code5":"21507","code6":"215074"}},
{"type":"Feature","geometry":{"type":"Polygon","coordinates":[[[137.2034,35.46973],[137.19279,35.47367],[137.18159,35.47218],[137.16845,35.46711],[137.16682,35.45827],[137.15922,35.45283],[137.14437,35.45566],[137.13928,35.45099],[137.12001,35.45239],[137.11551,35.45399],[137.11265,35.45833],[137.10498,35.45455],[137.09995,35.44743],[137.09201,35.45303],[137.08963,35.44593],[137.08325,35.44848],[137.08015,35.44224],[137.07193,35.43951],[137.06902,35.43528],[137.07132,35.43196],[137.07762,35.43319],[137.08076,35.43116],[137.08871,35.4358],[137.1068,35.431],[137.10464,35.42617],[137.10775,35.42287],[137.10546,35.41838],[137.11013,35.41593],[137.1201,35.41987],[137.1222,35.41477],[137.13181,35.41468],[137.14179,35.40666],[137.14651,35.40733],[137.16036,35.3984],[137.17026,35.39237],[137.17488,35.39431],[137.17861,35.39196],[137.19215,35.39894],[137.19417,35.40382],[137.19236,35.41134],[137.19944,35.41212],[137.19704,35.41661],[137.20588,35.42487],[137.19848,35.43765],[137.19963,35.44261],[137.19798,35.44915],[137.20298,35.45461],[137.19998,35.45801],[137.2034,35.46973]]]},"properties":{"pref":"岐阜県","county":"可児郡","city":"御嵩町","code5":"21521","code6":"215210"}},
{"type":"Feature","geometry":{"type":"Polygon","coordinates":[[[136.79229,36.29921],[136.79546,36.29249],[136.80086,36.29034],[136.80612,36.28364],[136.806,36.27581],[136.8144,36.27031],[136.81458,36.2664],[136.83355,36.26486],[136.84402,36.25762],[136.84525,36.25337],[136.8504,36.25192],[136.84385,36.2368],[136.83588,36.2265],[136.83229,36.22361],[136.83168,36.21767],[136.82099,36.21074],[136.81867,36.20109],[136.81068,36.19619],[136.79944,36.18131],[136.79841,36.17256],[136.78644,36.16619],[136.77731,36.16642],[136.76842,36.16418],[136.76599,36.16088],[136.77351,36.15721],[136.77183,36.15502],[136.77583,36.14391],[136.78073,36.14138],[136.77862,36.12959],[136.7725,36.12616],[136.76958,36.11778],[136.77055,36.11575],[136.76496,36.10561],[136.77174,36.10477],[136.78873,36.0979],[136.79498,36.10173],[136.79854,36.10602],[136.80714,36.10549],[136.81326,36.10033],[136.81797,36.09324],[136.82792,36.09657],[136.84424,36.09766],[136.85076,36.10051],[136.85694,36.10536],[136.8662,36.10553],[136.86959,36.10223],[136.87925,36.10219],[136.88321,36.1038],[136.8967,36.10466],[136.90561,36.10002],[136.91451,36.10079],[136.91732,36.09689],[136.92477,36.09434],[136.93491,36.10514],[136.93253,36.11198],[136.94589,36.1171],[136.95348,36.11779],[136.95372,36.12362],[136.94772,36.13404],[136.93775,36.14251],[136.93316,36.14271],[136.93855,36.15588],[136.93714,36.16349],[136.94349,36.17009],[136.9437,36.17708],[136.94704,36.18114],[136.94576,36.18805],[136.94881,36.19688],[136.94628,36.20632],[136.95146,36.20945],[136.95109,36.21694],[136.95424,36.22668],[136.95799,36.2305],[136.95174,36.23749],[136.95554,36.23941],[136.95418,36.24432],[136.95806,36.25198],[136.96343,36.25665],[136.96268,36.26027],[136.96635,36.2658],[136.97316,36.26735],[136.97531,36.27436],[136.96672,36.27745],[136.95824,36.27768],[136.96161,36.28471],[136.96051,36.28778],[136.96549,36.29218],[136.96883,36.30492],[136.9722,36.31065],[136.97112,36.31554],[136.96379,36.31924],[136.96143,36.32756],[136.9549,36.33935],[136.95107,36.33924],[136.94676,36.3458],[136.93964,36.34921],[136.93235,36.34848],[136.92281,36.35496],[136.91308,36.35757],[136.90747,36.36084],[136.89009,36.34556],[136.88277,36.34204],[136.87654,36.34686],[136.87605,36.36073],[136.86884,36.36388],[136.86423,36.35546],[136.8651,36.34966],[136.85519,36.34956],[136.85165,36.34757],[136.84397,36.35109],[136.83735,36.34731],[136.83921,36.33839],[136.84249,36.33326],[136.83829,36.32316],[136.83252,36.31542],[136.8304,36.30774],[136.82657,36.30258],[136.81699,36.30343],[136.80915,36.30271],[136.80418,36.30619],[136.7954,36.30266],[136.79229,36.29921]]]},"properties":{"pref":"岐阜県","county":"大野郡","city":"白川村","code5":"21604","code6":"216046"}}
]}