{"type":"FeatureCollection", "features": [
{"type":"Feature","geometry":{"type":"MultiPolygon","coordinates":[[[[138.88839,35.11286],[138.88627,35.11526],[138.88718,35.12722],[138.89278,35.12933],[138.89134,35.13501],[138.88705,35.1356],[138.88214,35.14203],[138.87484,35.14238],[138.86536,35.15221],[138.86004,35.16701],[138.85107,35.17521],[138.84339,35.17934],[138.83875,35.18424],[138.83153,35.20134],[138.82398,35.20536],[138.82304,35.20881],[138.81816,35.2111],[138.81166,35.21924],[138.80499,35.21036],[138.79331,35.20376],[138.78562,35.19631],[138.78104,35.19554],[138.77233,35.18933],[138.77008,35.17985],[138.76501,35.16851],[138.77431,35.16609],[138.77831,35.16646],[138.77336,35.15724],[138.76917,35.14271],[138.76561,35.13835],[138.75613,35.14004],[138.75252,35.13151],[138.78437,35.12407],[138.80811,35.11618],[138.81833,35.11187],[138.83376,35.10356],[138.84523,35.09454],[138.85555,35.07888],[138.86358,35.07214],[138.8672,35.07376],[138.87611,35.06597],[138.87904,35.05916],[138.88322,35.05467],[138.88705,35.04677],[138.89175,35.05168],[138.90056,35.05052],[138.9036,35.04539],[138.899,35.0429],[138.89868,35.0381],[138.89244,35.03127],[138.89283,35.02811],[138.8986,35.02428],[138.89676,35.02036],[138.89165,35.01708],[138.88174,35.02145],[138.8771,35.025],[138.86872,35.0219],[138.85751,35.02055],[138.84434,35.01437],[138.84316,35.01806],[138.83683,35.01943],[138.82684,35.02241],[138.81371,35.02279],[138.8124,35.02],[138.79978,35.02118],[138.79779,35.0239],[138.78353,35.02493],[138.77796,35.01066],[138.78,35.00171],[138.7747,34.99689],[138.7714,34.9863],[138.76884,34.98195],[138.77673,34.97407],[138.7751,34.96956],[138.76681,34.97232],[138.76238,34.97169],[138.7626,34.96554],[138.76799,34.94911],[138.77424,34.94437],[138.77602,34.93918],[138.78999,34.94003],[138.79963,34.9461],[138.80523,34.94766],[138.81185,34.94516],[138.81607,34.94876],[138.82237,34.94918],[138.82876,34.94599],[138.8384,34.94422],[138.83692,34.94966],[138.83926,34.95461],[138.83679,34.95981],[138.83866,34.96318],[138.83703,34.97344],[138.84828,34.9757],[138.85032,34.97895],[138.85744,34.98352],[138.87609,34.98904],[138.88326,34.99456],[138.88426,34.99768],[138.89588,35.00238],[138.89933,35.00624],[138.90779,35.0079],[138.90268,35.01355],[138.9103,35.02063],[138.9119,35.02555],[138.90279,35.03194],[138.90591,35.0354],[138.91173,35.03731],[138.90793,35.04915],[138.90927,35.05432],[138.90623,35.05939],[138.91308,35.06244],[138.91634,35.06947],[138.92213,35.07113],[138.92327,35.07554],[138.91457,35.08328],[138.90736,35.08324],[138.90046,35.07789],[138.89074,35.07702],[138.88875,35.07893],[138.88726,35.08851],[138.88393,35.0975],[138.88856,35.10227],[138.88707,35.10821],[138.88839,35.11286]]],[[[138.88734,35.03157],[138.88645,35.03606],[138.88643,35.03605],[138.88734,35.03157]]],[[[138.84347,35.01846],[138.84336,35.01849],[138.8434,35.01842],[138.84342,35.01839],[138.84343,35.01836],[138.84352,35.01837],[138.8435,35.0184],[138.84347,35.01846]]]]},"properties":{"pref":"静岡県","city":"沼津市","code5":"22203","code6":"222038"}},
{"type":"Feature","geometry":{"type":"MultiPolygon","coordinates":[[[[139.03043,35.14975],[139.03395,35.14482],[139.03492,35.13799],[139.03855,35.13704],[139.04234,35.13165],[139.04111,35.12811],[139.04478,35.12372],[139.0361,35.11436],[139.03688,35.10311],[139.03224,35.09361],[139.03144,35.08731],[139.03323,35.08398],[139.02785,35.08162],[139.03109,35.0742],[139.03026,35.07057],[139.0402,35.05979],[139.03343,35.05763],[139.03246,35.05275],[139.03376,35.04559],[139.03778,35.04174],[139.03806,35.03463],[139.05126,35.03037],[139.05845,35.02756],[139.06611,35.02738],[139.07165,35.02501],[139.07958,35.03139],[139.09069,35.03653],[139.09857,35.03143],[139.10025,35.04501],[139.09403,35.04974],[139.09067,35.04949],[139.08504,35.04486],[139.0799,35.04726],[139.07415,35.04672],[139.06938,35.05404],[139.07424,35.06028],[139.07823,35.07261],[139.07466,35.08092],[139.08196,35.08635],[139.07707,35.09814],[139.0822,35.10103],[139.08692,35.10711],[139.08949,35.11426],[139.09643,35.11691],[139.10604,35.12867],[139.10928,35.13043],[139.10965,35.13876],[139.1116,35.14137],[139.0901,35.14019],[139.08359,35.14111],[139.07283,35.14518],[139.06613,35.14413],[139.05141,35.14716],[139.0486,35.14963],[139.03962,35.15067],[139.03043,35.14975]]],[[[139.16856,35.04327],[139.16796,35.03655],[139.17655,35.03967],[139.16856,35.04327]]]]},"properties":{"pref":"静岡県","city":"熱海市","code5":"22205","code6":"222054"}},
{"type":"Feature","geometry":{"type":"Polygon","coordinates":[[[139.00159,35.18981],[138.98833,35.18391],[138.98486,35.18117],[138.97403,35.17982],[138.96355,35.17982],[138.94916,35.17125],[138.93507,35.17305],[138.92952,35.17074],[138.92461,35.17133],[138.91639,35.16187],[138.90831,35.15616],[138.90543,35.14861],[138.91152,35.12985],[138.9072,35.12669],[138.90523,35.11994],[138.90709,35.10983],[138.91238,35.10473],[138.91461,35.0963],[138.91341,35.09172],[138.90736,35.08324],[138.91457,35.08328],[138.92327,35.07554],[138.9351,35.08835],[138.93539,35.09144],[138.94542,35.08983],[138.94811,35.09353],[138.95376,35.10966],[138.96117,35.11585],[138.9729,35.12851],[138.97424,35.13277],[138.98413,35.14081],[138.99029,35.14307],[138.99003,35.14621],[138.99374,35.15265],[138.99726,35.15172],[139.00128,35.15755],[139.00331,35.16879],[139.01305,35.17865],[139.01383,35.18237],[139.00901,35.18344],[139.00159,35.18981]]]},"properties":{"pref":"静岡県","city":"三島市","code5":"22206","code6":"222062"}},
{"type":"Feature","geometry":{"type":"Polygon","coordinates":[[[138.52817,35.37905],[138.5307,35.37613],[138.52987,35.35963],[138.53063,35.34558],[138.53485,35.34106],[138.53509,35.33056],[138.52678,35.32593],[138.5254,35.32187],[138.51209,35.31356],[138.5161,35.29608],[138.52166,35.28348],[138.52032,35.27088],[138.51542,35.26731],[138.51424,35.26223],[138.52067,35.25543],[138.52308,35.24861],[138.5269,35.23257],[138.52952,35.23108],[138.53228,35.22339],[138.52738,35.2168],[138.53122,35.21111],[138.53319,35.20086],[138.52848,35.19754],[138.52242,35.19916],[138.51979,35.1939],[138.51957,35.18254],[138.52357,35.18063],[138.52606,35.17131],[138.5257,35.16608],[138.53613,35.16082],[138.53919,35.15337],[138.556,35.15548],[138.5584,35.15931],[138.55981,35.16766],[138.55901,35.17414],[138.56095,35.17746],[138.55838,35.18466],[138.57634,35.19588],[138.58783,35.19535],[138.59399,35.18942],[138.60151,35.19261],[138.60612,35.18971],[138.60829,35.18418],[138.6154,35.17933],[138.62143,35.18333],[138.62808,35.19055],[138.63433,35.18951],[138.64142,35.18393],[138.64473,35.18536],[138.63984,35.19369],[138.63479,35.19672],[138.63338,35.20375],[138.63799,35.21091],[138.6405,35.20846],[138.64824,35.21706],[138.65348,35.21684],[138.6523,35.21068],[138.65898,35.21175],[138.66422,35.21003],[138.66632,35.21717],[138.66443,35.23008],[138.65996,35.23645],[138.65903,35.24109],[138.66601,35.2466],[138.67023,35.2478],[138.67784,35.25731],[138.69164,35.26456],[138.7042,35.27464],[138.71163,35.27839],[138.71479,35.27563],[138.71882,35.27973],[138.71576,35.28437],[138.72021,35.29046],[138.72411,35.2892],[138.72851,35.29535],[138.72581,35.29711],[138.73576,35.31944],[138.74221,35.32819],[138.74036,35.33742],[138.73574,35.35223],[138.73214,35.35912],[138.73169,35.36014],[138.73078,35.3628],[138.72481,35.36525],[138.70044,35.36267],[138.69865,35.35965],[138.68054,35.35768],[138.67118,35.39283],[138.66339,35.39828],[138.63895,35.39828],[138.60914,35.39318],[138.59772,35.4318],[138.58851,35.4368],[138.58189,35.44573],[138.57742,35.44089],[138.57048,35.43948],[138.56332,35.43455],[138.55906,35.43421],[138.55561,35.42613],[138.54575,35.41679],[138.5383,35.41418],[138.53183,35.40941],[138.53125,35.40212],[138.53585,35.38988],[138.52817,35.37905]]]},"properties":{"pref":"静岡県","city":"富士宮市","code5":"22207","code6":"222071"}},
{"type":"Feature","geometry":{"type":"Polygon","coordinates":[[[139.05126,35.03037],[139.04147,35.02149],[139.04722,35.01329],[139.0439,35.00703],[139.04065,35.00515],[139.03825,34.99928],[139.03812,34.99066],[139.05367,34.98277],[139.05667,34.98466],[139.06693,34.98532],[139.06853,34.97817],[139.06402,34.97342],[139.05288,34.96836],[139.05346,34.9622],[139.05732,34.9577],[139.05509,34.95291],[139.05021,34.94953],[139.04598,34.94399],[139.04545,34.93339],[139.0434,34.92934],[139.04806,34.92488],[139.04755,34.92078],[139.05804,34.90924],[139.04405,34.89792],[139.03458,34.88351],[139.04198,34.87824],[139.04362,34.87489],[139.05531,34.8703],[139.0559,34.86655],[139.06187,34.86508],[139.06286,34.86079],[139.07354,34.85174],[139.08265,34.85269],[139.087,34.85831],[139.09206,34.85611],[139.09833,34.85795],[139.09872,34.86331],[139.10383,34.87018],[139.11773,34.87174],[139.11945,34.87368],[139.13206,34.87973],[139.13491,34.8877],[139.14045,34.89199],[139.13266,34.89547],[139.13456,34.90388],[139.13941,34.90865],[139.14039,34.92119],[139.14592,34.92965],[139.14785,34.9359],[139.14332,34.94107],[139.14666,34.94531],[139.14446,34.95606],[139.13471,34.95137],[139.1301,34.95501],[139.12833,34.95931],[139.12819,34.96907],[139.11955,34.97308],[139.11172,34.97303],[139.10575,34.96987],[139.09584,34.9761],[139.09375,34.98024],[139.09416,34.98867],[139.08772,34.99386],[139.08297,35.00044],[139.08439,35.00605],[139.08955,35.0086],[139.09592,35.00706],[139.10008,35.01013],[139.09758,35.01373],[139.09916,35.02604],[139.09857,35.03143],[139.09069,35.03653],[139.07958,35.03139],[139.07165,35.02501],[139.06611,35.02738],[139.05845,35.02756],[139.05126,35.03037]]]},"properties":{"pref":"静岡県","city":"伊東市","code5":"22208","code6":"222089"}},
{"type":"Feature","geometry":{"type":"Polygon","coordinates":[[[138.19949,35.05014],[138.19667,35.0546],[138.18919,35.05952],[138.1849,35.06409],[138.17812,35.06087],[138.17153,35.0613],[138.17248,35.05341],[138.16526,35.05329],[138.15847,35.04977],[138.16089,35.05775],[138.1529,35.06255],[138.1464,35.057],[138.14702,35.05051],[138.14011,35.0425],[138.13929,35.0362],[138.13521,35.03137],[138.12655,35.02617],[138.1286,35.02122],[138.1219,35.01646],[138.12287,35.01251],[138.11925,35.0003],[138.11117,34.99955],[138.1051,34.99655],[138.10141,34.98965],[138.10106,34.98398],[138.0912,34.97568],[138.0836,34.98055],[138.07326,34.98353],[138.07568,34.99117],[138.07135,34.99682],[138.06264,35.00032],[138.05539,35.00109],[138.04894,34.99876],[138.03583,34.99888],[138.02881,34.99115],[138.01931,34.98718],[138.01149,34.98111],[138.00996,34.97562],[138.01399,34.9697],[138.01225,34.9626],[138.01575,34.95542],[138.01365,34.95206],[138.01629,34.94775],[138.01519,34.94308],[138.02092,34.93531],[138.02552,34.93692],[138.03002,34.9313],[138.03642,34.93177],[138.03792,34.9283],[138.04417,34.92341],[138.04192,34.92008],[138.04693,34.91207],[138.05213,34.90815],[138.05665,34.90742],[138.05647,34.89479],[138.05196,34.88744],[138.04569,34.88204],[138.04553,34.86836],[138.04746,34.86695],[138.0479,34.85922],[138.06113,34.85731],[138.07019,34.85716],[138.0686,34.85313],[138.0711,34.8471],[138.07527,34.84269],[138.09319,34.83961],[138.09883,34.83193],[138.09706,34.82835],[138.09762,34.82067],[138.1023,34.81681],[138.10073,34.81038],[138.10952,34.81144],[138.11528,34.80479],[138.11617,34.79928],[138.12339,34.79316],[138.13001,34.80059],[138.13362,34.80682],[138.13871,34.79352],[138.14633,34.79181],[138.15867,34.80159],[138.1722,34.79972],[138.17955,34.7967],[138.18376,34.79851],[138.19263,34.79666],[138.20438,34.79278],[138.21392,34.78808],[138.22362,34.78663],[138.2315,34.78604],[138.22994,34.79109],[138.23942,34.79351],[138.23378,34.80146],[138.24537,34.80003],[138.25079,34.80293],[138.24479,34.80942],[138.23678,34.81581],[138.22428,34.82302],[138.2184,34.82487],[138.22,34.82825],[138.22851,34.82975],[138.23245,34.84056],[138.22483,34.83922],[138.22104,34.84428],[138.2122,34.85023],[138.20866,34.85406],[138.2107,34.85961],[138.2021,34.86506],[138.19913,34.86916],[138.19953,34.87958],[138.19076,34.88568],[138.18985,34.88894],[138.18231,34.89211],[138.17931,34.89606],[138.17404,34.89548],[138.16297,34.90168],[138.16667,34.90881],[138.16423,34.9162],[138.15771,34.91697],[138.15257,34.92188],[138.15169,34.92846],[138.15735,34.93379],[138.16018,34.94134],[138.15754,34.94968],[138.16176,34.95263],[138.16088,34.96459],[138.1646,34.96731],[138.16513,34.97342],[138.17409,34.97587],[138.18182,34.98043],[138.18111,34.98936],[138.18482,34.99642],[138.1895,35.00048],[138.18879,35.0055],[138.18403,35.01237],[138.18876,35.01544],[138.18832,35.02224],[138.19116,35.02328],[138.19358,35.03068],[138.19118,35.03585],[138.19708,35.03963],[138.19524,35.04624],[138.19949,35.05014]]]},"properties":{"pref":"静岡県","city":"島田市","code5":"22209","code6":"222097"}},
{"type":"Feature","geometry":{"type":"Polygon","coordinates":[[[138.63854,35.11649],[138.64535,35.11769],[138.66162,35.12434],[138.67435,35.12805],[138.68005,35.13189],[138.69767,35.13439],[138.6893,35.14351],[138.69567,35.14462],[138.69559,35.13996],[138.69891,35.13635],[138.70894,35.13667],[138.73846,35.13418],[138.75252,35.13151],[138.75613,35.14004],[138.76561,35.13835],[138.76917,35.14271],[138.77336,35.15724],[138.77831,35.16646],[138.77431,35.16609],[138.76501,35.16851],[138.77008,35.17985],[138.77233,35.18933],[138.78104,35.19554],[138.78562,35.19631],[138.79331,35.20376],[138.80499,35.21036],[138.81166,35.21924],[138.81184,35.22114],[138.81097,35.22328],[138.79973,35.22821],[138.79567,35.22777],[138.79584,35.23426],[138.78932,35.24463],[138.78939,35.25018],[138.78271,35.25391],[138.77815,35.26146],[138.75865,35.29654],[138.75875,35.30771],[138.74947,35.331],[138.73864,35.34428],[138.73739,35.35182],[138.73214,35.35912],[138.73574,35.35223],[138.74036,35.33742],[138.74221,35.32819],[138.73576,35.31944],[138.72581,35.29711],[138.72851,35.29535],[138.72411,35.2892],[138.72021,35.29046],[138.71576,35.28437],[138.71882,35.27973],[138.71479,35.27563],[138.71163,35.27839],[138.7042,35.27464],[138.69164,35.26456],[138.67784,35.25731],[138.67023,35.2478],[138.66601,35.2466],[138.65903,35.24109],[138.65996,35.23645],[138.66443,35.23008],[138.66632,35.21717],[138.66422,35.21003],[138.65898,35.21175],[138.6523,35.21068],[138.65348,35.21684],[138.64824,35.21706],[138.6405,35.20846],[138.63799,35.21091],[138.63338,35.20375],[138.63479,35.19672],[138.63984,35.19369],[138.64473,35.18536],[138.64142,35.18393],[138.63433,35.18951],[138.62808,35.19055],[138.62143,35.18333],[138.6154,35.17933],[138.60829,35.18418],[138.60612,35.18971],[138.60151,35.19261],[138.59399,35.18942],[138.58783,35.19535],[138.57634,35.19588],[138.55838,35.18466],[138.56095,35.17746],[138.55901,35.17414],[138.55981,35.16766],[138.5584,35.15931],[138.55866,35.15664],[138.56521,35.15107],[138.56824,35.15233],[138.58144,35.14341],[138.59979,35.14352],[138.60503,35.13436],[138.61277,35.1296],[138.61833,35.13173],[138.62993,35.13368],[138.63854,35.11649]]]},"properties":{"pref":"静岡県","city":"富士市","code5":"22210","code6":"222101"}},
{"type":"Feature","geometry":{"type":"Polygon","coordinates":[[[137.79864,34.64634],[137.81425,34.64801],[137.82781,34.65312],[137.85346,34.65849],[137.87325,34.66144],[137.89487,34.66379],[137.90247,34.66651],[137.91193,34.66648],[137.90818,34.67635],[137.90805,34.68274],[137.91234,34.68344],[137.91047,34.6911],[137.90101,34.69064],[137.89626,34.69813],[137.89717,34.70573],[137.90236,34.71137],[137.90323,34.71849],[137.89872,34.72721],[137.89869,34.73231],[137.90206,34.73561],[137.89574,34.74875],[137.89054,34.74555],[137.88662,34.75023],[137.88837,34.7698],[137.87943,34.77818],[137.86513,34.77843],[137.8624,34.78095],[137.85826,34.78968],[137.85743,34.79551],[137.85349,34.80082],[137.85044,34.81002],[137.85445,34.81045],[137.86275,34.81604],[137.86941,34.8173],[137.87255,34.82236],[137.87269,34.83059],[137.87635,34.83277],[137.8728,34.83713],[137.88145,34.83934],[137.88414,34.84454],[137.87999,34.85014],[137.88127,34.85771],[137.89032,34.86216],[137.893,34.8702],[137.90417,34.88021],[137.90911,34.88219],[137.90919,34.89106],[137.90615,34.8909],[137.8982,34.88397],[137.88886,34.88053],[137.8833,34.8812],[137.87745,34.87931],[137.86161,34.8783],[137.85531,34.87511],[137.85569,34.87035],[137.8525,34.8675],[137.84405,34.86815],[137.83881,34.86213],[137.82271,34.85659],[137.82432,34.85502],[137.82709,34.82938],[137.82698,34.82128],[137.82315,34.80184],[137.82374,34.79611],[137.82819,34.78972],[137.82665,34.78215],[137.82248,34.77418],[137.81893,34.75651],[137.81311,34.74756],[137.80586,34.73019],[137.80022,34.7014],[137.79533,34.69838],[137.79333,34.68467],[137.7901,34.68147],[137.79016,34.67096],[137.78757,34.66998],[137.78721,34.6563],[137.78998,34.65023],[137.79864,34.64634]]]},"properties":{"pref":"静岡県","city":"磐田市","code5":"22211","code6":"222119"}},
{"type":"Feature","geometry":{"type":"Polygon","coordinates":[[[138.31904,34.91956],[138.31413,34.91467],[138.32584,34.91433],[138.32551,34.90838],[138.32104,34.90473],[138.31209,34.90683],[138.30587,34.90226],[138.29907,34.89501],[138.29627,34.88679],[138.2908,34.88027],[138.29605,34.8784],[138.29386,34.87479],[138.28866,34.8731],[138.28189,34.87352],[138.2774,34.8676],[138.28037,34.86363],[138.27779,34.85616],[138.28313,34.85095],[138.28183,34.84506],[138.27475,34.83858],[138.27852,34.82616],[138.27384,34.82126],[138.26451,34.82176],[138.25845,34.82469],[138.25406,34.82098],[138.24462,34.81611],[138.24053,34.81844],[138.23678,34.81581],[138.24479,34.80942],[138.25079,34.80293],[138.25998,34.79464],[138.29426,34.76737],[138.304,34.77707],[138.30106,34.77918],[138.30288,34.7842],[138.31653,34.80046],[138.32152,34.80867],[138.33447,34.82439],[138.33786,34.8306],[138.33702,34.84145],[138.33192,34.84802],[138.32536,34.85249],[138.32802,34.85925],[138.32754,34.86726],[138.3244,34.87259],[138.33129,34.87394],[138.33846,34.8812],[138.33954,34.88881],[138.34796,34.89614],[138.34839,34.89855],[138.34025,34.9044],[138.34016,34.90947],[138.33262,34.91227],[138.32617,34.92263],[138.31904,34.91956]]]},"properties":{"pref":"静岡県","city":"焼津市","code5":"22212","code6":"222127"}},
{"type":"Feature","geometry":{"type":"Polygon","coordinates":[[[138.04192,34.92008],[138.03534,34.9174],[138.03306,34.91286],[138.01064,34.91368],[138.01076,34.90825],[138.00428,34.90022],[137.99659,34.89722],[137.99175,34.89056],[137.98887,34.88393],[137.98281,34.87761],[137.97839,34.87608],[137.97027,34.87028],[137.96183,34.86141],[137.96202,34.85624],[137.95687,34.84815],[137.95845,34.84299],[137.95497,34.84157],[137.95369,34.83658],[137.94746,34.83097],[137.94581,34.82417],[137.941,34.8208],[137.94121,34.81612],[137.9444,34.81257],[137.94304,34.80308],[137.93752,34.78994],[137.94963,34.77816],[137.95157,34.77284],[137.96298,34.76422],[137.95841,34.75835],[137.97806,34.74624],[137.98601,34.74325],[137.99218,34.74674],[137.99637,34.74398],[138.00659,34.74097],[138.00964,34.73724],[138.00622,34.73361],[137.99948,34.73059],[137.9863,34.72674],[137.97886,34.72326],[137.97664,34.72031],[137.98257,34.71481],[137.97826,34.71138],[137.98453,34.70895],[137.97268,34.70485],[137.96466,34.69971],[137.96439,34.6921],[137.95252,34.68803],[137.95517,34.68263],[137.96456,34.67878],[137.97017,34.66536],[137.99791,34.66175],[138.01833,34.65783],[138.05747,34.64859],[138.07825,34.64233],[138.08101,34.65724],[138.08438,34.66096],[138.08461,34.66948],[138.08685,34.67285],[138.08431,34.67747],[138.07814,34.67772],[138.07775,34.68115],[138.07078,34.68058],[138.07197,34.68578],[138.06682,34.69513],[138.07794,34.70022],[138.06798,34.7082],[138.06431,34.71542],[138.0582,34.71901],[138.05327,34.73142],[138.04769,34.74209],[138.05567,34.7409],[138.0619,34.74563],[138.061,34.75225],[138.05482,34.75504],[138.05573,34.75885],[138.05064,34.76497],[138.05663,34.77009],[138.0629,34.76965],[138.06346,34.77459],[138.06743,34.77516],[138.0768,34.78137],[138.07615,34.78377],[138.08512,34.79405],[138.08479,34.79768],[138.08932,34.80276],[138.09805,34.80516],[138.10073,34.81038],[138.1023,34.81681],[138.09762,34.82067],[138.09706,34.82835],[138.09883,34.83193],[138.09319,34.83961],[138.07527,34.84269],[138.0711,34.8471],[138.0686,34.85313],[138.07019,34.85716],[138.06113,34.85731],[138.0479,34.85922],[138.04746,34.86695],[138.04553,34.86836],[138.04569,34.88204],[138.05196,34.88744],[138.05647,34.89479],[138.05665,34.90742],[138.05213,34.90815],[138.04693,34.91207],[138.04192,34.92008]]]},"properties":{"pref":"静岡県","city":"掛川市","code5":"22213","code6":"222135"}},
{"type":"Feature","geometry":{"type":"Polygon","coordinates":[[[138.18876,35.01544],[138.18403,35.01237],[138.18879,35.0055],[138.1895,35.00048],[138.18482,34.99642],[138.18111,34.98936],[138.18182,34.98043],[138.17409,34.97587],[138.16513,34.97342],[138.1646,34.96731],[138.16088,34.96459],[138.16176,34.95263],[138.15754,34.94968],[138.16018,34.94134],[138.15735,34.93379],[138.15169,34.92846],[138.15257,34.92188],[138.15771,34.91697],[138.16423,34.9162],[138.16667,34.90881],[138.16297,34.90168],[138.17404,34.89548],[138.17931,34.89606],[138.18231,34.89211],[138.18985,34.88894],[138.19076,34.88568],[138.19953,34.87958],[138.19913,34.86916],[138.2021,34.86506],[138.2107,34.85961],[138.20866,34.85406],[138.2122,34.85023],[138.22104,34.84428],[138.22483,34.83922],[138.23245,34.84056],[138.22851,34.82975],[138.22,34.82825],[138.2184,34.82487],[138.22428,34.82302],[138.23678,34.81581],[138.24053,34.81844],[138.24462,34.81611],[138.25406,34.82098],[138.25845,34.82469],[138.26451,34.82176],[138.27384,34.82126],[138.27852,34.82616],[138.27475,34.83858],[138.28183,34.84506],[138.28313,34.85095],[138.27779,34.85616],[138.28037,34.86363],[138.2774,34.8676],[138.28189,34.87352],[138.28866,34.8731],[138.29386,34.87479],[138.29605,34.8784],[138.2908,34.88027],[138.29627,34.88679],[138.29907,34.89501],[138.30587,34.90226],[138.31209,34.90683],[138.32104,34.90473],[138.32551,34.90838],[138.32584,34.91433],[138.31413,34.91467],[138.31904,34.91956],[138.31675,34.92132],[138.31532,34.93044],[138.31007,34.93368],[138.30573,34.9327],[138.29452,34.93722],[138.29183,34.94461],[138.29203,34.9496],[138.28682,34.95148],[138.28632,34.9589],[138.28328,34.96301],[138.28365,34.9676],[138.27208,34.97301],[138.26789,34.9734],[138.2677,34.97971],[138.26503,34.98143],[138.26286,34.98871],[138.25863,34.99263],[138.24731,34.99359],[138.24051,35.0002],[138.24001,35.00265],[138.22971,35.00437],[138.22749,35.0071],[138.21503,35.00377],[138.21691,35.0102],[138.21524,35.01568],[138.20899,35.00876],[138.20049,35.00912],[138.18876,35.01544]]]},"properties":{"pref":"静岡県","city":"藤枝市","code5":"22214","code6":"222143"}},
{"type":"Feature","geometry":{"type":"Polygon","coordinates":[[[138.99319,35.28488],[138.98991,35.28977],[138.9832,35.29569],[138.97528,35.30033],[138.97273,35.30467],[138.96557,35.31091],[138.9647,35.31951],[138.97055,35.32431],[138.96605,35.33008],[138.95965,35.33373],[138.95203,35.33355],[138.94177,35.33871],[138.93284,35.33893],[138.93137,35.34124],[138.92017,35.34372],[138.91455,35.34625],[138.90464,35.3466],[138.89862,35.34889],[138.9042,35.35263],[138.89234,35.35493],[138.8849,35.35508],[138.88826,35.34809],[138.88364,35.33696],[138.87775,35.33467],[138.87225,35.33756],[138.86363,35.34617],[138.84817,35.3488],[138.83739,35.3478],[138.82539,35.35192],[138.80086,35.35222],[138.77563,35.35359],[138.73169,35.36014],[138.73214,35.35912],[138.73739,35.35182],[138.73864,35.34428],[138.74947,35.331],[138.75171,35.33147],[138.75897,35.32433],[138.76789,35.31999],[138.77354,35.31529],[138.77296,35.3065],[138.77588,35.30157],[138.78493,35.29724],[138.78896,35.29239],[138.79626,35.29128],[138.80037,35.28378],[138.79611,35.27685],[138.79817,35.2732],[138.81234,35.26428],[138.82294,35.26366],[138.83432,35.26585],[138.85334,35.27574],[138.85743,35.27516],[138.86714,35.2791],[138.8747,35.27986],[138.87429,35.27263],[138.8817,35.26378],[138.8846,35.25399],[138.8935,35.25131],[138.89783,35.24681],[138.89676,35.23459],[138.90515,35.22708],[138.90992,35.22783],[138.91726,35.21989],[138.92044,35.22171],[138.92905,35.21959],[138.9295,35.22252],[138.95284,35.22963],[138.96403,35.22906],[138.97607,35.23555],[138.97874,35.23939],[138.97446,35.24783],[138.97547,35.26375],[138.98153,35.26962],[138.98595,35.27828],[138.99319,35.28488]]]},"properties":{"pref":"静岡県","city":"御殿場市","code5":"22215","code6":"222151"}},
{"type":"Feature","geometry":{"type":"Polygon","coordinates":[[[137.91193,34.66648],[137.9214,34.6679],[137.95191,34.66705],[137.97017,34.66536],[137.96456,34.67878],[137.95517,34.68263],[137.95252,34.68803],[137.96439,34.6921],[137.96466,34.69971],[137.97268,34.70485],[137.98453,34.70895],[137.97826,34.71138],[137.98257,34.71481],[137.97664,34.72031],[137.97886,34.72326],[137.9863,34.72674],[137.99948,34.73059],[138.00622,34.73361],[138.00964,34.73724],[138.00659,34.74097],[137.99637,34.74398],[137.99218,34.74674],[137.98601,34.74325],[137.97806,34.74624],[137.95841,34.75835],[137.96298,34.76422],[137.95157,34.77284],[137.94963,34.77816],[137.93752,34.78994],[137.94304,34.80308],[137.9444,34.81257],[137.94121,34.81612],[137.941,34.8208],[137.93547,34.82052],[137.92987,34.80769],[137.9256,34.80785],[137.92041,34.79699],[137.91637,34.79702],[137.90823,34.79309],[137.90214,34.79592],[137.89664,34.78775],[137.88885,34.78609],[137.88535,34.79156],[137.89073,34.80098],[137.89086,34.81352],[137.88559,34.81483],[137.87992,34.8133],[137.8743,34.81752],[137.87255,34.82236],[137.86941,34.8173],[137.86275,34.81604],[137.85445,34.81045],[137.85044,34.81002],[137.85349,34.80082],[137.85743,34.79551],[137.85826,34.78968],[137.8624,34.78095],[137.86513,34.77843],[137.87943,34.77818],[137.88837,34.7698],[137.88662,34.75023],[137.89054,34.74555],[137.89574,34.74875],[137.90206,34.73561],[137.89869,34.73231],[137.89872,34.72721],[137.90323,34.71849],[137.90236,34.71137],[137.89717,34.70573],[137.89626,34.69813],[137.90101,34.69064],[137.91047,34.6911],[137.91234,34.68344],[137.90805,34.68274],[137.90818,34.67635],[137.91193,34.66648]]]},"properties":{"pref":"静岡県","city":"袋井市","code5":"22216","code6":"222160"}},
{"type":"Feature","geometry":{"type":"Polygon","coordinates":[[[138.99283,34.71782],[138.98072,34.71748],[138.97687,34.72107],[138.97278,34.71997],[138.96526,34.72261],[138.96204,34.72785],[138.96482,34.73168],[138.96378,34.73558],[138.955,34.74702],[138.94856,34.74729],[138.94637,34.75199],[138.94012,34.75231],[138.94513,34.76095],[138.94469,34.76628],[138.9414,34.76759],[138.93331,34.76499],[138.92567,34.76638],[138.92326,34.77059],[138.91808,34.77193],[138.9142,34.76984],[138.90431,34.77398],[138.89636,34.77382],[138.89299,34.76819],[138.89232,34.7567],[138.88809,34.75055],[138.87588,34.74093],[138.86882,34.74223],[138.86329,34.74057],[138.85814,34.73577],[138.85694,34.729],[138.85438,34.72837],[138.85198,34.72173],[138.84613,34.71513],[138.85235,34.71019],[138.8515,34.70767],[138.85629,34.7044],[138.86202,34.70544],[138.86985,34.70362],[138.87293,34.70534],[138.87823,34.70252],[138.89152,34.70005],[138.89388,34.69554],[138.89195,34.68867],[138.88369,34.68209],[138.88529,34.67508],[138.89404,34.67427],[138.90185,34.67194],[138.89743,34.6545],[138.89255,34.65199],[138.89543,34.64237],[138.89978,34.64238],[138.90269,34.63725],[138.90217,34.63189],[138.90478,34.62925],[138.91039,34.63392],[138.91171,34.63474],[138.91176,34.63471],[138.91315,34.63985],[138.91801,34.64494],[138.91634,34.65016],[138.91849,34.65277],[138.93032,34.66035],[138.93783,34.66193],[138.93986,34.66829],[138.94593,34.66509],[138.94832,34.66625],[138.94907,34.67331],[138.9591,34.6766],[138.96416,34.67276],[138.95924,34.66972],[138.95912,34.66071],[138.9559,34.65637],[138.95875,34.6543],[138.95911,34.65475],[138.9591,34.65479],[138.96163,34.65396],[138.97086,34.6545],[138.97689,34.65349],[138.98527,34.66068],[138.98497,34.6641],[138.98134,34.6667],[138.97729,34.67318],[138.97719,34.68465],[138.97334,34.68761],[138.97424,34.69644],[138.97965,34.70942],[138.99083,34.71623],[138.99283,34.71782]]]},"properties":{"pref":"静岡県","city":"下田市","code5":"22219","code6":"222194"}},
{"type":"Feature","geometry":{"type":"Polygon","coordinates":[[[138.97607,35.23555],[138.96403,35.22906],[138.95284,35.22963],[138.9295,35.22252],[138.92905,35.21959],[138.92044,35.22171],[138.91726,35.21989],[138.90992,35.22783],[138.90515,35.22708],[138.89676,35.23459],[138.89783,35.24681],[138.8935,35.25131],[138.8846,35.25399],[138.8817,35.26378],[138.87429,35.27263],[138.8747,35.27986],[138.86714,35.2791],[138.85743,35.27516],[138.85334,35.27574],[138.83432,35.26585],[138.82294,35.26366],[138.81234,35.26428],[138.79817,35.2732],[138.79611,35.27685],[138.80037,35.28378],[138.79626,35.29128],[138.78896,35.29239],[138.78493,35.29724],[138.77588,35.30157],[138.77296,35.3065],[138.77354,35.31529],[138.76789,35.31999],[138.75897,35.32433],[138.75171,35.33147],[138.74947,35.331],[138.75875,35.30771],[138.75865,35.29654],[138.77815,35.26146],[138.78271,35.25391],[138.78939,35.25018],[138.78932,35.24463],[138.79584,35.23426],[138.79567,35.22777],[138.79973,35.22821],[138.81097,35.22328],[138.81184,35.22114],[138.81823,35.21992],[138.82887,35.21405],[138.83142,35.2108],[138.84069,35.20601],[138.85127,35.20254],[138.85612,35.19803],[138.8631,35.19547],[138.86965,35.18574],[138.87116,35.18041],[138.88025,35.17588],[138.89411,35.16456],[138.89785,35.15964],[138.90197,35.15852],[138.89881,35.15146],[138.90543,35.14861],[138.90831,35.15616],[138.91639,35.16187],[138.92461,35.17133],[138.92952,35.17074],[138.93507,35.17305],[138.94916,35.17125],[138.96355,35.17982],[138.97403,35.17982],[138.98486,35.18117],[138.98833,35.18391],[139.00159,35.18981],[138.99305,35.19881],[138.98774,35.20082],[138.98643,35.20556],[138.98781,35.21266],[138.98228,35.21758],[138.98365,35.22168],[138.97951,35.23322],[138.97607,35.23555]]]},"properties":{"pref":"静岡県","city":"裾野市","code5":"22220","code6":"222208"}},
{"type":"Feature","geometry":{"type":"Polygon","coordinates":[[[137.59777,34.67797],[137.59697,34.68664],[137.59858,34.69216],[137.59067,34.69484],[137.58753,34.7014],[137.57592,34.70807],[137.57029,34.7233],[137.56956,34.73068],[137.56591,34.74049],[137.55065,34.74907],[137.54815,34.75269],[137.54487,34.76505],[137.54821,34.7692],[137.54215,34.77338],[137.53387,34.77292],[137.52534,34.76775],[137.51663,34.7716],[137.51196,34.77106],[137.49667,34.78272],[137.49294,34.78687],[137.48203,34.78228],[137.47672,34.77479],[137.47904,34.77133],[137.47676,34.76781],[137.47744,34.75667],[137.47411,34.74994],[137.48056,34.74057],[137.47861,34.7341],[137.48144,34.73095],[137.48262,34.71993],[137.48731,34.7171],[137.49179,34.70246],[137.48807,34.68733],[137.48464,34.68381],[137.48496,34.67411],[137.52173,34.67746],[137.5442,34.67898],[137.57142,34.68021],[137.58208,34.6799],[137.59018,34.67804],[137.59777,34.67797]]]},"properties":{"pref":"静岡県","city":"湖西市","code5":"22221","code6":"222216"}},
{"type":"Feature","geometry":{"type":"Polygon","coordinates":[[[138.77602,34.93918],[138.77782,34.92751],[138.7855,34.91989],[138.78622,34.91495],[138.78987,34.9099],[138.78524,34.90581],[138.78372,34.90494],[138.78171,34.90514],[138.78112,34.90095],[138.7718,34.89547],[138.76818,34.8968],[138.75661,34.88541],[138.75804,34.87021],[138.75528,34.8659],[138.75529,34.86589],[138.76715,34.8586],[138.76822,34.86031],[138.77856,34.86178],[138.77441,34.86682],[138.77899,34.87085],[138.78593,34.87141],[138.79552,34.87507],[138.81176,34.87371],[138.81777,34.87643],[138.8216,34.8809],[138.8288,34.8829],[138.83331,34.88221],[138.83489,34.87222],[138.83975,34.86525],[138.84581,34.86171],[138.85227,34.86058],[138.86013,34.85587],[138.86716,34.85393],[138.86955,34.84858],[138.88611,34.84764],[138.89242,34.84104],[138.89267,34.8351],[138.90526,34.83418],[138.91311,34.82727],[138.92205,34.82648],[138.92739,34.82966],[138.93754,34.83237],[138.94405,34.8304],[138.96286,34.83833],[138.96629,34.84174],[138.96118,34.84986],[138.97265,34.85428],[138.97802,34.85769],[138.98476,34.8575],[138.98917,34.86007],[138.99461,34.8596],[138.99996,34.86332],[139.00971,34.86158],[139.01702,34.86194],[139.02083,34.86003],[139.02571,34.8714],[139.03352,34.87735],[139.03458,34.88351],[139.04405,34.89792],[139.05804,34.90924],[139.04755,34.92078],[139.04806,34.92488],[139.0434,34.92934],[139.04545,34.93339],[139.04598,34.94399],[139.05021,34.94953],[139.05509,34.95291],[139.05732,34.9577],[139.05346,34.9622],[139.05288,34.96836],[139.06402,34.97342],[139.06853,34.97817],[139.06693,34.98532],[139.05667,34.98466],[139.05367,34.98277],[139.03812,34.99066],[139.03825,34.99928],[139.04065,35.00515],[139.0439,35.00703],[139.04722,35.01329],[139.03676,35.01484],[139.03484,35.01072],[139.02845,35.00504],[139.02307,35.00384],[139.01924,35.01],[139.01228,35.01349],[139.00597,35.00975],[138.99969,35.01226],[138.99372,35.01245],[138.98428,35.00352],[138.96317,35.00321],[138.95917,34.999],[138.95191,34.99763],[138.9423,34.99217],[138.93517,34.99329],[138.93221,34.99736],[138.92822,34.99387],[138.92544,35.00085],[138.92271,35.00026],[138.92361,34.99235],[138.91589,34.99126],[138.90918,34.99727],[138.90779,35.0079],[138.89933,35.00624],[138.89588,35.00238],[138.88426,34.99768],[138.88326,34.99456],[138.87609,34.98904],[138.85744,34.98352],[138.85032,34.97895],[138.84828,34.9757],[138.83703,34.97344],[138.83866,34.96318],[138.83679,34.95981],[138.83926,34.95461],[138.83692,34.94966],[138.8384,34.94422],[138.82876,34.94599],[138.82237,34.94918],[138.81607,34.94876],[138.81185,34.94516],[138.80523,34.94766],[138.79963,34.9461],[138.78999,34.94003],[138.77602,34.93918]]]},"properties":{"pref":"静岡県","city":"伊豆市","code5":"22222","code6":"222224"}},
{"type":"Feature","geometry":{"type":"MultiPolygon","coordinates":[[[[138.07825,34.64233],[138.0859,34.64036],[138.11494,34.63043],[138.13755,34.62194],[138.14582,34.6177],[138.1581,34.61454],[138.17944,34.60754],[138.19187,34.60077],[138.20656,34.60029],[138.21964,34.59623],[138.22721,34.59513],[138.2331,34.59944],[138.23388,34.60528],[138.22443,34.60873],[138.21728,34.60978],[138.21661,34.61275],[138.20911,34.62097],[138.20688,34.62035],[138.19549,34.61883],[138.18839,34.62348],[138.18033,34.62557],[138.17637,34.62344],[138.17117,34.62427],[138.17101,34.63325],[138.16796,34.63486],[138.16857,34.64386],[138.17496,34.65175],[138.18311,34.65957],[138.18251,34.66922],[138.17389,34.6715],[138.17332,34.68181],[138.16327,34.69089],[138.15585,34.69297],[138.14556,34.69763],[138.1369,34.7006],[138.12474,34.69503],[138.1225,34.69],[138.11183,34.68408],[138.10915,34.67656],[138.10915,34.67084],[138.10373,34.66901],[138.10446,34.66561],[138.10198,34.65765],[138.09654,34.65941],[138.08438,34.66096],[138.08101,34.65724],[138.07825,34.64233]]],[[[138.20911,34.62174],[138.21908,34.61827],[138.22184,34.62247],[138.21876,34.62664],[138.21482,34.62533],[138.20911,34.62174]]]]},"properties":{"pref":"静岡県","city":"御前崎市","code5":"22223","code6":"222232"}},
{"type":"Feature","geometry":{"type":"Polygon","coordinates":[[[138.10073,34.81038],[138.09805,34.80516],[138.08932,34.80276],[138.08479,34.79768],[138.08512,34.79405],[138.07615,34.78377],[138.0768,34.78137],[138.06743,34.77516],[138.06346,34.77459],[138.0629,34.76965],[138.05663,34.77009],[138.05064,34.76497],[138.05573,34.75885],[138.05482,34.75504],[138.061,34.75225],[138.0619,34.74563],[138.05567,34.7409],[138.04769,34.74209],[138.05327,34.73142],[138.0582,34.71901],[138.06431,34.71542],[138.06798,34.7082],[138.07794,34.70022],[138.06682,34.69513],[138.07197,34.68578],[138.07078,34.68058],[138.07775,34.68115],[138.07814,34.67772],[138.08431,34.67747],[138.08685,34.67285],[138.08461,34.66948],[138.08438,34.66096],[138.09654,34.65941],[138.10198,34.65765],[138.10446,34.66561],[138.10373,34.66901],[138.10915,34.67084],[138.10915,34.67656],[138.11183,34.68408],[138.1225,34.69],[138.12474,34.69503],[138.1369,34.7006],[138.14556,34.69763],[138.14361,34.70716],[138.14583,34.71285],[138.14,34.72591],[138.1419,34.7412],[138.13931,34.74525],[138.13192,34.7508],[138.13265,34.75861],[138.13478,34.76393],[138.14005,34.76597],[138.14223,34.77379],[138.14123,34.78465],[138.13871,34.79352],[138.13362,34.80682],[138.13001,34.80059],[138.12339,34.79316],[138.11617,34.79928],[138.11528,34.80479],[138.10952,34.81144],[138.10073,34.81038]]]},"properties":{"pref":"静岡県","city":"菊川市","code5":"22224","code6":"222241"}},
{"type":"Feature","geometry":{"type":"Polygon","coordinates":[[[138.90779,35.0079],[138.90918,34.99727],[138.91589,34.99126],[138.92361,34.99235],[138.92271,35.00026],[138.92544,35.00085],[138.92822,34.99387],[138.93221,34.99736],[138.93517,34.99329],[138.9423,34.99217],[138.95191,34.99763],[138.95917,34.999],[138.96317,35.00321],[138.98428,35.00352],[138.99372,35.01245],[138.99969,35.01226],[139.00597,35.00975],[139.01228,35.01349],[139.01924,35.01],[139.02307,35.00384],[139.02845,35.00504],[139.03484,35.01072],[139.03676,35.01484],[139.04722,35.01329],[139.04147,35.02149],[139.05126,35.03037],[139.03806,35.03463],[139.03778,35.04174],[139.03376,35.04559],[139.03246,35.05275],[139.03343,35.05763],[139.0402,35.05979],[139.03026,35.07057],[139.03109,35.0742],[139.02785,35.08162],[139.02532,35.07973],[139.00864,35.0785],[138.99976,35.08195],[138.99269,35.08272],[138.98406,35.08161],[138.97869,35.07927],[138.97349,35.08108],[138.95945,35.07708],[138.94316,35.07125],[138.93277,35.06435],[138.92379,35.06238],[138.91308,35.06244],[138.90623,35.05939],[138.90927,35.05432],[138.90793,35.04915],[138.91173,35.03731],[138.90591,35.0354],[138.90279,35.03194],[138.9119,35.02555],[138.9103,35.02063],[138.90268,35.01355],[138.90779,35.0079]]]},"properties":{"pref":"静岡県","city":"伊豆の国市","code5":"22225","code6":"222259"}},
{"type":"Feature","geometry":{"type":"MultiPolygon","coordinates":[[[[138.13871,34.79352],[138.14123,34.78465],[138.14223,34.77379],[138.14005,34.76597],[138.13478,34.76393],[138.13265,34.75861],[138.13192,34.7508],[138.13931,34.74525],[138.1419,34.7412],[138.14,34.72591],[138.14583,34.71285],[138.14361,34.70716],[138.14556,34.69763],[138.15585,34.69297],[138.16327,34.69089],[138.17332,34.68181],[138.17389,34.6715],[138.18251,34.66922],[138.18311,34.65957],[138.17496,34.65175],[138.16857,34.64386],[138.16796,34.63486],[138.17101,34.63325],[138.17117,34.62427],[138.17637,34.62344],[138.18033,34.62557],[138.18839,34.62348],[138.19549,34.61883],[138.20688,34.62035],[138.19752,34.63267],[138.1931,34.64456],[138.1954,34.66465],[138.19913,34.67307],[138.2087,34.68729],[138.20733,34.68866],[138.21396,34.6991],[138.21339,34.70362],[138.21346,34.7043],[138.2148,34.71063],[138.21483,34.7109],[138.22363,34.7224],[138.23311,34.7316],[138.24587,34.74055],[138.24152,34.74548],[138.24421,34.7522],[138.25128,34.75767],[138.24346,34.75967],[138.23723,34.76878],[138.23563,34.77676],[138.23073,34.77831],[138.22362,34.78663],[138.21392,34.78808],[138.20438,34.79278],[138.19263,34.79666],[138.18376,34.79851],[138.17955,34.7967],[138.1722,34.79972],[138.15867,34.80159],[138.14633,34.79181],[138.13871,34.79352]]],[[[138.21482,34.62533],[138.20804,34.62845],[138.20911,34.62174],[138.21482,34.62533]]]]},"properties":{"pref":"静岡県","city":"牧之原市","code5":"22226","code6":"222267"}},
{"type":"Feature","geometry":{"type":"Polygon","coordinates":[[[139.03458,34.88351],[139.03352,34.87735],[139.02571,34.8714],[139.02083,34.86003],[139.01702,34.86194],[139.00971,34.86158],[138.99996,34.86332],[138.99461,34.8596],[138.98917,34.86007],[138.98476,34.8575],[138.97802,34.85769],[138.97265,34.85428],[138.96118,34.84986],[138.96629,34.84174],[138.97455,34.83332],[138.97626,34.82704],[138.98478,34.81932],[138.98704,34.81404],[138.99514,34.80494],[139.00026,34.80282],[139.004,34.79612],[139.00762,34.79566],[139.01277,34.78931],[139.01367,34.78286],[139.0163,34.77856],[139.0143,34.77438],[139.02243,34.76856],[139.02576,34.76422],[139.03036,34.76801],[139.03712,34.76571],[139.04596,34.76671],[139.04851,34.76867],[139.04171,34.77382],[139.05603,34.78425],[139.05612,34.78425],[139.0614,34.79033],[139.06209,34.80094],[139.07934,34.82402],[139.07579,34.82887],[139.07785,34.83749],[139.07689,34.84158],[139.08189,34.84935],[139.08265,34.85269],[139.07354,34.85174],[139.06286,34.86079],[139.06187,34.86508],[139.0559,34.86655],[139.05531,34.8703],[139.04362,34.87489],[139.04198,34.87824],[139.03458,34.88351]]]},"properties":{"pref":"静岡県","county":"賀茂郡","city":"東伊豆町","code5":"22301","code6":"223018"}},
{"type":"Feature","geometry":{"type":"Polygon","coordinates":[[[138.99283,34.71782],[138.98865,34.72154],[138.99565,34.72867],[139.00083,34.73598],[139.00083,34.73599],[138.99759,34.74205],[139.00457,34.75141],[139.00837,34.75257],[139.01397,34.75187],[139.02255,34.75655],[139.02576,34.76422],[139.02243,34.76856],[139.0143,34.77438],[139.0163,34.77856],[139.01367,34.78286],[139.01277,34.78931],[139.00762,34.79566],[139.004,34.79612],[139.00026,34.80282],[138.99514,34.80494],[138.98704,34.81404],[138.98478,34.81932],[138.97626,34.82704],[138.97455,34.83332],[138.96629,34.84174],[138.96286,34.83833],[138.94405,34.8304],[138.93754,34.83237],[138.92739,34.82966],[138.92205,34.82648],[138.91311,34.82727],[138.90526,34.83418],[138.89267,34.8351],[138.88381,34.82898],[138.88505,34.82551],[138.88406,34.81547],[138.88098,34.81027],[138.88335,34.80599],[138.88112,34.80033],[138.88274,34.79549],[138.87766,34.79244],[138.8764,34.78874],[138.8757,34.78367],[138.88014,34.77817],[138.88506,34.77571],[138.89023,34.77799],[138.89636,34.77382],[138.90431,34.77398],[138.9142,34.76984],[138.91808,34.77193],[138.92326,34.77059],[138.92567,34.76638],[138.93331,34.76499],[138.9414,34.76759],[138.94469,34.76628],[138.94513,34.76095],[138.94012,34.75231],[138.94637,34.75199],[138.94856,34.74729],[138.955,34.74702],[138.96378,34.73558],[138.96482,34.73168],[138.96204,34.72785],[138.96526,34.72261],[138.97278,34.71997],[138.97687,34.72107],[138.98072,34.71748],[138.99283,34.71782]]]},"properties":{"pref":"静岡県","county":"賀茂郡","city":"河津町","code5":"22302","code6":"223026"}},
{"type":"Feature","geometry":{"type":"MultiPolygon","coordinates":[[[[138.8515,34.70767],[138.84471,34.70894],[138.83231,34.70445],[138.81656,34.70426],[138.81318,34.70186],[138.79478,34.70628],[138.79467,34.71082],[138.79151,34.715],[138.77961,34.7126],[138.77369,34.71594],[138.77141,34.71199],[138.76074,34.70739],[138.75206,34.707],[138.7407,34.70032],[138.74348,34.69345],[138.74141,34.6885],[138.75598,34.69174],[138.76617,34.68587],[138.77211,34.67912],[138.77758,34.67529],[138.7769,34.6691],[138.78082,34.6663],[138.78962,34.66956],[138.79026,34.66506],[138.79092,34.66363],[138.79122,34.66357],[138.79154,34.66357],[138.79155,34.66355],[138.78747,34.66086],[138.78061,34.66023],[138.77892,34.65472],[138.77471,34.65454],[138.77236,34.64786],[138.77599,34.64118],[138.7822,34.63859],[138.78755,34.6401],[138.79406,34.63409],[138.79305,34.62323],[138.79774,34.62218],[138.80604,34.62748],[138.81363,34.6229],[138.81492,34.61823],[138.82088,34.61249],[138.82491,34.60985],[138.82947,34.6061],[138.83562,34.60444],[138.83579,34.6043],[138.83581,34.6045],[138.83641,34.60455],[138.83514,34.60587],[138.83817,34.6036],[138.83909,34.60449],[138.83928,34.60447],[138.83935,34.60522],[138.83988,34.60521],[138.8401,34.60502],[138.84045,34.60351],[138.84038,34.6035],[138.84145,34.60185],[138.84149,34.6029],[138.8421,34.60189],[138.84203,34.60178],[138.84234,34.60155],[138.84322,34.60107],[138.8438,34.60157],[138.84368,34.60278],[138.84551,34.60196],[138.84542,34.60224],[138.84544,34.60406],[138.84724,34.60452],[138.84737,34.60417],[138.84737,34.60446],[138.84864,34.60808],[138.85159,34.61194],[138.8516,34.61194],[138.8654,34.61971],[138.87223,34.61803],[138.87413,34.62231],[138.87868,34.6246],[138.88972,34.62429],[138.88794,34.63017],[138.8925,34.63514],[138.90478,34.62925],[138.90217,34.63189],[138.90269,34.63725],[138.89978,34.64238],[138.89543,34.64237],[138.89255,34.65199],[138.89743,34.6545],[138.90185,34.67194],[138.89404,34.67427],[138.88529,34.67508],[138.88369,34.68209],[138.89195,34.68867],[138.89388,34.69554],[138.89152,34.70005],[138.87823,34.70252],[138.87293,34.70534],[138.86985,34.70362],[138.86202,34.70544],[138.85629,34.7044],[138.8515,34.70767]]],[[[138.83544,34.60421],[138.83495,34.60437],[138.83511,34.60427],[138.83544,34.60421]]]]},"properties":{"pref":"静岡県","county":"賀茂郡","city":"南伊豆町","code5":"22304","code6":"223042"}},
{"type":"Feature","geometry":{"type":"Polygon","coordinates":[[[138.89636,34.77382],[138.89023,34.77799],[138.88506,34.77571],[138.88014,34.77817],[138.8757,34.78367],[138.8764,34.78874],[138.86558,34.78846],[138.85508,34.78553],[138.85001,34.78746],[138.85292,34.79163],[138.84987,34.80056],[138.84175,34.80115],[138.83581,34.79991],[138.84135,34.79139],[138.83356,34.79355],[138.82402,34.78438],[138.81772,34.77986],[138.8135,34.77938],[138.80411,34.77169],[138.78473,34.76388],[138.77566,34.76257],[138.7763,34.75572],[138.76877,34.75169],[138.76067,34.74938],[138.75961,34.74653],[138.76176,34.73908],[138.74687,34.73287],[138.74313,34.72171],[138.74254,34.71328],[138.73971,34.70531],[138.7407,34.70032],[138.75206,34.707],[138.76074,34.70739],[138.77141,34.71199],[138.77369,34.71594],[138.77961,34.7126],[138.79151,34.715],[138.79467,34.71082],[138.79478,34.70628],[138.81318,34.70186],[138.81656,34.70426],[138.83231,34.70445],[138.84471,34.70894],[138.8515,34.70767],[138.85235,34.71019],[138.84613,34.71513],[138.85198,34.72173],[138.85438,34.72837],[138.85694,34.729],[138.85814,34.73577],[138.86329,34.74057],[138.86882,34.74223],[138.87588,34.74093],[138.88809,34.75055],[138.89232,34.7567],[138.89299,34.76819],[138.89636,34.77382]]]},"properties":{"pref":"静岡県","county":"賀茂郡","city":"松崎町","code5":"22305","code6":"223051"}},
{"type":"Feature","geometry":{"type":"Polygon","coordinates":[[[138.76715,34.8586],[138.774,34.85729],[138.77588,34.85318],[138.77184,34.84683],[138.76603,34.84361],[138.75983,34.84289],[138.76443,34.83139],[138.76251,34.82845],[138.75616,34.82634],[138.75116,34.8207],[138.75611,34.81165],[138.76233,34.81314],[138.76551,34.80743],[138.75305,34.79957],[138.765,34.78526],[138.76872,34.77885],[138.76696,34.77531],[138.77079,34.77394],[138.77477,34.76797],[138.77566,34.76257],[138.78473,34.76388],[138.80411,34.77169],[138.8135,34.77938],[138.81772,34.77986],[138.82402,34.78438],[138.83356,34.79355],[138.84135,34.79139],[138.83581,34.79991],[138.84175,34.80115],[138.84987,34.80056],[138.85292,34.79163],[138.85001,34.78746],[138.85508,34.78553],[138.86558,34.78846],[138.8764,34.78874],[138.87766,34.79244],[138.88274,34.79549],[138.88112,34.80033],[138.88335,34.80599],[138.88098,34.81027],[138.88406,34.81547],[138.88505,34.82551],[138.88381,34.82898],[138.89267,34.8351],[138.89242,34.84104],[138.88611,34.84764],[138.86955,34.84858],[138.86716,34.85393],[138.86013,34.85587],[138.85227,34.86058],[138.84581,34.86171],[138.83975,34.86525],[138.83489,34.87222],[138.83331,34.88221],[138.8288,34.8829],[138.8216,34.8809],[138.81777,34.87643],[138.81176,34.87371],[138.79552,34.87507],[138.78593,34.87141],[138.77899,34.87085],[138.77441,34.86682],[138.77856,34.86178],[138.76822,34.86031],[138.76715,34.8586]]]},"properties":{"pref":"静岡県","county":"賀茂郡","city":"西伊豆町","code5":"22306","code6":"223069"}},
{"type":"Feature","geometry":{"type":"Polygon","coordinates":[[[139.01383,35.18237],[139.01305,35.17865],[139.00331,35.16879],[139.00128,35.15755],[138.99726,35.15172],[138.99374,35.15265],[138.99003,35.14621],[138.99029,35.14307],[138.98413,35.14081],[138.97424,35.13277],[138.9729,35.12851],[138.96117,35.11585],[138.95376,35.10966],[138.94811,35.09353],[138.94542,35.08983],[138.93539,35.09144],[138.9351,35.08835],[138.92327,35.07554],[138.92213,35.07113],[138.91634,35.06947],[138.91308,35.06244],[138.92379,35.06238],[138.93277,35.06435],[138.94316,35.07125],[138.95945,35.07708],[138.97349,35.08108],[138.97869,35.07927],[138.98406,35.08161],[138.99269,35.08272],[138.99976,35.08195],[139.00864,35.0785],[139.02532,35.07973],[139.02785,35.08162],[139.03323,35.08398],[139.03144,35.08731],[139.03224,35.09361],[139.03688,35.10311],[139.0361,35.11436],[139.04478,35.12372],[139.04111,35.12811],[139.04234,35.13165],[139.03855,35.13704],[139.03492,35.13799],[139.03395,35.14482],[139.03043,35.14975],[139.02637,35.16055],[139.02945,35.16478],[139.02654,35.17543],[139.02163,35.18191],[139.01383,35.18237]]]},"properties":{"pref":"静岡県","county":"田方郡","city":"函南町","code5":"22325","code6":"223255"}},
{"type":"Feature","geometry":{"type":"Polygon","coordinates":[[[138.90736,35.08324],[138.91341,35.09172],[138.91461,35.0963],[138.91238,35.10473],[138.90709,35.10983],[138.90523,35.11994],[138.90028,35.11607],[138.89272,35.11803],[138.88839,35.11286],[138.88707,35.10821],[138.88856,35.10227],[138.88393,35.0975],[138.88726,35.08851],[138.88875,35.07893],[138.89074,35.07702],[138.90046,35.07789],[138.90736,35.08324]]]},"properties":{"pref":"静岡県","county":"駿東郡","city":"清水町","code5":"22341","code6":"223417"}},
{"type":"Feature","geometry":{"type":"Polygon","coordinates":[[[138.88839,35.11286],[138.89272,35.11803],[138.90028,35.11607],[138.90523,35.11994],[138.9072,35.12669],[138.91152,35.12985],[138.90543,35.14861],[138.89881,35.15146],[138.90197,35.15852],[138.89785,35.15964],[138.89411,35.16456],[138.88025,35.17588],[138.87116,35.18041],[138.86965,35.18574],[138.8631,35.19547],[138.85612,35.19803],[138.85127,35.20254],[138.84069,35.20601],[138.83142,35.2108],[138.82887,35.21405],[138.81823,35.21992],[138.81184,35.22114],[138.81166,35.21924],[138.81816,35.2111],[138.82304,35.20881],[138.82398,35.20536],[138.83153,35.20134],[138.83875,35.18424],[138.84339,35.17934],[138.85107,35.17521],[138.86004,35.16701],[138.86536,35.15221],[138.87484,35.14238],[138.88214,35.14203],[138.88705,35.1356],[138.89134,35.13501],[138.89278,35.12933],[138.88718,35.12722],[138.88627,35.11526],[138.88839,35.11286]]]},"properties":{"pref":"静岡県","county":"駿東郡","city":"長泉町","code5":"22342","code6":"223425"}},
{"type":"Feature","geometry":{"type":"Polygon","coordinates":[[[139.01853,35.32985],[139.01082,35.33816],[139.01092,35.34388],[139.00811,35.3503],[139.01229,35.35809],[139.00684,35.36139],[139.00592,35.37538],[138.99862,35.38404],[139.0018,35.39894],[138.9936,35.40347],[138.98407,35.40177],[138.98006,35.40465],[138.96946,35.4049],[138.96641,35.4019],[138.94804,35.40127],[138.93773,35.39915],[138.93132,35.40111],[138.9164,35.40061],[138.91094,35.39774],[138.90287,35.39633],[138.89833,35.39183],[138.89265,35.39037],[138.88794,35.38635],[138.87929,35.38595],[138.87346,35.38171],[138.8624,35.39008],[138.85634,35.388],[138.85083,35.39046],[138.84373,35.38659],[138.83398,35.38385],[138.82893,35.37797],[138.82194,35.37418],[138.81557,35.37644],[138.80837,35.37566],[138.79945,35.37667],[138.74687,35.36633],[138.73078,35.3628],[138.73169,35.36014],[138.77563,35.35359],[138.80086,35.35222],[138.82539,35.35192],[138.83739,35.3478],[138.84817,35.3488],[138.86363,35.34617],[138.87225,35.33756],[138.87775,35.33467],[138.88364,35.33696],[138.88826,35.34809],[138.8849,35.35508],[138.89234,35.35493],[138.9042,35.35263],[138.89862,35.34889],[138.90464,35.3466],[138.91455,35.34625],[138.92017,35.34372],[138.93137,35.34124],[138.93284,35.33893],[138.94177,35.33871],[138.95203,35.33355],[138.95965,35.33373],[138.96605,35.33008],[138.97055,35.32431],[138.9647,35.31951],[138.96557,35.31091],[138.97273,35.30467],[138.97528,35.30033],[138.9832,35.29569],[138.98991,35.28977],[138.99319,35.28488],[138.99721,35.2887],[139.00461,35.2899],[139.00604,35.29799],[139.0107,35.3106],[139.00963,35.31365],[139.0168,35.32318],[139.01853,35.32985]]]},"properties":{"pref":"静岡県","county":"駿東郡","city":"小山町","code5":"22344","code6":"223441"}},
{"type":"Feature","geometry":{"type":"Polygon","coordinates":[[[138.22362,34.78663],[138.23073,34.77831],[138.23563,34.77676],[138.23723,34.76878],[138.24346,34.75967],[138.25128,34.75767],[138.24421,34.7522],[138.24152,34.74548],[138.24587,34.74055],[138.26711,34.75284],[138.26964,34.75604],[138.27195,34.75692],[138.2692,34.75433],[138.28445,34.76122],[138.28909,34.76244],[138.29426,34.76737],[138.25998,34.79464],[138.25079,34.80293],[138.24537,34.80003],[138.23378,34.80146],[138.23942,34.79351],[138.22994,34.79109],[138.2315,34.78604],[138.22362,34.78663]]]},"properties":{"pref":"静岡県","county":"榛原郡","city":"吉田町","code5":"22424","code6":"224243"}},
{"type":"Feature","geometry":{"type":"Polygon","coordinates":[[[138.01877,35.30107],[138.01829,35.29463],[138.01229,35.28895],[138.01434,35.27382],[138.00134,35.26446],[138.0031,35.25866],[138.0131,35.25886],[138.01581,35.25256],[138.01226,35.24183],[138.03644,35.22739],[138.03292,35.22055],[138.03636,35.21095],[138.02732,35.20106],[138.02846,35.19614],[138.02136,35.19396],[138.01595,35.18972],[138.0165,35.18724],[138.008,35.17809],[138.00463,35.16817],[138.00075,35.16658],[137.99843,35.15586],[138.00176,35.15246],[137.99932,35.14638],[138.00637,35.14293],[138.00655,35.13547],[138.01131,35.12781],[138.02149,35.12716],[138.02801,35.12938],[138.03577,35.12542],[138.03958,35.1192],[138.04905,35.11165],[138.05373,35.11028],[138.05637,35.10636],[138.04482,35.08811],[138.04517,35.07264],[138.03844,35.06747],[138.04395,35.05682],[138.04337,35.05252],[138.04705,35.04948],[138.04845,35.04262],[138.0471,35.03869],[138.03242,35.03122],[138.02904,35.02758],[138.02076,35.02436],[138.02071,35.01884],[138.02569,35.0174],[138.026,35.013],[138.03291,35.00881],[138.03583,34.99888],[138.04894,34.99876],[138.05539,35.00109],[138.06264,35.00032],[138.07135,34.99682],[138.07568,34.99117],[138.07326,34.98353],[138.0836,34.98055],[138.0912,34.97568],[138.10106,34.98398],[138.10141,34.98965],[138.1051,34.99655],[138.11117,34.99955],[138.11925,35.0003],[138.12287,35.01251],[138.1219,35.01646],[138.1286,35.02122],[138.12655,35.02617],[138.13521,35.03137],[138.13929,35.0362],[138.14011,35.0425],[138.14702,35.05051],[138.1464,35.057],[138.1529,35.06255],[138.16089,35.05775],[138.15847,35.04977],[138.16526,35.05329],[138.17248,35.05341],[138.17153,35.0613],[138.17812,35.06087],[138.1849,35.06409],[138.18919,35.05952],[138.19667,35.0546],[138.19949,35.05014],[138.20142,35.05374],[138.20024,35.06104],[138.20358,35.06747],[138.20957,35.07069],[138.2004,35.08079],[138.19938,35.08761],[138.18873,35.09357],[138.19017,35.10588],[138.19303,35.10973],[138.19059,35.11781],[138.18473,35.12486],[138.18366,35.13641],[138.1962,35.14385],[138.20984,35.14475],[138.21206,35.14949],[138.22111,35.15913],[138.23125,35.15982],[138.23822,35.16988],[138.23954,35.17473],[138.23436,35.1803],[138.23146,35.18752],[138.22467,35.19341],[138.22375,35.1995],[138.21457,35.20377],[138.20649,35.20317],[138.20574,35.1988],[138.19894,35.19663],[138.20202,35.19347],[138.19883,35.18888],[138.1907,35.19085],[138.18754,35.19609],[138.18332,35.19806],[138.18181,35.20313],[138.18765,35.2045],[138.18569,35.20846],[138.1861,35.21687],[138.20166,35.22847],[138.19877,35.23568],[138.20264,35.23985],[138.19433,35.24903],[138.18669,35.24861],[138.17841,35.2558],[138.1778,35.25995],[138.16162,35.25639],[138.15296,35.25731],[138.14574,35.25628],[138.14559,35.26343],[138.13846,35.26744],[138.13585,35.27589],[138.13724,35.28376],[138.13154,35.28718],[138.12651,35.29314],[138.12033,35.29448],[138.11365,35.30096],[138.09821,35.30447],[138.09826,35.30947],[138.09253,35.31431],[138.08296,35.32481],[138.0858,35.33005],[138.08748,35.338],[138.08087,35.34024],[138.07879,35.34365],[138.07122,35.34706],[138.06134,35.3472],[138.05549,35.34382],[138.05525,35.33997],[138.05064,35.33547],[138.04332,35.33524],[138.03743,35.33253],[138.03898,35.326],[138.02606,35.32021],[138.02774,35.31164],[138.02379,35.30535],[138.01877,35.30107]]]},"properties":{"pref":"静岡県","county":"榛原郡","city":"川根本町","code5":"22429","code6":"224294"}},
{"type":"Feature","geometry":{"type":"Polygon","coordinates":[[[137.90919,34.89106],[137.90911,34.88219],[137.90417,34.88021],[137.893,34.8702],[137.89032,34.86216],[137.88127,34.85771],[137.87999,34.85014],[137.88414,34.84454],[137.88145,34.83934],[137.8728,34.83713],[137.87635,34.83277],[137.87269,34.83059],[137.87255,34.82236],[137.8743,34.81752],[137.87992,34.8133],[137.88559,34.81483],[137.89086,34.81352],[137.89073,34.80098],[137.88535,34.79156],[137.88885,34.78609],[137.89664,34.78775],[137.90214,34.79592],[137.90823,34.79309],[137.91637,34.79702],[137.92041,34.79699],[137.9256,34.80785],[137.92987,34.80769],[137.93547,34.82052],[137.941,34.8208],[137.94581,34.82417],[137.94746,34.83097],[137.95369,34.83658],[137.95497,34.84157],[137.95845,34.84299],[137.95687,34.84815],[137.96202,34.85624],[137.96183,34.86141],[137.97027,34.87028],[137.97839,34.87608],[137.98281,34.87761],[137.98887,34.88393],[137.99175,34.89056],[137.99659,34.89722],[138.00428,34.90022],[138.01076,34.90825],[138.01064,34.91368],[138.03306,34.91286],[138.03534,34.9174],[138.04192,34.92008],[138.04417,34.92341],[138.03792,34.9283],[138.03642,34.93177],[138.03002,34.9313],[138.02552,34.93692],[138.02092,34.93531],[138.01519,34.94308],[138.01629,34.94775],[138.01365,34.95206],[138.01575,34.95542],[138.01225,34.9626],[138.01399,34.9697],[138.00996,34.97562],[138.00322,34.97236],[138.00381,34.96702],[137.99656,34.96833],[137.97978,34.9655],[137.98467,34.96283],[137.98059,34.95772],[137.97081,34.95888],[137.96472,34.95507],[137.96237,34.94792],[137.95523,34.94679],[137.94789,34.94949],[137.94263,34.94613],[137.93822,34.94739],[137.9359,34.94363],[137.92842,34.93973],[137.9261,34.93476],[137.91765,34.92734],[137.91246,34.92949],[137.9031,34.91996],[137.90745,34.90691],[137.91917,34.90154],[137.92013,34.89325],[137.91699,34.89102],[137.90919,34.89106]]]},"properties":{"pref":"静岡県","county":"周智郡","city":"森町","code5":"22461","code6":"224618"}},
{"type":"Feature","geometry":{"type":"Polygon","coordinates":[[[138.18876,35.01544],[138.20049,35.00912],[138.20899,35.00876],[138.21524,35.01568],[138.21691,35.0102],[138.21503,35.00377],[138.22749,35.0071],[138.22971,35.00437],[138.24001,35.00265],[138.24051,35.0002],[138.24731,34.99359],[138.25863,34.99263],[138.26286,34.98871],[138.26503,34.98143],[138.2677,34.97971],[138.26789,34.9734],[138.27208,34.97301],[138.28365,34.9676],[138.28328,34.96301],[138.28632,34.9589],[138.28682,34.95148],[138.29203,34.9496],[138.29183,34.94461],[138.29452,34.93722],[138.30573,34.9327],[138.31007,34.93368],[138.31532,34.93044],[138.31675,34.92132],[138.31904,34.91956],[138.32617,34.92263],[138.33262,34.91227],[138.34016,34.90947],[138.34025,34.9044],[138.34839,34.89855],[138.35745,34.91504],[138.37098,34.92189],[138.38823,34.9281],[138.39528,34.92864],[138.40214,34.93175],[138.41105,34.94079],[138.41622,34.94328],[138.42756,34.94584],[138.46974,34.95973],[138.47457,34.96183],[138.50751,34.97759],[138.52177,34.99156],[138.52665,34.99494],[138.52915,35.00536],[138.53346,35.01296],[138.53189,35.01573],[138.52212,35.02059],[138.51578,35.0209],[138.51857,35.01334],[138.50252,35.01152],[138.5026,35.00697],[138.50652,35.00375],[138.50112,35.00222],[138.50954,34.99674],[138.50982,34.98928],[138.50562,34.98568],[138.50068,34.9874],[138.50676,34.99175],[138.50224,34.99203],[138.49771,34.99622],[138.49755,35.01021],[138.49481,35.02183],[138.50028,35.02973],[138.50845,35.03347],[138.50605,35.04167],[138.50853,35.0429],[138.51308,35.04322],[138.51489,35.03825],[138.52369,35.04267],[138.51982,35.04685],[138.52881,35.05356],[138.53446,35.05609],[138.53949,35.06321],[138.54311,35.07181],[138.54686,35.077],[138.55153,35.09256],[138.55879,35.10165],[138.57867,35.11177],[138.59234,35.11309],[138.60101,35.11516],[138.61794,35.11478],[138.62422,35.11586],[138.63224,35.11517],[138.63854,35.11649],[138.62993,35.13368],[138.61833,35.13173],[138.61277,35.1296],[138.60503,35.13436],[138.59979,35.14352],[138.58144,35.14341],[138.56824,35.15233],[138.56521,35.15107],[138.55866,35.15664],[138.5584,35.15931],[138.556,35.15548],[138.53919,35.15337],[138.53613,35.16082],[138.5257,35.16608],[138.52606,35.17131],[138.52357,35.18063],[138.51957,35.18254],[138.51979,35.1939],[138.52242,35.19916],[138.51733,35.19861],[138.51231,35.18897],[138.50623,35.18607],[138.50113,35.17652],[138.49629,35.17439],[138.49149,35.16838],[138.48426,35.17419],[138.47222,35.17611],[138.46113,35.17949],[138.45683,35.17821],[138.43094,35.18039],[138.42748,35.18267],[138.42473,35.18996],[138.41903,35.19764],[138.40757,35.20293],[138.3987,35.20027],[138.39429,35.20781],[138.39067,35.2199],[138.3918,35.22482],[138.38671,35.23952],[138.38615,35.24624],[138.37821,35.25394],[138.37356,35.26332],[138.36703,35.27019],[138.36927,35.27668],[138.3667,35.28051],[138.36676,35.29032],[138.37248,35.29941],[138.37059,35.30477],[138.36467,35.31203],[138.35947,35.31338],[138.35762,35.31776],[138.34999,35.31525],[138.34337,35.31799],[138.33564,35.3265],[138.32446,35.32721],[138.31346,35.32261],[138.31128,35.31959],[138.30293,35.31663],[138.29645,35.31651],[138.29407,35.31197],[138.28527,35.30427],[138.27641,35.30742],[138.26979,35.3144],[138.25792,35.31647],[138.2548,35.31982],[138.25502,35.32418],[138.24874,35.3316],[138.25698,35.33859],[138.25392,35.34542],[138.25514,35.34847],[138.251,35.35835],[138.25126,35.36353],[138.24676,35.36715],[138.24273,35.36585],[138.23729,35.37002],[138.23202,35.37122],[138.23285,35.37666],[138.24012,35.38814],[138.24594,35.39107],[138.24645,35.3998],[138.2581,35.40739],[138.25762,35.41479],[138.25927,35.42189],[138.25944,35.43108],[138.25523,35.44121],[138.25533,35.44458],[138.24831,35.44718],[138.24434,35.45412],[138.24629,35.46348],[138.25348,35.46596],[138.25788,35.47602],[138.25979,35.48917],[138.25891,35.49322],[138.26025,35.5059],[138.26898,35.51413],[138.26468,35.51995],[138.26259,35.52713],[138.25735,35.53085],[138.26008,35.5429],[138.25948,35.55298],[138.25205,35.55569],[138.24445,35.56346],[138.24515,35.56932],[138.24046,35.57632],[138.23943,35.58661],[138.24358,35.59152],[138.24064,35.60511],[138.23568,35.60619],[138.23625,35.61273],[138.23409,35.61497],[138.23608,35.62227],[138.22832,35.62721],[138.23232,35.6401],[138.22836,35.64596],[138.21867,35.64455],[138.21122,35.63522],[138.20344,35.63218],[138.2024,35.61822],[138.20606,35.6084],[138.20043,35.59956],[138.19596,35.59549],[138.19463,35.58862],[138.18892,35.58056],[138.18949,35.57678],[138.1844,35.57309],[138.1784,35.57485],[138.17284,35.5816],[138.16738,35.58291],[138.16205,35.58129],[138.1601,35.57613],[138.15181,35.57096],[138.15096,35.56629],[138.14613,35.55702],[138.14818,35.55428],[138.15603,35.55175],[138.15942,35.54493],[138.15149,35.5362],[138.14794,35.53475],[138.14696,35.5296],[138.13833,35.52221],[138.14633,35.51864],[138.14628,35.51378],[138.14018,35.49973],[138.14856,35.49998],[138.15799,35.49429],[138.16462,35.49387],[138.15832,35.4863],[138.15678,35.47279],[138.1604,35.47083],[138.15691,35.45998],[138.14102,35.45899],[138.13157,35.45334],[138.12193,35.45639],[138.12047,35.45461],[138.11934,35.44598],[138.12396,35.43566],[138.12021,35.43144],[138.12152,35.42856],[138.129,35.42726],[138.13983,35.4226],[138.13903,35.41648],[138.13511,35.41404],[138.13488,35.40775],[138.14438,35.40607],[138.15255,35.39798],[138.15118,35.38997],[138.1457,35.38364],[138.14114,35.36949],[138.1293,35.36529],[138.12402,35.36805],[138.11514,35.36487],[138.10006,35.35403],[138.09699,35.35427],[138.09633,35.33994],[138.08748,35.338],[138.0858,35.33005],[138.08296,35.32481],[138.09253,35.31431],[138.09826,35.30947],[138.09821,35.30447],[138.11365,35.30096],[138.12033,35.29448],[138.12651,35.29314],[138.13154,35.28718],[138.13724,35.28376],[138.13585,35.27589],[138.13846,35.26744],[138.14559,35.26343],[138.14574,35.25628],[138.15296,35.25731],[138.16162,35.25639],[138.1778,35.25995],[138.17841,35.2558],[138.18669,35.24861],[138.19433,35.24903],[138.20264,35.23985],[138.19877,35.23568],[138.20166,35.22847],[138.1861,35.21687],[138.18569,35.20846],[138.18765,35.2045],[138.18181,35.20313],[138.18332,35.19806],[138.18754,35.19609],[138.1907,35.19085],[138.19883,35.18888],[138.20202,35.19347],[138.19894,35.19663],[138.20574,35.1988],[138.20649,35.20317],[138.21457,35.20377],[138.22375,35.1995],[138.22467,35.19341],[138.23146,35.18752],[138.23436,35.1803],[138.23954,35.17473],[138.23822,35.16988],[138.23125,35.15982],[138.22111,35.15913],[138.21206,35.14949],[138.20984,35.14475],[138.1962,35.14385],[138.18366,35.13641],[138.18473,35.12486],[138.19059,35.11781],[138.19303,35.10973],[138.19017,35.10588],[138.18873,35.09357],[138.19938,35.08761],[138.2004,35.08079],[138.20957,35.07069],[138.20358,35.06747],[138.20024,35.06104],[138.20142,35.05374],[138.19949,35.05014],[138.19524,35.04624],[138.19708,35.03963],[138.19118,35.03585],[138.19358,35.03068],[138.19116,35.02328],[138.18832,35.02224],[138.18876,35.01544]]]},"properties":{"pref":"静岡県","city":"静岡市","code5":"22100","code6":"221007"}},
{"type":"Feature","geometry":{"type":"Polygon","coordinates":[[[137.79864,34.64634],[137.78998,34.65023],[137.78721,34.6563],[137.78757,34.66998],[137.79016,34.67096],[137.7901,34.68147],[137.79333,34.68467],[137.79533,34.69838],[137.80022,34.7014],[137.80586,34.73019],[137.81311,34.74756],[137.81893,34.75651],[137.82248,34.77418],[137.82665,34.78215],[137.82819,34.78972],[137.82374,34.79611],[137.82315,34.80184],[137.82698,34.82128],[137.82709,34.82938],[137.82432,34.85502],[137.82271,34.85659],[137.83881,34.86213],[137.84405,34.86815],[137.8525,34.8675],[137.85569,34.87035],[137.85531,34.87511],[137.86161,34.8783],[137.87745,34.87931],[137.8833,34.8812],[137.88886,34.88053],[137.8982,34.88397],[137.90615,34.8909],[137.90919,34.89106],[137.91699,34.89102],[137.92013,34.89325],[137.91917,34.90154],[137.90745,34.90691],[137.9031,34.91996],[137.91246,34.92949],[137.91765,34.92734],[137.9261,34.93476],[137.92842,34.93973],[137.9359,34.94363],[137.93822,34.94739],[137.94263,34.94613],[137.94789,34.94949],[137.95523,34.94679],[137.96237,34.94792],[137.96472,34.95507],[137.97081,34.95888],[137.98059,34.95772],[137.98467,34.96283],[137.97978,34.9655],[137.99656,34.96833],[138.00381,34.96702],[138.00322,34.97236],[138.00996,34.97562],[138.01149,34.98111],[138.01931,34.98718],[138.02881,34.99115],[138.03583,34.99888],[138.03291,35.00881],[138.026,35.013],[138.02569,35.0174],[138.02071,35.01884],[138.02076,35.02436],[138.02904,35.02758],[138.03242,35.03122],[138.0471,35.03869],[138.04845,35.04262],[138.04705,35.04948],[138.04337,35.05252],[138.04395,35.05682],[138.03844,35.06747],[138.04517,35.07264],[138.04482,35.08811],[138.05637,35.10636],[138.05373,35.11028],[138.04905,35.11165],[138.03958,35.1192],[138.03577,35.12542],[138.02801,35.12938],[138.02149,35.12716],[138.01131,35.12781],[138.00655,35.13547],[138.00637,35.14293],[137.99932,35.14638],[138.00176,35.15246],[137.99843,35.15586],[138.00075,35.16658],[138.00463,35.16817],[138.008,35.17809],[138.0165,35.18724],[138.01595,35.18972],[138.02136,35.19396],[138.02846,35.19614],[138.02732,35.20106],[138.03636,35.21095],[138.03292,35.22055],[138.03644,35.22739],[138.01226,35.24183],[138.01581,35.25256],[138.0131,35.25886],[138.0031,35.25866],[138.00134,35.26446],[138.01434,35.27382],[138.01229,35.28895],[138.01829,35.29463],[138.01877,35.30107],[138.01558,35.30301],[138.00568,35.3044],[137.99209,35.3017],[137.98236,35.29239],[137.97342,35.29305],[137.96734,35.2842],[137.95189,35.28308],[137.94424,35.27628],[137.92925,35.27547],[137.92624,35.26891],[137.92476,35.26031],[137.91861,35.25437],[137.90685,35.25424],[137.89543,35.25799],[137.88247,35.2481],[137.88215,35.2428],[137.88489,35.23625],[137.88036,35.22635],[137.87255,35.21888],[137.86511,35.22248],[137.85919,35.22332],[137.84493,35.22101],[137.83812,35.21247],[137.82863,35.21158],[137.82891,35.20433],[137.82166,35.20319],[137.82034,35.1973],[137.81381,35.18628],[137.8074,35.18783],[137.8032,35.18312],[137.80498,35.17924],[137.81044,35.17481],[137.81814,35.17468],[137.82547,35.1682],[137.82129,35.15844],[137.8273,35.15548],[137.82896,35.15191],[137.82186,35.14801],[137.81357,35.15101],[137.8124,35.14375],[137.81486,35.14047],[137.80986,35.13703],[137.80586,35.13112],[137.80099,35.13086],[137.79873,35.13546],[137.79314,35.13522],[137.792,35.12905],[137.79731,35.1271],[137.79831,35.11831],[137.80132,35.10659],[137.79519,35.10308],[137.79297,35.09555],[137.78176,35.09664],[137.77827,35.09962],[137.77456,35.0927],[137.77406,35.08413],[137.77567,35.07798],[137.76847,35.07234],[137.76381,35.07219],[137.7616,35.06856],[137.75474,35.06543],[137.74028,35.05651],[137.73584,35.05144],[137.72875,35.04034],[137.7233,35.03908],[137.71706,35.03465],[137.71652,35.02747],[137.70492,35.01476],[137.70105,35.00354],[137.702,34.99847],[137.70813,34.99446],[137.69991,34.98484],[137.70725,34.97228],[137.70426,34.97],[137.69613,34.97143],[137.68997,34.96364],[137.68953,34.95681],[137.6829,34.95495],[137.6755,34.94535],[137.67062,34.94827],[137.66341,34.94715],[137.65951,34.94458],[137.65666,34.93822],[137.651,34.93336],[137.65284,34.92549],[137.64696,34.91879],[137.64786,34.91213],[137.64044,34.90464],[137.64125,34.89308],[137.63579,34.88956],[137.63359,34.88549],[137.62079,34.87911],[137.61625,34.87534],[137.60918,34.87515],[137.59753,34.8725],[137.59521,34.85908],[137.58702,34.85004],[137.57414,34.85046],[137.5652,34.85214],[137.55159,34.85186],[137.551,34.84943],[137.53884,34.84179],[137.53438,34.84418],[137.52388,34.84098],[137.5178,34.83585],[137.50795,34.83499],[137.49997,34.83129],[137.49888,34.8268],[137.50166,34.82335],[137.495,34.81939],[137.49357,34.8153],[137.48701,34.81175],[137.48743,34.80924],[137.49436,34.80177],[137.49165,34.79585],[137.49294,34.78687],[137.49667,34.78272],[137.51196,34.77106],[137.51663,34.7716],[137.52534,34.76775],[137.53387,34.77292],[137.54215,34.77338],[137.54821,34.7692],[137.54487,34.76505],[137.54815,34.75269],[137.55065,34.74907],[137.56591,34.74049],[137.56956,34.73068],[137.57029,34.7233],[137.57592,34.70807],[137.58753,34.7014],[137.59067,34.69484],[137.59858,34.69216],[137.59697,34.68664],[137.59777,34.67797],[137.59923,34.67597],[137.62292,34.67568],[137.65974,34.67225],[137.6873,34.66839],[137.69553,34.66665],[137.72323,34.66304],[137.7364,34.65901],[137.74858,34.65768],[137.76479,34.65219],[137.76906,34.6496],[137.77749,34.64756],[137.78866,34.64826],[137.79864,34.64634]]]},"properties":{"pref":"静岡県","city":"浜松市","code5":"22130","code6":"221309"}}
]}