{"type":"FeatureCollection", "features": [
{"type":"Feature","geometry":{"type":"MultiPolygon","coordinates":[[[[137.49888,34.8268],[137.495,34.82758],[137.48884,34.83266],[137.48723,34.84312],[137.47919,34.84859],[137.48161,34.8557],[137.47809,34.85957],[137.472,34.86131],[137.46132,34.85873],[137.46059,34.85306],[137.45582,34.84761],[137.44606,34.84426],[137.43834,34.84744],[137.43549,34.84383],[137.42588,34.84292],[137.4231,34.83848],[137.43061,34.82486],[137.43728,34.82767],[137.44277,34.8244],[137.43842,34.82105],[137.43892,34.81606],[137.43297,34.81555],[137.43147,34.80977],[137.42074,34.81078],[137.41255,34.80643],[137.4049,34.8044],[137.40238,34.79754],[137.39809,34.79639],[137.38921,34.7984],[137.38658,34.80075],[137.38085,34.79724],[137.37658,34.79218],[137.36526,34.78952],[137.36327,34.79086],[137.34895,34.78419],[137.34935,34.79274],[137.33915,34.7864],[137.33062,34.78963],[137.32922,34.7966],[137.32013,34.78854],[137.30645,34.78448],[137.30854,34.77881],[137.31928,34.78052],[137.3256,34.78553],[137.33104,34.78051],[137.32569,34.77095],[137.32114,34.77126],[137.32031,34.73283],[137.33883,34.72855],[137.34731,34.73208],[137.349,34.7291],[137.34423,34.72589],[137.33835,34.72488],[137.33824,34.72114],[137.32972,34.72117],[137.32973,34.72468],[137.30857,34.72462],[137.30848,34.70211],[137.31179,34.6996],[137.31987,34.70009],[137.32183,34.69514],[137.31146,34.69627],[137.30824,34.69206],[137.31583,34.68851],[137.30709,34.67996],[137.31069,34.67404],[137.30656,34.66461],[137.32389,34.66056],[137.33908,34.66093],[137.34136,34.64753],[137.38573,34.65697],[137.41553,34.66243],[137.43537,34.66668],[137.48496,34.67411],[137.48464,34.68381],[137.48807,34.68733],[137.49179,34.70246],[137.48731,34.7171],[137.48262,34.71993],[137.48144,34.73095],[137.47861,34.7341],[137.48056,34.74057],[137.47411,34.74994],[137.47744,34.75667],[137.47676,34.76781],[137.47904,34.77133],[137.47672,34.77479],[137.48203,34.78228],[137.49294,34.78687],[137.49165,34.79585],[137.49436,34.80177],[137.48743,34.80924],[137.48701,34.81175],[137.49357,34.8153],[137.495,34.81939],[137.50166,34.82335],[137.49888,34.8268]]],[[[137.31881,34.74849],[137.3142,34.74479],[137.30979,34.74469],[137.30806,34.73505],[137.31869,34.73312],[137.31881,34.74849]]]]},"properties":{"pref":"愛知県","city":"豊橋市","code5":"23201","code6":"232017"}},
{"type":"Feature","geometry":{"type":"Polygon","coordinates":[[[137.38515,34.99075],[137.38028,34.99554],[137.37511,34.9979],[137.37657,35.00144],[137.37076,35.01546],[137.35487,35.01431],[137.34758,35.01531],[137.34575,35.0093],[137.32855,35.01742],[137.31956,35.01552],[137.31535,35.02041],[137.30881,35.0162],[137.30003,35.01673],[137.29604,35.01881],[137.28911,35.01796],[137.28238,35.02088],[137.27332,35.02843],[137.27031,35.02808],[137.26649,35.0195],[137.26152,35.0168],[137.25914,35.02237],[137.25492,35.02296],[137.25561,35.02817],[137.24259,35.02894],[137.23703,35.03927],[137.22544,35.04012],[137.21763,35.03768],[137.21247,35.04149],[137.20777,35.03303],[137.19911,35.03429],[137.19276,35.03826],[137.18576,35.03132],[137.17728,35.0349],[137.1705,35.03486],[137.15975,35.02622],[137.1604,35.01674],[137.1661,35.00295],[137.16021,34.99654],[137.14788,34.9925],[137.14274,34.99248],[137.14086,34.99789],[137.12978,34.99899],[137.12679,34.99736],[137.12296,34.99061],[137.11637,34.99135],[137.1191,34.98173],[137.12502,34.97732],[137.11538,34.96976],[137.11995,34.96451],[137.11668,34.96135],[137.11646,34.95635],[137.10576,34.94385],[137.1086,34.93543],[137.11162,34.93669],[137.11511,34.92978],[137.11923,34.92709],[137.11089,34.91978],[137.10549,34.91172],[137.10799,34.9041],[137.11479,34.89997],[137.1129,34.89585],[137.11521,34.89076],[137.11285,34.88784],[137.10634,34.88719],[137.10309,34.87885],[137.11729,34.87989],[137.12856,34.8895],[137.13782,34.89052],[137.14626,34.88942],[137.15359,34.88682],[137.15816,34.88916],[137.1618,34.90037],[137.16712,34.90566],[137.17699,34.90971],[137.19292,34.9054],[137.1958,34.90085],[137.20313,34.89903],[137.20826,34.89239],[137.20236,34.89067],[137.20067,34.88464],[137.20371,34.8807],[137.21081,34.87787],[137.20971,34.87209],[137.21214,34.86764],[137.22563,34.87011],[137.23234,34.8646],[137.23878,34.86676],[137.25635,34.86098],[137.25794,34.86502],[137.25616,34.86932],[137.26275,34.87556],[137.26306,34.88177],[137.26827,34.88525],[137.27435,34.88503],[137.27852,34.88134],[137.29145,34.88236],[137.29684,34.88629],[137.30347,34.87774],[137.31283,34.88382],[137.33557,34.8911],[137.35003,34.89828],[137.35209,34.8916],[137.35851,34.89117],[137.36095,34.88577],[137.36681,34.88958],[137.37723,34.89345],[137.38229,34.88789],[137.38851,34.88695],[137.39401,34.88334],[137.40159,34.89242],[137.4045,34.89404],[137.40366,34.9021],[137.41165,34.90731],[137.42055,34.90975],[137.42106,34.91571],[137.41787,34.91824],[137.41712,34.9235],[137.41117,34.92766],[137.41242,34.93053],[137.40962,34.93765],[137.41263,34.9422],[137.40343,34.94858],[137.40209,34.95148],[137.40804,34.95821],[137.40246,34.95923],[137.39178,34.96595],[137.40025,34.97578],[137.40556,34.97879],[137.40035,34.98202],[137.39061,34.98289],[137.38515,34.99075]]]},"properties":{"pref":"愛知県","city":"岡崎市","code5":"23202","code6":"232025"}},
{"type":"Feature","geometry":{"type":"Polygon","coordinates":[[[136.70458,35.27558],[136.71678,35.27156],[136.7215,35.27169],[136.73633,35.26818],[136.74026,35.25813],[136.75017,35.26395],[136.75116,35.26635],[136.76003,35.26784],[136.76113,35.2637],[136.76985,35.26077],[136.77585,35.26032],[136.77881,35.26326],[136.78623,35.26337],[136.79111,35.26843],[136.80359,35.27097],[136.80743,35.27635],[136.81929,35.27509],[136.82287,35.27581],[136.82885,35.26931],[136.82928,35.26184],[136.83313,35.2597],[136.83677,35.25064],[136.84318,35.25177],[136.84316,35.25977],[136.85068,35.26469],[136.84687,35.26611],[136.84383,35.27118],[136.849,35.27978],[136.85639,35.27984],[136.86438,35.29059],[136.86506,35.29664],[136.87272,35.29769],[136.87725,35.30227],[136.87167,35.30463],[136.87231,35.30802],[136.86685,35.31191],[136.85485,35.31689],[136.85687,35.322],[136.84559,35.32959],[136.84419,35.33661],[136.84151,35.33749],[136.8418,35.34553],[136.83404,35.35594],[136.81713,35.35932],[136.80423,35.36014],[136.79289,35.36346],[136.79406,35.36607],[136.79446,35.36833],[136.7772,35.3695],[136.77464,35.3696],[136.76812,35.3669],[136.75911,35.35719],[136.75395,35.34489],[136.7501,35.33654],[136.73652,35.31595],[136.7283,35.29969],[136.71938,35.28875],[136.71038,35.2827],[136.70458,35.27558]]]},"properties":{"pref":"愛知県","city":"一宮市","code5":"23203","code6":"232033"}},
{"type":"Feature","geometry":{"type":"Polygon","coordinates":[[[137.09628,35.2907],[137.08179,35.27894],[137.08067,35.27448],[137.0684,35.26304],[137.05571,35.26532],[137.05034,35.26023],[137.05348,35.25783],[137.05497,35.25042],[137.05988,35.24628],[137.06576,35.23887],[137.05729,35.22184],[137.05998,35.21595],[137.0682,35.21419],[137.06221,35.20841],[137.05701,35.20802],[137.04909,35.20272],[137.04983,35.19474],[137.05918,35.1911],[137.06705,35.19589],[137.07218,35.19138],[137.08157,35.18874],[137.08518,35.1898],[137.08773,35.18332],[137.09567,35.17939],[137.09933,35.18145],[137.10612,35.17935],[137.10919,35.18572],[137.1212,35.18529],[137.12606,35.18242],[137.12938,35.18847],[137.13489,35.19203],[137.14312,35.19361],[137.143,35.1969],[137.16079,35.20665],[137.16837,35.20542],[137.17267,35.21109],[137.17339,35.21788],[137.18096,35.22853],[137.17755,35.23629],[137.18037,35.24446],[137.18415,35.24999],[137.18949,35.25257],[137.17637,35.2604],[137.17609,35.27038],[137.17305,35.27514],[137.16546,35.28226],[137.15893,35.28219],[137.15254,35.27931],[137.14583,35.2798],[137.13159,35.29363],[137.11895,35.2979],[137.10103,35.30162],[137.09777,35.29716],[137.09628,35.2907]]]},"properties":{"pref":"愛知県","city":"瀬戸市","code5":"23204","code6":"232041"}},
{"type":"Feature","geometry":{"type":"Polygon","coordinates":[[[136.97524,34.93218],[136.96561,34.93292],[136.96674,34.9363],[136.96047,34.94009],[136.95383,34.93807],[136.94428,34.94175],[136.93845,34.93624],[136.93598,34.9307],[136.93739,34.9267],[136.93372,34.92324],[136.93462,34.91898],[136.93263,34.91331],[136.91948,34.9132],[136.91377,34.91078],[136.89932,34.91423],[136.89407,34.91106],[136.88691,34.91096],[136.87979,34.91811],[136.86948,34.90983],[136.8695,34.90618],[136.86575,34.90018],[136.87053,34.89712],[136.8769,34.89633],[136.87719,34.88814],[136.8749,34.88295],[136.87569,34.87834],[136.8842,34.8735],[136.89459,34.87504],[136.90537,34.8709],[136.91519,34.86855],[136.92366,34.87002],[136.9266,34.86768],[136.94073,34.86277],[136.94578,34.86936],[136.94601,34.87416],[136.9399,34.87728],[136.94416,34.88089],[136.96273,34.87412],[136.96419,34.87653],[136.95718,34.88111],[136.9653,34.89351],[136.96931,34.90121],[136.97256,34.91182],[136.96835,34.91466],[136.97316,34.91765],[136.97524,34.93218]]]},"properties":{"pref":"愛知県","city":"半田市","code5":"23205","code6":"232050"}},
{"type":"Feature","geometry":{"type":"Polygon","coordinates":[[[137.04631,35.33954],[137.04623,35.33944],[137.04008,35.33008],[137.02482,35.32498],[137.01852,35.31709],[137.01647,35.31073],[137.01766,35.3063],[137.01326,35.29766],[137.01362,35.29328],[137.00765,35.28629],[137.00167,35.28545],[136.9894,35.28061],[136.98569,35.28257],[136.97283,35.28525],[136.9681,35.28913],[136.96547,35.28415],[136.95698,35.28097],[136.95394,35.28375],[136.94304,35.28727],[136.94593,35.27751],[136.93117,35.27338],[136.93099,35.26467],[136.93489,35.26097],[136.93081,35.25732],[136.93151,35.24658],[136.9268,35.24257],[136.92993,35.24367],[136.92908,35.23308],[136.92552,35.23108],[136.93169,35.22301],[136.93983,35.22425],[136.93659,35.21615],[136.94667,35.2161],[136.95623,35.21744],[136.96413,35.21679],[136.97364,35.21843],[136.98145,35.22523],[136.98902,35.22672],[136.99039,35.22986],[136.98974,35.2379],[136.99317,35.24086],[137.00532,35.24041],[137.01077,35.24473],[137.01364,35.25162],[137.02014,35.25237],[137.02915,35.259],[137.03697,35.25841],[137.05034,35.26023],[137.05571,35.26532],[137.0684,35.26304],[137.08067,35.27448],[137.08179,35.27894],[137.09628,35.2907],[137.09209,35.29277],[137.08131,35.29219],[137.08144,35.30009],[137.07978,35.30678],[137.07216,35.30665],[137.06717,35.3115],[137.06408,35.32066],[137.07298,35.32646],[137.06822,35.33568],[137.06176,35.33903],[137.0574,35.33847],[137.0499,35.33437],[137.04631,35.33954]]]},"properties":{"pref":"愛知県","city":"春日井市","code5":"23206","code6":"232068"}},
{"type":"Feature","geometry":{"type":"MultiPolygon","coordinates":[[[[137.46132,34.85873],[137.45265,34.86397],[137.45497,34.86919],[137.45993,34.87102],[137.45588,34.8794],[137.45112,34.88305],[137.4433,34.89215],[137.44294,34.89631],[137.42869,34.89975],[137.42304,34.90354],[137.42055,34.90975],[137.41165,34.90731],[137.40366,34.9021],[137.4045,34.89404],[137.40159,34.89242],[137.39401,34.88334],[137.38851,34.88695],[137.38229,34.88789],[137.37723,34.89345],[137.36681,34.88958],[137.36095,34.88577],[137.35851,34.89117],[137.35209,34.8916],[137.35003,34.89828],[137.33557,34.8911],[137.31283,34.88382],[137.30347,34.87774],[137.29684,34.88629],[137.29145,34.88236],[137.27852,34.88134],[137.27435,34.88503],[137.26827,34.88525],[137.26306,34.88177],[137.26275,34.87556],[137.25616,34.86932],[137.25794,34.86502],[137.25635,34.86098],[137.25653,34.85582],[137.26044,34.84604],[137.26539,34.83878],[137.27464,34.83398],[137.2775,34.83535],[137.29558,34.83332],[137.30166,34.82649],[137.28933,34.8239],[137.29346,34.81608],[137.29802,34.81068],[137.31066,34.80469],[137.31533,34.79934],[137.31555,34.79643],[137.30333,34.79294],[137.30645,34.78448],[137.32013,34.78854],[137.32922,34.7966],[137.33062,34.78963],[137.33915,34.7864],[137.34935,34.79274],[137.34895,34.78419],[137.36327,34.79086],[137.36526,34.78952],[137.37658,34.79218],[137.38085,34.79724],[137.38658,34.80075],[137.38921,34.7984],[137.39809,34.79639],[137.40238,34.79754],[137.4049,34.8044],[137.41255,34.80643],[137.42074,34.81078],[137.43147,34.80977],[137.43297,34.81555],[137.43892,34.81606],[137.43842,34.82105],[137.44277,34.8244],[137.43728,34.82767],[137.43061,34.82486],[137.4231,34.83848],[137.42588,34.84292],[137.43549,34.84383],[137.43834,34.84744],[137.44606,34.84426],[137.45582,34.84761],[137.46059,34.85306],[137.46132,34.85873]]],[[[137.29863,34.8099],[137.30138,34.79821],[137.31137,34.79906],[137.30804,34.80507],[137.29863,34.8099]]]]},"properties":{"pref":"愛知県","city":"豊川市","code5":"23207","code6":"232076"}},
{"type":"Feature","geometry":{"type":"Polygon","coordinates":[[[136.78454,35.15738],[136.78287,35.16065],[136.78662,35.17222],[136.77999,35.17229],[136.77942,35.18441],[136.77193,35.19809],[136.76356,35.19972],[136.75783,35.18647],[136.75402,35.18585],[136.75406,35.17898],[136.74791,35.17688],[136.7465,35.18156],[136.73781,35.1813],[136.72995,35.18429],[136.73051,35.18935],[136.72228,35.18601],[136.72026,35.18851],[136.70902,35.18947],[136.70706,35.17913],[136.70997,35.16375],[136.72681,35.16839],[136.73235,35.16667],[136.74666,35.15556],[136.7537,35.14873],[136.75976,35.1336],[136.7627,35.13274],[136.77093,35.13686],[136.77248,35.14085],[136.77089,35.14758],[136.78218,35.14974],[136.78454,35.15738]]]},"properties":{"pref":"愛知県","city":"津島市","code5":"23208","code6":"232084"}},
{"type":"Feature","geometry":{"type":"MultiPolygon","coordinates":[[[[137.03656,34.89016],[137.02814,34.8907],[137.02222,34.89452],[137.01634,34.89433],[137.01332,34.90492],[137.01882,34.91123],[137.03007,34.91904],[137.03486,34.9212],[137.03605,34.92623],[137.03254,34.92766],[137.03368,34.93373],[137.03182,34.93719],[137.02421,34.93173],[137.01641,34.92647],[137.00159,34.91466],[136.99658,34.9146],[136.98314,34.90753],[136.97762,34.90734],[136.97735,34.89461],[136.97061,34.87748],[136.97486,34.87283],[136.9686,34.87173],[136.95529,34.85484],[136.96466,34.85299],[136.96421,34.85026],[136.95422,34.84833],[136.95674,34.83329],[136.96442,34.82276],[136.97074,34.82068],[136.99958,34.86584],[137.00711,34.87212],[137.02079,34.87791],[137.03269,34.88581],[137.03656,34.89016]]],[[[136.95714,34.8276],[136.95489,34.83049],[136.94602,34.82485],[136.94556,34.82002],[136.95714,34.8276]]]]},"properties":{"pref":"愛知県","city":"碧南市","code5":"23209","code6":"232092"}},
{"type":"Feature","geometry":{"type":"Polygon","coordinates":[[[137.06839,35.05729],[137.06877,35.06157],[137.05599,35.06688],[137.05063,35.06424],[137.04504,35.0692],[137.04291,35.06787],[137.04267,35.06253],[137.03387,35.05318],[137.02534,35.04948],[137.01721,35.03974],[137.00535,35.03353],[137.00165,35.02704],[136.99784,35.02362],[136.99063,35.02233],[136.98759,35.01557],[136.98819,35.00901],[136.98134,35.00393],[136.98104,35.00149],[136.98155,34.99273],[136.97889,34.98418],[136.98246,34.97218],[136.98326,34.95599],[136.99155,34.95759],[137.00001,34.95429],[137.00028,34.95182],[137.01052,34.94739],[137.02927,34.96034],[137.03582,34.96284],[137.04246,34.95907],[137.04684,34.96052],[137.04254,34.96835],[137.0482,34.97376],[137.04415,34.97839],[137.04583,34.98062],[137.03826,34.98532],[137.02952,34.98573],[137.01862,34.99762],[137.02319,35.0054],[137.03025,35.00724],[137.03657,35.01459],[137.0337,35.01873],[137.03971,35.02181],[137.04902,35.02842],[137.04597,35.03316],[137.04958,35.0356],[137.05701,35.04875],[137.06339,35.05077],[137.06451,35.0574],[137.06839,35.05729]]]},"properties":{"pref":"愛知県","city":"刈谷市","code5":"23210","code6":"232106"}},
{"type":"Feature","geometry":{"type":"Polygon","coordinates":[[[137.56198,35.28932],[137.55801,35.28401],[137.55199,35.28423],[137.54343,35.28055],[137.53176,35.2821],[137.52931,35.28418],[137.52137,35.28426],[137.51874,35.28165],[137.51413,35.26996],[137.5048,35.26294],[137.49724,35.26419],[137.49655,35.25902],[137.4843,35.25743],[137.47658,35.25341],[137.46947,35.24548],[137.4661,35.24664],[137.46214,35.24112],[137.45337,35.24051],[137.45045,35.23509],[137.44205,35.2337],[137.43471,35.22414],[137.43031,35.22296],[137.42492,35.22688],[137.41681,35.2404],[137.40893,35.23491],[137.401,35.24159],[137.39491,35.23985],[137.38819,35.24012],[137.38319,35.24672],[137.38678,35.25181],[137.38512,35.2587],[137.36197,35.26097],[137.3505,35.25718],[137.3441,35.25786],[137.33995,35.26455],[137.34641,35.27123],[137.34463,35.27372],[137.32565,35.28045],[137.32129,35.28426],[137.30808,35.28966],[137.30808,35.29116],[137.29843,35.28875],[137.28292,35.2877],[137.27579,35.29061],[137.27173,35.28613],[137.26266,35.2852],[137.25945,35.27871],[137.26088,35.27541],[137.25376,35.27276],[137.24994,35.26855],[137.24359,35.26854],[137.22457,35.25649],[137.22136,35.25994],[137.21128,35.25969],[137.19996,35.25146],[137.19707,35.25334],[137.18949,35.25257],[137.18415,35.24999],[137.18037,35.24446],[137.17755,35.23629],[137.18096,35.22853],[137.17339,35.21788],[137.17267,35.21109],[137.16837,35.20542],[137.16079,35.20665],[137.143,35.1969],[137.14312,35.19361],[137.13489,35.19203],[137.12938,35.18847],[137.12606,35.18242],[137.1212,35.18529],[137.10919,35.18572],[137.10612,35.17935],[137.09933,35.18145],[137.09567,35.17939],[137.09738,35.1736],[137.09472,35.16026],[137.09612,35.15717],[137.09768,35.15553],[137.09749,35.14465],[137.10362,35.13609],[137.10483,35.13171],[137.11483,35.13146],[137.12055,35.12507],[137.12809,35.12304],[137.13008,35.11962],[137.12087,35.11493],[137.11618,35.10429],[137.11158,35.09717],[137.1131,35.09449],[137.10498,35.08368],[137.10209,35.07247],[137.10221,35.06422],[137.09585,35.05947],[137.08966,35.06158],[137.0835,35.0585],[137.06839,35.05729],[137.06451,35.0574],[137.06339,35.05077],[137.05701,35.04875],[137.04958,35.0356],[137.04597,35.03316],[137.04902,35.02842],[137.03971,35.02181],[137.04474,35.01998],[137.04793,35.0143],[137.05847,35.01256],[137.06195,35.00959],[137.06793,35.01248],[137.07281,35.01783],[137.07769,35.00809],[137.08506,35.00983],[137.09438,35.00743],[137.10072,35.00878],[137.11211,35.00206],[137.11637,34.99135],[137.12296,34.99061],[137.12679,34.99736],[137.12978,34.99899],[137.14086,34.99789],[137.14274,34.99248],[137.14788,34.9925],[137.16021,34.99654],[137.1661,35.00295],[137.1604,35.01674],[137.15975,35.02622],[137.1705,35.03486],[137.17728,35.0349],[137.18576,35.03132],[137.19276,35.03826],[137.19911,35.03429],[137.20777,35.03303],[137.21247,35.04149],[137.21763,35.03768],[137.22544,35.04012],[137.23703,35.03927],[137.24259,35.02894],[137.25561,35.02817],[137.25492,35.02296],[137.25914,35.02237],[137.26152,35.0168],[137.26649,35.0195],[137.27031,35.02808],[137.27332,35.02843],[137.28238,35.02088],[137.28911,35.01796],[137.29604,35.01881],[137.30003,35.01673],[137.30881,35.0162],[137.31535,35.02041],[137.31956,35.01552],[137.32855,35.01742],[137.34575,35.0093],[137.34758,35.01531],[137.35487,35.01431],[137.37076,35.01546],[137.37657,35.00144],[137.37511,34.9979],[137.38028,34.99554],[137.38515,34.99075],[137.39351,34.99486],[137.39293,34.99838],[137.39725,35.00561],[137.40747,35.01241],[137.4164,35.00953],[137.42539,35.01144],[137.42583,35.02361],[137.43548,35.03028],[137.4335,35.03591],[137.43023,35.03749],[137.4317,35.05207],[137.43986,35.06222],[137.44531,35.06357],[137.44635,35.07194],[137.44277,35.08117],[137.43363,35.08701],[137.43461,35.09142],[137.43003,35.09584],[137.4294,35.10436],[137.43347,35.10819],[137.4425,35.1101],[137.44393,35.11536],[137.44774,35.11965],[137.44841,35.1257],[137.44458,35.13046],[137.44373,35.13608],[137.45162,35.13296],[137.45733,35.13345],[137.46317,35.13891],[137.46818,35.14103],[137.47379,35.14662],[137.47478,35.1501],[137.46827,35.1546],[137.4669,35.15842],[137.46219,35.16015],[137.47447,35.16991],[137.48318,35.17953],[137.48236,35.18558],[137.48696,35.19371],[137.49543,35.19729],[137.50255,35.19554],[137.4994,35.18943],[137.49997,35.18473],[137.51251,35.18526],[137.51891,35.17807],[137.53771,35.19033],[137.54627,35.18734],[137.55077,35.18905],[137.56664,35.18807],[137.5752,35.18555],[137.58109,35.19021],[137.57764,35.19584],[137.57866,35.19847],[137.57677,35.2025],[137.577,35.21193],[137.57873,35.21944],[137.57559,35.22042],[137.5724,35.22661],[137.56852,35.22784],[137.56263,35.23537],[137.55715,35.23726],[137.55042,35.24291],[137.546,35.25179],[137.54842,35.25974],[137.55211,35.25991],[137.55748,35.26455],[137.5559,35.27242],[137.57075,35.2831],[137.56682,35.29001],[137.56198,35.28932]]]},"properties":{"pref":"愛知県","city":"豊田市","code5":"23211","code6":"232114"}},
{"type":"Feature","geometry":{"type":"Polygon","coordinates":[[[137.11637,34.99135],[137.11211,35.00206],[137.10072,35.00878],[137.09438,35.00743],[137.08506,35.00983],[137.08479,35.00556],[137.07888,35.00054],[137.07007,34.99729],[137.07204,34.99345],[137.07239,34.986],[137.06401,34.98468],[137.06041,34.97987],[137.04583,34.98062],[137.04415,34.97839],[137.0482,34.97376],[137.04254,34.96835],[137.04684,34.96052],[137.04246,34.95907],[137.03582,34.96284],[137.02927,34.96034],[137.01052,34.94739],[137.01235,34.94421],[137.01209,34.93565],[137.01685,34.9311],[137.02421,34.93173],[137.03182,34.93719],[137.03368,34.93373],[137.03254,34.92766],[137.03605,34.92623],[137.03486,34.9212],[137.03007,34.91904],[137.01882,34.91123],[137.01332,34.90492],[137.01634,34.89433],[137.02222,34.89452],[137.02814,34.8907],[137.03656,34.89016],[137.04043,34.89613],[137.04628,34.89459],[137.0484,34.9006],[137.06011,34.90783],[137.06305,34.91384],[137.06751,34.9127],[137.06678,34.90608],[137.0629,34.90015],[137.06473,34.8889],[137.08949,34.89035],[137.09781,34.89409],[137.10591,34.90043],[137.10799,34.9041],[137.10549,34.91172],[137.11089,34.91978],[137.11923,34.92709],[137.11511,34.92978],[137.11162,34.93669],[137.1086,34.93543],[137.10576,34.94385],[137.11646,34.95635],[137.11668,34.96135],[137.11995,34.96451],[137.11538,34.96976],[137.12502,34.97732],[137.1191,34.98173],[137.11637,34.99135]]]},"properties":{"pref":"愛知県","city":"安城市","code5":"23212","code6":"232122"}},
{"type":"Feature","geometry":{"type":"MultiPolygon","coordinates":[[[[137.10799,34.9041],[137.10591,34.90043],[137.09781,34.89409],[137.08949,34.89035],[137.06473,34.8889],[137.0629,34.90015],[137.06678,34.90608],[137.06751,34.9127],[137.06305,34.91384],[137.06011,34.90783],[137.0484,34.9006],[137.04628,34.89459],[137.04043,34.89613],[137.03656,34.89016],[137.03269,34.88581],[137.02079,34.87791],[137.00711,34.87212],[136.99958,34.86584],[136.97074,34.82068],[136.99053,34.81591],[136.99697,34.81647],[137.00022,34.80468],[137.00599,34.799],[137.01206,34.79557],[137.01684,34.78594],[137.02533,34.77801],[137.04077,34.7756],[137.04875,34.77926],[137.06254,34.78252],[137.06526,34.78545],[137.06946,34.78656],[137.07626,34.78706],[137.08234,34.78361],[137.08817,34.77622],[137.09264,34.77796],[137.09865,34.78359],[137.10742,34.78765],[137.10556,34.79065],[137.11767,34.79003],[137.12298,34.78392],[137.13258,34.78209],[137.13435,34.78863],[137.14593,34.78813],[137.15259,34.78132],[137.16281,34.78687],[137.16839,34.78762],[137.16993,34.79293],[137.17033,34.81281],[137.16369,34.81496],[137.1554,34.82499],[137.14771,34.82337],[137.14635,34.82827],[137.13504,34.83433],[137.12793,34.84248],[137.12399,34.8444],[137.11723,34.83871],[137.10171,34.84269],[137.10424,34.84611],[137.11046,34.84816],[137.10468,34.85179],[137.11314,34.85362],[137.1214,34.84595],[137.127,34.85347],[137.12234,34.859],[137.11517,34.85991],[137.112,34.86485],[137.11518,34.86989],[137.12262,34.87071],[137.13268,34.86961],[137.13707,34.8748],[137.13476,34.88244],[137.13968,34.88242],[137.13782,34.89052],[137.12856,34.8895],[137.11729,34.87989],[137.10309,34.87885],[137.10634,34.88719],[137.11285,34.88784],[137.11521,34.89076],[137.1129,34.89585],[137.11479,34.89997],[137.10799,34.9041]]],[[[137.04095,34.73242],[137.03208,34.72691],[137.03253,34.72299],[137.04173,34.7266],[137.05021,34.71906],[137.05467,34.72675],[137.04095,34.73242]]]]},"properties":{"pref":"愛知県","city":"西尾市","code5":"23213","code6":"232131"}},
{"type":"Feature","geometry":{"type":"MultiPolygon","coordinates":[[[[137.21214,34.86764],[137.2044,34.86109],[137.20551,34.85642],[137.19709,34.85311],[137.19295,34.84818],[137.198,34.8415],[137.19159,34.83533],[137.19175,34.83274],[137.19959,34.82517],[137.18693,34.82293],[137.18003,34.82293],[137.179,34.82609],[137.17043,34.82151],[137.16369,34.81496],[137.17033,34.81281],[137.16993,34.79293],[137.16839,34.78762],[137.17449,34.7848],[137.17538,34.77786],[137.17346,34.77033],[137.16953,34.76525],[137.17794,34.76567],[137.18936,34.77571],[137.18687,34.78059],[137.19018,34.78998],[137.18704,34.79299],[137.19073,34.79792],[137.1931,34.80487],[137.19857,34.81107],[137.20967,34.80275],[137.22287,34.81681],[137.23083,34.81584],[137.24386,34.81239],[137.24425,34.81452],[137.24976,34.81085],[137.25034,34.80678],[137.25031,34.80626],[137.25786,34.80439],[137.26391,34.80595],[137.26956,34.80477],[137.27944,34.80758],[137.29284,34.8045],[137.2945,34.81057],[137.29802,34.81068],[137.29346,34.81608],[137.28933,34.8239],[137.30166,34.82649],[137.29558,34.83332],[137.2775,34.83535],[137.27464,34.83398],[137.26539,34.83878],[137.26044,34.84604],[137.25653,34.85582],[137.25635,34.86098],[137.23878,34.86676],[137.23234,34.8646],[137.22563,34.87011],[137.21214,34.86764]]],[[[137.23097,34.7869],[137.22901,34.78831],[137.22901,34.78835],[137.22897,34.78841],[137.2289,34.78842],[137.22889,34.78842],[137.22883,34.78839],[137.22883,34.78838],[137.22884,34.78824],[137.22896,34.78722],[137.22904,34.78682],[137.22907,34.78679],[137.22909,34.78677],[137.2291,34.78676],[137.22911,34.78675],[137.22921,34.78668],[137.22922,34.78667],[137.22977,34.78663],[137.22979,34.7866],[137.2299,34.78656],[137.22994,34.78656],[137.23002,34.78654],[137.23009,34.78668],[137.23009,34.7867],[137.23045,34.78686],[137.23097,34.7869]]],[[[137.23676,34.78447],[137.23661,34.78449],[137.23644,34.78469],[137.23643,34.78473],[137.23642,34.78476],[137.23642,34.78479],[137.23641,34.78483],[137.23632,34.78473],[137.23633,34.7847],[137.23633,34.78467],[137.23634,34.78464],[137.23635,34.78461],[137.23636,34.78457],[137.23655,34.78444],[137.23651,34.78416],[137.23651,34.78413],[137.23651,34.78407],[137.2365,34.7838],[137.23658,34.78374],[137.23662,34.78369],[137.23661,34.78359],[137.23667,34.7835],[137.23674,34.78343],[137.23675,34.78342],[137.23686,34.78343],[137.23688,34.78346],[137.23718,34.7837],[137.23719,34.78373],[137.23709,34.78405],[137.23711,34.78413],[137.23705,34.78435],[137.23695,34.78443],[137.2368,34.78446],[137.23676,34.78447]]]]},"properties":{"pref":"愛知県","city":"蒲郡市","code5":"23214","code6":"232149"}},
{"type":"Feature","geometry":{"type":"Polygon","coordinates":[[[137.04762,35.36469],[137.04509,35.36741],[137.03398,35.36805],[137.0299,35.37072],[137.02828,35.37532],[137.023,35.37503],[137.01612,35.37767],[137.01417,35.38177],[137.00212,35.38148],[136.99925,35.39005],[136.99149,35.39307],[136.98731,35.40198],[136.98157,35.40158],[136.97858,35.40642],[136.98459,35.41189],[136.98525,35.41748],[136.99321,35.4242],[136.98572,35.42452],[136.97442,35.42162],[136.96437,35.42094],[136.96112,35.41458],[136.96309,35.40655],[136.96171,35.39977],[136.9567,35.39645],[136.95035,35.39493],[136.93512,35.38825],[136.92615,35.38104],[136.92145,35.37903],[136.92326,35.37585],[136.91687,35.37147],[136.92104,35.36787],[136.93064,35.36778],[136.93524,35.37022],[136.93985,35.36134],[136.94194,35.35869],[136.94157,35.35232],[136.93558,35.34595],[136.93665,35.34254],[136.93326,35.33652],[136.93116,35.32864],[136.92504,35.32488],[136.92175,35.31929],[136.92698,35.32137],[136.93804,35.32155],[136.93976,35.32331],[136.95033,35.3229],[136.94732,35.31338],[136.96478,35.31664],[136.96937,35.32228],[136.97889,35.32472],[136.98527,35.32128],[136.98916,35.33061],[136.99484,35.33005],[137.00075,35.33217],[137.0044,35.33076],[137.01216,35.33169],[137.01288,35.33483],[137.03245,35.33377],[137.04152,35.33617],[137.04623,35.33944],[137.04631,35.33954],[137.04664,35.34851],[137.04985,35.3596],[137.04762,35.36469]]]},"properties":{"pref":"愛知県","city":"犬山市","code5":"23215","code6":"232157"}},
{"type":"Feature","geometry":{"type":"MultiPolygon","coordinates":[[[[136.87979,34.91811],[136.88361,34.92046],[136.88695,34.92879],[136.89203,34.93732],[136.89169,34.94],[136.88067,34.94241],[136.86423,34.94162],[136.85859,34.93771],[136.85499,34.9323],[136.84705,34.93214],[136.83486,34.93746],[136.82947,34.93659],[136.825,34.93936],[136.82317,34.93632],[136.82428,34.93056],[136.82148,34.90614],[136.82187,34.90606],[136.82153,34.90555],[136.82602,34.89261],[136.8225,34.8891],[136.8217,34.88423],[136.82749,34.8753],[136.83277,34.87445],[136.83858,34.88224],[136.84108,34.87783],[136.83722,34.87587],[136.84963,34.86999],[136.85722,34.86208],[136.85691,34.85611],[136.86136,34.85058],[136.86661,34.83801],[136.86184,34.81405],[136.86708,34.81261],[136.87236,34.81433],[136.87865,34.81277],[136.88691,34.81501],[136.88251,34.82359],[136.88463,34.82761],[136.8845,34.84033],[136.8819,34.85074],[136.88804,34.85198],[136.89143,34.85558],[136.88812,34.86516],[136.88143,34.8682],[136.87569,34.87834],[136.8749,34.88295],[136.87719,34.88814],[136.8769,34.89633],[136.87053,34.89712],[136.86575,34.90018],[136.8695,34.90618],[136.86948,34.90983],[136.87979,34.91811]]],[[[136.80583,34.87764],[136.79845,34.87558],[136.80056,34.87041],[136.80648,34.84586],[136.80697,34.84019],[136.8142,34.84021],[136.81264,34.84673],[136.82447,34.84874],[136.82339,34.85919],[136.82065,34.86593],[136.81536,34.87208],[136.80583,34.87764]]]]},"properties":{"pref":"愛知県","city":"常滑市","code5":"23216","code6":"232165"}},
{"type":"Feature","geometry":{"type":"Polygon","coordinates":[[[136.83404,35.35594],[136.8418,35.34553],[136.84151,35.33749],[136.84419,35.33661],[136.84559,35.32959],[136.85687,35.322],[136.85485,35.31689],[136.86685,35.31191],[136.87231,35.30802],[136.87167,35.30463],[136.87725,35.30227],[136.88401,35.29937],[136.88752,35.30457],[136.88295,35.30924],[136.88359,35.31843],[136.88906,35.32132],[136.89453,35.33541],[136.89965,35.34134],[136.89509,35.34674],[136.89185,35.35379],[136.89642,35.35968],[136.89605,35.36658],[136.89889,35.37177],[136.89272,35.37809],[136.88618,35.37753],[136.87805,35.37447],[136.86493,35.37261],[136.86126,35.36838],[136.83404,35.35594]]]},"properties":{"pref":"愛知県","city":"江南市","code5":"23217","code6":"232173"}},
{"type":"Feature","geometry":{"type":"Polygon","coordinates":[[[137.04623,35.33944],[137.04152,35.33617],[137.03245,35.33377],[137.01288,35.33483],[137.01216,35.33169],[137.0044,35.33076],[137.00075,35.33217],[136.99484,35.33005],[136.98916,35.33061],[136.98527,35.32128],[136.97889,35.32472],[136.96937,35.32228],[136.96478,35.31664],[136.94732,35.31338],[136.95033,35.3229],[136.93976,35.32331],[136.93804,35.32155],[136.92698,35.32137],[136.92175,35.31929],[136.90719,35.3202],[136.90666,35.31324],[136.90296,35.31397],[136.89588,35.30664],[136.88752,35.30457],[136.88401,35.29937],[136.8831,35.28949],[136.88582,35.28326],[136.88497,35.27515],[136.88068,35.26658],[136.8821,35.26424],[136.8962,35.26286],[136.89735,35.25555],[136.90233,35.25549],[136.90861,35.26163],[136.91718,35.26525],[136.92369,35.26336],[136.93081,35.25732],[136.93489,35.26097],[136.93099,35.26467],[136.93117,35.27338],[136.94593,35.27751],[136.94304,35.28727],[136.95394,35.28375],[136.95698,35.28097],[136.96547,35.28415],[136.9681,35.28913],[136.97283,35.28525],[136.98569,35.28257],[136.9894,35.28061],[137.00167,35.28545],[137.00765,35.28629],[137.01362,35.29328],[137.01326,35.29766],[137.01766,35.3063],[137.01647,35.31073],[137.01852,35.31709],[137.02482,35.32498],[137.04008,35.33008],[137.04623,35.33944]]]},"properties":{"pref":"愛知県","city":"小牧市","code5":"23219","code6":"232190"}},
{"type":"Feature","geometry":{"type":"Polygon","coordinates":[[[136.67787,35.24106],[136.67988,35.22821],[136.68656,35.22943],[136.68712,35.23417],[136.69459,35.23587],[136.70996,35.23029],[136.72115,35.23023],[136.71761,35.22308],[136.72836,35.21983],[136.73047,35.20811],[136.72513,35.20363],[136.72371,35.19948],[136.73684,35.19376],[136.74266,35.19477],[136.74654,35.19979],[136.75283,35.20426],[136.76233,35.20528],[136.78013,35.20777],[136.79431,35.21313],[136.80196,35.21202],[136.8065,35.21328],[136.80851,35.21751],[136.81694,35.21531],[136.82274,35.21534],[136.82615,35.22196],[136.83496,35.22236],[136.83844,35.22947],[136.8298,35.23662],[136.82904,35.24321],[136.83677,35.25064],[136.83313,35.2597],[136.82928,35.26184],[136.82885,35.26931],[136.82287,35.27581],[136.81929,35.27509],[136.80743,35.27635],[136.80359,35.27097],[136.79111,35.26843],[136.78623,35.26337],[136.77881,35.26326],[136.77585,35.26032],[136.76985,35.26077],[136.76113,35.2637],[136.76003,35.26784],[136.75116,35.26635],[136.75017,35.26395],[136.74026,35.25813],[136.73633,35.26818],[136.7215,35.27169],[136.71678,35.27156],[136.70458,35.27558],[136.6981,35.26192],[136.69064,35.25321],[136.6796,35.24503],[136.67787,35.24106]]]},"properties":{"pref":"愛知県","city":"稲沢市","code5":"23220","code6":"232203"}},
{"type":"Feature","geometry":{"type":"Polygon","coordinates":[[[137.49888,34.8268],[137.49997,34.83129],[137.50795,34.83499],[137.5178,34.83585],[137.52388,34.84098],[137.53438,34.84418],[137.53884,34.84179],[137.551,34.84943],[137.55159,34.85186],[137.5652,34.85214],[137.57414,34.85046],[137.58702,34.85004],[137.59521,34.85908],[137.59753,34.8725],[137.60918,34.87515],[137.61625,34.87534],[137.62079,34.87911],[137.63359,34.88549],[137.63579,34.88956],[137.64125,34.89308],[137.64044,34.90464],[137.64786,34.91213],[137.64696,34.91879],[137.65284,34.92549],[137.651,34.93336],[137.65666,34.93822],[137.65951,34.94458],[137.66341,34.94715],[137.67062,34.94827],[137.6755,34.94535],[137.6829,34.95495],[137.68953,34.95681],[137.68997,34.96364],[137.69613,34.97143],[137.70426,34.97],[137.70725,34.97228],[137.69991,34.98484],[137.70813,34.99446],[137.702,34.99847],[137.70105,35.00354],[137.70492,35.01476],[137.7058,35.02246],[137.70134,35.03026],[137.69146,35.03306],[137.69154,35.03797],[137.68074,35.04247],[137.67456,35.0403],[137.66657,35.04212],[137.66236,35.0498],[137.65464,35.04992],[137.65207,35.05445],[137.64549,35.05596],[137.64497,35.05941],[137.63781,35.06429],[137.63426,35.06461],[137.6338,35.05838],[137.62839,35.05428],[137.63134,35.04881],[137.62572,35.04681],[137.62291,35.04028],[137.62454,35.03353],[137.62116,35.02601],[137.61999,35.01927],[137.60389,35.01636],[137.59967,35.01874],[137.59921,35.0254],[137.59475,35.03114],[137.58972,35.03418],[137.59027,35.0377],[137.58359,35.05105],[137.58285,35.05655],[137.57968,35.05963],[137.57006,35.06043],[137.56082,35.05781],[137.55925,35.0551],[137.5513,35.05697],[137.54292,35.05732],[137.53456,35.05164],[137.53117,35.04252],[137.52536,35.04286],[137.52335,35.0481],[137.51736,35.04734],[137.51157,35.03968],[137.50517,35.04164],[137.50992,35.0494],[137.5069,35.05379],[137.50227,35.06542],[137.49146,35.06883],[137.48844,35.06419],[137.47584,35.06163],[137.47099,35.05386],[137.46265,35.05315],[137.45853,35.05597],[137.45198,35.05428],[137.44889,35.05857],[137.45133,35.06671],[137.45422,35.06897],[137.45054,35.07302],[137.44635,35.07194],[137.44531,35.06357],[137.43986,35.06222],[137.4317,35.05207],[137.43023,35.03749],[137.4335,35.03591],[137.43548,35.03028],[137.42583,35.02361],[137.42539,35.01144],[137.4164,35.00953],[137.40747,35.01241],[137.39725,35.00561],[137.39293,34.99838],[137.39351,34.99486],[137.38515,34.99075],[137.39061,34.98289],[137.40035,34.98202],[137.40556,34.97879],[137.40025,34.97578],[137.39178,34.96595],[137.40246,34.95923],[137.40804,34.95821],[137.40209,34.95148],[137.40343,34.94858],[137.41263,34.9422],[137.40962,34.93765],[137.41242,34.93053],[137.41117,34.92766],[137.41712,34.9235],[137.41787,34.91824],[137.42106,34.91571],[137.42055,34.90975],[137.42304,34.90354],[137.42869,34.89975],[137.44294,34.89631],[137.4433,34.89215],[137.45112,34.88305],[137.45588,34.8794],[137.45993,34.87102],[137.45497,34.86919],[137.45265,34.86397],[137.46132,34.85873],[137.472,34.86131],[137.47809,34.85957],[137.48161,34.8557],[137.47919,34.84859],[137.48723,34.84312],[137.48884,34.83266],[137.495,34.82758],[137.49888,34.8268]]]},"properties":{"pref":"愛知県","city":"新城市","code5":"23221","code6":"232211"}},
{"type":"Feature","geometry":{"type":"Polygon","coordinates":[[[136.88396,35.06727],[136.88638,35.06581],[136.87922,35.04739],[136.8893,35.04547],[136.88926,35.04225],[136.87027,35.04223],[136.86768,35.04007],[136.85423,35.0205],[136.85267,35.01521],[136.87058,35.01262],[136.86979,35.00836],[136.87984,35.00414],[136.88528,34.99826],[136.89308,34.99683],[136.89426,34.98985],[136.89791,34.98116],[136.907,34.9804],[136.91436,34.96958],[136.91608,34.97322],[136.92327,34.97586],[136.91909,34.98175],[136.91712,34.99402],[136.91886,35.00686],[136.92658,35.01422],[136.93372,35.01124],[136.94035,35.0154],[136.93244,35.01997],[136.93333,35.02445],[136.9266,35.03033],[136.93241,35.04256],[136.9285,35.04687],[136.93127,35.05074],[136.92576,35.0586],[136.92442,35.06442],[136.91777,35.06292],[136.91305,35.06848],[136.90579,35.06841],[136.9016,35.06892],[136.89027,35.06713],[136.88396,35.06727]]]},"properties":{"pref":"愛知県","city":"東海市","code5":"23222","code6":"232220"}},
{"type":"Feature","geometry":{"type":"Polygon","coordinates":[[[136.93127,35.05074],[136.9285,35.04687],[136.93241,35.04256],[136.9266,35.03033],[136.93333,35.02445],[136.93244,35.01997],[136.94035,35.0154],[136.93372,35.01124],[136.92658,35.01422],[136.91886,35.00686],[136.91712,34.99402],[136.91909,34.98175],[136.92327,34.97586],[136.92903,34.98332],[136.93235,34.98376],[136.93646,34.98965],[136.94619,34.99188],[136.94854,34.99769],[136.95283,34.99615],[136.96181,35.00349],[136.97257,34.99947],[136.98104,35.00149],[136.98134,35.00393],[136.98819,35.00901],[136.98759,35.01557],[136.99063,35.02233],[136.99784,35.02362],[137.00165,35.02704],[136.99953,35.02959],[136.99704,35.03895],[136.98738,35.038],[136.9845,35.04277],[136.97388,35.04901],[136.97225,35.04306],[136.96485,35.04293],[136.96189,35.03956],[136.95577,35.04788],[136.9532,35.04477],[136.94634,35.04419],[136.94112,35.05216],[136.93662,35.0532],[136.93127,35.05074]]]},"properties":{"pref":"愛知県","city":"大府市","code5":"23223","code6":"232238"}},
{"type":"Feature","geometry":{"type":"MultiPolygon","coordinates":[[[[136.88067,34.94241],[136.87876,34.95082],[136.88513,34.95654],[136.88931,34.95517],[136.89435,34.9588],[136.90651,34.95236],[136.91041,34.95327],[136.91245,34.95936],[136.91797,34.96275],[136.91436,34.96958],[136.907,34.9804],[136.89791,34.98116],[136.89426,34.98985],[136.89308,34.99683],[136.88528,34.99826],[136.87984,35.00414],[136.86979,35.00836],[136.84966,35.01062],[136.84384,35.00474],[136.85434,35.00323],[136.85151,34.99825],[136.84631,34.999],[136.83394,34.98227],[136.83867,34.98005],[136.83612,34.97638],[136.83109,34.97873],[136.82048,34.96626],[136.82893,34.96142],[136.82675,34.95326],[136.82658,34.94394],[136.825,34.93936],[136.82947,34.93659],[136.83486,34.93746],[136.84705,34.93214],[136.85499,34.9323],[136.85859,34.93771],[136.86423,34.94162],[136.88067,34.94241]]],[[[136.82373,34.96],[136.81869,34.96435],[136.811,34.95478],[136.82027,34.94977],[136.82306,34.95318],[136.82373,34.96]]]]},"properties":{"pref":"愛知県","city":"知多市","code5":"23224","code6":"232246"}},
{"type":"Feature","geometry":{"type":"Polygon","coordinates":[[[137.04583,34.98062],[137.06041,34.97987],[137.06401,34.98468],[137.07239,34.986],[137.07204,34.99345],[137.07007,34.99729],[137.07888,35.00054],[137.08479,35.00556],[137.08506,35.00983],[137.07769,35.00809],[137.07281,35.01783],[137.06793,35.01248],[137.06195,35.00959],[137.05847,35.01256],[137.04793,35.0143],[137.04474,35.01998],[137.03971,35.02181],[137.0337,35.01873],[137.03657,35.01459],[137.03025,35.00724],[137.02319,35.0054],[137.01862,34.99762],[137.02952,34.98573],[137.03826,34.98532],[137.04583,34.98062]]]},"properties":{"pref":"愛知県","city":"知立市","code5":"23225","code6":"232254"}},
{"type":"Feature","geometry":{"type":"Polygon","coordinates":[[[137.03226,35.19181],[137.04354,35.19117],[137.04983,35.19474],[137.04909,35.20272],[137.05701,35.20802],[137.06221,35.20841],[137.0682,35.21419],[137.05998,35.21595],[137.05729,35.22184],[137.06576,35.23887],[137.05988,35.24628],[137.05205,35.24311],[137.04934,35.23783],[137.04378,35.24151],[137.03913,35.23812],[137.03454,35.23799],[137.03075,35.23461],[137.01945,35.23127],[137.01085,35.22118],[137.00674,35.21924],[137.00154,35.2093],[137.00801,35.20649],[137.01328,35.20104],[137.01191,35.19499],[137.01903,35.19368],[137.0198,35.19848],[137.03226,35.19181]]]},"properties":{"pref":"愛知県","city":"尾張旭市","code5":"23226","code6":"232262"}},
{"type":"Feature","geometry":{"type":"Polygon","coordinates":[[[137.02421,34.93173],[137.01685,34.9311],[137.01209,34.93565],[137.01235,34.94421],[137.01052,34.94739],[137.00028,34.95182],[137.00001,34.95429],[136.99155,34.95759],[136.98326,34.95599],[136.98325,34.95581],[136.9863,34.95146],[136.98263,34.94415],[136.97961,34.93293],[136.98135,34.92748],[136.97862,34.9248],[136.97895,34.91581],[136.97762,34.90734],[136.98314,34.90753],[136.99658,34.9146],[137.00159,34.91466],[137.01641,34.92647],[137.02421,34.93173]]]},"properties":{"pref":"愛知県","city":"高浜市","code5":"23227","code6":"232271"}},
{"type":"Feature","geometry":{"type":"Polygon","coordinates":[[[136.85068,35.26469],[136.86007,35.26486],[136.87438,35.25838],[136.88068,35.26658],[136.88497,35.27515],[136.88582,35.28326],[136.8831,35.28949],[136.88401,35.29937],[136.87725,35.30227],[136.87272,35.29769],[136.86506,35.29664],[136.86438,35.29059],[136.85639,35.27984],[136.849,35.27978],[136.84383,35.27118],[136.84687,35.26611],[136.85068,35.26469]]]},"properties":{"pref":"愛知県","city":"岩倉市","code5":"23228","code6":"232289"}},
{"type":"Feature","geometry":{"type":"Polygon","coordinates":[[[136.97388,35.04901],[136.9845,35.04277],[136.98738,35.038],[136.99704,35.03895],[136.99953,35.02959],[137.00165,35.02704],[137.00535,35.03353],[137.01721,35.03974],[137.02534,35.04948],[137.03387,35.05318],[137.04267,35.06253],[137.04291,35.06787],[137.04069,35.07955],[137.0355,35.08388],[137.02741,35.08526],[137.02649,35.09024],[137.02148,35.09122],[137.01748,35.0921],[137.00956,35.07532],[137.00474,35.07201],[136.99812,35.07415],[136.99472,35.07182],[136.98766,35.07255],[136.98743,35.06762],[136.98427,35.06128],[136.97604,35.06234],[136.9724,35.05643],[136.97388,35.04901]]]},"properties":{"pref":"愛知県","city":"豊明市","code5":"23229","code6":"232297"}},
{"type":"Feature","geometry":{"type":"Polygon","coordinates":[[[137.02111,35.1098],[137.02397,35.10792],[137.0329,35.11268],[137.03944,35.1087],[137.04621,35.1139],[137.05355,35.11609],[137.06057,35.11513],[137.06222,35.11913],[137.06774,35.12112],[137.07541,35.11932],[137.08131,35.12111],[137.08445,35.12534],[137.09066,35.13232],[137.0871,35.13546],[137.08814,35.13922],[137.09749,35.14465],[137.09768,35.15553],[137.09612,35.15717],[137.08263,35.15868],[137.07607,35.15815],[137.05922,35.1624],[137.05972,35.16777],[137.04807,35.16779],[137.04355,35.1628],[137.03613,35.16046],[137.03127,35.15477],[137.02702,35.15617],[137.02206,35.15325],[137.01843,35.14705],[137.02328,35.13982],[137.01696,35.13643],[137.00999,35.13684],[137.00816,35.1312],[137.0033,35.1284],[137.0145,35.11699],[137.01997,35.10957],[137.02111,35.1098]]]},"properties":{"pref":"愛知県","city":"日進市","code5":"23230","code6":"232301"}},
{"type":"Feature","geometry":{"type":"Polygon","coordinates":[[[137.30709,34.67996],[137.29404,34.6837],[137.28616,34.68021],[137.28653,34.68497],[137.29114,34.69118],[137.29046,34.69373],[137.30088,34.69378],[137.30093,34.72807],[137.28483,34.73095],[137.26173,34.71591],[137.26691,34.70862],[137.26171,34.69883],[137.25799,34.6968],[137.25217,34.70521],[137.24548,34.70621],[137.23267,34.69914],[137.23955,34.69063],[137.23302,34.6887],[137.22646,34.6773],[137.22643,34.67728],[137.21943,34.6758],[137.21186,34.67915],[137.20634,34.67791],[137.19784,34.66888],[137.1861,34.66906],[137.17504,34.65917],[137.16984,34.65652],[137.15786,34.65468],[137.14334,34.65402],[137.13153,34.65635],[137.12985,34.65161],[137.13702,34.65077],[137.14015,34.64593],[137.13656,34.64121],[137.1249,34.63753],[137.11941,34.63464],[137.10775,34.63697],[137.10252,34.63665],[137.10643,34.64272],[137.10192,34.64564],[137.09682,34.64584],[137.08942,34.64973],[137.09022,34.65606],[137.08157,34.66181],[137.07517,34.663],[137.06832,34.66123],[137.05962,34.65323],[137.04612,34.62871],[137.04205,34.62031],[137.03025,34.60106],[137.02725,34.59049],[137.02277,34.58441],[137.01812,34.58451],[137.01806,34.57842],[137.03119,34.58089],[137.03452,34.57874],[137.04049,34.57952],[137.06839,34.5859],[137.09469,34.59077],[137.10701,34.58841],[137.10782,34.58835],[137.11218,34.5883],[137.11288,34.5883],[137.1129,34.58831],[137.11414,34.58812],[137.11558,34.58752],[137.11559,34.58752],[137.11581,34.58739],[137.11582,34.58739],[137.11585,34.58736],[137.11585,34.58738],[137.11622,34.58744],[137.11637,34.58745],[137.11675,34.58734],[137.11677,34.58733],[137.11683,34.58733],[137.11754,34.58719],[137.1177,34.58725],[137.11782,34.58725],[137.11784,34.58724],[137.11897,34.58741],[137.12025,34.58729],[137.12027,34.58729],[137.1363,34.5892],[137.13962,34.58968],[137.13969,34.58975],[137.14116,34.58974],[137.14125,34.58979],[137.14222,34.58994],[137.14223,34.58992],[137.14394,34.59052],[137.14397,34.59052],[137.1517,34.59237],[137.15444,34.59379],[137.15545,34.59395],[137.15546,34.59396],[137.15549,34.59396],[137.15592,34.59407],[137.15593,34.59406],[137.15712,34.5943],[137.15738,34.5945],[137.15739,34.5945],[137.16162,34.59598],[137.16163,34.59599],[137.16316,34.59653],[137.16318,34.59653],[137.16407,34.59682],[137.1641,34.59683],[137.16623,34.59758],[137.17959,34.60283],[137.19273,34.60525],[137.2068,34.61055],[137.22016,34.61332],[137.22052,34.61323],[137.22101,34.61326],[137.22106,34.61325],[137.22152,34.61318],[137.2219,34.61322],[137.22189,34.61319],[137.22193,34.61322],[137.22194,34.61322],[137.22195,34.61322],[137.22197,34.61325],[137.24058,34.62013],[137.27435,34.63024],[137.30887,34.63973],[137.34136,34.64753],[137.33908,34.66093],[137.32389,34.66056],[137.30656,34.66461],[137.31069,34.67404],[137.30709,34.67996]]]},"properties":{"pref":"愛知県","city":"田原市","code5":"23231","code6":"232319"}},
{"type":"Feature","geometry":{"type":"Polygon","coordinates":[[[136.67278,35.13478],[136.67639,35.12887],[136.69519,35.12461],[136.70142,35.11861],[136.70684,35.12124],[136.70451,35.12802],[136.71484,35.13023],[136.71723,35.13231],[136.72505,35.12756],[136.73277,35.12948],[136.73731,35.12714],[136.74637,35.13058],[136.75499,35.12266],[136.75846,35.11742],[136.7626,35.11616],[136.76991,35.1183],[136.76386,35.12278],[136.76566,35.12704],[136.77111,35.12376],[136.77344,35.12755],[136.77093,35.13686],[136.7627,35.13274],[136.75976,35.1336],[136.7537,35.14873],[136.74666,35.15556],[136.73235,35.16667],[136.72681,35.16839],[136.70997,35.16375],[136.70706,35.17913],[136.70902,35.18947],[136.72026,35.18851],[136.72228,35.18601],[136.73051,35.18935],[136.72995,35.18429],[136.73781,35.1813],[136.7465,35.18156],[136.74791,35.17688],[136.75406,35.17898],[136.75402,35.18585],[136.75783,35.18647],[136.76356,35.19972],[136.76233,35.20528],[136.75283,35.20426],[136.74654,35.19979],[136.74266,35.19477],[136.73684,35.19376],[136.72371,35.19948],[136.72513,35.20363],[136.73047,35.20811],[136.72836,35.21983],[136.71761,35.22308],[136.72115,35.23023],[136.70996,35.23029],[136.69459,35.23587],[136.68712,35.23417],[136.68656,35.22943],[136.67988,35.22821],[136.68096,35.22378],[136.68313,35.19983],[136.67232,35.18878],[136.67112,35.17341],[136.6739,35.16018],[136.67434,35.1525],[136.67123,35.13984],[136.67278,35.13478]]]},"properties":{"pref":"愛知県","city":"愛西市","code5":"23232","code6":"232327"}},
{"type":"Feature","geometry":{"type":"Polygon","coordinates":[[[136.85787,35.23056],[136.85085,35.23788],[136.84364,35.23731],[136.83919,35.2461],[136.84318,35.25177],[136.83677,35.25064],[136.82904,35.24321],[136.8298,35.23662],[136.83844,35.22947],[136.83496,35.22236],[136.82615,35.22196],[136.82274,35.21534],[136.82298,35.20412],[136.83664,35.20465],[136.83774,35.19746],[136.8438,35.19389],[136.84597,35.18895],[136.8444,35.18257],[136.84798,35.18056],[136.8563,35.18817],[136.86593,35.19166],[136.86984,35.194],[136.87897,35.20721],[136.87854,35.20934],[136.86837,35.21191],[136.86569,35.20689],[136.86019,35.20797],[136.86464,35.21333],[136.86036,35.21523],[136.85637,35.2211],[136.85787,35.23056]]]},"properties":{"pref":"愛知県","city":"清須市","code5":"23233","code6":"232335"}},
{"type":"Feature","geometry":{"type":"Polygon","coordinates":[[[136.90304,35.2404],[136.90175,35.24324],[136.90479,35.24856],[136.90233,35.25549],[136.89735,35.25555],[136.8962,35.26286],[136.8821,35.26424],[136.88068,35.26658],[136.87438,35.25838],[136.86007,35.26486],[136.85068,35.26469],[136.84316,35.25977],[136.84318,35.25177],[136.83919,35.2461],[136.84364,35.23731],[136.85085,35.23788],[136.85787,35.23056],[136.87097,35.23095],[136.87479,35.22507],[136.88627,35.22911],[136.89923,35.23479],[136.90304,35.2404]]]},"properties":{"pref":"愛知県","city":"北名古屋市","code5":"23234","code6":"232343"}},
{"type":"Feature","geometry":{"type":"Polygon","coordinates":[[[136.70142,35.11861],[136.71407,35.10517],[136.71998,35.10337],[136.73128,35.09728],[136.74186,35.08595],[136.74957,35.08073],[136.75205,35.0717],[136.7517,35.06182],[136.7534,35.05302],[136.76086,35.03771],[136.77271,35.02439],[136.77062,35.02144],[136.77744,35.02218],[136.78137,35.01816],[136.78582,35.01955],[136.79388,35.01446],[136.79661,35.02226],[136.78069,35.03357],[136.78614,35.03567],[136.80025,35.0288],[136.80062,35.04468],[136.80053,35.04913],[136.80667,35.05156],[136.80673,35.06027],[136.79541,35.06567],[136.77515,35.08171],[136.76347,35.08498],[136.75837,35.0907],[136.77105,35.09256],[136.77088,35.09782],[136.77815,35.09724],[136.78092,35.09183],[136.78479,35.09207],[136.79618,35.09756],[136.79635,35.09952],[136.78849,35.10586],[136.78518,35.11113],[136.77381,35.11458],[136.76991,35.1183],[136.7626,35.11616],[136.75846,35.11742],[136.75499,35.12266],[136.74637,35.13058],[136.73731,35.12714],[136.73277,35.12948],[136.72505,35.12756],[136.71723,35.13231],[136.71484,35.13023],[136.70451,35.12802],[136.70684,35.12124],[136.70142,35.11861]]]},"properties":{"pref":"愛知県","city":"弥富市","code5":"23235","code6":"232351"}},
{"type":"Feature","geometry":{"type":"Polygon","coordinates":[[[137.06839,35.05729],[137.0835,35.0585],[137.08966,35.06158],[137.09585,35.05947],[137.10221,35.06422],[137.10209,35.07247],[137.10498,35.08368],[137.1131,35.09449],[137.11158,35.09717],[137.11618,35.10429],[137.12087,35.11493],[137.13008,35.11962],[137.12809,35.12304],[137.12055,35.12507],[137.11483,35.13146],[137.10483,35.13171],[137.10362,35.13609],[137.09749,35.14465],[137.08814,35.13922],[137.0871,35.13546],[137.09066,35.13232],[137.08445,35.12534],[137.08928,35.12312],[137.08534,35.10477],[137.08793,35.10123],[137.082,35.09743],[137.07826,35.09863],[137.07123,35.09559],[137.06597,35.09661],[137.05567,35.09104],[137.04994,35.07582],[137.04504,35.0692],[137.05063,35.06424],[137.05599,35.06688],[137.06877,35.06157],[137.06839,35.05729]]]},"properties":{"pref":"愛知県","city":"みよし市","code5":"23236","code6":"232360"}},
{"type":"Feature","geometry":{"type":"Polygon","coordinates":[[[136.84798,35.18056],[136.8444,35.18257],[136.84597,35.18895],[136.8438,35.19389],[136.83774,35.19746],[136.83664,35.20465],[136.82298,35.20412],[136.82274,35.21534],[136.81694,35.21531],[136.80851,35.21751],[136.8065,35.21328],[136.80196,35.21202],[136.79431,35.21313],[136.78013,35.20777],[136.76233,35.20528],[136.76356,35.19972],[136.77193,35.19809],[136.77942,35.18441],[136.77999,35.17229],[136.78662,35.17222],[136.78287,35.16065],[136.78454,35.15738],[136.78665,35.14993],[136.79355,35.14773],[136.80091,35.14804],[136.80896,35.14761],[136.80941,35.15357],[136.80263,35.15418],[136.80176,35.1613],[136.8078,35.16819],[136.80908,35.1775],[136.80908,35.19009],[136.81399,35.18732],[136.82355,35.18728],[136.82376,35.18025],[136.83246,35.17868],[136.84112,35.17406],[136.84798,35.18056]]]},"properties":{"pref":"愛知県","city":"あま市","code5":"23237","code6":"232378"}},
{"type":"Feature","geometry":{"type":"Polygon","coordinates":[[[137.03226,35.19181],[137.02001,35.19071],[137.01792,35.18831],[137.0258,35.18512],[137.02684,35.1794],[137.02402,35.17382],[137.02746,35.16872],[137.02288,35.1632],[137.02702,35.15617],[137.03127,35.15477],[137.03613,35.16046],[137.04355,35.1628],[137.04807,35.16779],[137.05972,35.16777],[137.05922,35.1624],[137.07607,35.15815],[137.08263,35.15868],[137.09612,35.15717],[137.09472,35.16026],[137.09738,35.1736],[137.09567,35.17939],[137.08773,35.18332],[137.08518,35.1898],[137.08157,35.18874],[137.07218,35.19138],[137.06705,35.19589],[137.05918,35.1911],[137.04983,35.19474],[137.04354,35.19117],[137.03226,35.19181]]]},"properties":{"pref":"愛知県","city":"長久手市","code5":"23238","code6":"232386"}},
{"type":"Feature","geometry":{"type":"Polygon","coordinates":[[[137.02148,35.09122],[137.02649,35.09024],[137.02741,35.08526],[137.0355,35.08388],[137.04069,35.07955],[137.04291,35.06787],[137.04504,35.0692],[137.04994,35.07582],[137.05567,35.09104],[137.06597,35.09661],[137.07123,35.09559],[137.07826,35.09863],[137.082,35.09743],[137.08793,35.10123],[137.08534,35.10477],[137.08928,35.12312],[137.08445,35.12534],[137.08131,35.12111],[137.07541,35.11932],[137.06774,35.12112],[137.06222,35.11913],[137.06057,35.11513],[137.05355,35.11609],[137.04621,35.1139],[137.03944,35.1087],[137.0329,35.11268],[137.02397,35.10792],[137.02111,35.1098],[137.02344,35.10273],[137.02001,35.0961],[137.02148,35.09122]]]},"properties":{"pref":"愛知県","county":"愛知郡","city":"東郷町","code5":"23302","code6":"233021"}},
{"type":"Feature","geometry":{"type":"Polygon","coordinates":[[[136.9268,35.24257],[136.93151,35.24658],[136.93081,35.25732],[136.92369,35.26336],[136.91718,35.26525],[136.90861,35.26163],[136.90233,35.25549],[136.90479,35.24856],[136.90175,35.24324],[136.90304,35.2404],[136.90873,35.24037],[136.91082,35.23643],[136.92041,35.23833],[136.9268,35.24257]]]},"properties":{"pref":"愛知県","county":"西春日井郡","city":"豊山町","code5":"23342","code6":"233421"}},
{"type":"Feature","geometry":{"type":"Polygon","coordinates":[[[136.93985,35.36134],[136.93891,35.35491],[136.93554,35.35001],[136.93001,35.34966],[136.91907,35.35173],[136.90969,35.34906],[136.89965,35.34134],[136.89453,35.33541],[136.88906,35.32132],[136.88359,35.31843],[136.88295,35.30924],[136.88752,35.30457],[136.89588,35.30664],[136.90296,35.31397],[136.90666,35.31324],[136.90719,35.3202],[136.92175,35.31929],[136.92504,35.32488],[136.93116,35.32864],[136.93326,35.33652],[136.93665,35.34254],[136.93558,35.34595],[136.94157,35.35232],[136.94194,35.35869],[136.93985,35.36134]]]},"properties":{"pref":"愛知県","county":"丹羽郡","city":"大口町","code5":"23361","code6":"233617"}},
{"type":"Feature","geometry":{"type":"Polygon","coordinates":[[[136.89272,35.37809],[136.89889,35.37177],[136.89605,35.36658],[136.89642,35.35968],[136.89185,35.35379],[136.89509,35.34674],[136.89965,35.34134],[136.90969,35.34906],[136.91907,35.35173],[136.93001,35.34966],[136.93554,35.35001],[136.93891,35.35491],[136.93985,35.36134],[136.93524,35.37022],[136.93064,35.36778],[136.92104,35.36787],[136.91687,35.37147],[136.92326,35.37585],[136.92145,35.37903],[136.90853,35.37757],[136.89272,35.37809]]]},"properties":{"pref":"愛知県","county":"丹羽郡","city":"扶桑町","code5":"23362","code6":"233625"}},
{"type":"Feature","geometry":{"type":"Polygon","coordinates":[[[136.84112,35.17406],[136.83246,35.17868],[136.82376,35.18025],[136.82355,35.18728],[136.81399,35.18732],[136.80908,35.19009],[136.80908,35.1775],[136.8078,35.16819],[136.81381,35.16746],[136.81836,35.16464],[136.81718,35.15898],[136.83019,35.15728],[136.83331,35.16488],[136.83552,35.16943],[136.84112,35.17406]]]},"properties":{"pref":"愛知県","county":"海部郡","city":"大治町","code5":"23424","code6":"234249"}},
{"type":"Feature","geometry":{"type":"Polygon","coordinates":[[[136.80091,35.14804],[136.79355,35.14773],[136.78665,35.14993],[136.78454,35.15738],[136.78218,35.14974],[136.77089,35.14758],[136.77248,35.14085],[136.77093,35.13686],[136.77344,35.12755],[136.77111,35.12376],[136.76566,35.12704],[136.76386,35.12278],[136.76991,35.1183],[136.77381,35.11458],[136.78518,35.11113],[136.78849,35.10586],[136.79635,35.09952],[136.79618,35.09756],[136.79794,35.09694],[136.79809,35.10185],[136.79197,35.11226],[136.7942,35.12198],[136.79757,35.12192],[136.79742,35.12817],[136.80013,35.13248],[136.80091,35.14804]]]},"properties":{"pref":"愛知県","county":"海部郡","city":"蟹江町","code5":"23425","code6":"234257"}},
{"type":"Feature","geometry":{"type":"MultiPolygon","coordinates":[[[[136.79794,35.09694],[136.79618,35.09756],[136.78479,35.09207],[136.78092,35.09183],[136.77815,35.09724],[136.77088,35.09782],[136.77105,35.09256],[136.75837,35.0907],[136.76347,35.08498],[136.77515,35.08171],[136.79541,35.06567],[136.80673,35.06027],[136.80667,35.05156],[136.81716,35.05021],[136.83008,35.05025],[136.83363,35.05959],[136.83335,35.0641],[136.8236,35.06825],[136.82307,35.06346],[136.81872,35.06511],[136.82058,35.07222],[136.82471,35.08023],[136.81006,35.09338],[136.79794,35.09694]]],[[[136.8309,35.04937],[136.81004,35.04931],[136.81086,35.02667],[136.81801,35.02601],[136.82584,35.02822],[136.83897,35.0302],[136.8309,35.04937]]]]},"properties":{"pref":"愛知県","county":"海部郡","city":"飛島村","code5":"23427","code6":"234273"}},
{"type":"Feature","geometry":{"type":"Polygon","coordinates":[[[136.94428,34.94175],[136.93935,34.94995],[136.92755,34.95457],[136.9248,34.95838],[136.91797,34.96275],[136.91245,34.95936],[136.91041,34.95327],[136.90651,34.95236],[136.89435,34.9588],[136.88931,34.95517],[136.88513,34.95654],[136.87876,34.95082],[136.88067,34.94241],[136.89169,34.94],[136.89203,34.93732],[136.88695,34.92879],[136.88361,34.92046],[136.87979,34.91811],[136.88691,34.91096],[136.89407,34.91106],[136.89932,34.91423],[136.91377,34.91078],[136.91948,34.9132],[136.93263,34.91331],[136.93462,34.91898],[136.93372,34.92324],[136.93739,34.9267],[136.93598,34.9307],[136.93845,34.93624],[136.94428,34.94175]]]},"properties":{"pref":"愛知県","county":"知多郡","city":"阿久比町","code5":"23441","code6":"234419"}},
{"type":"Feature","geometry":{"type":"Polygon","coordinates":[[[136.97524,34.93218],[136.97756,34.94185],[136.97648,34.94202],[136.97618,34.94398],[136.9762,34.94395],[136.97796,34.9436],[136.98104,34.95685],[136.98325,34.95581],[136.98326,34.95599],[136.98246,34.97218],[136.97889,34.98418],[136.98155,34.99273],[136.98104,35.00149],[136.97257,34.99947],[136.96181,35.00349],[136.95283,34.99615],[136.94854,34.99769],[136.94619,34.99188],[136.93646,34.98965],[136.93235,34.98376],[136.92903,34.98332],[136.92327,34.97586],[136.91608,34.97322],[136.91436,34.96958],[136.91797,34.96275],[136.9248,34.95838],[136.92755,34.95457],[136.93935,34.94995],[136.94428,34.94175],[136.95383,34.93807],[136.96047,34.94009],[136.96674,34.9363],[136.96561,34.93292],[136.97524,34.93218]]]},"properties":{"pref":"愛知県","county":"知多郡","city":"東浦町","code5":"23442","code6":"234427"}},
{"type":"Feature","geometry":{"type":"MultiPolygon","coordinates":[[[[136.94214,34.74744],[136.93436,34.74359],[136.93518,34.74147],[136.92275,34.7286],[136.91908,34.73272],[136.91031,34.73885],[136.90255,34.74832],[136.89907,34.75462],[136.89784,34.76365],[136.88784,34.76642],[136.88145,34.76117],[136.86944,34.75516],[136.8651,34.7557],[136.85858,34.74707],[136.85184,34.74856],[136.85637,34.74554],[136.86079,34.73878],[136.86658,34.73742],[136.87489,34.72883],[136.88106,34.72717],[136.88842,34.72187],[136.89752,34.71936],[136.91016,34.71437],[136.92464,34.70707],[136.92906,34.70602],[136.93559,34.7082],[136.94272,34.70074],[136.94897,34.6998],[136.95533,34.69961],[136.96123,34.70164],[136.97136,34.69929],[136.97423,34.7028],[136.96986,34.71028],[136.97272,34.71613],[136.96197,34.72119],[136.97012,34.72512],[136.96527,34.73361],[136.95976,34.73676],[136.95133,34.73826],[136.94214,34.74744]]],[[[137.01033,34.68222],[137.00219,34.67788],[137.00022,34.67031],[137.00228,34.6693],[137.00536,34.66662],[137.0054,34.66663],[137.00608,34.66883],[137.00452,34.67236],[137.01001,34.67752],[137.01033,34.68222]]],[[[137.0115,34.70741],[137.00342,34.70799],[136.99653,34.70523],[136.99884,34.70051],[137.01013,34.7036],[137.0115,34.70741]]]]},"properties":{"pref":"愛知県","county":"知多郡","city":"南知多町","code5":"23445","code6":"234451"}},
{"type":"Feature","geometry":{"type":"Polygon","coordinates":[[[136.86184,34.81405],[136.85746,34.80397],[136.85881,34.80264],[136.85612,34.79362],[136.84295,34.76619],[136.84205,34.76236],[136.84493,34.75668],[136.85184,34.74856],[136.85858,34.74707],[136.8651,34.7557],[136.86944,34.75516],[136.88145,34.76117],[136.88784,34.76642],[136.89784,34.76365],[136.89907,34.75462],[136.90255,34.74832],[136.91031,34.73885],[136.91908,34.73272],[136.92275,34.7286],[136.93518,34.74147],[136.93436,34.74359],[136.94214,34.74744],[136.93478,34.75379],[136.92743,34.7571],[136.92702,34.76408],[136.91958,34.76574],[136.91466,34.77305],[136.91602,34.78295],[136.92111,34.79317],[136.91921,34.79801],[136.92202,34.80365],[136.92002,34.81098],[136.92132,34.81324],[136.91429,34.81108],[136.90409,34.81483],[136.89871,34.81349],[136.89498,34.81553],[136.88691,34.81501],[136.87865,34.81277],[136.87236,34.81433],[136.86708,34.81261],[136.86184,34.81405]]]},"properties":{"pref":"愛知県","county":"知多郡","city":"美浜町","code5":"23446","code6":"234460"}},
{"type":"Feature","geometry":{"type":"Polygon","coordinates":[[[136.87569,34.87834],[136.88143,34.8682],[136.88812,34.86516],[136.89143,34.85558],[136.88804,34.85198],[136.8819,34.85074],[136.8845,34.84033],[136.88463,34.82761],[136.88251,34.82359],[136.88691,34.81501],[136.89498,34.81553],[136.89871,34.81349],[136.90409,34.81483],[136.91429,34.81108],[136.92132,34.81324],[136.92537,34.81399],[136.92682,34.82759],[136.9223,34.83009],[136.9354,34.83004],[136.93601,34.83583],[136.92937,34.83907],[136.93044,34.84851],[136.93456,34.84848],[136.93544,34.85712],[136.92806,34.85858],[136.93095,34.86447],[136.94073,34.86277],[136.9266,34.86768],[136.92366,34.87002],[136.91519,34.86855],[136.90537,34.8709],[136.89459,34.87504],[136.8842,34.8735],[136.87569,34.87834]]]},"properties":{"pref":"愛知県","county":"知多郡","city":"武豊町","code5":"23447","code6":"234478"}},
{"type":"Feature","geometry":{"type":"Polygon","coordinates":[[[137.13782,34.89052],[137.13968,34.88242],[137.13476,34.88244],[137.13707,34.8748],[137.13268,34.86961],[137.12262,34.87071],[137.11518,34.86989],[137.112,34.86485],[137.11517,34.85991],[137.12234,34.859],[137.127,34.85347],[137.1214,34.84595],[137.11314,34.85362],[137.10468,34.85179],[137.11046,34.84816],[137.10424,34.84611],[137.10171,34.84269],[137.11723,34.83871],[137.12399,34.8444],[137.12793,34.84248],[137.13504,34.83433],[137.14635,34.82827],[137.14771,34.82337],[137.1554,34.82499],[137.16369,34.81496],[137.17043,34.82151],[137.179,34.82609],[137.18003,34.82293],[137.18693,34.82293],[137.19959,34.82517],[137.19175,34.83274],[137.19159,34.83533],[137.198,34.8415],[137.19295,34.84818],[137.19709,34.85311],[137.20551,34.85642],[137.2044,34.86109],[137.21214,34.86764],[137.20971,34.87209],[137.21081,34.87787],[137.20371,34.8807],[137.20067,34.88464],[137.20236,34.89067],[137.20826,34.89239],[137.20313,34.89903],[137.1958,34.90085],[137.19292,34.9054],[137.17699,34.90971],[137.16712,34.90566],[137.1618,34.90037],[137.15816,34.88916],[137.15359,34.88682],[137.14626,34.88942],[137.13782,34.89052]]]},"properties":{"pref":"愛知県","county":"額田郡","city":"幸田町","code5":"23501","code6":"235016"}},
{"type":"Feature","geometry":{"type":"Polygon","coordinates":[[[137.57866,35.19847],[137.57764,35.19584],[137.58109,35.19021],[137.5752,35.18555],[137.56664,35.18807],[137.55077,35.18905],[137.54627,35.18734],[137.53771,35.19033],[137.51891,35.17807],[137.51251,35.18526],[137.49997,35.18473],[137.4994,35.18943],[137.50255,35.19554],[137.49543,35.19729],[137.48696,35.19371],[137.48236,35.18558],[137.48318,35.17953],[137.47447,35.16991],[137.46219,35.16015],[137.4669,35.15842],[137.46827,35.1546],[137.47478,35.1501],[137.47379,35.14662],[137.46818,35.14103],[137.46317,35.13891],[137.45733,35.13345],[137.45162,35.13296],[137.44373,35.13608],[137.44458,35.13046],[137.44841,35.1257],[137.44774,35.11965],[137.44393,35.11536],[137.4425,35.1101],[137.43347,35.10819],[137.4294,35.10436],[137.43003,35.09584],[137.43461,35.09142],[137.43363,35.08701],[137.44277,35.08117],[137.44635,35.07194],[137.45054,35.07302],[137.45422,35.06897],[137.45133,35.06671],[137.44889,35.05857],[137.45198,35.05428],[137.45853,35.05597],[137.46265,35.05315],[137.47099,35.05386],[137.47584,35.06163],[137.48844,35.06419],[137.49146,35.06883],[137.50227,35.06542],[137.5069,35.05379],[137.50992,35.0494],[137.50517,35.04164],[137.51157,35.03968],[137.51736,35.04734],[137.52335,35.0481],[137.52536,35.04286],[137.53117,35.04252],[137.53456,35.05164],[137.54292,35.05732],[137.5513,35.05697],[137.55925,35.0551],[137.56082,35.05781],[137.57006,35.06043],[137.57968,35.05963],[137.58285,35.05655],[137.58359,35.05105],[137.59027,35.0377],[137.58972,35.03418],[137.59475,35.03114],[137.59921,35.0254],[137.59967,35.01874],[137.60389,35.01636],[137.61999,35.01927],[137.62116,35.02601],[137.62454,35.03353],[137.62291,35.04028],[137.62572,35.04681],[137.63134,35.04881],[137.62839,35.05428],[137.6338,35.05838],[137.63426,35.06461],[137.63781,35.06429],[137.63872,35.06802],[137.6342,35.07249],[137.63329,35.08394],[137.62534,35.08936],[137.62106,35.09806],[137.60959,35.09787],[137.60633,35.10344],[137.60614,35.11115],[137.61022,35.11935],[137.61092,35.12595],[137.60952,35.13127],[137.61033,35.14001],[137.61508,35.14117],[137.62142,35.13802],[137.63093,35.14265],[137.63746,35.14233],[137.64194,35.14504],[137.6504,35.14634],[137.65535,35.13942],[137.65907,35.14117],[137.66566,35.14021],[137.67057,35.14154],[137.6759,35.13996],[137.67741,35.14502],[137.67606,35.15412],[137.67696,35.15834],[137.66699,35.17579],[137.66341,35.18712],[137.65974,35.18948],[137.65494,35.19901],[137.65691,35.20371],[137.65699,35.21524],[137.65351,35.21755],[137.64539,35.21402],[137.64462,35.20901],[137.63298,35.2122],[137.6268,35.21188],[137.60308,35.20607],[137.60223,35.20435],[137.59148,35.19934],[137.57866,35.19847]]]},"properties":{"pref":"愛知県","county":"北設楽郡","city":"設楽町","code5":"23561","code6":"235610"}},
{"type":"Feature","geometry":{"type":"Polygon","coordinates":[[[137.77827,35.09962],[137.77417,35.10047],[137.76326,35.10893],[137.76161,35.11206],[137.7539,35.11264],[137.74784,35.11489],[137.74552,35.12296],[137.73982,35.12261],[137.71568,35.13098],[137.71169,35.12557],[137.70558,35.12333],[137.70283,35.12577],[137.69419,35.12407],[137.68906,35.13292],[137.68212,35.13266],[137.67058,35.12903],[137.65974,35.12942],[137.65535,35.13942],[137.6504,35.14634],[137.64194,35.14504],[137.63746,35.14233],[137.63093,35.14265],[137.62142,35.13802],[137.61508,35.14117],[137.61033,35.14001],[137.60952,35.13127],[137.61092,35.12595],[137.61022,35.11935],[137.60614,35.11115],[137.60633,35.10344],[137.60959,35.09787],[137.62106,35.09806],[137.62534,35.08936],[137.63329,35.08394],[137.6342,35.07249],[137.63872,35.06802],[137.63781,35.06429],[137.64497,35.05941],[137.64549,35.05596],[137.65207,35.05445],[137.65464,35.04992],[137.66236,35.0498],[137.66657,35.04212],[137.67456,35.0403],[137.68074,35.04247],[137.69154,35.03797],[137.69146,35.03306],[137.70134,35.03026],[137.7058,35.02246],[137.70492,35.01476],[137.71652,35.02747],[137.71706,35.03465],[137.7233,35.03908],[137.72875,35.04034],[137.73584,35.05144],[137.74028,35.05651],[137.75474,35.06543],[137.7616,35.06856],[137.76381,35.07219],[137.76847,35.07234],[137.77567,35.07798],[137.77406,35.08413],[137.77456,35.0927],[137.77827,35.09962]]]},"properties":{"pref":"愛知県","county":"北設楽郡","city":"東栄町","code5":"23562","code6":"235628"}},
{"type":"Feature","geometry":{"type":"Polygon","coordinates":[[[137.70771,35.23202],[137.69982,35.23161],[137.69406,35.23371],[137.68722,35.23073],[137.68126,35.23509],[137.67858,35.23089],[137.67363,35.23117],[137.66788,35.2273],[137.66379,35.22783],[137.65392,35.22671],[137.65351,35.21755],[137.65699,35.21524],[137.65691,35.20371],[137.65494,35.19901],[137.65974,35.18948],[137.66341,35.18712],[137.66699,35.17579],[137.67696,35.15834],[137.67606,35.15412],[137.67741,35.14502],[137.6759,35.13996],[137.67057,35.14154],[137.66566,35.14021],[137.65907,35.14117],[137.65535,35.13942],[137.65974,35.12942],[137.67058,35.12903],[137.68212,35.13266],[137.68906,35.13292],[137.69419,35.12407],[137.70283,35.12577],[137.70558,35.12333],[137.71169,35.12557],[137.71568,35.13098],[137.73982,35.12261],[137.74552,35.12296],[137.74784,35.11489],[137.7539,35.11264],[137.76161,35.11206],[137.76326,35.10893],[137.77417,35.10047],[137.77827,35.09962],[137.78176,35.09664],[137.79297,35.09555],[137.79519,35.10308],[137.80132,35.10659],[137.79831,35.11831],[137.79731,35.1271],[137.792,35.12905],[137.79314,35.13522],[137.79873,35.13546],[137.80099,35.13086],[137.80586,35.13112],[137.80986,35.13703],[137.81486,35.14047],[137.8124,35.14375],[137.81357,35.15101],[137.82186,35.14801],[137.82896,35.15191],[137.8273,35.15548],[137.82129,35.15844],[137.82547,35.1682],[137.81814,35.17468],[137.81044,35.17481],[137.80498,35.17924],[137.8032,35.18312],[137.8074,35.18783],[137.81381,35.18628],[137.82034,35.1973],[137.82166,35.20319],[137.82891,35.20433],[137.82863,35.21158],[137.83812,35.21247],[137.82675,35.21595],[137.82152,35.21565],[137.80678,35.20981],[137.80042,35.20565],[137.7942,35.20496],[137.78349,35.20598],[137.7791,35.20275],[137.76772,35.20689],[137.76609,35.21],[137.76929,35.21599],[137.76802,35.21846],[137.76038,35.22077],[137.747,35.22048],[137.74331,35.21887],[137.73552,35.2227],[137.72942,35.22098],[137.72242,35.2221],[137.72189,35.23076],[137.71177,35.22887],[137.70771,35.23202]]]},"properties":{"pref":"愛知県","county":"北設楽郡","city":"豊根村","code5":"23563","code6":"235636"}},
{"type":"Feature","geometry":{"type":"MultiPolygon","coordinates":[[[[136.90304,35.2404],[136.89923,35.23479],[136.88627,35.22911],[136.87479,35.22507],[136.87097,35.23095],[136.85787,35.23056],[136.85637,35.2211],[136.86036,35.21523],[136.86464,35.21333],[136.86019,35.20797],[136.86569,35.20689],[136.86837,35.21191],[136.87854,35.20934],[136.87897,35.20721],[136.86984,35.194],[136.86593,35.19166],[136.8563,35.18817],[136.84798,35.18056],[136.84112,35.17406],[136.83552,35.16943],[136.83331,35.16488],[136.83019,35.15728],[136.81718,35.15898],[136.81836,35.16464],[136.81381,35.16746],[136.8078,35.16819],[136.80176,35.1613],[136.80263,35.15418],[136.80941,35.15357],[136.80896,35.14761],[136.80091,35.14804],[136.80013,35.13248],[136.79742,35.12817],[136.79757,35.12192],[136.7942,35.12198],[136.79197,35.11226],[136.79809,35.10185],[136.79794,35.09694],[136.81006,35.09338],[136.82471,35.08023],[136.82728,35.08288],[136.83292,35.08174],[136.84725,35.08305],[136.84966,35.07803],[136.84571,35.06428],[136.8426,35.05928],[136.84744,35.05666],[136.85548,35.05659],[136.86929,35.0821],[136.86854,35.08821],[136.87533,35.0904],[136.88482,35.08876],[136.89034,35.08992],[136.88959,35.07034],[136.88396,35.06727],[136.89027,35.06713],[136.9016,35.06892],[136.90579,35.06841],[136.91305,35.06848],[136.91777,35.06292],[136.92442,35.06442],[136.92576,35.0586],[136.93127,35.05074],[136.93662,35.0532],[136.94112,35.05216],[136.94634,35.04419],[136.9532,35.04477],[136.95577,35.04788],[136.96189,35.03956],[136.96485,35.04293],[136.97225,35.04306],[136.97388,35.04901],[136.9724,35.05643],[136.97604,35.06234],[136.98427,35.06128],[136.98743,35.06762],[136.98766,35.07255],[136.99472,35.07182],[136.99812,35.07415],[137.00474,35.07201],[137.00956,35.07532],[137.01748,35.0921],[137.02148,35.09122],[137.02001,35.0961],[137.02344,35.10273],[137.02111,35.1098],[137.01997,35.10957],[137.0145,35.11699],[137.0033,35.1284],[137.00816,35.1312],[137.00999,35.13684],[137.01696,35.13643],[137.02328,35.13982],[137.01843,35.14705],[137.02206,35.15325],[137.02702,35.15617],[137.02288,35.1632],[137.02746,35.16872],[137.02402,35.17382],[137.02684,35.1794],[137.0258,35.18512],[137.01792,35.18831],[137.02001,35.19071],[137.03226,35.19181],[137.0198,35.19848],[137.01903,35.19368],[137.01191,35.19499],[137.01328,35.20104],[137.00801,35.20649],[137.00154,35.2093],[137.00674,35.21924],[137.01085,35.22118],[137.01945,35.23127],[137.03075,35.23461],[137.03454,35.23799],[137.03913,35.23812],[137.04378,35.24151],[137.04934,35.23783],[137.05205,35.24311],[137.05988,35.24628],[137.05497,35.25042],[137.05348,35.25783],[137.05034,35.26023],[137.03697,35.25841],[137.02915,35.259],[137.02014,35.25237],[137.01364,35.25162],[137.01077,35.24473],[137.00532,35.24041],[136.99317,35.24086],[136.98974,35.2379],[136.99039,35.22986],[136.98902,35.22672],[136.98145,35.22523],[136.97364,35.21843],[136.96413,35.21679],[136.95623,35.21744],[136.94667,35.2161],[136.93659,35.21615],[136.93983,35.22425],[136.93169,35.22301],[136.92552,35.23108],[136.92908,35.23308],[136.92993,35.24367],[136.9268,35.24257],[136.92041,35.23833],[136.91082,35.23643],[136.90873,35.24037],[136.90304,35.2404]]],[[[136.87816,35.07192],[136.87366,35.07186],[136.86946,35.06806],[136.8703,35.06301],[136.86525,35.05001],[136.87238,35.04973],[136.87611,35.05426],[136.88195,35.06935],[136.87816,35.07192]]],[[[136.84867,35.05605],[136.84059,35.05604],[136.83798,35.05184],[136.84552,35.03391],[136.84815,35.0367],[136.84408,35.04162],[136.84773,35.0468],[136.85203,35.04385],[136.85496,35.05531],[136.84867,35.05605]]]]},"properties":{"pref":"愛知県","city":"名古屋市","code5":"23100","code6":"231002"}}
]}