{"type":"FeatureCollection", "features": [
{"type":"Feature","geometry":{"type":"Polygon","coordinates":[[[136.48795,34.80231],[136.48315,34.80682],[136.47938,34.80585],[136.47507,34.80983],[136.46901,34.80901],[136.46619,34.8122],[136.45023,34.81094],[136.44915,34.81465],[136.44078,34.82061],[136.43837,34.82044],[136.43435,34.82791],[136.43466,34.83986],[136.4224,34.84448],[136.41745,34.83965],[136.41409,34.84237],[136.40761,34.84335],[136.40417,34.8382],[136.39682,34.8356],[136.3885,34.83475],[136.38135,34.82789],[136.37552,34.82052],[136.37111,34.81967],[136.36487,34.82291],[136.35319,34.82145],[136.34334,34.8184],[136.33427,34.81819],[136.32712,34.82043],[136.3227,34.81915],[136.32228,34.81226],[136.31405,34.81268],[136.31224,34.80685],[136.30982,34.80244],[136.31745,34.78777],[136.32424,34.78554],[136.3319,34.78727],[136.33645,34.77761],[136.34181,34.77335],[136.34204,34.76952],[136.33357,34.76598],[136.3251,34.76077],[136.31878,34.75476],[136.31703,34.74762],[136.30407,34.7443],[136.2965,34.73513],[136.3013,34.73136],[136.30845,34.72907],[136.30956,34.72491],[136.30469,34.72291],[136.30015,34.71639],[136.28971,34.709],[136.28457,34.70201],[136.28309,34.69625],[136.27861,34.68991],[136.27128,34.68476],[136.27278,34.67668],[136.26574,34.67365],[136.27267,34.66743],[136.275,34.66338],[136.26747,34.66058],[136.26817,34.65736],[136.26167,34.65605],[136.25829,34.6455],[136.25136,34.64397],[136.24979,34.63613],[136.24536,34.63007],[136.24587,34.62518],[136.25035,34.61946],[136.2492,34.60548],[136.25009,34.59968],[136.25906,34.59452],[136.25289,34.59058],[136.2548,34.58345],[136.2509,34.58363],[136.23891,34.58035],[136.22596,34.57883],[136.22241,34.56949],[136.2184,34.56422],[136.21922,34.55776],[136.20876,34.56666],[136.19549,34.56664],[136.18956,34.56887],[136.18455,34.56683],[136.17927,34.56821],[136.17401,34.56234],[136.17073,34.56165],[136.16403,34.54904],[136.16169,34.5483],[136.15977,34.54671],[136.16972,34.53888],[136.17177,34.53482],[136.1674,34.52017],[136.17182,34.51815],[136.18212,34.51675],[136.18978,34.52396],[136.19361,34.52348],[136.20994,34.52903],[136.21663,34.52798],[136.21598,34.52329],[136.21978,34.51589],[136.21948,34.51053],[136.21579,34.50781],[136.21467,34.50131],[136.21826,34.49702],[136.22904,34.49472],[136.22852,34.48907],[136.2192,34.48523],[136.21556,34.48115],[136.21473,34.47272],[136.20932,34.46706],[136.20745,34.46055],[136.2086,34.4555],[136.20625,34.44868],[136.21543,34.44997],[136.21988,34.44812],[136.22822,34.44898],[136.24421,34.44745],[136.25228,34.44773],[136.25599,34.45016],[136.2794,34.45348],[136.28619,34.45554],[136.28767,34.45977],[136.29341,34.46256],[136.30528,34.46125],[136.31424,34.46827],[136.3162,34.47428],[136.32431,34.47927],[136.32464,34.49008],[136.33422,34.49055],[136.34359,34.4998],[136.3482,34.50761],[136.34104,34.52105],[136.33827,34.52224],[136.33711,34.52985],[136.34357,34.53284],[136.35468,34.54263],[136.3541,34.5472],[136.35987,34.54928],[136.36227,34.55754],[136.36886,34.56304],[136.37107,34.57171],[136.37613,34.57482],[136.37728,34.58422],[136.39044,34.59498],[136.39192,34.60061],[136.39139,34.61025],[136.39697,34.61571],[136.40182,34.61436],[136.41045,34.62113],[136.41816,34.62412],[136.42252,34.63156],[136.43026,34.63658],[136.43677,34.63496],[136.43964,34.62961],[136.44754,34.62762],[136.4528,34.63779],[136.45645,34.637],[136.46292,34.64296],[136.46368,34.64917],[136.47396,34.64852],[136.48575,34.645],[136.49974,34.6511],[136.52189,34.6477],[136.52687,34.64869],[136.53226,34.64672],[136.53572,34.64109],[136.54262,34.63685],[136.54958,34.6347],[136.54795,34.64535],[136.54845,34.66631],[136.55426,34.66734],[136.55761,34.67135],[136.55345,34.67622],[136.54933,34.67082],[136.54236,34.67467],[136.54685,34.68021],[136.54141,34.68323],[136.53609,34.6803],[136.52968,34.68415],[136.52335,34.68509],[136.52158,34.68954],[136.52106,34.69846],[136.52432,34.71307],[136.52812,34.72578],[136.52883,34.73725],[136.53436,34.75419],[136.54153,34.76743],[136.54464,34.77371],[136.55491,34.78801],[136.5704,34.80454],[136.55894,34.81189],[136.54189,34.81004],[136.53957,34.80825],[136.52917,34.80796],[136.52684,34.81213],[136.5114,34.80672],[136.50971,34.80456],[136.50196,34.80608],[136.49533,34.79956],[136.49112,34.79888],[136.48795,34.80231]]]},"properties":{"pref":"三重県","city":"津市","code5":"24201","code6":"242012"}},
{"type":"Feature","geometry":{"type":"MultiPolygon","coordinates":[[[[136.56326,35.06438],[136.54993,35.06674],[136.54801,35.06884],[136.53881,35.07051],[136.54181,35.06047],[136.53796,35.05269],[136.53896,35.05029],[136.53354,35.04337],[136.53429,35.03802],[136.54246,35.03817],[136.55905,35.03642],[136.55467,35.02525],[136.55449,35.01774],[136.55053,35.01453],[136.54119,35.01819],[136.53737,35.01827],[136.53432,35.01296],[136.54045,35.00915],[136.54591,35.0014],[136.53153,34.99795],[136.52081,35.00027],[136.51572,34.99669],[136.50906,34.99884],[136.49909,34.99658],[136.49135,34.99748],[136.48885,34.99577],[136.47775,34.9938],[136.47499,34.99574],[136.46265,34.99063],[136.4592,34.9914],[136.45475,34.99722],[136.4451,35.00038],[136.42927,35.00127],[136.42117,34.99963],[136.41349,34.99543],[136.41636,34.99213],[136.41519,34.98462],[136.42493,34.98456],[136.4282,34.98741],[136.43465,34.98635],[136.44166,34.98809],[136.44529,34.98466],[136.45613,34.97914],[136.46144,34.9777],[136.47043,34.97056],[136.47256,34.96547],[136.47613,34.96393],[136.47543,34.95861],[136.48033,34.95829],[136.48823,34.95371],[136.49152,34.95466],[136.50752,34.94837],[136.51331,34.94347],[136.51111,34.93942],[136.52395,34.931],[136.54059,34.92363],[136.54972,34.92142],[136.5603,34.91445],[136.56946,34.91326],[136.57746,34.91464],[136.58121,34.91053],[136.58663,34.9093],[136.59404,34.91043],[136.59924,34.90624],[136.61545,34.90423],[136.63437,34.90348],[136.64233,34.90059],[136.64728,34.90801],[136.64502,34.92072],[136.64575,34.93441],[136.65321,34.93737],[136.66687,34.937],[136.66753,34.94177],[136.66313,34.94541],[136.64847,34.94684],[136.64111,34.93875],[136.63757,34.9464],[136.64112,34.94898],[136.64553,34.95587],[136.64662,34.96439],[136.65041,34.97474],[136.64599,34.97652],[136.65181,34.9933],[136.66044,35.00104],[136.67398,35.00636],[136.67006,35.0174],[136.66163,35.0117],[136.65439,35.01813],[136.65923,35.02187],[136.6577,35.02498],[136.65206,35.02832],[136.64479,35.02953],[136.64036,35.0371],[136.64175,35.04305],[136.63296,35.04405],[136.62739,35.04626],[136.61828,35.04741],[136.60822,35.04612],[136.60019,35.04861],[136.58903,35.04995],[136.57203,35.05391],[136.56768,35.06135],[136.56326,35.06438]]],[[[136.673,34.99794],[136.67104,35.00229],[136.66377,34.9993],[136.65281,34.99185],[136.65013,34.97735],[136.66562,34.97294],[136.67227,34.98274],[136.67698,34.98745],[136.66129,34.99347],[136.66675,34.99784],[136.673,34.99794]]]]},"properties":{"pref":"三重県","city":"四日市市","code5":"24202","code6":"242021"}},
{"type":"Feature","geometry":{"type":"Polygon","coordinates":[[[136.81605,34.4852],[136.816,34.4966],[136.8089,34.50827],[136.80022,34.50699],[136.79575,34.50653],[136.78849,34.50915],[136.78846,34.50916],[136.77686,34.50892],[136.76534,34.51355],[136.75755,34.5192],[136.7532,34.52476],[136.7472,34.5263],[136.74081,34.53187],[136.73625,34.53353],[136.71601,34.5445],[136.70007,34.54563],[136.69422,34.54704],[136.68833,34.55126],[136.66686,34.55833],[136.66045,34.5663],[136.6593,34.56042],[136.65592,34.55647],[136.65828,34.55131],[136.64715,34.54561],[136.64542,34.53631],[136.65165,34.53457],[136.6605,34.52851],[136.66026,34.52019],[136.65817,34.52083],[136.65269,34.51895],[136.6543,34.51459],[136.64553,34.51233],[136.64254,34.50445],[136.64947,34.49823],[136.65361,34.50193],[136.65663,34.49889],[136.64802,34.49484],[136.64786,34.48978],[136.65735,34.48667],[136.65377,34.48136],[136.65861,34.47792],[136.66654,34.48032],[136.67075,34.47575],[136.66715,34.47392],[136.65081,34.46052],[136.6507,34.45672],[136.65273,34.45087],[136.64495,34.44682],[136.64334,34.4393],[136.63264,34.43136],[136.64335,34.42322],[136.64491,34.41742],[136.64224,34.41491],[136.64327,34.39847],[136.64657,34.39647],[136.66508,34.39474],[136.67394,34.39208],[136.68034,34.39648],[136.68841,34.39552],[136.69336,34.39329],[136.69442,34.38526],[136.70344,34.3877],[136.71392,34.38878],[136.71847,34.39222],[136.72511,34.3879],[136.73464,34.38741],[136.74353,34.38472],[136.7515,34.38616],[136.75787,34.39944],[136.75944,34.41167],[136.76274,34.41205],[136.77292,34.41812],[136.7807,34.41688],[136.78753,34.42334],[136.78437,34.426],[136.78271,34.43344],[136.78297,34.4436],[136.78155,34.44606],[136.78476,34.45443],[136.7942,34.45977],[136.80097,34.45961],[136.80138,34.46388],[136.80599,34.46995],[136.80269,34.4753],[136.80386,34.48039],[136.81296,34.4824],[136.81605,34.4852]]]},"properties":{"pref":"三重県","city":"伊勢市","code5":"24203","code6":"242039"}},
{"type":"Feature","geometry":{"type":"Polygon","coordinates":[[[136.20625,34.44868],[136.18852,34.4506],[136.17848,34.44552],[136.15824,34.44901],[136.15144,34.44185],[136.14422,34.44109],[136.13132,34.4451],[136.11802,34.44271],[136.11126,34.4357],[136.0959,34.43522],[136.0887,34.42872],[136.0911,34.42287],[136.09027,34.41604],[136.08349,34.40951],[136.07654,34.40586],[136.07499,34.39837],[136.06914,34.39426],[136.06931,34.38934],[136.07816,34.3864],[136.08609,34.37962],[136.09194,34.36856],[136.09081,34.36255],[136.09552,34.35981],[136.09863,34.3521],[136.09673,34.34954],[136.10207,34.34216],[136.10236,34.33605],[136.10923,34.32911],[136.11535,34.32632],[136.12222,34.32542],[136.12951,34.31617],[136.13286,34.31494],[136.14156,34.31604],[136.15839,34.31359],[136.16071,34.32129],[136.16843,34.32483],[136.17511,34.32247],[136.18332,34.32298],[136.1864,34.32631],[136.18889,34.3345],[136.18624,34.34005],[136.19525,34.34558],[136.20501,34.34774],[136.20767,34.35013],[136.21504,34.3482],[136.24122,34.35435],[136.25068,34.35532],[136.25584,34.35862],[136.25939,34.36482],[136.27115,34.36858],[136.26413,34.37467],[136.26182,34.38109],[136.25684,34.38255],[136.26272,34.3936],[136.2704,34.40202],[136.27301,34.40676],[136.28239,34.4075],[136.29009,34.40512],[136.29835,34.40799],[136.31163,34.4069],[136.32351,34.40375],[136.32813,34.4075],[136.33455,34.40461],[136.34253,34.40436],[136.35771,34.40759],[136.37722,34.40278],[136.37834,34.40668],[136.39117,34.41145],[136.39805,34.41589],[136.40729,34.41744],[136.40985,34.43085],[136.41699,34.43933],[136.42262,34.44157],[136.41829,34.45191],[136.41882,34.4597],[136.42094,34.46554],[136.41028,34.46878],[136.40964,34.47427],[136.4217,34.47653],[136.42824,34.47934],[136.43287,34.48332],[136.44079,34.47843],[136.44681,34.47658],[136.45222,34.48421],[136.45617,34.4874],[136.46322,34.48553],[136.4725,34.48657],[136.48121,34.48487],[136.49321,34.49048],[136.49199,34.49359],[136.48025,34.49497],[136.47881,34.49996],[136.48587,34.5014],[136.49024,34.50762],[136.49692,34.5084],[136.49961,34.5007],[136.50731,34.50003],[136.51791,34.50595],[136.52638,34.50459],[136.53802,34.50539],[136.54565,34.508],[136.5479,34.51162],[136.55464,34.51306],[136.56468,34.52108],[136.57821,34.52333],[136.58812,34.52369],[136.59615,34.52805],[136.59715,34.53483],[136.60671,34.54938],[136.60681,34.55441],[136.60948,34.56111],[136.61661,34.56206],[136.6164,34.56898],[136.60824,34.57173],[136.60792,34.57974],[136.61058,34.58122],[136.6117,34.59247],[136.60526,34.59447],[136.60376,34.60083],[136.58809,34.60244],[136.5785,34.60558],[136.57329,34.60988],[136.56491,34.60768],[136.55499,34.61225],[136.54877,34.60693],[136.54278,34.61002],[136.53701,34.60956],[136.53697,34.60957],[136.53694,34.60958],[136.52985,34.60854],[136.5319,34.61643],[136.53835,34.6194],[136.53836,34.61943],[136.54182,34.62277],[136.54258,34.62252],[136.54261,34.62251],[136.54264,34.6225],[136.54958,34.6347],[136.54262,34.63685],[136.53572,34.64109],[136.53226,34.64672],[136.52687,34.64869],[136.52189,34.6477],[136.49974,34.6511],[136.48575,34.645],[136.47396,34.64852],[136.46368,34.64917],[136.46292,34.64296],[136.45645,34.637],[136.4528,34.63779],[136.44754,34.62762],[136.43964,34.62961],[136.43677,34.63496],[136.43026,34.63658],[136.42252,34.63156],[136.41816,34.62412],[136.41045,34.62113],[136.40182,34.61436],[136.39697,34.61571],[136.39139,34.61025],[136.39192,34.60061],[136.39044,34.59498],[136.37728,34.58422],[136.37613,34.57482],[136.37107,34.57171],[136.36886,34.56304],[136.36227,34.55754],[136.35987,34.54928],[136.3541,34.5472],[136.35468,34.54263],[136.34357,34.53284],[136.33711,34.52985],[136.33827,34.52224],[136.34104,34.52105],[136.3482,34.50761],[136.34359,34.4998],[136.33422,34.49055],[136.32464,34.49008],[136.32431,34.47927],[136.3162,34.47428],[136.31424,34.46827],[136.30528,34.46125],[136.29341,34.46256],[136.28767,34.45977],[136.28619,34.45554],[136.2794,34.45348],[136.25599,34.45016],[136.25228,34.44773],[136.24421,34.44745],[136.22822,34.44898],[136.21988,34.44812],[136.21543,34.44997],[136.20625,34.44868]]]},"properties":{"pref":"三重県","city":"松阪市","code5":"24204","code6":"242047"}},
{"type":"Feature","geometry":{"type":"Polygon","coordinates":[[[136.59434,35.18093],[136.586,35.17456],[136.57738,35.17129],[136.57494,35.16658],[136.57762,35.15908],[136.5753,35.15701],[136.5734,35.14667],[136.57536,35.14172],[136.58263,35.13439],[136.58372,35.12798],[136.59117,35.12302],[136.59442,35.11568],[136.6015,35.11294],[136.6018,35.10686],[136.60497,35.10094],[136.62023,35.09435],[136.61283,35.08373],[136.60301,35.08503],[136.61033,35.07273],[136.60927,35.06133],[136.60376,35.0579],[136.60019,35.04861],[136.60822,35.04612],[136.61828,35.04741],[136.62739,35.04626],[136.63296,35.04405],[136.64175,35.04305],[136.65034,35.04115],[136.66102,35.04222],[136.66054,35.0463],[136.67497,35.04678],[136.68123,35.03899],[136.69134,35.0321],[136.70035,35.02104],[136.71074,35.02425],[136.7273,35.02545],[136.73441,35.02749],[136.73974,35.03253],[136.74979,35.03605],[136.75517,35.0393],[136.75182,35.04425],[136.74286,35.03882],[136.73406,35.05267],[136.72556,35.06411],[136.72466,35.07076],[136.71931,35.08268],[136.71695,35.0971],[136.71407,35.10517],[136.70142,35.11861],[136.69519,35.12461],[136.67639,35.12887],[136.67278,35.13478],[136.66963,35.13373],[136.66766,35.14115],[136.66149,35.1492],[136.65564,35.16105],[136.64628,35.16581],[136.64468,35.16277],[136.64619,35.15657],[136.64602,35.14766],[136.63993,35.14758],[136.63049,35.15022],[136.62427,35.14653],[136.61555,35.14993],[136.61251,35.15942],[136.60478,35.1685],[136.60613,35.17207],[136.6023,35.17804],[136.59702,35.17731],[136.59434,35.18093]]]},"properties":{"pref":"三重県","city":"桑名市","code5":"24205","code6":"242055"}},
{"type":"Feature","geometry":{"type":"Polygon","coordinates":[[[136.5704,34.80454],[136.58946,34.82475],[136.60437,34.84253],[136.61551,34.85334],[136.61623,34.85695],[136.62511,34.86958],[136.63157,34.87781],[136.63587,34.88564],[136.63507,34.88905],[136.63881,34.89744],[136.64233,34.90059],[136.63437,34.90348],[136.61545,34.90423],[136.59924,34.90624],[136.59404,34.91043],[136.58663,34.9093],[136.58121,34.91053],[136.57746,34.91464],[136.56946,34.91326],[136.5603,34.91445],[136.54972,34.92142],[136.54059,34.92363],[136.52395,34.931],[136.51111,34.93942],[136.51331,34.94347],[136.50752,34.94837],[136.49152,34.95466],[136.48823,34.95371],[136.48033,34.95829],[136.47543,34.95861],[136.47613,34.96393],[136.47256,34.96547],[136.47043,34.97056],[136.46144,34.9777],[136.45613,34.97914],[136.44529,34.98466],[136.44166,34.98809],[136.43465,34.98635],[136.4282,34.98741],[136.42493,34.98456],[136.41519,34.98462],[136.41587,34.9808],[136.40315,34.96915],[136.39912,34.96314],[136.39526,34.95188],[136.40125,34.94914],[136.40514,34.95024],[136.41864,34.94576],[136.42682,34.93222],[136.43132,34.93106],[136.43042,34.92253],[136.43539,34.91781],[136.44134,34.91609],[136.44962,34.9066],[136.46159,34.90411],[136.48008,34.90583],[136.49426,34.90127],[136.49163,34.89216],[136.49568,34.88602],[136.49464,34.87772],[136.4895,34.8751],[136.4943,34.87031],[136.49621,34.86484],[136.49224,34.8612],[136.49052,34.85413],[136.48728,34.85072],[136.48601,34.84346],[136.48307,34.84161],[136.48516,34.83532],[136.49118,34.82566],[136.49172,34.82046],[136.48833,34.8138],[136.49275,34.81008],[136.48795,34.80231],[136.49112,34.79888],[136.49533,34.79956],[136.50196,34.80608],[136.50971,34.80456],[136.5114,34.80672],[136.52684,34.81213],[136.52917,34.80796],[136.53957,34.80825],[136.54189,34.81004],[136.55894,34.81189],[136.5704,34.80454]]]},"properties":{"pref":"三重県","city":"鈴鹿市","code5":"24207","code6":"242071"}},
{"type":"Feature","geometry":{"type":"Polygon","coordinates":[[[136.19549,34.56664],[136.1907,34.57577],[136.18701,34.57959],[136.18816,34.5828],[136.18541,34.59339],[136.18119,34.59447],[136.17923,34.6081],[136.18162,34.6112],[136.17611,34.61577],[136.17935,34.62676],[136.17212,34.6331],[136.15225,34.64535],[136.15327,34.65406],[136.14986,34.65382],[136.14928,34.6609],[136.14399,34.66306],[136.14251,34.67009],[136.12829,34.67113],[136.1243,34.66779],[136.12105,34.67399],[136.13172,34.68196],[136.12607,34.68326],[136.11942,34.68805],[136.11605,34.68365],[136.11475,34.67314],[136.10492,34.66894],[136.10082,34.67386],[136.08574,34.67643],[136.08222,34.66993],[136.08197,34.66517],[136.07784,34.66257],[136.07778,34.65876],[136.07058,34.65775],[136.06451,34.65196],[136.04399,34.66023],[136.04096,34.65919],[136.05047,34.6523],[136.05822,34.65281],[136.06485,34.65156],[136.06794,34.64388],[136.07122,34.64054],[136.07358,34.63409],[136.06942,34.62856],[136.06886,34.6223],[136.06247,34.61996],[136.05583,34.61016],[136.05032,34.60602],[136.04657,34.60056],[136.05214,34.59306],[136.05065,34.58691],[136.04652,34.58522],[136.04977,34.58027],[136.0608,34.57496],[136.06031,34.56942],[136.06578,34.567],[136.07136,34.56773],[136.08233,34.56217],[136.08336,34.55933],[136.09903,34.55586],[136.107,34.55631],[136.11125,34.55523],[136.11363,34.54645],[136.11863,34.54649],[136.1396,34.55926],[136.14661,34.55579],[136.1555,34.55973],[136.15759,34.55269],[136.16169,34.5483],[136.16403,34.54904],[136.17073,34.56165],[136.17401,34.56234],[136.17927,34.56821],[136.18455,34.56683],[136.18956,34.56887],[136.19549,34.56664]]]},"properties":{"pref":"三重県","city":"名張市","code5":"24208","code6":"242080"}},
{"type":"Feature","geometry":{"type":"MultiPolygon","coordinates":[[[[136.23643,34.08678],[136.22596,34.09221],[136.21532,34.09316],[136.20653,34.0905],[136.19934,34.09249],[136.19111,34.0908],[136.18088,34.09292],[136.17325,34.09016],[136.16797,34.09207],[136.16752,34.10188],[136.16466,34.10826],[136.1593,34.1095],[136.14904,34.11597],[136.14565,34.12023],[136.13281,34.119],[136.12902,34.1171],[136.11754,34.11802],[136.10451,34.11416],[136.1043,34.1059],[136.10787,34.10309],[136.10236,34.09603],[136.11276,34.08666],[136.11599,34.08176],[136.10338,34.08391],[136.0961,34.08635],[136.09331,34.08288],[136.09659,34.07906],[136.09392,34.06661],[136.09708,34.05741],[136.09223,34.04817],[136.09782,34.04482],[136.10447,34.02696],[136.10106,34.02576],[136.10513,34.02326],[136.11712,34.02374],[136.1244,34.02784],[136.1434,34.02654],[136.14809,34.0253],[136.15172,34.02022],[136.15094,34.01347],[136.14555,34.01009],[136.13658,34.00781],[136.1368,33.99972],[136.13224,33.99632],[136.13354,33.9857],[136.13625,33.98324],[136.13598,33.97405],[136.13896,33.96604],[136.14652,33.96213],[136.15112,33.9578],[136.15623,33.95862],[136.16777,33.95713],[136.16956,33.96293],[136.17655,33.96662],[136.18119,33.9648],[136.1832,33.95934],[136.19136,33.9544],[136.2002,33.95489],[136.20762,33.95243],[136.2129,33.95595],[136.22552,33.94788],[136.23195,33.94761],[136.22893,33.94866],[136.22832,33.95449],[136.22544,33.95713],[136.22488,33.96683],[136.22038,33.97017],[136.22099,33.9705],[136.21402,33.96977],[136.20379,33.96474],[136.19873,33.96466],[136.19293,33.97016],[136.19487,33.97308],[136.20192,33.97116],[136.2067,33.9766],[136.213,33.98224],[136.21373,33.98257],[136.2148,33.98301],[136.21223,33.99533],[136.21372,34.00106],[136.22693,33.98872],[136.24809,33.98541],[136.25043,33.98009],[136.2398,33.98293],[136.23554,33.9801],[136.23542,33.97456],[136.23794,33.9693],[136.25007,33.97205],[136.25258,33.96735],[136.25982,33.96812],[136.27215,33.97256],[136.26969,33.98304],[136.26976,33.98936],[136.26537,33.99328],[136.26791,34.00107],[136.2712,34.00585],[136.2654,34.00674],[136.26349,34.00392],[136.25324,34.00676],[136.25804,34.01225],[136.26333,34.01067],[136.27705,34.01876],[136.28089,34.02268],[136.26587,34.03167],[136.25784,34.03247],[136.25504,34.03637],[136.24436,34.03845],[136.24537,34.04476],[136.2446,34.05324],[136.24449,34.05364],[136.24442,34.05433],[136.24446,34.05434],[136.24448,34.05435],[136.24446,34.05438],[136.24441,34.05444],[136.24418,34.05488],[136.24459,34.05561],[136.2446,34.05569],[136.24349,34.05739],[136.24348,34.0574],[136.25268,34.0617],[136.24987,34.06194],[136.2441,34.06417],[136.22657,34.06534],[136.21682,34.06331],[136.21092,34.0655],[136.20767,34.06944],[136.20179,34.07209],[136.20161,34.07698],[136.21686,34.07907],[136.22867,34.08592],[136.23643,34.08678]]],[[[136.30237,34.09884],[136.29926,34.10367],[136.29048,34.10737],[136.28004,34.11327],[136.27569,34.10979],[136.25835,34.10306],[136.25518,34.09931],[136.25433,34.08814],[136.26056,34.09007],[136.25874,34.09804],[136.26672,34.10276],[136.27289,34.09993],[136.26486,34.09712],[136.26937,34.09135],[136.26992,34.08699],[136.27414,34.08317],[136.28116,34.08905],[136.28011,34.09428],[136.28814,34.09397],[136.2928,34.09671],[136.29372,34.08871],[136.29831,34.0905],[136.30237,34.09884]]],[[[136.25442,34.06139],[136.25438,34.06148],[136.25436,34.06147],[136.25442,34.06139]]],[[[136.24458,34.0551],[136.24456,34.05514],[136.24448,34.05515],[136.24458,34.0551]]],[[[136.25465,34.06165],[136.25457,34.06151],[136.25469,34.06165],[136.25465,34.06165]]]]},"properties":{"pref":"三重県","city":"尾鷲市","code5":"24209","code6":"242098"}},
{"type":"Feature","geometry":{"type":"Polygon","coordinates":[[[136.48795,34.80231],[136.49275,34.81008],[136.48833,34.8138],[136.49172,34.82046],[136.49118,34.82566],[136.48516,34.83532],[136.48307,34.84161],[136.48601,34.84346],[136.48728,34.85072],[136.49052,34.85413],[136.49224,34.8612],[136.49621,34.86484],[136.4943,34.87031],[136.4895,34.8751],[136.49464,34.87772],[136.49568,34.88602],[136.49163,34.89216],[136.49426,34.90127],[136.48008,34.90583],[136.46159,34.90411],[136.44962,34.9066],[136.44134,34.91609],[136.43539,34.91781],[136.43042,34.92253],[136.43132,34.93106],[136.42682,34.93222],[136.41864,34.94576],[136.40514,34.95024],[136.40125,34.94914],[136.39526,34.95188],[136.38771,34.95308],[136.37269,34.94226],[136.37535,34.93989],[136.3719,34.93459],[136.37391,34.92378],[136.36781,34.9219],[136.36515,34.91269],[136.3661,34.90501],[136.36019,34.90412],[136.35736,34.90048],[136.35033,34.89897],[136.34605,34.89473],[136.33941,34.89547],[136.33073,34.89243],[136.32634,34.88864],[136.31906,34.88957],[136.31323,34.88697],[136.31292,34.88063],[136.30502,34.87518],[136.29877,34.87537],[136.2971,34.87276],[136.28906,34.86957],[136.28372,34.87029],[136.27771,34.85946],[136.28288,34.85668],[136.28988,34.84091],[136.28575,34.83758],[136.27846,34.83493],[136.27684,34.82888],[136.27765,34.82179],[136.27207,34.81538],[136.27854,34.8104],[136.29381,34.81292],[136.29785,34.81089],[136.31224,34.80685],[136.31405,34.81268],[136.32228,34.81226],[136.3227,34.81915],[136.32712,34.82043],[136.33427,34.81819],[136.34334,34.8184],[136.35319,34.82145],[136.36487,34.82291],[136.37111,34.81967],[136.37552,34.82052],[136.38135,34.82789],[136.3885,34.83475],[136.39682,34.8356],[136.40417,34.8382],[136.40761,34.84335],[136.41409,34.84237],[136.41745,34.83965],[136.4224,34.84448],[136.43466,34.83986],[136.43435,34.82791],[136.43837,34.82044],[136.44078,34.82061],[136.44915,34.81465],[136.45023,34.81094],[136.46619,34.8122],[136.46901,34.80901],[136.47507,34.80983],[136.47938,34.80585],[136.48315,34.80682],[136.48795,34.80231]]]},"properties":{"pref":"三重県","city":"亀山市","code5":"24210","code6":"242101"}},
{"type":"Feature","geometry":{"type":"MultiPolygon","coordinates":[[[[136.78753,34.42334],[136.80313,34.42184],[136.80751,34.41715],[136.82138,34.40846],[136.83092,34.40453],[136.8354,34.39914],[136.84451,34.40313],[136.84673,34.40769],[136.8534,34.40786],[136.85531,34.4051],[136.86388,34.4056],[136.86836,34.40076],[136.86066,34.39713],[136.86521,34.39443],[136.87017,34.38715],[136.8734,34.38415],[136.88163,34.38115],[136.88367,34.38947],[136.88897,34.38526],[136.89288,34.38926],[136.89917,34.38691],[136.89801,34.37868],[136.90713,34.37555],[136.91246,34.37604],[136.91176,34.38179],[136.90696,34.38523],[136.90916,34.38819],[136.91433,34.38685],[136.90973,34.39032],[136.909,34.39635],[136.91214,34.40098],[136.91841,34.4057],[136.91705,34.40804],[136.92228,34.41266],[136.92426,34.41204],[136.92429,34.41205],[136.92364,34.42107],[136.91888,34.42648],[136.92243,34.43099],[136.92272,34.43997],[136.92436,34.44432],[136.91936,34.44522],[136.915,34.4523],[136.90797,34.45148],[136.89711,34.45369],[136.89301,34.45158],[136.89288,34.44716],[136.88527,34.4434],[136.88416,34.44966],[136.87917,34.45119],[136.87234,34.45712],[136.87172,34.47392],[136.86777,34.47562],[136.86656,34.4811],[136.85799,34.47793],[136.84731,34.48052],[136.84525,34.48771],[136.83744,34.48895],[136.83474,34.4916],[136.83424,34.50366],[136.83128,34.50621],[136.8245,34.50503],[136.82885,34.49276],[136.82569,34.4878],[136.82042,34.48449],[136.81605,34.4852],[136.81296,34.4824],[136.80386,34.48039],[136.80269,34.4753],[136.80599,34.46995],[136.80138,34.46388],[136.80097,34.45961],[136.7942,34.45977],[136.78476,34.45443],[136.78155,34.44606],[136.78297,34.4436],[136.78271,34.43344],[136.78437,34.426],[136.78753,34.42334]]],[[[136.87138,34.52178],[136.8676,34.51714],[136.8586,34.51756],[136.84802,34.5114],[136.84928,34.50833],[136.85821,34.50586],[136.86762,34.51083],[136.8745,34.51033],[136.87774,34.51468],[136.88597,34.51608],[136.89421,34.5231],[136.90213,34.52175],[136.90225,34.53107],[136.90077,34.53754],[136.89109,34.53453],[136.88164,34.52977],[136.8757,34.52931],[136.87138,34.52178]]],[[[136.90408,34.50313],[136.89885,34.49884],[136.89046,34.49613],[136.87848,34.4944],[136.87227,34.48678],[136.87313,34.48381],[136.88332,34.48184],[136.89557,34.48392],[136.89747,34.48771],[136.9045,34.49051],[136.90958,34.49966],[136.90408,34.50313]]],[[[136.85961,34.49076],[136.85109,34.48741],[136.8566,34.48256],[136.86347,34.4854],[136.85961,34.49076]]],[[[136.98226,34.54014],[136.9877,34.54958],[136.98076,34.55059],[136.97735,34.54575],[136.98226,34.54014]]],[[[136.90416,34.37593],[136.90416,34.37596],[136.90415,34.37594],[136.90416,34.37593]]]]},"properties":{"pref":"三重県","city":"鳥羽市","code5":"24211","code6":"242110"}},
{"type":"Feature","geometry":{"type":"Polygon","coordinates":[[[136.10106,34.02576],[136.09638,34.02246],[136.08554,34.02879],[136.08212,34.02756],[136.07266,34.03386],[136.06238,34.03228],[136.05562,34.0352],[136.0509,34.03344],[136.039,34.03652],[136.03584,34.03911],[136.03173,34.03187],[136.02298,34.03652],[136.01704,34.03352],[136.01496,34.0246],[136.00735,34.01975],[136.00361,34.00988],[136.00695,34.0074],[135.99716,33.99776],[136.00404,33.99177],[136.00415,33.98571],[136.00817,33.97914],[136.01336,33.97423],[136.01333,33.96923],[136.01035,33.9656],[136.00426,33.96303],[136.00144,33.95721],[135.99716,33.95688],[135.99146,33.96505],[135.98545,33.96856],[135.97761,33.96698],[135.97516,33.96064],[135.97796,33.95146],[135.97554,33.94146],[135.96976,33.93002],[135.96455,33.92836],[135.95759,33.93447],[135.94419,33.93955],[135.93683,33.93919],[135.92954,33.94143],[135.92795,33.9348],[135.92183,33.93433],[135.919,33.93175],[135.91729,33.92506],[135.92369,33.91982],[135.93267,33.92266],[135.93249,33.91685],[135.92226,33.91411],[135.91579,33.91988],[135.90908,33.91847],[135.89815,33.9216],[135.8937,33.92001],[135.89787,33.91261],[135.89395,33.90615],[135.88217,33.90783],[135.88076,33.90937],[135.88086,33.90232],[135.88792,33.8963],[135.88422,33.88654],[135.89105,33.88097],[135.8931,33.89349],[135.90131,33.88541],[135.89763,33.86975],[135.89088,33.86839],[135.88641,33.87202],[135.87779,33.87134],[135.87815,33.86462],[135.87483,33.8616],[135.86707,33.8599],[135.86219,33.86272],[135.86212,33.87655],[135.85792,33.87315],[135.85889,33.86848],[135.85325,33.8623],[135.85344,33.85784],[135.86059,33.84896],[135.85703,33.84257],[135.85573,33.83669],[135.85893,33.83019],[135.85586,33.82034],[135.85803,33.8162],[135.8644,33.81047],[135.87217,33.809],[135.88041,33.80296],[135.89091,33.80168],[135.89471,33.79767],[135.89823,33.7901],[135.89678,33.78694],[135.9014,33.78082],[135.91567,33.78751],[135.92021,33.79061],[135.92877,33.78802],[135.93222,33.79128],[135.9267,33.80272],[135.93354,33.80759],[135.93467,33.81142],[135.94446,33.81572],[135.94831,33.8204],[135.94677,33.82765],[135.93988,33.83168],[135.93596,33.83614],[135.93906,33.84554],[135.95242,33.84716],[135.95914,33.8449],[135.96173,33.84672],[135.96229,33.8582],[135.96686,33.8611],[135.97068,33.86818],[135.96774,33.87966],[135.97481,33.88704],[135.98144,33.89037],[135.98713,33.88726],[135.99054,33.89083],[136.00823,33.88951],[136.00924,33.89173],[136.01813,33.89286],[136.02863,33.89196],[136.03509,33.89264],[136.03431,33.88777],[136.03805,33.88502],[136.03794,33.87872],[136.03529,33.87691],[136.04565,33.86324],[136.05338,33.86315],[136.05863,33.85845],[136.06758,33.85354],[136.06405,33.84593],[136.06606,33.84048],[136.07675,33.85767],[136.08595,33.86956],[136.10095,33.88548],[136.10669,33.89009],[136.11411,33.88894],[136.11862,33.89913],[136.12484,33.89742],[136.12768,33.89371],[136.12847,33.8867],[136.13608,33.88803],[136.13871,33.8915],[136.13545,33.89937],[136.14541,33.89593],[136.14798,33.89782],[136.14867,33.89887],[136.14973,33.90077],[136.14145,33.90439],[136.13885,33.90801],[136.14446,33.91203],[136.15126,33.9127],[136.15107,33.9185],[136.15473,33.92068],[136.1473,33.92666],[136.15039,33.93138],[136.15893,33.93135],[136.16869,33.92499],[136.16976,33.91335],[136.17613,33.91245],[136.18483,33.91482],[136.19044,33.91897],[136.19342,33.91715],[136.19802,33.92211],[136.19479,33.92766],[136.19876,33.93259],[136.18934,33.93388],[136.18068,33.93791],[136.1907,33.93967],[136.19494,33.94229],[136.2034,33.94404],[136.21119,33.93743],[136.20779,33.93481],[136.2101,33.93128],[136.21993,33.94122],[136.21661,33.94663],[136.22367,33.94607],[136.23195,33.94761],[136.22552,33.94788],[136.2129,33.95595],[136.20762,33.95243],[136.2002,33.95489],[136.19136,33.9544],[136.1832,33.95934],[136.18119,33.9648],[136.17655,33.96662],[136.16956,33.96293],[136.16777,33.95713],[136.15623,33.95862],[136.15112,33.9578],[136.14652,33.96213],[136.13896,33.96604],[136.13598,33.97405],[136.13625,33.98324],[136.13354,33.9857],[136.13224,33.99632],[136.1368,33.99972],[136.13658,34.00781],[136.14555,34.01009],[136.15094,34.01347],[136.15172,34.02022],[136.14809,34.0253],[136.1434,34.02654],[136.1244,34.02784],[136.11712,34.02374],[136.10513,34.02326],[136.10106,34.02576]]]},"properties":{"pref":"三重県","city":"熊野市","code5":"24212","code6":"242128"}},
{"type":"Feature","geometry":{"type":"Polygon","coordinates":[[[136.41513,35.21774],[136.4168,35.21439],[136.41614,35.20548],[136.41262,35.19591],[136.41271,35.19205],[136.40865,35.18718],[136.41944,35.18272],[136.42446,35.18451],[136.43572,35.1765],[136.43978,35.1715],[136.44387,35.1717],[136.44854,35.16682],[136.45255,35.16584],[136.45465,35.16142],[136.455,35.15241],[136.45039,35.1495],[136.44604,35.14987],[136.44318,35.14517],[136.44295,35.13906],[136.43795,35.13656],[136.43564,35.13066],[136.44802,35.12384],[136.44452,35.11901],[136.43997,35.11663],[136.44251,35.11085],[136.44082,35.10775],[136.44191,35.10158],[136.4387,35.09637],[136.44197,35.08656],[136.44868,35.08512],[136.45861,35.08574],[136.47655,35.09281],[136.49607,35.09146],[136.50768,35.08792],[136.51356,35.0898],[136.52583,35.08633],[136.52909,35.08388],[136.52767,35.07639],[136.53881,35.07051],[136.54801,35.06884],[136.54993,35.06674],[136.56326,35.06438],[136.56553,35.0675],[136.56641,35.07694],[136.56224,35.08213],[136.57193,35.08893],[136.57866,35.09685],[136.58284,35.10475],[136.5868,35.10692],[136.5891,35.11444],[136.59442,35.11568],[136.59117,35.12302],[136.58372,35.12798],[136.58263,35.13439],[136.57536,35.14172],[136.5734,35.14667],[136.5753,35.15701],[136.57762,35.15908],[136.57494,35.16658],[136.57738,35.17129],[136.586,35.17456],[136.59434,35.18093],[136.59174,35.18567],[136.5847,35.1886],[136.58519,35.19446],[136.57734,35.19681],[136.5745,35.2017],[136.56175,35.20553],[136.55683,35.22069],[136.54966,35.21921],[136.54696,35.22244],[136.55028,35.23191],[136.54406,35.23514],[136.53978,35.241],[136.54139,35.24575],[136.53634,35.2502],[136.53354,35.25542],[136.52767,35.25753],[136.51364,35.25042],[136.51082,35.23883],[136.50598,35.23506],[136.50074,35.23512],[136.49435,35.23792],[136.49039,35.23692],[136.48281,35.23976],[136.48034,35.23493],[136.47422,35.23735],[136.46902,35.23337],[136.46582,35.23748],[136.45376,35.22956],[136.4506,35.22413],[136.44072,35.21674],[136.43454,35.22045],[136.4309,35.2294],[136.41513,35.21774]]]},"properties":{"pref":"三重県","city":"いなべ市","code5":"24214","code6":"242144"}},
{"type":"Feature","geometry":{"type":"MultiPolygon","coordinates":[[[[136.74353,34.38472],[136.74329,34.37908],[136.75402,34.3682],[136.75524,34.36404],[136.74788,34.35198],[136.75361,34.34732],[136.75606,34.34124],[136.74564,34.33224],[136.74559,34.32532],[136.74148,34.32238],[136.73178,34.32054],[136.724,34.31635],[136.71718,34.31473],[136.7087,34.3146],[136.70442,34.31278],[136.70179,34.30603],[136.71209,34.30633],[136.71575,34.30222],[136.72365,34.30426],[136.72745,34.3027],[136.72743,34.30267],[136.72885,34.3024],[136.73882,34.30155],[136.75117,34.29311],[136.75652,34.29524],[136.76486,34.29128],[136.76569,34.29389],[136.75474,34.29902],[136.76557,34.30664],[136.76262,34.31323],[136.77585,34.31537],[136.77204,34.30885],[136.7751,34.30566],[136.77325,34.29597],[136.77699,34.29668],[136.77702,34.29668],[136.77733,34.29773],[136.77738,34.29771],[136.77993,34.29657],[136.78008,34.29649],[136.78039,34.29655],[136.78041,34.29656],[136.7804,34.29563],[136.7804,34.29562],[136.78043,34.29558],[136.77996,34.29431],[136.78038,34.29086],[136.78905,34.28921],[136.79831,34.29076],[136.80367,34.29561],[136.80898,34.29783],[136.80858,34.30165],[136.80441,34.30575],[136.79764,34.30761],[136.80253,34.31528],[136.80524,34.30962],[136.81353,34.31038],[136.81877,34.31253],[136.82957,34.30806],[136.83771,34.30795],[136.83775,34.3116],[136.84508,34.31475],[136.84526,34.31071],[136.85044,34.3073],[136.83595,34.30356],[136.82904,34.30298],[136.82981,34.29769],[136.84276,34.29489],[136.84771,34.29122],[136.8591,34.28996],[136.8627,34.28588],[136.84764,34.28738],[136.84282,34.29074],[136.83791,34.29063],[136.83246,34.28423],[136.83051,34.27596],[136.83179,34.27243],[136.83897,34.2707],[136.84599,34.2761],[136.85434,34.27983],[136.85311,34.2722],[136.84854,34.27298],[136.84161,34.26453],[136.83439,34.26462],[136.82787,34.26729],[136.82128,34.27329],[136.81315,34.27031],[136.79253,34.27776],[136.7797,34.27664],[136.77823,34.27806],[136.77009,34.27877],[136.77008,34.27876],[136.77003,34.27871],[136.76671,34.27849],[136.7667,34.27849],[136.76173,34.27356],[136.75195,34.27247],[136.7513,34.26966],[136.75224,34.26967],[136.75225,34.26966],[136.75362,34.26919],[136.75912,34.26945],[136.76816,34.26112],[136.77488,34.25832],[136.77644,34.26102],[136.78323,34.25991],[136.80053,34.25505],[136.80612,34.25447],[136.81934,34.25065],[136.84051,34.25229],[136.84737,34.24997],[136.84831,34.25693],[136.85297,34.26172],[136.86482,34.26313],[136.87015,34.26267],[136.87143,34.2665],[136.86865,34.27184],[136.87417,34.27319],[136.88365,34.27547],[136.88764,34.27569],[136.88928,34.27622],[136.90131,34.27796],[136.89766,34.28135],[136.89793,34.28651],[136.8948,34.29124],[136.88706,34.29703],[136.88754,34.30145],[136.88602,34.30542],[136.89234,34.31291],[136.88705,34.31691],[136.88703,34.31689],[136.88239,34.32236],[136.88237,34.32236],[136.8789,34.32529],[136.8778,34.33542],[136.88207,34.34546],[136.88566,34.34621],[136.88567,34.3462],[136.89397,34.35275],[136.9005,34.35564],[136.90307,34.36281],[136.89454,34.36177],[136.89187,34.36568],[136.88126,34.35746],[136.88127,34.35745],[136.87474,34.35402],[136.87021,34.34966],[136.86966,34.34463],[136.86539,34.34498],[136.86601,34.35105],[136.86857,34.35435],[136.86771,34.35885],[136.86136,34.36164],[136.85092,34.35705],[136.85293,34.36325],[136.85214,34.36859],[136.84034,34.3651],[136.84121,34.36077],[136.83741,34.35578],[136.82657,34.35266],[136.82009,34.35784],[136.82302,34.36493],[136.82761,34.36517],[136.83438,34.36176],[136.83776,34.36688],[136.84389,34.36759],[136.84279,34.37174],[136.85195,34.37116],[136.85789,34.3638],[136.86157,34.36733],[136.8708,34.36996],[136.87632,34.37394],[136.87017,34.38715],[136.86521,34.39443],[136.86066,34.39713],[136.86836,34.40076],[136.86388,34.4056],[136.85531,34.4051],[136.8534,34.40786],[136.84673,34.40769],[136.84451,34.40313],[136.8354,34.39914],[136.83092,34.40453],[136.82138,34.40846],[136.80751,34.41715],[136.80313,34.42184],[136.78753,34.42334],[136.7807,34.41688],[136.77292,34.41812],[136.76274,34.41205],[136.75944,34.41167],[136.75787,34.39944],[136.7515,34.38616],[136.74353,34.38472]]],[[[136.82018,34.31145],[136.81624,34.31073],[136.8144,34.30476],[136.82232,34.30493],[136.8263,34.30702],[136.82018,34.31145]]],[[[136.87743,34.36437],[136.87054,34.36751],[136.8663,34.36474],[136.87367,34.35778],[136.87743,34.36437]]],[[[136.90881,34.36568],[136.90884,34.36563],[136.90884,34.36569],[136.90881,34.36568]]]]},"properties":{"pref":"三重県","city":"志摩市","code5":"24215","code6":"242152"}},
{"type":"Feature","geometry":{"type":"Polygon","coordinates":[[[136.31224,34.80685],[136.29785,34.81089],[136.29381,34.81292],[136.27854,34.8104],[136.27207,34.81538],[136.27765,34.82179],[136.27684,34.82888],[136.27846,34.83493],[136.28575,34.83758],[136.28988,34.84091],[136.28288,34.85668],[136.27771,34.85946],[136.28372,34.87029],[136.28068,34.87304],[136.26889,34.8679],[136.2679,34.86447],[136.25068,34.85773],[136.23539,34.86147],[136.22783,34.86097],[136.21201,34.86602],[136.20907,34.86812],[136.19807,34.86986],[136.18973,34.87391],[136.1887,34.87758],[136.1822,34.87817],[136.17826,34.88258],[136.18078,34.88579],[136.1669,34.88789],[136.15357,34.88458],[136.14855,34.88202],[136.14408,34.88541],[136.13644,34.88821],[136.13153,34.88313],[136.12045,34.89144],[136.11628,34.89216],[136.1123,34.90188],[136.10627,34.90008],[136.10178,34.89614],[136.09838,34.88953],[136.09479,34.8878],[136.08622,34.88913],[136.0896,34.8825],[136.08698,34.87636],[136.09889,34.87058],[136.11324,34.8693],[136.12213,34.87275],[136.12586,34.87002],[136.12277,34.86632],[136.12638,34.86202],[136.11741,34.85589],[136.11339,34.85614],[136.1083,34.85282],[136.1074,34.84524],[136.1044,34.84057],[136.09508,34.84018],[136.08755,34.83045],[136.09519,34.8191],[136.0908,34.81584],[136.09062,34.81223],[136.0818,34.80775],[136.07551,34.80785],[136.07299,34.80421],[136.06369,34.80161],[136.05512,34.80207],[136.05155,34.79909],[136.04117,34.79846],[136.03848,34.79394],[136.03466,34.79427],[136.02843,34.79068],[136.02229,34.79156],[136.01996,34.78637],[136.02261,34.78231],[136.03358,34.77944],[136.03331,34.77182],[136.02934,34.76482],[136.0302,34.75591],[136.03813,34.75622],[136.03927,34.74939],[136.04761,34.7442],[136.04984,34.74051],[136.05547,34.73856],[136.06254,34.73067],[136.0631,34.72644],[136.06803,34.72389],[136.07107,34.71468],[136.06635,34.70979],[136.05419,34.70616],[136.05486,34.70292],[136.05994,34.69975],[136.07508,34.6977],[136.07886,34.68991],[136.08211,34.67901],[136.08574,34.67643],[136.10082,34.67386],[136.10492,34.66894],[136.11475,34.67314],[136.11605,34.68365],[136.11942,34.68805],[136.12607,34.68326],[136.13172,34.68196],[136.12105,34.67399],[136.1243,34.66779],[136.12829,34.67113],[136.14251,34.67009],[136.14399,34.66306],[136.14928,34.6609],[136.14986,34.65382],[136.15327,34.65406],[136.15225,34.64535],[136.17212,34.6331],[136.17935,34.62676],[136.17611,34.61577],[136.18162,34.6112],[136.17923,34.6081],[136.18119,34.59447],[136.18541,34.59339],[136.18816,34.5828],[136.18701,34.57959],[136.1907,34.57577],[136.19549,34.56664],[136.20876,34.56666],[136.21922,34.55776],[136.2184,34.56422],[136.22241,34.56949],[136.22596,34.57883],[136.23891,34.58035],[136.2509,34.58363],[136.2548,34.58345],[136.25289,34.59058],[136.25906,34.59452],[136.25009,34.59968],[136.2492,34.60548],[136.25035,34.61946],[136.24587,34.62518],[136.24536,34.63007],[136.24979,34.63613],[136.25136,34.64397],[136.25829,34.6455],[136.26167,34.65605],[136.26817,34.65736],[136.26747,34.66058],[136.275,34.66338],[136.27267,34.66743],[136.26574,34.67365],[136.27278,34.67668],[136.27128,34.68476],[136.27861,34.68991],[136.28309,34.69625],[136.28457,34.70201],[136.28971,34.709],[136.30015,34.71639],[136.30469,34.72291],[136.30956,34.72491],[136.30845,34.72907],[136.3013,34.73136],[136.2965,34.73513],[136.30407,34.7443],[136.31703,34.74762],[136.31878,34.75476],[136.3251,34.76077],[136.33357,34.76598],[136.34204,34.76952],[136.34181,34.77335],[136.33645,34.77761],[136.3319,34.78727],[136.32424,34.78554],[136.31745,34.78777],[136.30982,34.80244],[136.31224,34.80685]]]},"properties":{"pref":"三重県","city":"伊賀市","code5":"24216","code6":"242161"}},
{"type":"Feature","geometry":{"type":"Polygon","coordinates":[[[136.71407,35.10517],[136.71695,35.0971],[136.71931,35.08268],[136.72466,35.07076],[136.72556,35.06411],[136.73406,35.05267],[136.74286,35.03882],[136.75182,35.04425],[136.75517,35.0393],[136.74979,35.03605],[136.76307,35.02142],[136.77062,35.02144],[136.77271,35.02439],[136.76086,35.03771],[136.7534,35.05302],[136.7517,35.06182],[136.75205,35.0717],[136.74957,35.08073],[136.74186,35.08595],[136.73128,35.09728],[136.71998,35.10337],[136.71407,35.10517]]]},"properties":{"pref":"三重県","county":"桑名郡","city":"木曽岬町","code5":"24303","code6":"243035"}},
{"type":"Feature","geometry":{"type":"Polygon","coordinates":[[[136.60019,35.04861],[136.60376,35.0579],[136.60927,35.06133],[136.61033,35.07273],[136.60301,35.08503],[136.61283,35.08373],[136.62023,35.09435],[136.60497,35.10094],[136.6018,35.10686],[136.6015,35.11294],[136.59442,35.11568],[136.5891,35.11444],[136.5868,35.10692],[136.58284,35.10475],[136.57866,35.09685],[136.57193,35.08893],[136.56224,35.08213],[136.56641,35.07694],[136.56553,35.0675],[136.56326,35.06438],[136.56768,35.06135],[136.57203,35.05391],[136.58903,35.04995],[136.60019,35.04861]]]},"properties":{"pref":"三重県","county":"員弁郡","city":"東員町","code5":"24324","code6":"243248"}},
{"type":"Feature","geometry":{"type":"Polygon","coordinates":[[[136.53881,35.07051],[136.52767,35.07639],[136.52909,35.08388],[136.52583,35.08633],[136.51356,35.0898],[136.50768,35.08792],[136.49607,35.09146],[136.47655,35.09281],[136.45861,35.08574],[136.44868,35.08512],[136.44197,35.08656],[136.43527,35.08249],[136.4416,35.06672],[136.43104,35.05923],[136.42472,35.05698],[136.42221,35.05138],[136.41785,35.0495],[136.41645,35.03729],[136.41884,35.02991],[136.42383,35.02977],[136.42128,35.02127],[136.41817,35.01812],[136.41696,35.01124],[136.42117,34.99963],[136.42927,35.00127],[136.4451,35.00038],[136.45475,34.99722],[136.4592,34.9914],[136.46265,34.99063],[136.47499,34.99574],[136.47775,34.9938],[136.48885,34.99577],[136.49135,34.99748],[136.49909,34.99658],[136.50906,34.99884],[136.51572,34.99669],[136.52081,35.00027],[136.53153,34.99795],[136.54591,35.0014],[136.54045,35.00915],[136.53432,35.01296],[136.53737,35.01827],[136.54119,35.01819],[136.55053,35.01453],[136.55449,35.01774],[136.55467,35.02525],[136.55905,35.03642],[136.54246,35.03817],[136.53429,35.03802],[136.53354,35.04337],[136.53896,35.05029],[136.53796,35.05269],[136.54181,35.06047],[136.53881,35.07051]]]},"properties":{"pref":"三重県","county":"三重郡","city":"菰野町","code5":"24341","code6":"243418"}},
{"type":"Feature","geometry":{"type":"Polygon","coordinates":[[[136.6577,35.02498],[136.66026,35.02796],[136.66688,35.02969],[136.67446,35.02854],[136.68083,35.034],[136.68123,35.03899],[136.67497,35.04678],[136.66054,35.0463],[136.66102,35.04222],[136.65034,35.04115],[136.64175,35.04305],[136.64036,35.0371],[136.64479,35.02953],[136.65206,35.02832],[136.6577,35.02498]]]},"properties":{"pref":"三重県","county":"三重郡","city":"朝日町","code5":"24343","code6":"243434"}},
{"type":"Feature","geometry":{"type":"Polygon","coordinates":[[[136.67398,35.00636],[136.67597,35.00918],[136.6812,35.00758],[136.68225,35.00918],[136.68621,35.0041],[136.7,35.00721],[136.6971,35.0159],[136.70035,35.02104],[136.69134,35.0321],[136.68123,35.03899],[136.68083,35.034],[136.67446,35.02854],[136.66688,35.02969],[136.66026,35.02796],[136.6577,35.02498],[136.65923,35.02187],[136.65439,35.01813],[136.66163,35.0117],[136.67006,35.0174],[136.67398,35.00636]]]},"properties":{"pref":"三重県","county":"三重郡","city":"川越町","code5":"24344","code6":"243442"}},
{"type":"Feature","geometry":{"type":"Polygon","coordinates":[[[136.40729,34.41744],[136.41749,34.41707],[136.41897,34.41929],[136.43261,34.41542],[136.43732,34.41798],[136.45255,34.4204],[136.45904,34.4251],[136.46659,34.4278],[136.4646,34.43299],[136.46903,34.43573],[136.47448,34.4345],[136.48577,34.43661],[136.49554,34.44012],[136.49528,34.44517],[136.5039,34.44755],[136.5193,34.45532],[136.52607,34.45429],[136.54784,34.45966],[136.54675,34.45353],[136.55289,34.45043],[136.56601,34.45238],[136.57885,34.45165],[136.57813,34.45686],[136.58396,34.4667],[136.58047,34.47],[136.58022,34.47861],[136.58219,34.48548],[136.58767,34.49171],[136.59762,34.4981],[136.60043,34.49842],[136.60006,34.50577],[136.58781,34.50854],[136.59139,34.51239],[136.59153,34.51774],[136.58812,34.52369],[136.57821,34.52333],[136.56468,34.52108],[136.55464,34.51306],[136.5479,34.51162],[136.54565,34.508],[136.53802,34.50539],[136.52638,34.50459],[136.51791,34.50595],[136.50731,34.50003],[136.49961,34.5007],[136.49692,34.5084],[136.49024,34.50762],[136.48587,34.5014],[136.47881,34.49996],[136.48025,34.49497],[136.49199,34.49359],[136.49321,34.49048],[136.48121,34.48487],[136.4725,34.48657],[136.46322,34.48553],[136.45617,34.4874],[136.45222,34.48421],[136.44681,34.47658],[136.44079,34.47843],[136.43287,34.48332],[136.42824,34.47934],[136.4217,34.47653],[136.40964,34.47427],[136.41028,34.46878],[136.42094,34.46554],[136.41882,34.4597],[136.41829,34.45191],[136.42262,34.44157],[136.41699,34.43933],[136.40985,34.43085],[136.40729,34.41744]]]},"properties":{"pref":"三重県","county":"多気郡","city":"多気町","code5":"24441","code6":"244414"}},
{"type":"Feature","geometry":{"type":"Polygon","coordinates":[[[136.66045,34.5663],[136.65542,34.57284],[136.65018,34.58324],[136.64706,34.58884],[136.64042,34.59234],[136.63083,34.59422],[136.62637,34.59675],[136.61882,34.59934],[136.60376,34.60083],[136.60526,34.59447],[136.6117,34.59247],[136.61058,34.58122],[136.60792,34.57974],[136.60824,34.57173],[136.6164,34.56898],[136.61661,34.56206],[136.60948,34.56111],[136.60681,34.55441],[136.60671,34.54938],[136.59715,34.53483],[136.59615,34.52805],[136.58812,34.52369],[136.59153,34.51774],[136.59139,34.51239],[136.58781,34.50854],[136.60006,34.50577],[136.60749,34.50495],[136.61368,34.51019],[136.61429,34.5177],[136.63768,34.51703],[136.64422,34.51925],[136.64772,34.51599],[136.64828,34.51681],[136.64685,34.51884],[136.65,34.52099],[136.64992,34.52076],[136.65096,34.52],[136.65269,34.51895],[136.65817,34.52083],[136.66026,34.52019],[136.6605,34.52851],[136.65165,34.53457],[136.64542,34.53631],[136.64715,34.54561],[136.65828,34.55131],[136.65592,34.55647],[136.6593,34.56042],[136.66045,34.5663]]]},"properties":{"pref":"三重県","county":"多気郡","city":"明和町","code5":"24442","code6":"244422"}},
{"type":"Feature","geometry":{"type":"Polygon","coordinates":[[[136.12951,34.31617],[136.12231,34.31043],[136.11494,34.30881],[136.11165,34.30501],[136.10036,34.30554],[136.0949,34.30145],[136.09783,34.28882],[136.10546,34.283],[136.11342,34.27876],[136.11936,34.26567],[136.11806,34.2606],[136.12781,34.25665],[136.13185,34.2519],[136.12939,34.2491],[136.13031,34.24287],[136.12469,34.24132],[136.11744,34.23395],[136.11578,34.22962],[136.11067,34.22935],[136.10965,34.22422],[136.1173,34.22311],[136.11874,34.21551],[136.11547,34.21083],[136.10974,34.21124],[136.1074,34.20738],[136.09758,34.20247],[136.09345,34.1957],[136.09268,34.19039],[136.0962,34.18781],[136.10886,34.18514],[136.10881,34.18078],[136.1056,34.17162],[136.11204,34.16756],[136.118,34.16689],[136.12806,34.16939],[136.1319,34.16471],[136.147,34.17058],[136.14612,34.17707],[136.1534,34.18634],[136.15757,34.18465],[136.16194,34.18648],[136.17293,34.1882],[136.18172,34.1911],[136.18652,34.19093],[136.1925,34.19378],[136.1899,34.19978],[136.18862,34.20956],[136.19167,34.21664],[136.19557,34.22005],[136.20504,34.21835],[136.20791,34.22285],[136.20574,34.22662],[136.20795,34.23044],[136.21378,34.23235],[136.21807,34.239],[136.21747,34.2454],[136.2405,34.2478],[136.23838,34.25574],[136.24296,34.26143],[136.25012,34.26479],[136.2577,34.26432],[136.2698,34.27427],[136.26408,34.28036],[136.27048,34.28913],[136.28108,34.28841],[136.28572,34.29416],[136.29561,34.29667],[136.30529,34.2968],[136.31056,34.30036],[136.3172,34.30235],[136.31912,34.30897],[136.32371,34.31423],[136.32477,34.31884],[136.32915,34.31895],[136.33511,34.31587],[136.34757,34.3169],[136.3543,34.31923],[136.35606,34.32419],[136.37005,34.33348],[136.37284,34.33958],[136.38785,34.34651],[136.3941,34.3472],[136.40331,34.35315],[136.41104,34.35442],[136.41708,34.36421],[136.41519,34.37648],[136.41871,34.38195],[136.41298,34.38441],[136.40553,34.39043],[136.41514,34.39412],[136.42548,34.39972],[136.43128,34.3965],[136.43478,34.38628],[136.4282,34.38215],[136.42929,34.37886],[136.43602,34.37496],[136.43831,34.37124],[136.44619,34.36759],[136.45064,34.37671],[136.4445,34.37917],[136.44837,34.38572],[136.44657,34.39352],[136.45524,34.39486],[136.45906,34.4015],[136.46463,34.40497],[136.47024,34.4131],[136.47863,34.41944],[136.4821,34.41881],[136.49551,34.42165],[136.49452,34.43083],[136.49916,34.43444],[136.51027,34.43286],[136.5151,34.42993],[136.52673,34.43533],[136.53277,34.43855],[136.54481,34.43796],[136.54794,34.44249],[136.553,34.44528],[136.55289,34.45043],[136.54675,34.45353],[136.54784,34.45966],[136.52607,34.45429],[136.5193,34.45532],[136.5039,34.44755],[136.49528,34.44517],[136.49554,34.44012],[136.48577,34.43661],[136.47448,34.4345],[136.46903,34.43573],[136.4646,34.43299],[136.46659,34.4278],[136.45904,34.4251],[136.45255,34.4204],[136.43732,34.41798],[136.43261,34.41542],[136.41897,34.41929],[136.41749,34.41707],[136.40729,34.41744],[136.39805,34.41589],[136.39117,34.41145],[136.37834,34.40668],[136.37722,34.40278],[136.35771,34.40759],[136.34253,34.40436],[136.33455,34.40461],[136.32813,34.4075],[136.32351,34.40375],[136.31163,34.4069],[136.29835,34.40799],[136.29009,34.40512],[136.28239,34.4075],[136.27301,34.40676],[136.2704,34.40202],[136.26272,34.3936],[136.25684,34.38255],[136.26182,34.38109],[136.26413,34.37467],[136.27115,34.36858],[136.25939,34.36482],[136.25584,34.35862],[136.25068,34.35532],[136.24122,34.35435],[136.21504,34.3482],[136.20767,34.35013],[136.20501,34.34774],[136.19525,34.34558],[136.18624,34.34005],[136.18889,34.3345],[136.1864,34.32631],[136.18332,34.32298],[136.17511,34.32247],[136.16843,34.32483],[136.16071,34.32129],[136.15839,34.31359],[136.14156,34.31604],[136.13286,34.31494],[136.12951,34.31617]]]},"properties":{"pref":"三重県","county":"多気郡","city":"大台町","code5":"24443","code6":"244431"}},
{"type":"Feature","geometry":{"type":"Polygon","coordinates":[[[136.65269,34.51895],[136.65096,34.52],[136.64992,34.52076],[136.65,34.52099],[136.64685,34.51884],[136.64828,34.51681],[136.64772,34.51599],[136.64422,34.51925],[136.63768,34.51703],[136.61429,34.5177],[136.61368,34.51019],[136.60749,34.50495],[136.60006,34.50577],[136.60043,34.49842],[136.59762,34.4981],[136.58767,34.49171],[136.58219,34.48548],[136.58022,34.47861],[136.58047,34.47],[136.58396,34.4667],[136.57813,34.45686],[136.57885,34.45165],[136.58567,34.45234],[136.5964,34.44968],[136.60445,34.44933],[136.60495,34.45351],[136.61147,34.45446],[136.61202,34.45834],[136.61745,34.45838],[136.62425,34.45205],[136.63469,34.45283],[136.6507,34.45672],[136.65081,34.46052],[136.66715,34.47392],[136.67075,34.47575],[136.66654,34.48032],[136.65861,34.47792],[136.65377,34.48136],[136.65735,34.48667],[136.64786,34.48978],[136.64802,34.49484],[136.65663,34.49889],[136.65361,34.50193],[136.64947,34.49823],[136.64254,34.50445],[136.64553,34.51233],[136.6543,34.51459],[136.65269,34.51895]]]},"properties":{"pref":"三重県","county":"度会郡","city":"玉城町","code5":"24461","code6":"244619"}},
{"type":"Feature","geometry":{"type":"Polygon","coordinates":[[[136.6507,34.45672],[136.63469,34.45283],[136.62425,34.45205],[136.61745,34.45838],[136.61202,34.45834],[136.61147,34.45446],[136.60495,34.45351],[136.60445,34.44933],[136.5964,34.44968],[136.58567,34.45234],[136.57885,34.45165],[136.56601,34.45238],[136.55289,34.45043],[136.553,34.44528],[136.54794,34.44249],[136.54481,34.43796],[136.53277,34.43855],[136.52673,34.43533],[136.5296,34.43346],[136.52976,34.42551],[136.53342,34.41997],[136.53449,34.41411],[136.52718,34.40447],[136.52678,34.39978],[136.52098,34.39384],[136.52115,34.39029],[136.52716,34.37952],[136.51678,34.37468],[136.51929,34.36812],[136.51769,34.3629],[136.51998,34.36038],[136.51414,34.34995],[136.51544,34.3454],[136.51227,34.33801],[136.51978,34.3342],[136.52753,34.33312],[136.52853,34.32815],[136.53281,34.32435],[136.54092,34.32494],[136.5455,34.32009],[136.55556,34.31901],[136.57284,34.32289],[136.58833,34.31833],[136.59026,34.32587],[136.59424,34.32971],[136.60477,34.32898],[136.60764,34.3327],[136.60453,34.34263],[136.61108,34.35057],[136.60972,34.35525],[136.61476,34.36635],[136.61814,34.36993],[136.63154,34.37365],[136.63741,34.37769],[136.63761,34.38691],[136.63205,34.38824],[136.63962,34.39766],[136.64327,34.39847],[136.64224,34.41491],[136.64491,34.41742],[136.64335,34.42322],[136.63264,34.43136],[136.64334,34.4393],[136.64495,34.44682],[136.65273,34.45087],[136.6507,34.45672]]]},"properties":{"pref":"三重県","county":"度会郡","city":"度会町","code5":"24470","code6":"244708"}},
{"type":"Feature","geometry":{"type":"MultiPolygon","coordinates":[[[[136.2698,34.27427],[136.28822,34.27172],[136.2966,34.26709],[136.2996,34.26251],[136.2958,34.25696],[136.30013,34.25145],[136.30608,34.24934],[136.31211,34.24259],[136.32662,34.24346],[136.33858,34.24059],[136.3429,34.24437],[136.34707,34.24173],[136.35694,34.24006],[136.36201,34.23073],[136.36635,34.22902],[136.37294,34.22251],[136.37164,34.21621],[136.37418,34.21084],[136.37044,34.20449],[136.37449,34.19747],[136.37905,34.20346],[136.379,34.20347],[136.38561,34.20802],[136.38699,34.21659],[136.39922,34.21846],[136.39382,34.21116],[136.4001,34.20501],[136.409,34.20671],[136.41369,34.21092],[136.41874,34.21212],[136.42141,34.21474],[136.42846,34.21426],[136.4307,34.21987],[136.42205,34.22639],[136.42077,34.2323],[136.41668,34.23779],[136.41936,34.24819],[136.41738,34.25492],[136.41853,34.26141],[136.42182,34.26578],[136.42859,34.26981],[136.42444,34.27421],[136.41929,34.28357],[136.4235,34.28685],[136.43339,34.28415],[136.43552,34.28652],[136.44601,34.29025],[136.45312,34.29096],[136.45484,34.29579],[136.45352,34.30162],[136.4584,34.30912],[136.45685,34.31158],[136.45727,34.32002],[136.46358,34.32647],[136.47076,34.32851],[136.47694,34.32689],[136.48405,34.32727],[136.49213,34.32552],[136.49986,34.32732],[136.50331,34.33056],[136.50635,34.33744],[136.51227,34.33801],[136.51544,34.3454],[136.51414,34.34995],[136.51998,34.36038],[136.51769,34.3629],[136.51929,34.36812],[136.51678,34.37468],[136.52716,34.37952],[136.52115,34.39029],[136.52098,34.39384],[136.52678,34.39978],[136.52718,34.40447],[136.53449,34.41411],[136.53342,34.41997],[136.52976,34.42551],[136.5296,34.43346],[136.52673,34.43533],[136.5151,34.42993],[136.51027,34.43286],[136.49916,34.43444],[136.49452,34.43083],[136.49551,34.42165],[136.4821,34.41881],[136.47863,34.41944],[136.47024,34.4131],[136.46463,34.40497],[136.45906,34.4015],[136.45524,34.39486],[136.44657,34.39352],[136.44837,34.38572],[136.4445,34.37917],[136.45064,34.37671],[136.44619,34.36759],[136.43831,34.37124],[136.43602,34.37496],[136.42929,34.37886],[136.4282,34.38215],[136.43478,34.38628],[136.43128,34.3965],[136.42548,34.39972],[136.41514,34.39412],[136.40553,34.39043],[136.41298,34.38441],[136.41871,34.38195],[136.41519,34.37648],[136.41708,34.36421],[136.41104,34.35442],[136.40331,34.35315],[136.3941,34.3472],[136.38785,34.34651],[136.37284,34.33958],[136.37005,34.33348],[136.35606,34.32419],[136.3543,34.31923],[136.34757,34.3169],[136.33511,34.31587],[136.32915,34.31895],[136.32477,34.31884],[136.32371,34.31423],[136.31912,34.30897],[136.3172,34.30235],[136.31056,34.30036],[136.30529,34.2968],[136.29561,34.29667],[136.28572,34.29416],[136.28108,34.28841],[136.27048,34.28913],[136.26408,34.28036],[136.2698,34.27427]]],[[[136.38108,34.18713],[136.38132,34.18719],[136.38143,34.18734],[136.38101,34.18737],[136.38104,34.18726],[136.38104,34.18724],[136.38108,34.18713]]]]},"properties":{"pref":"三重県","county":"度会郡","city":"大紀町","code5":"24471","code6":"244716"}},
{"type":"Feature","geometry":{"type":"MultiPolygon","coordinates":[[[[136.64327,34.39847],[136.63962,34.39766],[136.63205,34.38824],[136.63761,34.38691],[136.63741,34.37769],[136.63154,34.37365],[136.61814,34.36993],[136.61476,34.36635],[136.60972,34.35525],[136.61108,34.35057],[136.60453,34.34263],[136.60764,34.3327],[136.60477,34.32898],[136.59424,34.32971],[136.59026,34.32587],[136.58833,34.31833],[136.57284,34.32289],[136.55556,34.31901],[136.5455,34.32009],[136.54092,34.32494],[136.53281,34.32435],[136.52853,34.32815],[136.52753,34.33312],[136.51978,34.3342],[136.51227,34.33801],[136.50635,34.33744],[136.50331,34.33056],[136.49986,34.32732],[136.49213,34.32552],[136.48405,34.32727],[136.47694,34.32689],[136.47076,34.32851],[136.46358,34.32647],[136.45727,34.32002],[136.45685,34.31158],[136.4584,34.30912],[136.45352,34.30162],[136.45484,34.29579],[136.45312,34.29096],[136.44601,34.29025],[136.43552,34.28652],[136.43339,34.28415],[136.4235,34.28685],[136.41929,34.28357],[136.42444,34.27421],[136.42859,34.26981],[136.42182,34.26578],[136.41853,34.26141],[136.41738,34.25492],[136.41936,34.24819],[136.41668,34.23779],[136.42077,34.2323],[136.42205,34.22639],[136.4307,34.21987],[136.43708,34.22074],[136.43779,34.221],[136.4378,34.221],[136.44256,34.21987],[136.45545,34.2216],[136.45372,34.23344],[136.45511,34.23422],[136.45346,34.24509],[136.44109,34.24524],[136.44043,34.24791],[136.44889,34.24964],[136.46026,34.24755],[136.45878,34.25096],[136.46603,34.25704],[136.46953,34.25618],[136.46851,34.24972],[136.46388,34.24715],[136.46031,34.23924],[136.46814,34.23248],[136.47663,34.22863],[136.48282,34.228],[136.48195,34.21995],[136.49266,34.22522],[136.49684,34.22956],[136.50727,34.2328],[136.50261,34.23804],[136.49042,34.23763],[136.48596,34.24147],[136.49731,34.24422],[136.50209,34.24271],[136.50011,34.25167],[136.49354,34.2503],[136.49378,34.25835],[136.50247,34.25493],[136.50462,34.25061],[136.5106,34.2464],[136.50997,34.24243],[136.51609,34.24135],[136.50832,34.25249],[136.50888,34.25858],[136.50565,34.26439],[136.50687,34.27043],[136.50399,34.27629],[136.50557,34.27896],[136.51398,34.27833],[136.51503,34.2731],[136.51258,34.26995],[136.52465,34.26707],[136.52917,34.27331],[136.54076,34.27759],[136.54282,34.26619],[136.53782,34.26079],[136.53905,34.25741],[136.54821,34.25092],[136.55067,34.25282],[136.54815,34.25929],[136.55312,34.26016],[136.55764,34.26799],[136.55512,34.27025],[136.55346,34.28078],[136.55875,34.28526],[136.56388,34.28544],[136.57044,34.28887],[136.57374,34.28674],[136.58077,34.2902],[136.58423,34.28924],[136.59289,34.29245],[136.59714,34.29091],[136.59382,34.28437],[136.58916,34.28495],[136.57871,34.27959],[136.57595,34.2841],[136.57115,34.27811],[136.58063,34.27744],[136.57944,34.26899],[136.58283,34.26608],[136.58585,34.25747],[136.59599,34.25727],[136.60529,34.25863],[136.61292,34.26939],[136.62118,34.27394],[136.62805,34.27293],[136.63277,34.27444],[136.63478,34.27566],[136.63513,34.27573],[136.63505,34.27586],[136.63532,34.27617],[136.63589,34.27634],[136.63645,34.27725],[136.63596,34.27956],[136.63881,34.28524],[136.64239,34.28526],[136.6433,34.28531],[136.64434,34.28572],[136.6458,34.28609],[136.64582,34.28601],[136.64599,34.28598],[136.6459,34.28587],[136.64608,34.28587],[136.64605,34.28589],[136.6462,34.28591],[136.64622,34.28615],[136.64647,34.28625],[136.64786,34.2866],[136.65348,34.28669],[136.65585,34.2884],[136.65847,34.28872],[136.65724,34.29148],[136.65285,34.29384],[136.65642,34.29958],[136.66198,34.30121],[136.66217,34.3012],[136.66439,34.30127],[136.66468,34.30278],[136.66611,34.30709],[136.66613,34.30711],[136.67122,34.31044],[136.67124,34.31046],[136.67143,34.31648],[136.66461,34.31586],[136.6623,34.31112],[136.65317,34.31655],[136.65163,34.3128],[136.64037,34.30803],[136.63734,34.31251],[136.64957,34.31615],[136.65261,34.32304],[136.65279,34.32296],[136.65294,34.32269],[136.65316,34.32214],[136.65319,34.3221],[136.65861,34.32461],[136.66194,34.32603],[136.66951,34.32401],[136.67294,34.32642],[136.67052,34.33183],[136.67106,34.33695],[136.67097,34.33701],[136.66695,34.33955],[136.65692,34.33934],[136.66141,34.34551],[136.6695,34.34381],[136.66951,34.34381],[136.67151,34.34157],[136.67638,34.33861],[136.68445,34.34487],[136.68455,34.34494],[136.68333,34.33892],[136.68049,34.3389],[136.67842,34.33718],[136.67933,34.33551],[136.67935,34.33551],[136.68071,34.33522],[136.68306,34.33315],[136.68295,34.33314],[136.68185,34.32556],[136.68131,34.32451],[136.68188,34.3244],[136.6857,34.32531],[136.69006,34.33289],[136.69466,34.33573],[136.69903,34.346],[136.70571,34.34867],[136.70432,34.34217],[136.70938,34.33659],[136.71233,34.34157],[136.71851,34.34231],[136.72173,34.33826],[136.72136,34.33236],[136.71811,34.3324],[136.71816,34.33024],[136.71509,34.32794],[136.71028,34.33059],[136.70413,34.32867],[136.71016,34.32121],[136.70076,34.31882],[136.69618,34.31993],[136.68938,34.30571],[136.69091,34.29453],[136.68569,34.29065],[136.68998,34.28755],[136.70453,34.29053],[136.7065,34.29432],[136.71441,34.29622],[136.71442,34.29623],[136.71575,34.30222],[136.71209,34.30633],[136.70179,34.30603],[136.70442,34.31278],[136.7087,34.3146],[136.71718,34.31473],[136.724,34.31635],[136.73178,34.32054],[136.74148,34.32238],[136.74559,34.32532],[136.74564,34.33224],[136.75606,34.34124],[136.75361,34.34732],[136.74788,34.35198],[136.75524,34.36404],[136.75402,34.3682],[136.74329,34.37908],[136.74353,34.38472],[136.73464,34.38741],[136.72511,34.3879],[136.71847,34.39222],[136.71392,34.38878],[136.70344,34.3877],[136.69442,34.38526],[136.69336,34.39329],[136.68841,34.39552],[136.68034,34.39648],[136.67394,34.39208],[136.66508,34.39474],[136.64657,34.39647],[136.64327,34.39847]]],[[[136.63649,34.27591],[136.6365,34.27567],[136.63653,34.27568],[136.63654,34.27565],[136.63655,34.27565],[136.63656,34.27565],[136.63649,34.27591]]]]},"properties":{"pref":"三重県","county":"度会郡","city":"南伊勢町","code5":"24472","code6":"244724"}},
{"type":"Feature","geometry":{"type":"MultiPolygon","coordinates":[[[[136.23643,34.08678],[136.23691,34.08929],[136.2275,34.09873],[136.23057,34.10256],[136.24309,34.10595],[136.24111,34.10812],[136.25249,34.11174],[136.25791,34.11981],[136.26559,34.12432],[136.26821,34.12912],[136.27383,34.12144],[136.26936,34.11883],[136.2667,34.11269],[136.25843,34.10692],[136.24824,34.1031],[136.25082,34.09927],[136.2507,34.09326],[136.25433,34.08814],[136.25518,34.09931],[136.25835,34.10306],[136.27569,34.10979],[136.28004,34.11327],[136.29048,34.10737],[136.29926,34.10367],[136.30237,34.09884],[136.30779,34.11342],[136.31322,34.11753],[136.29883,34.11832],[136.29263,34.11248],[136.28401,34.11808],[136.28319,34.12248],[136.29178,34.12715],[136.28888,34.12922],[136.28006,34.13096],[136.27646,34.13949],[136.28458,34.148],[136.27887,34.15387],[136.27771,34.16096],[136.28292,34.16315],[136.28724,34.15931],[136.29044,34.16549],[136.29783,34.16677],[136.2956,34.17111],[136.30293,34.17972],[136.31382,34.17913],[136.32096,34.18614],[136.32531,34.18576],[136.33173,34.1803],[136.33508,34.18342],[136.33216,34.18769],[136.33861,34.1929],[136.33779,34.19724],[136.33311,34.19676],[136.33041,34.19333],[136.32496,34.19697],[136.32825,34.19952],[136.33686,34.19805],[136.33897,34.20467],[136.34451,34.2071],[136.34903,34.20486],[136.34961,34.1993],[136.35602,34.19894],[136.36249,34.19244],[136.37449,34.19747],[136.37044,34.20449],[136.37418,34.21084],[136.37164,34.21621],[136.37294,34.22251],[136.36635,34.22902],[136.36201,34.23073],[136.35694,34.24006],[136.34707,34.24173],[136.3429,34.24437],[136.33858,34.24059],[136.32662,34.24346],[136.31211,34.24259],[136.30608,34.24934],[136.30013,34.25145],[136.2958,34.25696],[136.2996,34.26251],[136.2966,34.26709],[136.28822,34.27172],[136.2698,34.27427],[136.2577,34.26432],[136.25012,34.26479],[136.24296,34.26143],[136.23838,34.25574],[136.2405,34.2478],[136.21747,34.2454],[136.21807,34.239],[136.21378,34.23235],[136.20795,34.23044],[136.20574,34.22662],[136.20791,34.22285],[136.20504,34.21835],[136.19557,34.22005],[136.19167,34.21664],[136.18862,34.20956],[136.1899,34.19978],[136.1925,34.19378],[136.18652,34.19093],[136.18172,34.1911],[136.17293,34.1882],[136.16194,34.18648],[136.15757,34.18465],[136.1534,34.18634],[136.14612,34.17707],[136.147,34.17058],[136.1319,34.16471],[136.12806,34.16939],[136.118,34.16689],[136.11204,34.16756],[136.11469,34.16082],[136.11084,34.15472],[136.10569,34.15252],[136.10622,34.14386],[136.10195,34.14133],[136.1084,34.12678],[136.09968,34.12042],[136.10451,34.11416],[136.11754,34.11802],[136.12902,34.1171],[136.13281,34.119],[136.14565,34.12023],[136.14904,34.11597],[136.1593,34.1095],[136.16466,34.10826],[136.16752,34.10188],[136.16797,34.09207],[136.17325,34.09016],[136.18088,34.09292],[136.19111,34.0908],[136.19934,34.09249],[136.20653,34.0905],[136.21532,34.09316],[136.22596,34.09221],[136.23643,34.08678]]],[[[136.36584,34.14649],[136.36614,34.14666],[136.36623,34.14679],[136.3658,34.14659],[136.36583,34.14649],[136.36584,34.14649]]],[[[136.36712,34.14677],[136.36712,34.1468],[136.36697,34.1468],[136.36712,34.14677]]]]},"properties":{"pref":"三重県","county":"北牟婁郡","city":"紀北町","code5":"24543","code6":"245437"}},
{"type":"Feature","geometry":{"type":"Polygon","coordinates":[[[135.94677,33.82765],[135.95991,33.82232],[135.96472,33.81705],[135.97157,33.81649],[135.9845,33.81885],[135.9902,33.81592],[135.99739,33.80557],[135.99789,33.79749],[136.00649,33.79125],[136.00721,33.78244],[136.0058,33.77722],[136.01831,33.77848],[136.03151,33.77228],[136.03808,33.78581],[136.04592,33.8056],[136.05195,33.81394],[136.0571,33.82608],[136.06606,33.84048],[136.06405,33.84593],[136.06758,33.85354],[136.05863,33.85845],[136.05338,33.86315],[136.04565,33.86324],[136.03529,33.87691],[136.03794,33.87872],[136.03805,33.88502],[136.03431,33.88777],[136.03509,33.89264],[136.02863,33.89196],[136.01813,33.89286],[136.00924,33.89173],[136.00823,33.88951],[135.99054,33.89083],[135.98713,33.88726],[135.98144,33.89037],[135.97481,33.88704],[135.96774,33.87966],[135.97068,33.86818],[135.96686,33.8611],[135.96229,33.8582],[135.96173,33.84672],[135.95914,33.8449],[135.95242,33.84716],[135.93906,33.84554],[135.93596,33.83614],[135.93988,33.83168],[135.94677,33.82765]]]},"properties":{"pref":"三重県","county":"南牟婁郡","city":"御浜町","code5":"24561","code6":"245615"}},
{"type":"Feature","geometry":{"type":"Polygon","coordinates":[[[135.9014,33.78082],[135.90568,33.76848],[135.90915,33.76657],[135.91586,33.76702],[135.91928,33.76409],[135.9205,33.75876],[135.92837,33.75402],[135.93481,33.75723],[135.93888,33.75626],[135.93993,33.73859],[135.94593,33.73203],[135.96352,33.72431],[135.97319,33.72299],[135.97707,33.72477],[135.9717,33.73173],[135.97296,33.73544],[135.98328,33.73637],[135.99716,33.73051],[136.00808,33.72702],[136.01189,33.7233],[136.01848,33.73077],[136.02427,33.75541],[136.03151,33.77228],[136.01831,33.77848],[136.0058,33.77722],[136.00721,33.78244],[136.00649,33.79125],[135.99789,33.79749],[135.99739,33.80557],[135.9902,33.81592],[135.9845,33.81885],[135.97157,33.81649],[135.96472,33.81705],[135.95991,33.82232],[135.94677,33.82765],[135.94831,33.8204],[135.94446,33.81572],[135.93467,33.81142],[135.93354,33.80759],[135.9267,33.80272],[135.93222,33.79128],[135.92877,33.78802],[135.92021,33.79061],[135.91567,33.78751],[135.9014,33.78082]]]},"properties":{"pref":"三重県","county":"南牟婁郡","city":"紀宝町","code5":"24562","code6":"245623"}}
]}