{"type":"FeatureCollection", "features": [
{"type":"Feature","geometry":{"type":"Polygon","coordinates":[[[136.0163,35.23128],[135.99373,35.26439],[135.988,35.26697],[135.98351,35.27233],[135.97679,35.27232],[135.97181,35.27463],[135.96526,35.27466],[135.95653,35.27765],[135.94867,35.27418],[135.94416,35.26711],[135.94063,35.26718],[135.93697,35.26051],[135.93223,35.26103],[135.92789,35.25827],[135.91903,35.26064],[135.91711,35.26398],[135.9103,35.26414],[135.90452,35.27097],[135.90615,35.2751],[135.89712,35.27819],[135.88749,35.28359],[135.88299,35.28464],[135.86965,35.28202],[135.86596,35.28018],[135.86076,35.28296],[135.85453,35.27533],[135.85248,35.26896],[135.84753,35.26667],[135.84467,35.26131],[135.84609,35.25711],[135.84236,35.2532],[135.83753,35.23755],[135.83735,35.22596],[135.83086,35.22276],[135.82982,35.21613],[135.83109,35.21042],[135.83549,35.2067],[135.83524,35.20221],[135.83982,35.19144],[135.84191,35.18984],[135.84063,35.18007],[135.84681,35.16239],[135.85615,35.15944],[135.85261,35.14618],[135.84871,35.14185],[135.85229,35.13427],[135.84961,35.12694],[135.84981,35.12054],[135.84735,35.11426],[135.84326,35.1099],[135.84294,35.10252],[135.83789,35.09744],[135.83505,35.09133],[135.83984,35.08614],[135.83832,35.07908],[135.83189,35.07146],[135.83585,35.06233],[135.83485,35.05555],[135.83156,35.05259],[135.82698,35.05385],[135.8159,35.04737],[135.81542,35.04215],[135.8217,35.03605],[135.82462,35.03564],[135.82811,35.02838],[135.82642,35.02361],[135.83452,35.02208],[135.83546,35.01233],[135.82024,35.01296],[135.8241,35.00882],[135.83268,35.00943],[135.83656,35.00123],[135.83257,34.9991],[135.82748,34.99112],[135.8423,34.98994],[135.84927,34.99173],[135.84912,34.98481],[135.85503,34.98474],[135.85676,34.98],[135.85228,34.97135],[135.86341,34.96005],[135.86486,34.95717],[135.87543,34.95367],[135.87844,34.94743],[135.87603,34.94323],[135.87992,34.93452],[135.87071,34.926],[135.86905,34.92017],[135.87118,34.90995],[135.86313,34.9037],[135.86729,34.89687],[135.86664,34.89214],[135.88141,34.88375],[135.88872,34.88129],[135.88872,34.8755],[135.89967,34.8714],[135.90946,34.8769],[135.91266,34.88352],[135.92395,34.88491],[135.93603,34.89164],[135.94118,34.88473],[135.94008,34.88028],[135.94324,34.87818],[135.95544,34.88062],[135.96431,34.88002],[135.96637,34.8831],[135.96746,34.89122],[135.97185,34.89367],[135.97483,34.88847],[135.98749,34.88984],[135.98693,34.89759],[135.99169,34.90092],[135.99274,34.90866],[135.99941,34.90929],[136.00279,34.91438],[136.01157,34.92018],[136.01553,34.9175],[136.02133,34.91755],[136.02342,34.92154],[136.03552,34.92389],[136.0418,34.92348],[136.04239,34.93048],[136.03311,34.93823],[136.0396,34.94226],[136.04107,34.94527],[136.03004,34.93973],[136.01694,34.9438],[136.01011,34.95455],[136.00357,34.9568],[136.00102,34.96086],[136.0093,34.96307],[136.01399,34.96261],[136.01025,34.97554],[136.00413,34.98011],[135.99884,34.97689],[135.98941,34.98],[135.98732,34.97806],[135.97793,34.98006],[135.97625,34.98492],[135.96699,34.9831],[135.96542,34.97578],[135.95831,34.97251],[135.95011,34.97218],[135.94655,34.98102],[135.93971,34.98853],[135.93979,34.99242],[135.91892,34.99632],[135.90877,34.99539],[135.90291,34.99235],[135.90062,34.99739],[135.90128,35.00245],[135.89819,35.01247],[135.89372,35.02244],[135.89117,35.02347],[135.88796,35.03533],[135.89218,35.04461],[135.91148,35.06974],[135.91469,35.07944],[135.92324,35.08812],[135.93139,35.10946],[135.93558,35.11552],[135.93519,35.12118],[135.93844,35.1262],[135.94025,35.13752],[135.95931,35.14721],[135.97256,35.18098],[135.98237,35.18662],[135.99585,35.19021],[136.01082,35.22486],[136.0163,35.23128]]]},"properties":{"pref":"滋賀県","city":"大津市","code5":"25201","code6":"252018"}},
{"type":"Feature","geometry":{"type":"Polygon","coordinates":[[[136.35153,35.27413],[136.34624,35.28626],[136.34018,35.28961],[136.32848,35.29161],[136.32502,35.28808],[136.32319,35.27989],[136.31889,35.2809],[136.31744,35.28876],[136.31371,35.29302],[136.30539,35.29411],[136.30082,35.29901],[136.29149,35.29944],[136.28621,35.29706],[136.26992,35.29677],[136.2686,35.29417],[136.26057,35.29453],[136.25698,35.30045],[136.24408,35.29558],[136.21599,35.30368],[136.21328,35.33232],[136.20978,35.33865],[136.14855,35.35601],[136.14576,35.34994],[136.15285,35.26872],[136.12223,35.25589],[136.11818,35.25556],[136.0837,35.25885],[136.08523,35.25184],[136.11212,35.21644],[136.12135,35.2128],[136.12965,35.21312],[136.13598,35.21142],[136.13975,35.20721],[136.16699,35.20444],[136.17575,35.19653],[136.18093,35.19349],[136.19163,35.19016],[136.19523,35.19855],[136.20036,35.19487],[136.20527,35.19913],[136.21606,35.19362],[136.21349,35.19708],[136.22122,35.207],[136.22576,35.21855],[136.23756,35.21283],[136.24129,35.21773],[136.25066,35.21709],[136.25303,35.22033],[136.25027,35.22602],[136.25769,35.22838],[136.26147,35.2305],[136.27221,35.22605],[136.27498,35.22953],[136.2699,35.23264],[136.27458,35.24029],[136.28813,35.24149],[136.28904,35.24401],[136.29692,35.24913],[136.29682,35.25321],[136.30064,35.25722],[136.30759,35.2576],[136.31661,35.26565],[136.32111,35.26769],[136.33875,35.26402],[136.34535,35.26863],[136.35159,35.26958],[136.35153,35.27413]]]},"properties":{"pref":"滋賀県","city":"彦根市","code5":"25202","code6":"252026"}},
{"type":"Feature","geometry":{"type":"Polygon","coordinates":[[[136.10562,35.52882],[136.10368,35.52104],[136.10505,35.51502],[136.10134,35.51066],[136.09861,35.50012],[136.10123,35.49026],[136.09957,35.48005],[136.09625,35.47837],[136.09544,35.46941],[136.09165,35.46532],[136.09429,35.46138],[136.1016,35.46058],[136.11583,35.45456],[136.11794,35.4381],[136.11637,35.43266],[136.09471,35.41005],[136.09834,35.39282],[136.14508,35.35756],[136.14855,35.35601],[136.20978,35.33865],[136.22574,35.34795],[136.24298,35.34974],[136.25043,35.35266],[136.27752,35.35081],[136.2964,35.35462],[136.29805,35.35028],[136.30578,35.35217],[136.3111,35.34262],[136.32505,35.34706],[136.32646,35.35923],[136.32931,35.36505],[136.3341,35.36769],[136.3339,35.37198],[136.33746,35.37924],[136.33518,35.38583],[136.33567,35.3911],[136.33214,35.3997],[136.337,35.40544],[136.34094,35.40256],[136.35084,35.40034],[136.3567,35.40075],[136.3597,35.40472],[136.36262,35.41655],[136.35714,35.42447],[136.35872,35.43417],[136.34967,35.44694],[136.35042,35.4512],[136.34256,35.46136],[136.34409,35.464],[136.33308,35.46875],[136.33835,35.4769],[136.33481,35.48251],[136.33714,35.48774],[136.33745,35.49637],[136.3428,35.50318],[136.34313,35.51597],[136.34617,35.51784],[136.34775,35.5235],[136.34588,35.53611],[136.34093,35.53728],[136.33732,35.55025],[136.32975,35.55096],[136.3221,35.54435],[136.3175,35.5474],[136.31626,35.55594],[136.31892,35.56559],[136.32275,35.57001],[136.32169,35.59826],[136.31906,35.6038],[136.31504,35.60569],[136.32054,35.61072],[136.32368,35.61652],[136.31556,35.6234],[136.30649,35.62226],[136.29817,35.61748],[136.28856,35.62059],[136.28741,35.62795],[136.27916,35.63669],[136.2831,35.64374],[136.28161,35.64755],[136.27657,35.65148],[136.28074,35.65863],[136.28053,35.66128],[136.26936,35.66873],[136.26403,35.67106],[136.25748,35.67128],[136.25037,35.67625],[136.24465,35.67379],[136.23441,35.68246],[136.22768,35.68047],[136.21947,35.68435],[136.21181,35.68245],[136.20804,35.68769],[136.20419,35.68679],[136.1985,35.68957],[136.19309,35.70076],[136.18528,35.70373],[136.17836,35.70181],[136.17459,35.70374],[136.16677,35.70221],[136.16604,35.69725],[136.15675,35.70037],[136.15035,35.69772],[136.15026,35.69112],[136.14349,35.68304],[136.13449,35.66982],[136.13749,35.66508],[136.14782,35.66252],[136.1504,35.65886],[136.15154,35.64828],[136.15731,35.64126],[136.15977,35.63496],[136.15987,35.62523],[136.16689,35.61862],[136.1708,35.60868],[136.17437,35.60359],[136.17749,35.59498],[136.16647,35.58265],[136.17033,35.57109],[136.16688,35.56535],[136.16324,35.57114],[136.15087,35.57288],[136.14333,35.57115],[136.13869,35.57567],[136.13282,35.57453],[136.12158,35.57616],[136.11222,35.57984],[136.1126,35.57341],[136.10889,35.5672],[136.1101,35.55929],[136.10545,35.55542],[136.10905,35.54966],[136.10941,35.54512],[136.10609,35.53864],[136.1072,35.53037],[136.10562,35.52882]]]},"properties":{"pref":"滋賀県","city":"長浜市","code5":"25203","code6":"252034"}},
{"type":"Feature","geometry":{"type":"Polygon","coordinates":[[[135.99585,35.19021],[136.00107,35.18618],[136.00364,35.15461],[136.00798,35.1409],[136.01713,35.13686],[136.02496,35.1359],[136.03324,35.11442],[136.0428,35.10974],[136.04871,35.11038],[136.05726,35.10564],[136.0647,35.10508],[136.06957,35.09876],[136.07795,35.09202],[136.08162,35.09233],[136.08719,35.09717],[136.09904,35.09696],[136.10319,35.0889],[136.11021,35.09156],[136.11441,35.08758],[136.12265,35.0916],[136.13473,35.08381],[136.13389,35.07711],[136.13873,35.07393],[136.14577,35.07645],[136.14102,35.08054],[136.1408,35.08515],[136.12551,35.09575],[136.1255,35.10248],[136.13344,35.10577],[136.13988,35.10466],[136.13962,35.10973],[136.14996,35.11039],[136.15403,35.1075],[136.15998,35.1067],[136.16985,35.11089],[136.16991,35.11819],[136.17617,35.12308],[136.18299,35.12559],[136.18183,35.12882],[136.1758,35.13053],[136.17191,35.13478],[136.17327,35.13775],[136.16828,35.14425],[136.16204,35.14574],[136.15155,35.15306],[136.14074,35.15505],[136.14001,35.16078],[136.13046,35.17188],[136.13175,35.17517],[136.12975,35.18325],[136.12462,35.18243],[136.12339,35.18703],[136.11243,35.18517],[136.1113,35.18985],[136.1059,35.18896],[136.10187,35.19885],[136.09954,35.20972],[136.09054,35.22166],[136.08523,35.25184],[136.0837,35.25885],[136.07891,35.26087],[136.07118,35.2595],[136.02687,35.23929],[136.0163,35.23128],[136.01082,35.22486],[135.99585,35.19021]]]},"properties":{"pref":"滋賀県","city":"近江八幡市","code5":"25204","code6":"252042"}},
{"type":"Feature","geometry":{"type":"Polygon","coordinates":[[[135.98941,34.98],[135.99128,34.98502],[135.99919,34.99691],[135.99201,35.00333],[135.99014,35.00798],[135.98247,35.00888],[135.97047,35.01559],[135.97256,35.01835],[135.96842,35.02182],[135.97249,35.03137],[135.96101,35.03766],[135.96501,35.04261],[135.95866,35.04585],[135.96284,35.05069],[135.96444,35.05296],[135.95806,35.0602],[135.95013,35.06154],[135.94088,35.08084],[135.92324,35.08812],[135.91469,35.07944],[135.91148,35.06974],[135.89218,35.04461],[135.88796,35.03533],[135.89117,35.02347],[135.89372,35.02244],[135.89819,35.01247],[135.90128,35.00245],[135.90062,34.99739],[135.90291,34.99235],[135.90877,34.99539],[135.91892,34.99632],[135.93979,34.99242],[135.93971,34.98853],[135.94655,34.98102],[135.95011,34.97218],[135.95831,34.97251],[135.96542,34.97578],[135.96699,34.9831],[135.97625,34.98492],[135.97793,34.98006],[135.98732,34.97806],[135.98941,34.98]]]},"properties":{"pref":"滋賀県","city":"草津市","code5":"25206","code6":"252069"}},
{"type":"Feature","geometry":{"type":"Polygon","coordinates":[[[135.92324,35.08812],[135.94088,35.08084],[135.95013,35.06154],[135.95806,35.0602],[135.96444,35.05296],[135.96284,35.05069],[135.97481,35.04448],[135.97603,35.04602],[135.99492,35.03689],[136.00349,35.04765],[136.00715,35.0499],[136.01147,35.0476],[136.01596,35.05067],[136.00772,35.05929],[136.00432,35.05866],[135.99689,35.06298],[136.00159,35.06886],[136.00717,35.07021],[136.00972,35.07594],[136.00872,35.0852],[136.0016,35.0904],[136.00369,35.09266],[136.00388,35.10104],[135.99971,35.1093],[135.99331,35.11208],[135.99407,35.1156],[135.98858,35.12019],[135.98134,35.12278],[135.96759,35.13087],[135.95931,35.14721],[135.94025,35.13752],[135.93844,35.1262],[135.93519,35.12118],[135.93558,35.11552],[135.93139,35.10946],[135.92324,35.08812]]]},"properties":{"pref":"滋賀県","city":"守山市","code5":"25207","code6":"252077"}},
{"type":"Feature","geometry":{"type":"Polygon","coordinates":[[[136.04107,34.94527],[136.04621,34.94646],[136.04883,34.95837],[136.06124,34.96417],[136.04634,34.98124],[136.04262,34.98749],[136.0464,34.99482],[136.04033,34.99658],[136.03731,35.00495],[136.03958,35.0074],[136.03629,35.01194],[136.03965,35.01843],[136.03665,35.0213],[136.03889,35.02617],[136.03065,35.03055],[136.027,35.03439],[136.01596,35.05067],[136.01147,35.0476],[136.00715,35.0499],[136.00349,35.04765],[135.99492,35.03689],[135.97603,35.04602],[135.97481,35.04448],[135.96284,35.05069],[135.95866,35.04585],[135.96501,35.04261],[135.96101,35.03766],[135.97249,35.03137],[135.96842,35.02182],[135.97256,35.01835],[135.97047,35.01559],[135.98247,35.00888],[135.99014,35.00798],[135.99201,35.00333],[135.99919,34.99691],[135.99128,34.98502],[135.98941,34.98],[135.99884,34.97689],[136.00413,34.98011],[136.01025,34.97554],[136.01399,34.96261],[136.0093,34.96307],[136.00102,34.96086],[136.00357,34.9568],[136.01011,34.95455],[136.01694,34.9438],[136.03004,34.93973],[136.04107,34.94527]]]},"properties":{"pref":"滋賀県","city":"栗東市","code5":"25208","code6":"252085"}},
{"type":"Feature","geometry":{"type":"Polygon","coordinates":[[[136.42117,34.99963],[136.41696,35.01124],[136.41817,35.01812],[136.40458,35.01377],[136.3942,35.01817],[136.38791,35.02245],[136.38337,35.01846],[136.3721,35.01636],[136.36387,35.0168],[136.36317,35.02194],[136.3549,35.02341],[136.34248,35.01657],[136.34126,35.0142],[136.34542,35.0086],[136.34091,34.98925],[136.33497,34.98301],[136.32963,34.98256],[136.32514,34.97843],[136.32057,34.97828],[136.31584,34.9826],[136.3071,34.98422],[136.3012,34.98359],[136.29854,34.97975],[136.29037,34.97366],[136.28673,34.97478],[136.2811,34.96807],[136.2697,34.96137],[136.26517,34.96371],[136.25224,34.95673],[136.24712,34.95654],[136.23796,34.95924],[136.23075,34.96426],[136.22821,34.97043],[136.22002,34.96873],[136.21919,34.9803],[136.21542,34.98561],[136.20778,34.9853],[136.2011,34.99237],[136.18887,34.99754],[136.18282,35.00446],[136.18283,35.01388],[136.18068,35.01643],[136.17822,35.02016],[136.1715,35.02002],[136.16355,35.03063],[136.16088,35.0243],[136.1534,35.01925],[136.14218,35.02504],[136.14125,35.0199],[136.13701,35.0136],[136.13941,35.00806],[136.13906,35.00289],[136.12766,34.99905],[136.12246,34.99558],[136.1274,34.98901],[136.12405,34.98384],[136.12795,34.97862],[136.13167,34.96798],[136.13195,34.96341],[136.12563,34.96096],[136.12326,34.95493],[136.11644,34.95228],[136.11348,34.94763],[136.10476,34.94864],[136.1028,34.95187],[136.09472,34.95456],[136.08849,34.95427],[136.07962,34.95807],[136.0764,34.96247],[136.06124,34.96417],[136.04883,34.95837],[136.04621,34.94646],[136.04107,34.94527],[136.0396,34.94226],[136.03311,34.93823],[136.04239,34.93048],[136.0418,34.92348],[136.03552,34.92389],[136.02342,34.92154],[136.02133,34.91755],[136.01553,34.9175],[136.01157,34.92018],[136.00279,34.91438],[135.99941,34.90929],[135.99274,34.90866],[135.99169,34.90092],[135.98693,34.89759],[135.98749,34.88984],[135.97483,34.88847],[135.97185,34.89367],[135.96746,34.89122],[135.96637,34.8831],[135.96431,34.88002],[135.95544,34.88062],[135.94324,34.87818],[135.94363,34.87279],[135.94099,34.86374],[135.94704,34.85352],[135.94619,34.85178],[135.95713,34.85478],[135.96273,34.85043],[135.97205,34.84605],[135.97147,34.83849],[135.97778,34.83846],[135.9948,34.84226],[136.00075,34.84509],[136.00527,34.84311],[136.00233,34.83276],[136.00538,34.82656],[136.01217,34.82517],[136.01549,34.8266],[136.02771,34.8218],[136.02846,34.81912],[136.02737,34.81491],[136.01866,34.81267],[136.01505,34.80915],[136.01027,34.79955],[136.01133,34.79581],[136.02229,34.79156],[136.02843,34.79068],[136.03466,34.79427],[136.03848,34.79394],[136.04117,34.79846],[136.05155,34.79909],[136.05512,34.80207],[136.06369,34.80161],[136.07299,34.80421],[136.07551,34.80785],[136.0818,34.80775],[136.09062,34.81223],[136.0908,34.81584],[136.09519,34.8191],[136.08755,34.83045],[136.09508,34.84018],[136.1044,34.84057],[136.1074,34.84524],[136.1083,34.85282],[136.11339,34.85614],[136.11741,34.85589],[136.12638,34.86202],[136.12277,34.86632],[136.12586,34.87002],[136.12213,34.87275],[136.11324,34.8693],[136.09889,34.87058],[136.08698,34.87636],[136.0896,34.8825],[136.08622,34.88913],[136.09479,34.8878],[136.09838,34.88953],[136.10178,34.89614],[136.10627,34.90008],[136.1123,34.90188],[136.11628,34.89216],[136.12045,34.89144],[136.13153,34.88313],[136.13644,34.88821],[136.14408,34.88541],[136.14855,34.88202],[136.15357,34.88458],[136.1669,34.88789],[136.18078,34.88579],[136.17826,34.88258],[136.1822,34.87817],[136.1887,34.87758],[136.18973,34.87391],[136.19807,34.86986],[136.20907,34.86812],[136.21201,34.86602],[136.22783,34.86097],[136.23539,34.86147],[136.25068,34.85773],[136.2679,34.86447],[136.26889,34.8679],[136.28068,34.87304],[136.28372,34.87029],[136.28906,34.86957],[136.2971,34.87276],[136.29877,34.87537],[136.30502,34.87518],[136.31292,34.88063],[136.31323,34.88697],[136.31906,34.88957],[136.32634,34.88864],[136.33073,34.89243],[136.33941,34.89547],[136.34605,34.89473],[136.35033,34.89897],[136.35736,34.90048],[136.36019,34.90412],[136.3661,34.90501],[136.36515,34.91269],[136.36781,34.9219],[136.37391,34.92378],[136.3719,34.93459],[136.37535,34.93989],[136.37269,34.94226],[136.38771,34.95308],[136.39526,34.95188],[136.39912,34.96314],[136.40315,34.96915],[136.41587,34.9808],[136.41519,34.98462],[136.41636,34.99213],[136.41349,34.99543],[136.42117,34.99963]]]},"properties":{"pref":"滋賀県","city":"甲賀市","code5":"25209","code6":"252093"}},
{"type":"Feature","geometry":{"type":"Polygon","coordinates":[[[135.95931,35.14721],[135.96759,35.13087],[135.98134,35.12278],[135.98858,35.12019],[135.99407,35.1156],[135.99331,35.11208],[135.99971,35.1093],[136.00388,35.10104],[136.00369,35.09266],[136.0016,35.0904],[136.00872,35.0852],[136.00972,35.07594],[136.00717,35.07021],[136.00159,35.06886],[135.99689,35.06298],[136.00432,35.05866],[136.00772,35.05929],[136.01596,35.05067],[136.027,35.03439],[136.03065,35.03055],[136.03889,35.02617],[136.05089,35.03247],[136.05244,35.03946],[136.05592,35.04476],[136.05464,35.05182],[136.05633,35.05675],[136.06583,35.05509],[136.07317,35.0523],[136.07344,35.05622],[136.07863,35.06196],[136.07982,35.07174],[136.07906,35.08082],[136.07582,35.08338],[136.07795,35.09202],[136.06957,35.09876],[136.0647,35.10508],[136.05726,35.10564],[136.04871,35.11038],[136.0428,35.10974],[136.03324,35.11442],[136.02496,35.1359],[136.01713,35.13686],[136.00798,35.1409],[136.00364,35.15461],[136.00107,35.18618],[135.99585,35.19021],[135.98237,35.18662],[135.97256,35.18098],[135.95931,35.14721]]]},"properties":{"pref":"滋賀県","city":"野洲市","code5":"25210","code6":"252107"}},
{"type":"Feature","geometry":{"type":"Polygon","coordinates":[[[136.06124,34.96417],[136.0764,34.96247],[136.07962,34.95807],[136.08849,34.95427],[136.09472,34.95456],[136.1028,34.95187],[136.10476,34.94864],[136.11348,34.94763],[136.11644,34.95228],[136.12326,34.95493],[136.12563,34.96096],[136.13195,34.96341],[136.13167,34.96798],[136.12795,34.97862],[136.12405,34.98384],[136.1274,34.98901],[136.12246,34.99558],[136.12766,34.99905],[136.13906,35.00289],[136.13941,35.00806],[136.13701,35.0136],[136.14125,35.0199],[136.14218,35.02504],[136.1372,35.02692],[136.13687,35.03047],[136.12955,35.0354],[136.12339,35.03713],[136.11956,35.0352],[136.12364,35.02495],[136.11978,35.02113],[136.11692,35.02707],[136.11272,35.02763],[136.10462,35.02457],[136.10104,35.02163],[136.09401,35.0244],[136.09092,35.02898],[136.08663,35.02996],[136.08398,35.03916],[136.07887,35.04586],[136.07892,35.04965],[136.07317,35.0523],[136.06583,35.05509],[136.05633,35.05675],[136.05464,35.05182],[136.05592,35.04476],[136.05244,35.03946],[136.05089,35.03247],[136.03889,35.02617],[136.03665,35.0213],[136.03965,35.01843],[136.03629,35.01194],[136.03958,35.0074],[136.03731,35.00495],[136.04033,34.99658],[136.0464,34.99482],[136.04262,34.98749],[136.04634,34.98124],[136.06124,34.96417]]]},"properties":{"pref":"滋賀県","city":"湖南市","code5":"25211","code6":"252115"}},
{"type":"Feature","geometry":{"type":"Polygon","coordinates":[[[136.02653,35.5295],[136.02884,35.52343],[136.02353,35.51923],[136.02013,35.5119],[136.01596,35.51227],[136.01173,35.50484],[136.01169,35.49762],[136.00666,35.49182],[135.99319,35.49159],[135.98951,35.49268],[135.98095,35.48669],[135.97265,35.50011],[135.96719,35.50298],[135.96258,35.50133],[135.95759,35.50596],[135.95237,35.50622],[135.95182,35.51122],[135.94702,35.52048],[135.93965,35.52054],[135.93802,35.51116],[135.93321,35.50231],[135.92983,35.49196],[135.92483,35.48997],[135.92229,35.48582],[135.92374,35.4817],[135.92169,35.47612],[135.91601,35.47058],[135.91733,35.46676],[135.91558,35.45612],[135.91246,35.44869],[135.91416,35.43211],[135.90808,35.42952],[135.90271,35.42943],[135.90098,35.42576],[135.89298,35.41985],[135.89355,35.41073],[135.89057,35.40318],[135.88029,35.4006],[135.87555,35.3974],[135.86453,35.39442],[135.86043,35.39525],[135.85434,35.40078],[135.85561,35.40903],[135.85313,35.41154],[135.84968,35.41059],[135.83837,35.41422],[135.83204,35.41224],[135.8267,35.41465],[135.81923,35.41255],[135.81321,35.41298],[135.81076,35.40947],[135.81056,35.40326],[135.80809,35.39524],[135.81007,35.39177],[135.80753,35.38536],[135.7991,35.38492],[135.79089,35.38664],[135.79196,35.38112],[135.77915,35.37352],[135.77775,35.36594],[135.77007,35.35998],[135.76879,35.35601],[135.76407,35.34456],[135.78082,35.34056],[135.78573,35.33072],[135.79003,35.32822],[135.79087,35.3238],[135.79519,35.32124],[135.80364,35.31725],[135.80878,35.31688],[135.81125,35.31353],[135.81067,35.30832],[135.81436,35.30711],[135.81497,35.30126],[135.8214,35.29684],[135.82005,35.29107],[135.82962,35.27674],[135.83461,35.27408],[135.84178,35.27812],[135.84962,35.28028],[135.85168,35.28597],[135.85854,35.2871],[135.86076,35.28296],[135.86596,35.28018],[135.86965,35.28202],[135.88299,35.28464],[135.88749,35.28359],[135.89712,35.27819],[135.90615,35.2751],[135.90452,35.27097],[135.9103,35.26414],[135.91711,35.26398],[135.91903,35.26064],[135.92789,35.25827],[135.93223,35.26103],[135.93697,35.26051],[135.94063,35.26718],[135.94416,35.26711],[135.94867,35.27418],[135.95653,35.27765],[135.96526,35.27466],[135.97181,35.27463],[135.97679,35.27232],[135.98351,35.27233],[135.988,35.26697],[135.99373,35.26439],[136.0163,35.23128],[136.02687,35.23929],[136.07118,35.2595],[136.07891,35.26087],[136.0837,35.25885],[136.11818,35.25556],[136.12223,35.25589],[136.15285,35.26872],[136.14576,35.34994],[136.14855,35.35601],[136.14508,35.35756],[136.09834,35.39282],[136.09471,35.41005],[136.11637,35.43266],[136.11794,35.4381],[136.11583,35.45456],[136.1016,35.46058],[136.09429,35.46138],[136.09165,35.46532],[136.09544,35.46941],[136.09625,35.47837],[136.09957,35.48005],[136.10123,35.49026],[136.09861,35.50012],[136.10134,35.51066],[136.10505,35.51502],[136.10368,35.52104],[136.10562,35.52882],[136.09356,35.53734],[136.08323,35.54056],[136.0767,35.53443],[136.07705,35.53054],[136.06923,35.52625],[136.06235,35.52815],[136.06072,35.53187],[136.04835,35.53453],[136.04638,35.53018],[136.04094,35.53218],[136.02653,35.5295]]]},"properties":{"pref":"滋賀県","city":"高島市","code5":"25212","code6":"252123"}},
{"type":"Feature","geometry":{"type":"Polygon","coordinates":[[[136.40865,35.18718],[136.40369,35.18747],[136.38908,35.1968],[136.38775,35.19093],[136.37946,35.18945],[136.37646,35.18602],[136.37454,35.17698],[136.37585,35.1697],[136.38039,35.16218],[136.3901,35.15538],[136.39141,35.15156],[136.38671,35.14466],[136.37915,35.14027],[136.37192,35.13905],[136.36379,35.13494],[136.35924,35.13649],[136.35472,35.1311],[136.34071,35.13606],[136.33568,35.14295],[136.33091,35.14287],[136.32538,35.13704],[136.31893,35.13862],[136.32163,35.14587],[136.31524,35.15117],[136.30766,35.15366],[136.30338,35.15772],[136.29632,35.15664],[136.28889,35.15316],[136.2817,35.15245],[136.26362,35.15657],[136.25876,35.1592],[136.25346,35.1532],[136.24683,35.151],[136.23905,35.15469],[136.23667,35.15871],[136.22951,35.15801],[136.2282,35.1548],[136.23221,35.15175],[136.23095,35.14712],[136.22698,35.14351],[136.21686,35.14788],[136.20426,35.14805],[136.20333,35.15895],[136.19648,35.17084],[136.19599,35.18458],[136.19163,35.19016],[136.18093,35.19349],[136.17575,35.19653],[136.16699,35.20444],[136.13975,35.20721],[136.13598,35.21142],[136.12965,35.21312],[136.12135,35.2128],[136.11212,35.21644],[136.08523,35.25184],[136.09054,35.22166],[136.09954,35.20972],[136.10187,35.19885],[136.1059,35.18896],[136.1113,35.18985],[136.11243,35.18517],[136.12339,35.18703],[136.12462,35.18243],[136.12975,35.18325],[136.13175,35.17517],[136.13046,35.17188],[136.14001,35.16078],[136.14074,35.15505],[136.15155,35.15306],[136.16204,35.14574],[136.16828,35.14425],[136.17327,35.13775],[136.17191,35.13478],[136.1758,35.13053],[136.18183,35.12882],[136.18299,35.12559],[136.17617,35.12308],[136.16991,35.11819],[136.16985,35.11089],[136.15998,35.1067],[136.15403,35.1075],[136.14996,35.11039],[136.13962,35.10973],[136.13988,35.10466],[136.13344,35.10577],[136.1255,35.10248],[136.12551,35.09575],[136.1408,35.08515],[136.14102,35.08054],[136.14577,35.07645],[136.14947,35.07324],[136.14953,35.0666],[136.14608,35.06187],[136.15307,35.05388],[136.1493,35.05002],[136.15001,35.04542],[136.15647,35.02844],[136.16355,35.03063],[136.1715,35.02002],[136.17822,35.02016],[136.18068,35.01643],[136.18355,35.01952],[136.18421,35.02502],[136.19162,35.02474],[136.19674,35.02253],[136.19912,35.027],[136.2113,35.03294],[136.2174,35.03878],[136.21544,35.05158],[136.21667,35.05872],[136.22082,35.06388],[136.23386,35.06557],[136.23446,35.06897],[136.24903,35.06848],[136.25787,35.06465],[136.26021,35.06083],[136.2669,35.05776],[136.27386,35.06286],[136.27546,35.05801],[136.29095,35.0586],[136.29546,35.05741],[136.30242,35.05142],[136.30747,35.04525],[136.31625,35.04352],[136.31755,35.03871],[136.32765,35.03615],[136.33472,35.02964],[136.33499,35.02544],[136.33879,35.02328],[136.34248,35.01657],[136.3549,35.02341],[136.36317,35.02194],[136.36387,35.0168],[136.3721,35.01636],[136.38337,35.01846],[136.38791,35.02245],[136.3942,35.01817],[136.40458,35.01377],[136.41817,35.01812],[136.42128,35.02127],[136.42383,35.02977],[136.41884,35.02991],[136.41645,35.03729],[136.41785,35.0495],[136.42221,35.05138],[136.42472,35.05698],[136.43104,35.05923],[136.4416,35.06672],[136.43527,35.08249],[136.44197,35.08656],[136.4387,35.09637],[136.44191,35.10158],[136.44082,35.10775],[136.44251,35.11085],[136.43997,35.11663],[136.44452,35.11901],[136.44802,35.12384],[136.43564,35.13066],[136.43795,35.13656],[136.44295,35.13906],[136.44318,35.14517],[136.44604,35.14987],[136.45039,35.1495],[136.455,35.15241],[136.45465,35.16142],[136.45255,35.16584],[136.44854,35.16682],[136.44387,35.1717],[136.43978,35.1715],[136.43572,35.1765],[136.42446,35.18451],[136.41944,35.18272],[136.40865,35.18718]]]},"properties":{"pref":"滋賀県","city":"東近江市","code5":"25213","code6":"252131"}},
{"type":"Feature","geometry":{"type":"Polygon","coordinates":[[[136.40266,35.30045],[136.40685,35.30526],[136.40678,35.31],[136.41226,35.31556],[136.41117,35.32794],[136.42233,35.34839],[136.42142,35.35392],[136.40962,35.35666],[136.41353,35.35997],[136.41191,35.3699],[136.41557,35.37356],[136.42608,35.37332],[136.43689,35.37913],[136.44435,35.38943],[136.44089,35.39386],[136.42797,35.40078],[136.42031,35.41291],[136.41181,35.4186],[136.41184,35.42241],[136.41889,35.42778],[136.41573,35.43342],[136.42312,35.43973],[136.42221,35.44256],[136.42617,35.44816],[136.42147,35.45564],[136.42036,35.46623],[136.40177,35.46994],[136.40196,35.47347],[136.39801,35.48093],[136.38688,35.48841],[136.38783,35.49683],[136.39722,35.50966],[136.40229,35.51325],[136.4025,35.51897],[136.39927,35.52112],[136.40176,35.52581],[136.4004,35.53008],[136.38425,35.53309],[136.381,35.53766],[136.38027,35.54607],[136.37577,35.55124],[136.37356,35.55939],[136.36252,35.55848],[136.35666,35.53991],[136.34588,35.53611],[136.34775,35.5235],[136.34617,35.51784],[136.34313,35.51597],[136.3428,35.50318],[136.33745,35.49637],[136.33714,35.48774],[136.33481,35.48251],[136.33835,35.4769],[136.33308,35.46875],[136.34409,35.464],[136.34256,35.46136],[136.35042,35.4512],[136.34967,35.44694],[136.35872,35.43417],[136.35714,35.42447],[136.36262,35.41655],[136.3597,35.40472],[136.3567,35.40075],[136.35084,35.40034],[136.34094,35.40256],[136.337,35.40544],[136.33214,35.3997],[136.33567,35.3911],[136.33518,35.38583],[136.33746,35.37924],[136.3339,35.37198],[136.3341,35.36769],[136.32931,35.36505],[136.32646,35.35923],[136.32505,35.34706],[136.3111,35.34262],[136.30578,35.35217],[136.29805,35.35028],[136.2964,35.35462],[136.27752,35.35081],[136.25043,35.35266],[136.24298,35.34974],[136.22574,35.34795],[136.20978,35.33865],[136.21328,35.33232],[136.21599,35.30368],[136.24408,35.29558],[136.25698,35.30045],[136.26057,35.29453],[136.2686,35.29417],[136.26992,35.29677],[136.28621,35.29706],[136.29149,35.29944],[136.30082,35.29901],[136.30539,35.29411],[136.31371,35.29302],[136.31744,35.28876],[136.31889,35.2809],[136.32319,35.27989],[136.32502,35.28808],[136.32848,35.29161],[136.34018,35.28961],[136.34624,35.28626],[136.35153,35.27413],[136.36374,35.28098],[136.36992,35.28202],[136.37772,35.28728],[136.381,35.28409],[136.38525,35.28684],[136.39173,35.28711],[136.39115,35.2902],[136.40266,35.30045]]]},"properties":{"pref":"滋賀県","city":"米原市","code5":"25214","code6":"252140"}},
{"type":"Feature","geometry":{"type":"Polygon","coordinates":[[[136.34248,35.01657],[136.33879,35.02328],[136.33499,35.02544],[136.33472,35.02964],[136.32765,35.03615],[136.31755,35.03871],[136.31625,35.04352],[136.30747,35.04525],[136.30242,35.05142],[136.29546,35.05741],[136.29095,35.0586],[136.27546,35.05801],[136.27386,35.06286],[136.2669,35.05776],[136.26021,35.06083],[136.25787,35.06465],[136.24903,35.06848],[136.23446,35.06897],[136.23386,35.06557],[136.22082,35.06388],[136.21667,35.05872],[136.21544,35.05158],[136.2174,35.03878],[136.2113,35.03294],[136.19912,35.027],[136.19674,35.02253],[136.19162,35.02474],[136.18421,35.02502],[136.18355,35.01952],[136.18068,35.01643],[136.18283,35.01388],[136.18282,35.00446],[136.18887,34.99754],[136.2011,34.99237],[136.20778,34.9853],[136.21542,34.98561],[136.21919,34.9803],[136.22002,34.96873],[136.22821,34.97043],[136.23075,34.96426],[136.23796,34.95924],[136.24712,34.95654],[136.25224,34.95673],[136.26517,34.96371],[136.2697,34.96137],[136.2811,34.96807],[136.28673,34.97478],[136.29037,34.97366],[136.29854,34.97975],[136.3012,34.98359],[136.3071,34.98422],[136.31584,34.9826],[136.32057,34.97828],[136.32514,34.97843],[136.32963,34.98256],[136.33497,34.98301],[136.34091,34.98925],[136.34542,35.0086],[136.34126,35.0142],[136.34248,35.01657]]]},"properties":{"pref":"滋賀県","county":"蒲生郡","city":"日野町","code5":"25383","code6":"253839"}},
{"type":"Feature","geometry":{"type":"Polygon","coordinates":[[[136.07795,35.09202],[136.07582,35.08338],[136.07906,35.08082],[136.07982,35.07174],[136.07863,35.06196],[136.07344,35.05622],[136.07317,35.0523],[136.07892,35.04965],[136.07887,35.04586],[136.08398,35.03916],[136.08663,35.02996],[136.09092,35.02898],[136.09401,35.0244],[136.10104,35.02163],[136.10462,35.02457],[136.11272,35.02763],[136.11692,35.02707],[136.11978,35.02113],[136.12364,35.02495],[136.11956,35.0352],[136.12339,35.03713],[136.12955,35.0354],[136.13687,35.03047],[136.1372,35.02692],[136.14218,35.02504],[136.1534,35.01925],[136.16088,35.0243],[136.16355,35.03063],[136.15647,35.02844],[136.15001,35.04542],[136.1493,35.05002],[136.15307,35.05388],[136.14608,35.06187],[136.14953,35.0666],[136.14947,35.07324],[136.14577,35.07645],[136.13873,35.07393],[136.13389,35.07711],[136.13473,35.08381],[136.12265,35.0916],[136.11441,35.08758],[136.11021,35.09156],[136.10319,35.0889],[136.09904,35.09696],[136.08719,35.09717],[136.08162,35.09233],[136.07795,35.09202]]]},"properties":{"pref":"滋賀県","county":"蒲生郡","city":"竜王町","code5":"25384","code6":"253847"}},
{"type":"Feature","geometry":{"type":"Polygon","coordinates":[[[136.19163,35.19016],[136.19599,35.18458],[136.19648,35.17084],[136.20333,35.15895],[136.20426,35.14805],[136.21686,35.14788],[136.22698,35.14351],[136.23095,35.14712],[136.23221,35.15175],[136.2282,35.1548],[136.22951,35.15801],[136.23667,35.15871],[136.23905,35.15469],[136.24683,35.151],[136.25346,35.1532],[136.25876,35.1592],[136.26362,35.15657],[136.2817,35.15245],[136.28889,35.15316],[136.29632,35.15664],[136.30338,35.15772],[136.30766,35.15366],[136.31524,35.15117],[136.32163,35.14587],[136.31893,35.13862],[136.32538,35.13704],[136.33091,35.14287],[136.33568,35.14295],[136.33451,35.14803],[136.32687,35.15462],[136.32011,35.15438],[136.31084,35.15614],[136.30817,35.16131],[136.30033,35.16664],[136.29491,35.16795],[136.29545,35.17246],[136.293,35.18029],[136.29047,35.18258],[136.28472,35.17978],[136.27717,35.17973],[136.27456,35.18317],[136.25623,35.18841],[136.24945,35.19059],[136.23629,35.19284],[136.22992,35.19234],[136.23273,35.18439],[136.23717,35.18115],[136.23479,35.17634],[136.22513,35.17902],[136.22455,35.18687],[136.21628,35.19054],[136.21606,35.19362],[136.20527,35.19913],[136.20036,35.19487],[136.19523,35.19855],[136.19163,35.19016]]]},"properties":{"pref":"滋賀県","county":"愛知郡","city":"愛荘町","code5":"25425","code6":"254258"}},
{"type":"Feature","geometry":{"type":"Polygon","coordinates":[[[136.21606,35.19362],[136.21628,35.19054],[136.22455,35.18687],[136.22513,35.17902],[136.23479,35.17634],[136.23717,35.18115],[136.23273,35.18439],[136.22992,35.19234],[136.23629,35.19284],[136.24945,35.19059],[136.25623,35.18841],[136.25624,35.19487],[136.24863,35.19514],[136.24311,35.1975],[136.24201,35.20253],[136.24498,35.20923],[136.23756,35.21283],[136.22576,35.21855],[136.22122,35.207],[136.21349,35.19708],[136.21606,35.19362]]]},"properties":{"pref":"滋賀県","county":"犬上郡","city":"豊郷町","code5":"25441","code6":"254410"}},
{"type":"Feature","geometry":{"type":"Polygon","coordinates":[[[136.23756,35.21283],[136.24498,35.20923],[136.24201,35.20253],[136.24311,35.1975],[136.24863,35.19514],[136.25624,35.19487],[136.25623,35.18841],[136.27456,35.18317],[136.27717,35.17973],[136.28472,35.17978],[136.29047,35.18258],[136.28828,35.18992],[136.29054,35.19103],[136.28703,35.19954],[136.2787,35.20579],[136.27305,35.21531],[136.25769,35.22838],[136.25027,35.22602],[136.25303,35.22033],[136.25066,35.21709],[136.24129,35.21773],[136.23756,35.21283]]]},"properties":{"pref":"滋賀県","county":"犬上郡","city":"甲良町","code5":"25442","code6":"254428"}},
{"type":"Feature","geometry":{"type":"Polygon","coordinates":[[[136.39173,35.28711],[136.38525,35.28684],[136.381,35.28409],[136.37772,35.28728],[136.36992,35.28202],[136.36374,35.28098],[136.35153,35.27413],[136.35159,35.26958],[136.34535,35.26863],[136.33875,35.26402],[136.32111,35.26769],[136.31661,35.26565],[136.30759,35.2576],[136.30064,35.25722],[136.29682,35.25321],[136.29692,35.24913],[136.28904,35.24401],[136.28813,35.24149],[136.27458,35.24029],[136.2699,35.23264],[136.27498,35.22953],[136.27221,35.22605],[136.26147,35.2305],[136.25769,35.22838],[136.27305,35.21531],[136.2787,35.20579],[136.28703,35.19954],[136.29054,35.19103],[136.28828,35.18992],[136.29047,35.18258],[136.293,35.18029],[136.29545,35.17246],[136.29491,35.16795],[136.30033,35.16664],[136.30817,35.16131],[136.31084,35.15614],[136.32011,35.15438],[136.32687,35.15462],[136.33451,35.14803],[136.33568,35.14295],[136.34071,35.13606],[136.35472,35.1311],[136.35924,35.13649],[136.36379,35.13494],[136.37192,35.13905],[136.37915,35.14027],[136.38671,35.14466],[136.39141,35.15156],[136.3901,35.15538],[136.38039,35.16218],[136.37585,35.1697],[136.37454,35.17698],[136.37646,35.18602],[136.37946,35.18945],[136.38775,35.19093],[136.38908,35.1968],[136.40369,35.18747],[136.40865,35.18718],[136.41271,35.19205],[136.41262,35.19591],[136.41614,35.20548],[136.4168,35.21439],[136.41513,35.21774],[136.40827,35.22368],[136.39913,35.22606],[136.39138,35.23438],[136.38569,35.23511],[136.38374,35.23953],[136.37974,35.24094],[136.37913,35.24739],[136.38915,35.24977],[136.39694,35.25791],[136.39354,35.26191],[136.39585,35.27476],[136.39574,35.28095],[136.39173,35.28711]]]},"properties":{"pref":"滋賀県","county":"犬上郡","city":"多賀町","code5":"25443","code6":"254436"}}
]}