{"type":"FeatureCollection", "features": [
{"type":"Feature","geometry":{"type":"Polygon","coordinates":[[[135.15943,35.45536],[135.1537,35.45916],[135.14952,35.45897],[135.14466,35.46559],[135.12976,35.46972],[135.12482,35.46973],[135.11021,35.46365],[135.10571,35.45786],[135.10698,35.45071],[135.10146,35.44881],[135.09436,35.44377],[135.0804,35.4435],[135.07049,35.44478],[135.06115,35.44869],[135.05922,35.45208],[135.04985,35.45072],[135.05182,35.44249],[135.04938,35.44014],[135.0471,35.42992],[135.04703,35.4239],[135.04944,35.42032],[135.05025,35.41366],[135.04874,35.40736],[135.0384,35.40975],[135.03003,35.4101],[135.02972,35.40558],[135.02359,35.40104],[135.01924,35.39412],[135.00538,35.39065],[135.00197,35.38705],[134.99055,35.38571],[134.98707,35.38888],[134.98861,35.39283],[134.98076,35.39837],[134.97095,35.39895],[134.95893,35.40911],[134.95493,35.40848],[134.94615,35.41331],[134.93435,35.40741],[134.93154,35.4014],[134.92771,35.39955],[134.92298,35.39106],[134.92651,35.38573],[134.92683,35.37746],[134.91894,35.36444],[134.92347,35.35424],[134.91887,35.35012],[134.91721,35.34016],[134.92558,35.33668],[134.92806,35.33024],[134.9248,35.32609],[134.92593,35.32177],[134.92132,35.31741],[134.9247,35.31166],[134.93761,35.30761],[134.94601,35.30715],[134.94712,35.30393],[134.96005,35.29791],[134.97645,35.29508],[134.98644,35.29259],[134.99286,35.28905],[134.99677,35.28967],[135.00732,35.28558],[135.01191,35.28051],[135.01048,35.26974],[135.01939,35.26789],[135.03577,35.26257],[135.04211,35.26408],[135.04949,35.26196],[135.05694,35.26448],[135.05803,35.25494],[135.06434,35.24644],[135.06448,35.24184],[135.06787,35.23735],[135.07287,35.23955],[135.07474,35.24325],[135.0829,35.24638],[135.08542,35.25319],[135.08961,35.25447],[135.09465,35.26002],[135.10033,35.25973],[135.10932,35.26629],[135.1193,35.26263],[135.12893,35.26072],[135.13479,35.26499],[135.14198,35.26228],[135.14701,35.264],[135.15725,35.26123],[135.16062,35.25835],[135.16121,35.2537],[135.16703,35.24274],[135.16182,35.23123],[135.15469,35.2267],[135.16307,35.22009],[135.17097,35.22027],[135.17513,35.2146],[135.18207,35.21598],[135.1881,35.21001],[135.18884,35.20683],[135.19706,35.20302],[135.20013,35.19552],[135.19289,35.19407],[135.18671,35.19022],[135.19014,35.18319],[135.18725,35.17194],[135.19337,35.1721],[135.20324,35.16491],[135.20663,35.16061],[135.22494,35.16376],[135.22857,35.16578],[135.23203,35.17746],[135.23753,35.17633],[135.25006,35.17803],[135.25356,35.17644],[135.26744,35.17571],[135.2741,35.17723],[135.28472,35.17119],[135.28932,35.17242],[135.28725,35.17388],[135.28704,35.18734],[135.28416,35.19024],[135.28659,35.20041],[135.29385,35.19835],[135.29664,35.21204],[135.2931,35.21915],[135.29937,35.22044],[135.28875,35.23462],[135.29865,35.23532],[135.30314,35.24315],[135.31046,35.24548],[135.31038,35.24829],[135.31773,35.25319],[135.3234,35.25488],[135.32483,35.25977],[135.32157,35.26353],[135.31863,35.27385],[135.31146,35.26944],[135.29828,35.26822],[135.29193,35.26541],[135.28066,35.26757],[135.27225,35.27168],[135.2582,35.26876],[135.24667,35.26385],[135.23859,35.26488],[135.22046,35.27753],[135.2167,35.27688],[135.20257,35.28428],[135.20056,35.28855],[135.20087,35.30097],[135.19717,35.30403],[135.19753,35.30829],[135.19222,35.31064],[135.18527,35.31123],[135.19347,35.32132],[135.19071,35.32825],[135.18928,35.33899],[135.18412,35.33939],[135.17764,35.34441],[135.17283,35.34525],[135.17968,35.35294],[135.18622,35.35471],[135.18802,35.36129],[135.18505,35.36197],[135.17383,35.36942],[135.17452,35.37306],[135.18866,35.37063],[135.19203,35.37338],[135.19791,35.37118],[135.20398,35.37288],[135.20311,35.38326],[135.20832,35.39297],[135.2166,35.39485],[135.21941,35.39198],[135.2281,35.39235],[135.22916,35.39628],[135.22185,35.40172],[135.22089,35.40611],[135.21462,35.41268],[135.20349,35.41443],[135.20471,35.42456],[135.19562,35.42949],[135.18437,35.43141],[135.17449,35.42819],[135.16888,35.43036],[135.17102,35.4369],[135.16677,35.44185],[135.1726,35.44881],[135.15943,35.45536]]]},"properties":{"pref":"京都府","city":"福知山市","code5":"26201","code6":"262013"}},
{"type":"Feature","geometry":{"type":"MultiPolygon","coordinates":[[[[135.4866,35.55794],[135.48124,35.55902],[135.47431,35.55688],[135.46506,35.5712],[135.45746,35.57042],[135.45353,35.56739],[135.4495,35.57224],[135.44963,35.57663],[135.44921,35.57897],[135.45611,35.58478],[135.45254,35.59143],[135.45708,35.59194],[135.46145,35.59865],[135.45661,35.60021],[135.44974,35.59795],[135.45013,35.59485],[135.43524,35.58836],[135.43458,35.58097],[135.42704,35.57509],[135.42515,35.57027],[135.42675,35.5665],[135.41335,35.57009],[135.40386,35.56178],[135.39013,35.55655],[135.38485,35.56066],[135.37757,35.55894],[135.36649,35.55135],[135.35736,35.54946],[135.35191,35.5443],[135.34395,35.54452],[135.34038,35.54994],[135.33651,35.53769],[135.33633,35.53212],[135.3391,35.52363],[135.34952,35.51787],[135.34396,35.51534],[135.3474,35.50988],[135.34495,35.50641],[135.35502,35.50238],[135.35992,35.50549],[135.36357,35.5041],[135.37251,35.50626],[135.38359,35.50397],[135.38468,35.51164],[135.38889,35.51642],[135.3941,35.5172],[135.39586,35.51262],[135.39105,35.50875],[135.39408,35.49976],[135.40045,35.49466],[135.39614,35.48965],[135.39491,35.48446],[135.39822,35.47889],[135.39407,35.47758],[135.39186,35.48284],[135.38541,35.47865],[135.3735,35.4769],[135.38206,35.48586],[135.37964,35.49035],[135.37494,35.49171],[135.36398,35.48813],[135.35456,35.48847],[135.34955,35.48639],[135.34441,35.47505],[135.33732,35.47301],[135.32699,35.4639],[135.32751,35.45995],[135.32046,35.45641],[135.32173,35.45244],[135.31337,35.45243],[135.31091,35.45807],[135.31789,35.46341],[135.31951,35.47373],[135.32386,35.48255],[135.32431,35.49015],[135.328,35.49061],[135.33209,35.49517],[135.3347,35.50568],[135.33158,35.5099],[135.33124,35.51683],[135.32345,35.52565],[135.31785,35.52321],[135.31719,35.52029],[135.31058,35.51228],[135.29593,35.5157],[135.28865,35.51625],[135.28766,35.49953],[135.2839,35.48979],[135.27631,35.49131],[135.2717,35.49611],[135.26581,35.49821],[135.26042,35.50629],[135.25416,35.51049],[135.24173,35.50733],[135.23421,35.51118],[135.224,35.50375],[135.21991,35.49852],[135.21866,35.49289],[135.20946,35.49319],[135.20103,35.48987],[135.20148,35.48166],[135.19398,35.47408],[135.18596,35.46989],[135.18479,35.46243],[135.17446,35.45692],[135.15943,35.45536],[135.1726,35.44881],[135.16677,35.44185],[135.17102,35.4369],[135.16888,35.43036],[135.17449,35.42819],[135.18437,35.43141],[135.19562,35.42949],[135.20471,35.42456],[135.20349,35.41443],[135.21462,35.41268],[135.22089,35.40611],[135.22185,35.40172],[135.22916,35.39628],[135.23411,35.39833],[135.24453,35.39566],[135.25052,35.39552],[135.25551,35.39846],[135.26658,35.39963],[135.27082,35.39638],[135.28396,35.39898],[135.29094,35.39644],[135.2955,35.39668],[135.29702,35.38972],[135.31038,35.38292],[135.32341,35.38763],[135.32737,35.38631],[135.33319,35.39041],[135.34033,35.3926],[135.3474,35.38658],[135.35038,35.39265],[135.3587,35.39676],[135.36816,35.39235],[135.37783,35.39396],[135.38398,35.38003],[135.3917,35.38263],[135.40075,35.39005],[135.40337,35.39482],[135.40812,35.39443],[135.40921,35.39957],[135.40648,35.40808],[135.40373,35.41082],[135.40623,35.41586],[135.40875,35.42794],[135.41991,35.42596],[135.42603,35.43261],[135.42999,35.43306],[135.43433,35.42893],[135.44425,35.43179],[135.45365,35.43966],[135.45785,35.4406],[135.46281,35.4451],[135.4657,35.45098],[135.47032,35.45449],[135.46945,35.45816],[135.46277,35.46225],[135.45843,35.46886],[135.46248,35.47881],[135.46959,35.48479],[135.47067,35.4893],[135.4763,35.48968],[135.47258,35.50118],[135.47622,35.50549],[135.46666,35.50949],[135.44993,35.5208],[135.44986,35.52725],[135.45454,35.53415],[135.45414,35.53693],[135.45964,35.54343],[135.46048,35.54846],[135.46684,35.55191],[135.4866,35.55794]]],[[[135.42522,35.68742],[135.4213,35.68021],[135.42769,35.68139],[135.42522,35.68742]]]]},"properties":{"pref":"京都府","city":"舞鶴市","code5":"26202","code6":"262021"}},
{"type":"Feature","geometry":{"type":"Polygon","coordinates":[[[135.47032,35.45449],[135.4657,35.45098],[135.46281,35.4451],[135.45785,35.4406],[135.45365,35.43966],[135.44425,35.43179],[135.43433,35.42893],[135.42999,35.43306],[135.42603,35.43261],[135.41991,35.42596],[135.40875,35.42794],[135.40623,35.41586],[135.40373,35.41082],[135.40648,35.40808],[135.40921,35.39957],[135.40812,35.39443],[135.40337,35.39482],[135.40075,35.39005],[135.3917,35.38263],[135.38398,35.38003],[135.37783,35.39396],[135.36816,35.39235],[135.3587,35.39676],[135.35038,35.39265],[135.3474,35.38658],[135.34033,35.3926],[135.33319,35.39041],[135.32737,35.38631],[135.32341,35.38763],[135.31038,35.38292],[135.29702,35.38972],[135.2955,35.39668],[135.29094,35.39644],[135.28396,35.39898],[135.27082,35.39638],[135.26658,35.39963],[135.25551,35.39846],[135.25052,35.39552],[135.24453,35.39566],[135.23411,35.39833],[135.22916,35.39628],[135.2281,35.39235],[135.21941,35.39198],[135.2166,35.39485],[135.20832,35.39297],[135.20311,35.38326],[135.20398,35.37288],[135.19791,35.37118],[135.19203,35.37338],[135.18866,35.37063],[135.17452,35.37306],[135.17383,35.36942],[135.18505,35.36197],[135.18802,35.36129],[135.18622,35.35471],[135.17968,35.35294],[135.17283,35.34525],[135.17764,35.34441],[135.18412,35.33939],[135.18928,35.33899],[135.19071,35.32825],[135.19347,35.32132],[135.18527,35.31123],[135.19222,35.31064],[135.19753,35.30829],[135.19717,35.30403],[135.20087,35.30097],[135.20056,35.28855],[135.20257,35.28428],[135.2167,35.27688],[135.22046,35.27753],[135.23859,35.26488],[135.24667,35.26385],[135.2582,35.26876],[135.27225,35.27168],[135.28066,35.26757],[135.29193,35.26541],[135.29828,35.26822],[135.31146,35.26944],[135.31863,35.27385],[135.32693,35.27325],[135.3324,35.27112],[135.33857,35.27987],[135.34525,35.28199],[135.35134,35.28926],[135.35882,35.29208],[135.36725,35.292],[135.3698,35.29673],[135.37928,35.30285],[135.38461,35.31494],[135.39257,35.31794],[135.401,35.32494],[135.4117,35.32709],[135.41604,35.33051],[135.41678,35.33469],[135.42277,35.33688],[135.42854,35.3423],[135.4371,35.34338],[135.44122,35.3416],[135.446,35.34413],[135.45657,35.34586],[135.46754,35.34602],[135.47538,35.34384],[135.48626,35.34566],[135.4981,35.34215],[135.49997,35.34775],[135.50538,35.34906],[135.50005,35.35986],[135.51636,35.3647],[135.52178,35.36968],[135.52821,35.36921],[135.5344,35.37125],[135.5345,35.37744],[135.52754,35.38022],[135.52878,35.39072],[135.53164,35.3928],[135.5252,35.40308],[135.52997,35.40842],[135.52702,35.41842],[135.52081,35.42293],[135.5159,35.42195],[135.51014,35.42442],[135.50569,35.4209],[135.49536,35.42641],[135.50049,35.43255],[135.49779,35.43755],[135.49098,35.43855],[135.48609,35.4486],[135.48086,35.44808],[135.47032,35.45449]]]},"properties":{"pref":"京都府","city":"綾部市","code5":"26203","code6":"262030"}},
{"type":"Feature","geometry":{"type":"Polygon","coordinates":[[[135.87844,34.94743],[135.86263,34.95084],[135.85947,34.95709],[135.85192,34.95693],[135.84711,34.94845],[135.84991,34.93941],[135.84469,34.9355],[135.83015,34.93531],[135.82941,34.92739],[135.81814,34.92665],[135.81431,34.92925],[135.81084,34.93653],[135.8075,34.93759],[135.79769,34.93451],[135.79221,34.93038],[135.78984,34.91699],[135.77613,34.91614],[135.76092,34.90808],[135.76507,34.90243],[135.76633,34.8964],[135.76002,34.89344],[135.75979,34.88618],[135.76582,34.88623],[135.7671,34.87442],[135.75965,34.87445],[135.75988,34.86852],[135.77605,34.86841],[135.7807,34.86972],[135.78885,34.86602],[135.79741,34.86568],[135.80153,34.86717],[135.81207,34.86097],[135.82486,34.85793],[135.82964,34.85989],[135.82944,34.86487],[135.84302,34.87063],[135.84462,34.87674],[135.84865,34.88167],[135.85801,34.88357],[135.86268,34.89149],[135.86664,34.89214],[135.86729,34.89687],[135.86313,34.9037],[135.87118,34.90995],[135.86905,34.92017],[135.87071,34.926],[135.87992,34.93452],[135.87603,34.94323],[135.87844,34.94743]]]},"properties":{"pref":"京都府","city":"宇治市","code5":"26204","code6":"262048"}},
{"type":"Feature","geometry":{"type":"MultiPolygon","coordinates":[[[[135.15943,35.45536],[135.17446,35.45692],[135.18479,35.46243],[135.18596,35.46989],[135.19398,35.47408],[135.20148,35.48166],[135.20103,35.48987],[135.20946,35.49319],[135.21866,35.49289],[135.21991,35.49852],[135.224,35.50375],[135.23421,35.51118],[135.24173,35.50733],[135.25416,35.51049],[135.26042,35.50629],[135.26581,35.49821],[135.2717,35.49611],[135.27631,35.49131],[135.2839,35.48979],[135.28766,35.49953],[135.28865,35.51625],[135.28312,35.52037],[135.27175,35.52503],[135.27321,35.52866],[135.2693,35.53334],[135.24557,35.53533],[135.2404,35.53972],[135.23653,35.55001],[135.23833,35.55542],[135.24247,35.56021],[135.25116,35.56073],[135.25421,35.55571],[135.2611,35.5537],[135.26513,35.55679],[135.27483,35.56016],[135.26247,35.56803],[135.25409,35.56797],[135.25002,35.57384],[135.25238,35.57697],[135.24702,35.58169],[135.24766,35.58753],[135.25486,35.58812],[135.25615,35.5985],[135.2514,35.59813],[135.25096,35.594],[135.23776,35.58157],[135.22781,35.58527],[135.23003,35.57643],[135.2269,35.56971],[135.21608,35.56616],[135.21231,35.56249],[135.20763,35.56277],[135.20417,35.55954],[135.20399,35.55527],[135.20863,35.55358],[135.21087,35.54793],[135.20882,35.54271],[135.20182,35.53758],[135.19252,35.54018],[135.18752,35.54736],[135.1884,35.55328],[135.18672,35.55717],[135.18975,35.5667],[135.1998,35.57846],[135.20579,35.58344],[135.20708,35.58784],[135.21213,35.59315],[135.21438,35.59825],[135.22538,35.60334],[135.228,35.60791],[135.23371,35.61175],[135.2355,35.61646],[135.24129,35.61782],[135.24495,35.62335],[135.24582,35.6305],[135.25038,35.64019],[135.25201,35.64733],[135.26336,35.66058],[135.26757,35.66681],[135.2744,35.66726],[135.26827,35.67409],[135.26892,35.67934],[135.27632,35.68268],[135.27729,35.6897],[135.26719,35.69476],[135.26352,35.69216],[135.25232,35.68867],[135.24497,35.68855],[135.23875,35.6849],[135.22672,35.68915],[135.22096,35.68689],[135.21349,35.6891],[135.2072,35.68572],[135.20395,35.67908],[135.19821,35.6742],[135.20306,35.66935],[135.20521,35.66423],[135.19681,35.66458],[135.19271,35.66951],[135.18661,35.66743],[135.18002,35.67041],[135.17816,35.66331],[135.17917,35.65966],[135.17475,35.65533],[135.16352,35.65413],[135.15837,35.6434],[135.15882,35.63379],[135.16363,35.62814],[135.17338,35.62196],[135.1718,35.62009],[135.17837,35.61449],[135.18316,35.61411],[135.18117,35.60643],[135.18034,35.5977],[135.17695,35.59299],[135.17102,35.57779],[135.17574,35.57376],[135.17668,35.56771],[135.17151,35.5675],[135.16252,35.5633],[135.16154,35.5579],[135.15819,35.55458],[135.14806,35.55907],[135.13894,35.55212],[135.13955,35.54445],[135.14448,35.54382],[135.14881,35.5357],[135.15546,35.53038],[135.16598,35.53148],[135.16511,35.5263],[135.16748,35.51876],[135.16246,35.51182],[135.15139,35.50951],[135.1511,35.50104],[135.14495,35.49688],[135.1381,35.48971],[135.13748,35.48152],[135.12345,35.47522],[135.12482,35.46973],[135.12976,35.46972],[135.14466,35.46559],[135.14952,35.45897],[135.1537,35.45916],[135.15943,35.45536]]],[[[135.24875,35.58514],[135.24873,35.58514],[135.24874,35.58512],[135.24875,35.58514]]]]},"properties":{"pref":"京都府","city":"宮津市","code5":"26205","code6":"262056"}},
{"type":"Feature","geometry":{"type":"Polygon","coordinates":[[[135.59792,35.09435],[135.59059,35.09585],[135.58661,35.09914],[135.57941,35.09785],[135.56971,35.10108],[135.56247,35.09596],[135.56102,35.09031],[135.55491,35.08515],[135.55172,35.0848],[135.55327,35.07469],[135.55701,35.07026],[135.55639,35.06435],[135.54806,35.0616],[135.54072,35.06669],[135.53882,35.06144],[135.52637,35.0573],[135.5237,35.06135],[135.51463,35.06106],[135.50547,35.06333],[135.50555,35.06912],[135.49731,35.0679],[135.48901,35.06974],[135.48405,35.06899],[135.47675,35.07232],[135.47212,35.06655],[135.47421,35.06059],[135.46304,35.04862],[135.45861,35.04689],[135.45494,35.04182],[135.44288,35.03676],[135.43443,35.02464],[135.42583,35.02845],[135.41375,35.02629],[135.39798,35.02472],[135.39319,35.02947],[135.3862,35.02803],[135.38207,35.0309],[135.38169,35.02619],[135.37769,35.02064],[135.38155,35.01038],[135.38906,35.01141],[135.39416,35.00875],[135.39747,35.01064],[135.40325,35.00669],[135.40977,35.01153],[135.4181,35.00322],[135.42282,35.00211],[135.43619,35.00841],[135.44679,35.00545],[135.45197,35.00175],[135.45987,35.00159],[135.47122,34.9948],[135.48189,34.99515],[135.49306,34.98767],[135.48668,34.98529],[135.48316,34.98187],[135.48846,34.96657],[135.48194,34.96523],[135.48478,34.95456],[135.48086,34.95029],[135.48463,34.94741],[135.48834,34.94639],[135.49042,34.94179],[135.49967,34.94134],[135.50403,34.94629],[135.5147,34.94373],[135.51502,34.93692],[135.52125,34.93329],[135.52538,34.9288],[135.53699,34.92553],[135.53601,34.92092],[135.54106,34.91531],[135.54431,34.91745],[135.55333,34.91555],[135.56274,34.91779],[135.57312,34.91683],[135.58126,34.92245],[135.58105,34.93704],[135.57192,34.93908],[135.56468,34.93302],[135.56184,34.93776],[135.56124,34.94666],[135.56313,34.95366],[135.57858,34.95589],[135.57836,34.96046],[135.57123,34.96392],[135.57093,34.96979],[135.57704,34.97392],[135.58467,34.97514],[135.58924,34.96722],[135.60332,34.97115],[135.60764,34.96933],[135.61326,34.9712],[135.62397,34.97439],[135.64129,34.97564],[135.63819,34.98078],[135.63776,34.98918],[135.639,34.99788],[135.64609,35.00142],[135.64675,35.00748],[135.64299,35.01307],[135.63645,35.01912],[135.63987,35.02344],[135.63504,35.03093],[135.6262,35.03954],[135.62178,35.03803],[135.61758,35.04204],[135.61744,35.05547],[135.622,35.06459],[135.61882,35.06818],[135.60842,35.06651],[135.60253,35.06294],[135.59959,35.07067],[135.59615,35.07123],[135.5901,35.0771],[135.59194,35.08407],[135.59821,35.09244],[135.59792,35.09435]]]},"properties":{"pref":"京都府","city":"亀岡市","code5":"26206","code6":"262064"}},
{"type":"Feature","geometry":{"type":"Polygon","coordinates":[[[135.75988,34.86852],[135.74946,34.86825],[135.75236,34.86549],[135.75168,34.85372],[135.75287,34.84903],[135.76178,34.83568],[135.76527,34.83364],[135.77738,34.83285],[135.78574,34.8284],[135.79071,34.8216],[135.80765,34.82214],[135.81447,34.82548],[135.82404,34.82484],[135.83238,34.82628],[135.84771,34.8248],[135.84596,34.83351],[135.8482,34.83616],[135.84175,34.84047],[135.84108,34.84646],[135.83535,34.84787],[135.83319,34.85835],[135.82964,34.85989],[135.82486,34.85793],[135.81207,34.86097],[135.80153,34.86717],[135.79741,34.86568],[135.78885,34.86602],[135.7807,34.86972],[135.77605,34.86841],[135.75988,34.86852]]]},"properties":{"pref":"京都府","city":"城陽市","code5":"26207","code6":"262072"}},
{"type":"Feature","geometry":{"type":"Polygon","coordinates":[[[135.7146,34.92906],[135.71384,34.93562],[135.71833,34.94212],[135.71744,34.95058],[135.70956,34.95572],[135.70998,34.96252],[135.70512,34.96345],[135.69287,34.96836],[135.68312,34.96423],[135.69497,34.94668],[135.69897,34.94139],[135.70114,34.9325],[135.70027,34.92918],[135.7146,34.92906]]]},"properties":{"pref":"京都府","city":"向日市","code5":"26208","code6":"262081"}},
{"type":"Feature","geometry":{"type":"Polygon","coordinates":[[[135.7146,34.92906],[135.70027,34.92918],[135.70114,34.9325],[135.69897,34.94139],[135.69497,34.94668],[135.6799,34.94449],[135.67461,34.94569],[135.65928,34.93294],[135.65404,34.93411],[135.64316,34.92971],[135.64854,34.92599],[135.65232,34.91708],[135.64954,34.91676],[135.6485,34.90955],[135.65409,34.90934],[135.66203,34.9037],[135.6671,34.90423],[135.66988,34.90901],[135.67851,34.91282],[135.68761,34.91274],[135.68913,34.90956],[135.69467,34.90757],[135.69677,34.91056],[135.70653,34.90811],[135.71419,34.91601],[135.7146,34.92906]]]},"properties":{"pref":"京都府","city":"長岡京市","code5":"26209","code6":"262099"}},
{"type":"Feature","geometry":{"type":"MultiPolygon","coordinates":[[[[135.70317,34.89869],[135.69351,34.89209],[135.68643,34.89102],[135.68269,34.88784],[135.67992,34.88134],[135.68352,34.87763],[135.68255,34.87215],[135.69106,34.86848],[135.69164,34.85329],[135.69565,34.84817],[135.70226,34.85173],[135.71017,34.84663],[135.71217,34.84005],[135.71569,34.83786],[135.7187,34.83182],[135.72248,34.83624],[135.72042,34.83965],[135.72768,34.84548],[135.72882,34.85042],[135.73498,34.85392],[135.73839,34.85045],[135.74551,34.85103],[135.75287,34.84903],[135.75168,34.85372],[135.75236,34.86549],[135.74946,34.86825],[135.7479,34.87128],[135.73702,34.87276],[135.73247,34.87492],[135.72374,34.8804],[135.71544,34.88278],[135.71194,34.88726],[135.71195,34.8932],[135.70549,34.89468],[135.70317,34.89869]]],[[[135.73108,34.82266],[135.73113,34.82578],[135.72546,34.82878],[135.72327,34.82623],[135.72427,34.82322],[135.73108,34.82266]]]]},"properties":{"pref":"京都府","city":"八幡市","code5":"26210","code6":"262102"}},
{"type":"Feature","geometry":{"type":"Polygon","coordinates":[[[135.75287,34.84903],[135.74551,34.85103],[135.73839,34.85045],[135.73498,34.85392],[135.72882,34.85042],[135.72768,34.84548],[135.72042,34.83965],[135.72248,34.83624],[135.7187,34.83182],[135.72327,34.82623],[135.72546,34.82878],[135.73113,34.82578],[135.73108,34.82266],[135.73509,34.81989],[135.73681,34.81471],[135.74659,34.80124],[135.74067,34.78837],[135.73229,34.78275],[135.72863,34.778],[135.73012,34.76777],[135.73335,34.75478],[135.73671,34.75181],[135.74159,34.75662],[135.74934,34.75724],[135.75578,34.76396],[135.754,34.76938],[135.75997,34.77949],[135.77156,34.78123],[135.77472,34.77952],[135.78189,34.78003],[135.78656,34.78446],[135.78636,34.78892],[135.80044,34.79007],[135.79789,34.79626],[135.80195,34.80569],[135.80188,34.8107],[135.79825,34.8155],[135.79071,34.8216],[135.78574,34.8284],[135.77738,34.83285],[135.76527,34.83364],[135.76178,34.83568],[135.75287,34.84903]]]},"properties":{"pref":"京都府","city":"京田辺市","code5":"26211","code6":"262111"}},
{"type":"Feature","geometry":{"type":"Polygon","coordinates":[[[135.21349,35.6891],[135.2138,35.69317],[135.20701,35.69391],[135.19886,35.69735],[135.19506,35.6964],[135.19243,35.70445],[135.18887,35.70949],[135.19347,35.71206],[135.19285,35.71765],[135.19943,35.72537],[135.19728,35.73174],[135.20674,35.73582],[135.20776,35.74084],[135.216,35.74324],[135.21985,35.74598],[135.22413,35.75493],[135.23158,35.76516],[135.23311,35.76936],[135.23061,35.77264],[135.22114,35.77885],[135.22015,35.77043],[135.20699,35.76391],[135.19915,35.76521],[135.18621,35.76479],[135.18349,35.76058],[135.17536,35.76185],[135.17343,35.75808],[135.16683,35.75753],[135.16187,35.75377],[135.14941,35.75219],[135.1414,35.75161],[135.13859,35.75765],[135.13286,35.75451],[135.13345,35.75091],[135.12435,35.74569],[135.11246,35.74414],[135.11091,35.74538],[135.10044,35.74123],[135.09465,35.74298],[135.09287,35.73811],[135.08612,35.73986],[135.0845,35.73842],[135.0878,35.73182],[135.08526,35.72578],[135.07406,35.71808],[135.06794,35.71803],[135.0663,35.71366],[135.05925,35.70739],[135.04627,35.70243],[135.0421,35.69961],[135.03682,35.70227],[135.03204,35.69895],[135.02985,35.69176],[135.02557,35.68951],[135.01992,35.69228],[135.015,35.6902],[135.01113,35.69263],[135.00296,35.69379],[134.99931,35.69095],[134.98645,35.69211],[134.98174,35.68466],[134.97474,35.68346],[134.97277,35.67635],[134.96665,35.67569],[134.96411,35.67074],[134.96667,35.66644],[134.96307,35.66223],[134.94318,35.65259],[134.92335,35.64637],[134.90916,35.64528],[134.89992,35.64854],[134.89519,35.64542],[134.89224,35.64881],[134.8837,35.64664],[134.88461,35.65452],[134.88568,35.65667],[134.87875,35.66086],[134.87623,35.65898],[134.8675,35.65824],[134.86417,35.65181],[134.86769,35.64968],[134.86584,35.64497],[134.8672,35.63629],[134.87031,35.63159],[134.8739,35.62116],[134.87068,35.61483],[134.86648,35.61352],[134.86741,35.60843],[134.86552,35.59937],[134.85404,35.58928],[134.85612,35.58655],[134.86273,35.58692],[134.86606,35.58106],[134.87576,35.57395],[134.88121,35.56738],[134.88105,35.56403],[134.88829,35.56016],[134.90088,35.55606],[134.90313,35.5494],[134.91481,35.54494],[134.91929,35.53812],[134.9172,35.52948],[134.91513,35.52771],[134.92315,35.52169],[134.92336,35.51631],[134.93006,35.51168],[134.94211,35.5142],[134.95265,35.51454],[134.95821,35.51297],[134.96344,35.51452],[134.96527,35.51982],[134.97406,35.52505],[134.97926,35.52397],[134.98204,35.52845],[134.98825,35.52954],[134.99342,35.53431],[135.00801,35.53363],[135.01751,35.53796],[135.02719,35.54003],[135.03552,35.5398],[135.0371,35.53726],[135.04335,35.53624],[135.04658,35.53316],[135.05384,35.53164],[135.06054,35.53284],[135.06851,35.53746],[135.07407,35.53691],[135.08728,35.54408],[135.09365,35.54867],[135.11477,35.54939],[135.11841,35.54697],[135.12833,35.55737],[135.13148,35.5584],[135.13741,35.57285],[135.14096,35.57395],[135.14604,35.58435],[135.15559,35.58636],[135.16385,35.59223],[135.1619,35.59486],[135.16929,35.60583],[135.18117,35.60643],[135.18316,35.61411],[135.17837,35.61449],[135.1718,35.62009],[135.17338,35.62196],[135.16363,35.62814],[135.15882,35.63379],[135.15837,35.6434],[135.16352,35.65413],[135.17475,35.65533],[135.17917,35.65966],[135.17816,35.66331],[135.18002,35.67041],[135.18661,35.66743],[135.19271,35.66951],[135.19681,35.66458],[135.20521,35.66423],[135.20306,35.66935],[135.19821,35.6742],[135.20395,35.67908],[135.2072,35.68572],[135.21349,35.6891]]]},"properties":{"pref":"京都府","city":"京丹後市","code5":"26212","code6":"262129"}},
{"type":"Feature","geometry":{"type":"Polygon","coordinates":[[[135.5345,35.37744],[135.5344,35.37125],[135.52821,35.36921],[135.52178,35.36968],[135.51636,35.3647],[135.50005,35.35986],[135.50538,35.34906],[135.49997,35.34775],[135.4981,35.34215],[135.4973,35.33288],[135.50063,35.32935],[135.50172,35.32378],[135.49562,35.31986],[135.48835,35.31756],[135.48024,35.31297],[135.47908,35.30888],[135.47423,35.30324],[135.47837,35.29728],[135.4727,35.29043],[135.46099,35.28434],[135.45653,35.26709],[135.45615,35.26102],[135.4619,35.25612],[135.46486,35.24926],[135.45358,35.24536],[135.45176,35.23029],[135.45627,35.22433],[135.45714,35.21625],[135.45396,35.21238],[135.45177,35.20471],[135.44838,35.20066],[135.44607,35.19294],[135.45209,35.19143],[135.4551,35.18672],[135.46222,35.18484],[135.46082,35.17638],[135.46416,35.1731],[135.46507,35.16816],[135.45989,35.166],[135.45767,35.16216],[135.45773,35.15636],[135.45095,35.15364],[135.45467,35.14582],[135.44778,35.13846],[135.44834,35.13339],[135.44298,35.13264],[135.44633,35.12682],[135.4414,35.12474],[135.43728,35.11973],[135.42608,35.11885],[135.42772,35.1144],[135.42058,35.10456],[135.41174,35.10734],[135.39976,35.10468],[135.39839,35.10186],[135.39161,35.09803],[135.40068,35.09382],[135.40428,35.08899],[135.40011,35.08596],[135.39954,35.0761],[135.39369,35.0732],[135.38707,35.07254],[135.37661,35.06602],[135.37715,35.06087],[135.37131,35.05861],[135.36873,35.05489],[135.37125,35.04529],[135.37598,35.04414],[135.38004,35.03911],[135.38207,35.0309],[135.3862,35.02803],[135.39319,35.02947],[135.39798,35.02472],[135.41375,35.02629],[135.42583,35.02845],[135.43443,35.02464],[135.44288,35.03676],[135.45494,35.04182],[135.45861,35.04689],[135.46304,35.04862],[135.47421,35.06059],[135.47212,35.06655],[135.47675,35.07232],[135.48405,35.06899],[135.48901,35.06974],[135.49731,35.0679],[135.50555,35.06912],[135.50547,35.06333],[135.51463,35.06106],[135.5237,35.06135],[135.52637,35.0573],[135.53882,35.06144],[135.54072,35.06669],[135.54806,35.0616],[135.55639,35.06435],[135.55701,35.07026],[135.55327,35.07469],[135.55172,35.0848],[135.55491,35.08515],[135.56102,35.09031],[135.56247,35.09596],[135.56971,35.10108],[135.57941,35.09785],[135.58661,35.09914],[135.59059,35.09585],[135.59792,35.09435],[135.60516,35.09266],[135.61456,35.09738],[135.61648,35.10388],[135.61202,35.10491],[135.6039,35.11226],[135.59731,35.11006],[135.59226,35.11678],[135.59097,35.12417],[135.59554,35.12888],[135.58374,35.12724],[135.57761,35.12769],[135.57529,35.13252],[135.56792,35.12759],[135.56145,35.1326],[135.55901,35.13693],[135.56238,35.14823],[135.56037,35.15063],[135.56163,35.15656],[135.5739,35.16902],[135.57351,35.17131],[135.58295,35.18529],[135.58423,35.1897],[135.59121,35.19518],[135.59654,35.20255],[135.59668,35.21212],[135.5899,35.21641],[135.59109,35.2205],[135.59537,35.22116],[135.5991,35.22504],[135.60867,35.22833],[135.6192,35.2255],[135.62018,35.23317],[135.62971,35.236],[135.62887,35.24537],[135.64001,35.25804],[135.65192,35.25999],[135.65481,35.26317],[135.68101,35.25672],[135.68942,35.25521],[135.69925,35.25793],[135.70361,35.25747],[135.70722,35.26137],[135.71201,35.26103],[135.71757,35.26532],[135.72504,35.26558],[135.72735,35.26777],[135.72567,35.27171],[135.73151,35.27795],[135.7292,35.28359],[135.73606,35.28773],[135.74833,35.28667],[135.7661,35.28954],[135.77195,35.28797],[135.77476,35.28408],[135.78145,35.29004],[135.77768,35.29449],[135.77748,35.30512],[135.78769,35.30797],[135.78984,35.3137],[135.79519,35.32124],[135.79087,35.3238],[135.79003,35.32822],[135.78573,35.33072],[135.78082,35.34056],[135.76407,35.34456],[135.76879,35.35601],[135.76437,35.35652],[135.75518,35.35445],[135.74414,35.35894],[135.73637,35.35115],[135.72502,35.35174],[135.71894,35.3553],[135.71279,35.35308],[135.71072,35.348],[135.70099,35.34369],[135.67711,35.34984],[135.6682,35.35707],[135.66134,35.35634],[135.65244,35.35994],[135.64236,35.36672],[135.63664,35.36371],[135.62347,35.3699],[135.60706,35.3715],[135.59387,35.37048],[135.5881,35.36826],[135.57961,35.37487],[135.57173,35.37426],[135.56584,35.37733],[135.55878,35.37648],[135.53698,35.37667],[135.5345,35.37744]]]},"properties":{"pref":"京都府","city":"南丹市","code5":"26213","code6":"262137"}},
{"type":"Feature","geometry":{"type":"Polygon","coordinates":[[[135.86769,34.80265],[135.84885,34.79999],[135.83675,34.80063],[135.82807,34.7986],[135.82527,34.79484],[135.81302,34.79159],[135.80382,34.79155],[135.80044,34.79007],[135.8033,34.78588],[135.80366,34.7709],[135.80781,34.76081],[135.80519,34.7511],[135.7955,34.75089],[135.7861,34.74878],[135.77614,34.74367],[135.77515,34.73854],[135.78846,34.73878],[135.79407,34.73776],[135.78995,34.73262],[135.77838,34.72848],[135.77813,34.72317],[135.79196,34.72473],[135.80368,34.72186],[135.80584,34.718],[135.81237,34.71727],[135.81979,34.71169],[135.82664,34.71366],[135.839,34.7118],[135.84902,34.70597],[135.85971,34.70711],[135.86331,34.70624],[135.86794,34.71047],[135.87614,34.71388],[135.88516,34.71362],[135.89017,34.70944],[135.89739,34.73087],[135.90302,34.73292],[135.90851,34.74137],[135.91175,34.74385],[135.91616,34.75369],[135.92207,34.75476],[135.91696,34.75403],[135.91311,34.76479],[135.90018,34.76623],[135.89888,34.76946],[135.90331,34.77334],[135.89924,34.77929],[135.89561,34.77291],[135.89124,34.76892],[135.88616,34.77294],[135.88106,34.77395],[135.87584,34.78332],[135.86883,34.78788],[135.87226,34.79417],[135.86593,34.79505],[135.86434,34.79839],[135.86769,34.80265]]]},"properties":{"pref":"京都府","city":"木津川市","code5":"26214","code6":"262145"}},
{"type":"Feature","geometry":{"type":"Polygon","coordinates":[[[135.70653,34.90811],[135.69677,34.91056],[135.69467,34.90757],[135.68913,34.90956],[135.68761,34.91274],[135.67851,34.91282],[135.66988,34.90901],[135.6671,34.90423],[135.67464,34.90018],[135.67921,34.89032],[135.68269,34.88784],[135.68643,34.89102],[135.69351,34.89209],[135.70317,34.89869],[135.70559,34.90036],[135.70653,34.90811]]]},"properties":{"pref":"京都府","county":"乙訓郡","city":"大山崎町","code5":"26303","code6":"263036"}},
{"type":"Feature","geometry":{"type":"MultiPolygon","coordinates":[[[[135.73247,34.87492],[135.73702,34.87276],[135.7479,34.87128],[135.74946,34.86825],[135.75988,34.86852],[135.75965,34.87445],[135.7671,34.87442],[135.76582,34.88623],[135.75979,34.88618],[135.76002,34.89344],[135.76633,34.8964],[135.76507,34.90243],[135.76092,34.90808],[135.75307,34.90417],[135.74771,34.91139],[135.74028,34.90479],[135.73196,34.90441],[135.71957,34.8981],[135.71595,34.89923],[135.7201,34.89286],[135.72146,34.88929],[135.72258,34.88798],[135.72871,34.88515],[135.73271,34.87826],[135.73247,34.87492]]],[[[135.82964,34.85989],[135.83319,34.85835],[135.82944,34.86487],[135.82964,34.85989]]]]},"properties":{"pref":"京都府","county":"久世郡","city":"久御山町","code5":"26322","code6":"263222"}},
{"type":"Feature","geometry":{"type":"Polygon","coordinates":[[[135.79071,34.8216],[135.79825,34.8155],[135.80188,34.8107],[135.80195,34.80569],[135.79789,34.79626],[135.80044,34.79007],[135.80382,34.79155],[135.81302,34.79159],[135.82527,34.79484],[135.82807,34.7986],[135.83675,34.80063],[135.84885,34.79999],[135.86769,34.80265],[135.86697,34.80783],[135.86038,34.81083],[135.86107,34.81365],[135.85979,34.82139],[135.85249,34.82587],[135.84771,34.8248],[135.83238,34.82628],[135.82404,34.82484],[135.81447,34.82548],[135.80765,34.82214],[135.79071,34.8216]]]},"properties":{"pref":"京都府","county":"綴喜郡","city":"井手町","code5":"26343","code6":"263435"}},
{"type":"Feature","geometry":{"type":"Polygon","coordinates":[[[135.86664,34.89214],[135.86268,34.89149],[135.85801,34.88357],[135.84865,34.88167],[135.84462,34.87674],[135.84302,34.87063],[135.82944,34.86487],[135.83319,34.85835],[135.83535,34.84787],[135.84108,34.84646],[135.84175,34.84047],[135.8482,34.83616],[135.84596,34.83351],[135.84771,34.8248],[135.85249,34.82587],[135.85979,34.82139],[135.86107,34.81365],[135.86938,34.81617],[135.87858,34.81641],[135.88683,34.81957],[135.88989,34.82567],[135.89766,34.82254],[135.90761,34.82791],[135.90431,34.83049],[135.9116,34.8345],[135.92385,34.83299],[135.92962,34.83849],[135.93515,34.84635],[135.94619,34.85178],[135.94704,34.85352],[135.94099,34.86374],[135.94363,34.87279],[135.94324,34.87818],[135.94008,34.88028],[135.94118,34.88473],[135.93603,34.89164],[135.92395,34.88491],[135.91266,34.88352],[135.90946,34.8769],[135.89967,34.8714],[135.88872,34.8755],[135.88872,34.88129],[135.88141,34.88375],[135.86664,34.89214]]]},"properties":{"pref":"京都府","county":"綴喜郡","city":"宇治田原町","code5":"26344","code6":"263443"}},
{"type":"Feature","geometry":{"type":"Polygon","coordinates":[[[135.92207,34.75476],[135.92896,34.75684],[135.92892,34.75273],[135.92318,34.74459],[135.92392,34.74145],[135.93247,34.73765],[135.93609,34.74007],[135.94111,34.73905],[135.95492,34.74829],[135.95826,34.74088],[135.96599,34.74319],[135.96975,34.74052],[135.97202,34.74859],[135.96963,34.7514],[135.97187,34.76113],[135.97709,34.76237],[135.97671,34.77396],[135.97837,34.78161],[135.97025,34.78149],[135.96534,34.78444],[135.96902,34.78774],[135.96693,34.79546],[135.96004,34.79441],[135.95156,34.79802],[135.95075,34.79236],[135.94004,34.77239],[135.92806,34.77456],[135.91881,34.77001],[135.92021,34.76527],[135.91311,34.76479],[135.91696,34.75403],[135.92207,34.75476]]]},"properties":{"pref":"京都府","county":"相楽郡","city":"笠置町","code5":"26364","code6":"263648"}},
{"type":"Feature","geometry":{"type":"Polygon","coordinates":[[[135.94619,34.85178],[135.93515,34.84635],[135.92962,34.83849],[135.92385,34.83299],[135.9116,34.8345],[135.90431,34.83049],[135.90761,34.82791],[135.89766,34.82254],[135.88989,34.82567],[135.88683,34.81957],[135.87858,34.81641],[135.86938,34.81617],[135.86107,34.81365],[135.86038,34.81083],[135.86697,34.80783],[135.86769,34.80265],[135.86434,34.79839],[135.86593,34.79505],[135.87226,34.79417],[135.86883,34.78788],[135.87584,34.78332],[135.88106,34.77395],[135.88616,34.77294],[135.89124,34.76892],[135.89561,34.77291],[135.89924,34.77929],[135.90331,34.77334],[135.89888,34.76946],[135.90018,34.76623],[135.91311,34.76479],[135.92021,34.76527],[135.91881,34.77001],[135.92806,34.77456],[135.94004,34.77239],[135.95075,34.79236],[135.95156,34.79802],[135.95407,34.80172],[135.95353,34.80756],[135.95993,34.81091],[135.96814,34.80892],[135.97252,34.81408],[135.99467,34.8259],[135.99959,34.82407],[136.01199,34.82203],[136.01917,34.82227],[136.02846,34.81912],[136.02771,34.8218],[136.01549,34.8266],[136.01217,34.82517],[136.00538,34.82656],[136.00233,34.83276],[136.00527,34.84311],[136.00075,34.84509],[135.9948,34.84226],[135.97778,34.83846],[135.97147,34.83849],[135.97205,34.84605],[135.96273,34.85043],[135.95713,34.85478],[135.94619,34.85178]]]},"properties":{"pref":"京都府","county":"相楽郡","city":"和束町","code5":"26365","code6":"263656"}},
{"type":"Feature","geometry":{"type":"Polygon","coordinates":[[[135.73671,34.75181],[135.73923,34.74827],[135.74636,34.74683],[135.74758,34.74324],[135.75706,34.73592],[135.75551,34.72753],[135.7734,34.7247],[135.77813,34.72317],[135.77838,34.72848],[135.78995,34.73262],[135.79407,34.73776],[135.78846,34.73878],[135.77515,34.73854],[135.77614,34.74367],[135.7861,34.74878],[135.7955,34.75089],[135.80519,34.7511],[135.80781,34.76081],[135.80366,34.7709],[135.8033,34.78588],[135.80044,34.79007],[135.78636,34.78892],[135.78656,34.78446],[135.78189,34.78003],[135.77472,34.77952],[135.77156,34.78123],[135.75997,34.77949],[135.754,34.76938],[135.75578,34.76396],[135.74934,34.75724],[135.74159,34.75662],[135.73671,34.75181]]]},"properties":{"pref":"京都府","county":"相楽郡","city":"精華町","code5":"26366","code6":"263664"}},
{"type":"Feature","geometry":{"type":"Polygon","coordinates":[[[136.02229,34.79156],[136.01133,34.79581],[136.01027,34.79955],[136.01505,34.80915],[136.01866,34.81267],[136.02737,34.81491],[136.02846,34.81912],[136.01917,34.82227],[136.01199,34.82203],[135.99959,34.82407],[135.99467,34.8259],[135.97252,34.81408],[135.96814,34.80892],[135.95993,34.81091],[135.95353,34.80756],[135.95407,34.80172],[135.95156,34.79802],[135.96004,34.79441],[135.96693,34.79546],[135.96902,34.78774],[135.96534,34.78444],[135.97025,34.78149],[135.97837,34.78161],[135.97671,34.77396],[135.97709,34.76237],[135.97187,34.76113],[135.96963,34.7514],[135.97202,34.74859],[135.96975,34.74052],[135.97278,34.74208],[135.97809,34.73707],[135.98095,34.73714],[135.98609,34.72632],[135.98616,34.71531],[135.99975,34.71298],[136.00524,34.71733],[136.01268,34.71403],[136.01387,34.7078],[136.01941,34.70857],[136.02681,34.7061],[136.02932,34.71374],[136.03945,34.72012],[136.04187,34.73428],[136.04489,34.73725],[136.05547,34.73856],[136.04984,34.74051],[136.04761,34.7442],[136.03927,34.74939],[136.03813,34.75622],[136.0302,34.75591],[136.02934,34.76482],[136.03331,34.77182],[136.03358,34.77944],[136.02261,34.78231],[136.01996,34.78637],[136.02229,34.79156]]]},"properties":{"pref":"京都府","county":"相楽郡","city":"南山城村","code5":"26367","code6":"263672"}},
{"type":"Feature","geometry":{"type":"Polygon","coordinates":[[[135.28932,35.17242],[135.29221,35.16131],[135.2881,35.15835],[135.28561,35.15266],[135.27854,35.15108],[135.27993,35.14697],[135.28762,35.14273],[135.29375,35.14157],[135.29875,35.1436],[135.30348,35.14276],[135.31533,35.14626],[135.32403,35.1466],[135.32684,35.14922],[135.34096,35.14966],[135.33744,35.14409],[135.33976,35.1378],[135.34322,35.13564],[135.35471,35.13666],[135.35988,35.13216],[135.36815,35.1311],[135.37274,35.12896],[135.38222,35.1298],[135.38981,35.12877],[135.3912,35.12648],[135.38607,35.12074],[135.38722,35.11649],[135.39331,35.11051],[135.38917,35.10833],[135.38768,35.09915],[135.39161,35.09803],[135.39839,35.10186],[135.39976,35.10468],[135.41174,35.10734],[135.42058,35.10456],[135.42772,35.1144],[135.42608,35.11885],[135.43728,35.11973],[135.4414,35.12474],[135.44633,35.12682],[135.44298,35.13264],[135.44834,35.13339],[135.44778,35.13846],[135.45467,35.14582],[135.45095,35.15364],[135.45773,35.15636],[135.45767,35.16216],[135.45989,35.166],[135.46507,35.16816],[135.46416,35.1731],[135.46082,35.17638],[135.46222,35.18484],[135.4551,35.18672],[135.45209,35.19143],[135.44607,35.19294],[135.44838,35.20066],[135.45177,35.20471],[135.45396,35.21238],[135.45714,35.21625],[135.45627,35.22433],[135.45176,35.23029],[135.45358,35.24536],[135.46486,35.24926],[135.4619,35.25612],[135.45615,35.26102],[135.45653,35.26709],[135.46099,35.28434],[135.4727,35.29043],[135.47837,35.29728],[135.47423,35.30324],[135.47908,35.30888],[135.48024,35.31297],[135.48835,35.31756],[135.49562,35.31986],[135.50172,35.32378],[135.50063,35.32935],[135.4973,35.33288],[135.4981,35.34215],[135.48626,35.34566],[135.47538,35.34384],[135.46754,35.34602],[135.45657,35.34586],[135.446,35.34413],[135.44122,35.3416],[135.4371,35.34338],[135.42854,35.3423],[135.42277,35.33688],[135.41678,35.33469],[135.41604,35.33051],[135.4117,35.32709],[135.401,35.32494],[135.39257,35.31794],[135.38461,35.31494],[135.37928,35.30285],[135.3698,35.29673],[135.36725,35.292],[135.35882,35.29208],[135.35134,35.28926],[135.34525,35.28199],[135.33857,35.27987],[135.3324,35.27112],[135.32693,35.27325],[135.31863,35.27385],[135.32157,35.26353],[135.32483,35.25977],[135.3234,35.25488],[135.31773,35.25319],[135.31038,35.24829],[135.31046,35.24548],[135.30314,35.24315],[135.29865,35.23532],[135.28875,35.23462],[135.29937,35.22044],[135.2931,35.21915],[135.29664,35.21204],[135.29385,35.19835],[135.28659,35.20041],[135.28416,35.19024],[135.28704,35.18734],[135.28725,35.17388],[135.28932,35.17242]]]},"properties":{"pref":"京都府","county":"船井郡","city":"京丹波町","code5":"26407","code6":"264075"}},
{"type":"Feature","geometry":{"type":"Polygon","coordinates":[[[135.2744,35.66726],[135.28331,35.67057],[135.28778,35.67561],[135.29448,35.67057],[135.29182,35.66412],[135.29316,35.66049],[135.30342,35.66314],[135.29856,35.67361],[135.29891,35.67904],[135.30446,35.68687],[135.30446,35.69195],[135.30866,35.69376],[135.30652,35.69921],[135.29891,35.70068],[135.29461,35.70507],[135.28745,35.70782],[135.28643,35.7109],[135.28955,35.7186],[135.2885,35.72433],[135.28398,35.7285],[135.27304,35.73243],[135.27372,35.73978],[135.26654,35.74467],[135.25718,35.74438],[135.25265,35.75009],[135.25036,35.75888],[135.24351,35.76027],[135.23311,35.76936],[135.23158,35.76516],[135.22413,35.75493],[135.21985,35.74598],[135.216,35.74324],[135.20776,35.74084],[135.20674,35.73582],[135.19728,35.73174],[135.19943,35.72537],[135.19285,35.71765],[135.19347,35.71206],[135.18887,35.70949],[135.19243,35.70445],[135.19506,35.6964],[135.19886,35.69735],[135.20701,35.69391],[135.2138,35.69317],[135.21349,35.6891],[135.22096,35.68689],[135.22672,35.68915],[135.23875,35.6849],[135.24497,35.68855],[135.25232,35.68867],[135.26352,35.69216],[135.26719,35.69476],[135.27729,35.6897],[135.27632,35.68268],[135.26892,35.67934],[135.26827,35.67409],[135.2744,35.66726]]]},"properties":{"pref":"京都府","county":"与謝郡","city":"伊根町","code5":"26463","code6":"264636"}},
{"type":"Feature","geometry":{"type":"Polygon","coordinates":[[[135.12482,35.46973],[135.12345,35.47522],[135.13748,35.48152],[135.1381,35.48971],[135.14495,35.49688],[135.1511,35.50104],[135.15139,35.50951],[135.16246,35.51182],[135.16748,35.51876],[135.16511,35.5263],[135.16598,35.53148],[135.15546,35.53038],[135.14881,35.5357],[135.14448,35.54382],[135.13955,35.54445],[135.13894,35.55212],[135.14806,35.55907],[135.15819,35.55458],[135.16154,35.5579],[135.16252,35.5633],[135.17151,35.5675],[135.17668,35.56771],[135.17574,35.57376],[135.17102,35.57779],[135.17695,35.59299],[135.18034,35.5977],[135.18117,35.60643],[135.16929,35.60583],[135.1619,35.59486],[135.16385,35.59223],[135.15559,35.58636],[135.14604,35.58435],[135.14096,35.57395],[135.13741,35.57285],[135.13148,35.5584],[135.12833,35.55737],[135.11841,35.54697],[135.11477,35.54939],[135.09365,35.54867],[135.08728,35.54408],[135.07407,35.53691],[135.06851,35.53746],[135.06054,35.53284],[135.05384,35.53164],[135.04658,35.53316],[135.04335,35.53624],[135.0371,35.53726],[135.03619,35.53061],[135.03936,35.52848],[135.04296,35.52001],[135.04288,35.51139],[135.04516,35.50869],[135.04129,35.50374],[135.03242,35.49759],[135.04216,35.49406],[135.04013,35.48166],[135.03512,35.47703],[135.04104,35.4733],[135.04375,35.46598],[135.04537,35.45507],[135.04985,35.45072],[135.05922,35.45208],[135.06115,35.44869],[135.07049,35.44478],[135.0804,35.4435],[135.09436,35.44377],[135.10146,35.44881],[135.10698,35.45071],[135.10571,35.45786],[135.11021,35.46365],[135.12482,35.46973]]]},"properties":{"pref":"京都府","county":"与謝郡","city":"与謝野町","code5":"26465","code6":"264652"}},
{"type":"Feature","geometry":{"type":"Polygon","coordinates":[[[135.79519,35.32124],[135.78984,35.3137],[135.78769,35.30797],[135.77748,35.30512],[135.77768,35.29449],[135.78145,35.29004],[135.77476,35.28408],[135.77195,35.28797],[135.7661,35.28954],[135.74833,35.28667],[135.73606,35.28773],[135.7292,35.28359],[135.73151,35.27795],[135.72567,35.27171],[135.72735,35.26777],[135.72504,35.26558],[135.71757,35.26532],[135.71201,35.26103],[135.70722,35.26137],[135.70361,35.25747],[135.69925,35.25793],[135.68942,35.25521],[135.68101,35.25672],[135.65481,35.26317],[135.65192,35.25999],[135.64001,35.25804],[135.62887,35.24537],[135.62971,35.236],[135.62018,35.23317],[135.6192,35.2255],[135.60867,35.22833],[135.5991,35.22504],[135.59537,35.22116],[135.59109,35.2205],[135.5899,35.21641],[135.59668,35.21212],[135.59654,35.20255],[135.59121,35.19518],[135.58423,35.1897],[135.58295,35.18529],[135.57351,35.17131],[135.5739,35.16902],[135.56163,35.15656],[135.56037,35.15063],[135.56238,35.14823],[135.55901,35.13693],[135.56145,35.1326],[135.56792,35.12759],[135.57529,35.13252],[135.57761,35.12769],[135.58374,35.12724],[135.59554,35.12888],[135.59097,35.12417],[135.59226,35.11678],[135.59731,35.11006],[135.6039,35.11226],[135.61202,35.10491],[135.61648,35.10388],[135.61456,35.09738],[135.60516,35.09266],[135.59792,35.09435],[135.59821,35.09244],[135.59194,35.08407],[135.5901,35.0771],[135.59615,35.07123],[135.59959,35.07067],[135.60253,35.06294],[135.60842,35.06651],[135.61882,35.06818],[135.622,35.06459],[135.61744,35.05547],[135.61758,35.04204],[135.62178,35.03803],[135.6262,35.03954],[135.63504,35.03093],[135.63987,35.02344],[135.63645,35.01912],[135.64299,35.01307],[135.64675,35.00748],[135.64609,35.00142],[135.639,34.99788],[135.63776,34.98918],[135.63819,34.98078],[135.64129,34.97564],[135.62397,34.97439],[135.61326,34.9712],[135.61567,34.9628],[135.61879,34.95882],[135.61152,34.9439],[135.6108,34.93974],[135.60345,34.93582],[135.60111,34.92972],[135.6152,34.92762],[135.62375,34.93491],[135.62811,34.93373],[135.63297,34.93462],[135.64316,34.92971],[135.65404,34.93411],[135.65928,34.93294],[135.67461,34.94569],[135.6799,34.94449],[135.69497,34.94668],[135.68312,34.96423],[135.69287,34.96836],[135.70512,34.96345],[135.70998,34.96252],[135.70956,34.95572],[135.71744,34.95058],[135.71833,34.94212],[135.71384,34.93562],[135.7146,34.92906],[135.71419,34.91601],[135.70653,34.90811],[135.70559,34.90036],[135.70317,34.89869],[135.70549,34.89468],[135.71195,34.8932],[135.71194,34.88726],[135.71544,34.88278],[135.72374,34.8804],[135.73247,34.87492],[135.73271,34.87826],[135.72871,34.88515],[135.72258,34.88798],[135.72146,34.88929],[135.7201,34.89286],[135.71595,34.89923],[135.71957,34.8981],[135.73196,34.90441],[135.74028,34.90479],[135.74771,34.91139],[135.75307,34.90417],[135.76092,34.90808],[135.77613,34.91614],[135.78984,34.91699],[135.79221,34.93038],[135.79769,34.93451],[135.8075,34.93759],[135.81084,34.93653],[135.81431,34.92925],[135.81814,34.92665],[135.82941,34.92739],[135.83015,34.93531],[135.84469,34.9355],[135.84991,34.93941],[135.84711,34.94845],[135.85192,34.95693],[135.85947,34.95709],[135.86263,34.95084],[135.87844,34.94743],[135.87543,34.95367],[135.86486,34.95717],[135.86341,34.96005],[135.85228,34.97135],[135.85676,34.98],[135.85503,34.98474],[135.84912,34.98481],[135.84927,34.99173],[135.8423,34.98994],[135.82748,34.99112],[135.83257,34.9991],[135.83656,35.00123],[135.83268,35.00943],[135.8241,35.00882],[135.82024,35.01296],[135.83546,35.01233],[135.83452,35.02208],[135.82642,35.02361],[135.82811,35.02838],[135.82462,35.03564],[135.8217,35.03605],[135.81542,35.04215],[135.8159,35.04737],[135.82698,35.05385],[135.83156,35.05259],[135.83485,35.05555],[135.83585,35.06233],[135.83189,35.07146],[135.83832,35.07908],[135.83984,35.08614],[135.83505,35.09133],[135.83789,35.09744],[135.84294,35.10252],[135.84326,35.1099],[135.84735,35.11426],[135.84981,35.12054],[135.84961,35.12694],[135.85229,35.13427],[135.84871,35.14185],[135.85261,35.14618],[135.85615,35.15944],[135.84681,35.16239],[135.84063,35.18007],[135.84191,35.18984],[135.83982,35.19144],[135.83524,35.20221],[135.83549,35.2067],[135.83109,35.21042],[135.82982,35.21613],[135.83086,35.22276],[135.83735,35.22596],[135.83753,35.23755],[135.84236,35.2532],[135.84609,35.25711],[135.84467,35.26131],[135.84753,35.26667],[135.85248,35.26896],[135.85453,35.27533],[135.86076,35.28296],[135.85854,35.2871],[135.85168,35.28597],[135.84962,35.28028],[135.84178,35.27812],[135.83461,35.27408],[135.82962,35.27674],[135.82005,35.29107],[135.8214,35.29684],[135.81497,35.30126],[135.81436,35.30711],[135.81067,35.30832],[135.81125,35.31353],[135.80878,35.31688],[135.80364,35.31725],[135.79519,35.32124]]]},"properties":{"pref":"京都府","city":"京都市","code5":"26100","code6":"261009"}}
]}