{"type":"FeatureCollection", "features": [
{"type":"Feature","geometry":{"type":"MultiPolygon","coordinates":[[[[135.41508,34.47354],[135.39473,34.48884],[135.37087,34.5004],[135.37244,34.49436],[135.37028,34.49019],[135.37737,34.48651],[135.37688,34.47863],[135.37432,34.47588],[135.36614,34.4807],[135.3638,34.47762],[135.37017,34.46775],[135.36212,34.4684],[135.354,34.4629],[135.35942,34.4598],[135.36964,34.45127],[135.37273,34.45163],[135.38121,34.4454],[135.37779,34.43813],[135.37955,34.43169],[135.38506,34.42113],[135.38868,34.4177],[135.39223,34.41992],[135.39972,34.41242],[135.41007,34.41199],[135.40522,34.40485],[135.40932,34.39736],[135.41093,34.38794],[135.41608,34.38315],[135.41662,34.37931],[135.42576,34.37594],[135.4288,34.36948],[135.43088,34.36077],[135.43095,34.35368],[135.43429,34.34823],[135.44416,34.34771],[135.45313,34.34986],[135.45654,34.35425],[135.45437,34.35868],[135.45983,34.37471],[135.46373,34.37639],[135.46245,34.38212],[135.45619,34.38568],[135.45391,34.39013],[135.45,34.39075],[135.4544,34.40041],[135.4515,34.41723],[135.45154,34.42367],[135.44844,34.42756],[135.44881,34.43236],[135.44227,34.44208],[135.44222,34.45558],[135.44038,34.46232],[135.42959,34.47036],[135.42425,34.4663],[135.41508,34.47354]]],[[[135.35478,34.4887],[135.35474,34.48271],[135.35217,34.47933],[135.35305,34.47924],[135.35056,34.47583],[135.3491,34.46807],[135.35487,34.46742],[135.35957,34.4737],[135.35295,34.48017],[135.35484,34.48271],[135.35478,34.4887]]]]},"properties":{"pref":"大阪府","city":"岸和田市","code5":"27202","code6":"272027"}},
{"type":"Feature","geometry":{"type":"Polygon","coordinates":[[[135.48791,34.74981],[135.4869,34.75106],[135.48848,34.76704],[135.49161,34.77088],[135.49638,34.77132],[135.49994,34.77656],[135.49204,34.78145],[135.4927,34.78901],[135.49554,34.7957],[135.5049,34.80026],[135.50377,34.8067],[135.50829,34.81063],[135.49765,34.82488],[135.4933,34.82179],[135.49283,34.81749],[135.48352,34.8171],[135.47577,34.82107],[135.45342,34.8072],[135.44811,34.80843],[135.44652,34.79984],[135.44387,34.79943],[135.44114,34.79189],[135.44249,34.78434],[135.44618,34.77529],[135.4447,34.76853],[135.45041,34.76632],[135.45007,34.76003],[135.45935,34.75203],[135.46017,34.74789],[135.4589,34.7352],[135.46029,34.73314],[135.46696,34.7307],[135.47547,34.73612],[135.48105,34.73814],[135.48791,34.74981]]]},"properties":{"pref":"大阪府","city":"豊中市","code5":"27203","code6":"272035"}},
{"type":"Feature","geometry":{"type":"Polygon","coordinates":[[[135.44811,34.80843],[135.44855,34.80979],[135.44921,34.81096],[135.44784,34.81593],[135.45128,34.81743],[135.45034,34.82479],[135.45371,34.83416],[135.45373,34.84278],[135.45896,34.84597],[135.45934,34.8612],[135.45627,34.86473],[135.44925,34.86706],[135.44569,34.87212],[135.43749,34.87712],[135.43006,34.86106],[135.43136,34.85642],[135.41864,34.84947],[135.42423,34.83822],[135.4238,34.82995],[135.41619,34.82046],[135.41599,34.81769],[135.42374,34.80205],[135.42911,34.80152],[135.43848,34.792],[135.44114,34.79189],[135.44387,34.79943],[135.44652,34.79984],[135.44811,34.80843]]]},"properties":{"pref":"大阪府","city":"池田市","code5":"27204","code6":"272043"}},
{"type":"Feature","geometry":{"type":"Polygon","coordinates":[[[135.54877,34.76845],[135.55075,34.76945],[135.53681,34.78655],[135.55193,34.79356],[135.55499,34.7998],[135.55319,34.80886],[135.52999,34.81634],[135.52399,34.82624],[135.51549,34.82812],[135.51242,34.82668],[135.5057,34.83081],[135.49765,34.82488],[135.50829,34.81063],[135.50377,34.8067],[135.5049,34.80026],[135.49554,34.7957],[135.4927,34.78901],[135.49204,34.78145],[135.49994,34.77656],[135.49638,34.77132],[135.49161,34.77088],[135.48848,34.76704],[135.4869,34.75106],[135.48791,34.74981],[135.49519,34.75137],[135.50671,34.74473],[135.51579,34.74968],[135.5251,34.74785],[135.53161,34.75234],[135.52899,34.75457],[135.53236,34.75942],[135.5391,34.76112],[135.54412,34.76846],[135.54877,34.76845]]]},"properties":{"pref":"大阪府","city":"吹田市","code5":"27205","code6":"272051"}},
{"type":"Feature","geometry":{"type":"MultiPolygon","coordinates":[[[[135.41888,34.51948],[135.41036,34.52291],[135.40648,34.51699],[135.40103,34.51676],[135.39731,34.51394],[135.39702,34.50903],[135.38752,34.51437],[135.38449,34.51882],[135.38078,34.53014],[135.37833,34.53189],[135.36716,34.51704],[135.37783,34.50784],[135.38975,34.49893],[135.4024,34.49518],[135.40549,34.48864],[135.41133,34.48216],[135.4153,34.48154],[135.42119,34.48983],[135.42457,34.48941],[135.42922,34.49435],[135.42394,34.50068],[135.4339,34.50872],[135.43338,34.51398],[135.42682,34.51274],[135.41888,34.51948]]],[[[135.40111,34.52742],[135.3984,34.52611],[135.39385,34.53143],[135.38836,34.524],[135.39504,34.51732],[135.40043,34.51933],[135.40111,34.52742]]]]},"properties":{"pref":"大阪府","city":"泉大津市","code5":"27206","code6":"272060"}},
{"type":"Feature","geometry":{"type":"Polygon","coordinates":[[[135.61326,34.9712],[135.60764,34.96933],[135.60332,34.97115],[135.58924,34.96722],[135.58467,34.97514],[135.57704,34.97392],[135.57093,34.96979],[135.57123,34.96392],[135.57836,34.96046],[135.57858,34.95589],[135.56313,34.95366],[135.56124,34.94666],[135.56184,34.93776],[135.56468,34.93302],[135.57192,34.93908],[135.58105,34.93704],[135.58126,34.92245],[135.57312,34.91683],[135.5764,34.913],[135.57357,34.90497],[135.56632,34.9007],[135.57031,34.89134],[135.56615,34.88782],[135.57097,34.88083],[135.5652,34.87678],[135.56265,34.87186],[135.56859,34.86874],[135.56928,34.85954],[135.5667,34.85676],[135.57209,34.84862],[135.58229,34.84671],[135.58564,34.84149],[135.583,34.83569],[135.58609,34.83182],[135.58655,34.82365],[135.60628,34.81671],[135.5984,34.81235],[135.59762,34.79866],[135.59807,34.78578],[135.60227,34.78051],[135.61038,34.78567],[135.61426,34.79151],[135.61534,34.79927],[135.62004,34.80577],[135.62881,34.81152],[135.63538,34.81273],[135.64033,34.81613],[135.64311,34.82605],[135.64632,34.82982],[135.64738,34.84186],[135.65179,34.84927],[135.66523,34.85544],[135.67165,34.86589],[135.67276,34.87003],[135.66081,34.87518],[135.65714,34.87224],[135.65027,34.8809],[135.64507,34.88227],[135.64143,34.89022],[135.63467,34.89231],[135.63372,34.90224],[135.63621,34.90409],[135.63652,34.91012],[135.63021,34.90681],[135.62973,34.9199],[135.62811,34.93373],[135.62375,34.93491],[135.6152,34.92762],[135.60111,34.92972],[135.60345,34.93582],[135.6108,34.93974],[135.61152,34.9439],[135.61879,34.95882],[135.61567,34.9628],[135.61326,34.9712]]]},"properties":{"pref":"大阪府","city":"高槻市","code5":"27207","code6":"272078"}},
{"type":"Feature","geometry":{"type":"MultiPolygon","coordinates":[[[[135.35942,34.4598],[135.35347,34.45135],[135.34352,34.45009],[135.33716,34.44576],[135.3325,34.43496],[135.32905,34.43433],[135.33745,34.4322],[135.33992,34.42901],[135.34775,34.42509],[135.34968,34.4216],[135.35717,34.41827],[135.36398,34.41671],[135.36666,34.41162],[135.37674,34.40338],[135.38006,34.39205],[135.38714,34.38463],[135.38523,34.3756],[135.3871,34.37007],[135.38341,34.36871],[135.38761,34.3616],[135.38831,34.35543],[135.39227,34.34728],[135.40754,34.34711],[135.40922,34.34194],[135.41564,34.3399],[135.42479,34.33997],[135.4287,34.34556],[135.43429,34.34823],[135.43095,34.35368],[135.43088,34.36077],[135.4288,34.36948],[135.42576,34.37594],[135.41662,34.37931],[135.41608,34.38315],[135.41093,34.38794],[135.40932,34.39736],[135.40522,34.40485],[135.41007,34.41199],[135.39972,34.41242],[135.39223,34.41992],[135.38868,34.4177],[135.38506,34.42113],[135.37955,34.43169],[135.37779,34.43813],[135.38121,34.4454],[135.37273,34.45163],[135.36964,34.45127],[135.35942,34.4598]]],[[[135.33907,34.4693],[135.34079,34.46693],[135.32807,34.44979],[135.33301,34.44473],[135.34213,34.45084],[135.34721,34.45869],[135.33907,34.4693]]]]},"properties":{"pref":"大阪府","city":"貝塚市","code5":"27208","code6":"272086"}},
{"type":"Feature","geometry":{"type":"Polygon","coordinates":[[[135.56053,34.75399],[135.55684,34.75077],[135.55644,34.74608],[135.561,34.74021],[135.56029,34.73683],[135.5534,34.7331],[135.55512,34.72481],[135.55992,34.72617],[135.56554,34.72269],[135.56763,34.71778],[135.5699,34.7089],[135.57429,34.70893],[135.57505,34.71741],[135.58287,34.71739],[135.58426,34.72237],[135.58168,34.72877],[135.57189,34.7376],[135.57896,34.7434],[135.58111,34.74779],[135.59919,34.74512],[135.60478,34.74545],[135.60628,34.7502],[135.60164,34.75518],[135.59685,34.75727],[135.59461,34.76323],[135.58701,34.76752],[135.58053,34.7618],[135.57305,34.7576],[135.56053,34.75399]]]},"properties":{"pref":"大阪府","city":"守口市","code5":"27209","code6":"272094"}},
{"type":"Feature","geometry":{"type":"Polygon","coordinates":[[[135.67992,34.88134],[135.67276,34.87003],[135.67165,34.86589],[135.66523,34.85544],[135.65179,34.84927],[135.64738,34.84186],[135.64632,34.82982],[135.64311,34.82605],[135.64033,34.81613],[135.63538,34.81273],[135.62881,34.81152],[135.62004,34.80577],[135.61534,34.79927],[135.61426,34.79151],[135.62288,34.78994],[135.62995,34.79036],[135.63186,34.78542],[135.6416,34.78591],[135.64867,34.7834],[135.65303,34.77309],[135.65954,34.77497],[135.6718,34.77872],[135.66886,34.79177],[135.66599,34.79738],[135.67945,34.80239],[135.68703,34.79938],[135.69569,34.8006],[135.70892,34.79752],[135.7146,34.79372],[135.71669,34.78891],[135.71543,34.78334],[135.71197,34.78133],[135.72023,34.77462],[135.72863,34.778],[135.73229,34.78275],[135.74067,34.78837],[135.74659,34.80124],[135.73681,34.81471],[135.73509,34.81989],[135.73108,34.82266],[135.72427,34.82322],[135.72327,34.82623],[135.7187,34.83182],[135.71569,34.83786],[135.71217,34.84005],[135.71017,34.84663],[135.70226,34.85173],[135.69565,34.84817],[135.69164,34.85329],[135.69106,34.86848],[135.68255,34.87215],[135.68352,34.87763],[135.67992,34.88134]]]},"properties":{"pref":"大阪府","city":"枚方市","code5":"27210","code6":"272108"}},
{"type":"Feature","geometry":{"type":"Polygon","coordinates":[[[135.52538,34.9288],[135.52491,34.92026],[135.51698,34.91137],[135.51629,34.90712],[135.51125,34.90004],[135.50285,34.89596],[135.50063,34.88793],[135.4959,34.88115],[135.49953,34.87752],[135.50325,34.87003],[135.50721,34.87442],[135.51173,34.87436],[135.51181,34.86787],[135.5158,34.86413],[135.51447,34.86007],[135.52282,34.852],[135.52494,34.84086],[135.51891,34.83921],[135.52622,34.83079],[135.52399,34.82624],[135.52999,34.81634],[135.55319,34.80886],[135.55499,34.7998],[135.55193,34.79356],[135.56203,34.79147],[135.56388,34.78662],[135.56828,34.78561],[135.56781,34.77777],[135.57053,34.77663],[135.57768,34.78441],[135.5823,34.78657],[135.58968,34.79401],[135.59762,34.79866],[135.5984,34.81235],[135.60628,34.81671],[135.58655,34.82365],[135.58609,34.83182],[135.583,34.83569],[135.58564,34.84149],[135.58229,34.84671],[135.57209,34.84862],[135.5667,34.85676],[135.56928,34.85954],[135.56859,34.86874],[135.56265,34.87186],[135.5652,34.87678],[135.57097,34.88083],[135.56615,34.88782],[135.57031,34.89134],[135.56632,34.9007],[135.57357,34.90497],[135.5764,34.913],[135.57312,34.91683],[135.56274,34.91779],[135.55333,34.91555],[135.54431,34.91745],[135.54106,34.91531],[135.53601,34.92092],[135.53699,34.92553],[135.52538,34.9288]]]},"properties":{"pref":"大阪府","city":"茨木市","code5":"27211","code6":"272116"}},
{"type":"Feature","geometry":{"type":"Polygon","coordinates":[[[135.57683,34.59307],[135.5847,34.58844],[135.60116,34.58349],[135.60528,34.58345],[135.60844,34.58872],[135.61078,34.59295],[135.61897,34.59292],[135.62517,34.59981],[135.63533,34.60086],[135.64099,34.59958],[135.65055,34.60227],[135.65179,34.60681],[135.65099,34.60995],[135.6568,34.61174],[135.65877,34.61473],[135.65889,34.62313],[135.6632,34.62952],[135.66265,34.64026],[135.66429,34.64328],[135.62548,34.64466],[135.62553,34.65031],[135.5945,34.65062],[135.59592,34.64172],[135.58521,34.63935],[135.58887,34.63243],[135.57468,34.63218],[135.57663,34.62652],[135.57518,34.61824],[135.56591,34.62133],[135.56196,34.61699],[135.56924,34.61382],[135.57623,34.61377],[135.58693,34.60914],[135.58732,34.60474],[135.57997,34.60088],[135.57992,34.59409],[135.57683,34.59307]]]},"properties":{"pref":"大阪府","city":"八尾市","code5":"27212","code6":"272124"}},
{"type":"Feature","geometry":{"type":"MultiPolygon","coordinates":[[[[135.38831,34.35543],[135.38136,34.35608],[135.37935,34.36407],[135.3703,34.36447],[135.3556,34.37271],[135.35518,34.37853],[135.34971,34.3801],[135.34296,34.38674],[135.33546,34.39903],[135.33895,34.40541],[135.34528,34.40771],[135.3532,34.40663],[135.35717,34.41827],[135.34968,34.4216],[135.34775,34.42509],[135.33992,34.42901],[135.33745,34.4322],[135.32905,34.43433],[135.3249,34.43694],[135.32134,34.43281],[135.32154,34.43265],[135.32165,34.43258],[135.32176,34.43252],[135.32186,34.43245],[135.32197,34.43238],[135.32209,34.43231],[135.3222,34.43223],[135.3223,34.43216],[135.3224,34.43208],[135.32251,34.42823],[135.32239,34.4283],[135.32229,34.42837],[135.32219,34.42844],[135.32208,34.42851],[135.32198,34.42858],[135.32188,34.42866],[135.32156,34.42886],[135.32145,34.42893],[135.32134,34.429],[135.32124,34.42908],[135.32113,34.42914],[135.32102,34.42922],[135.32082,34.42936],[135.32071,34.42943],[135.31377,34.42662],[135.31963,34.42265],[135.30954,34.41707],[135.30644,34.41947],[135.3021,34.41582],[135.29338,34.41405],[135.29295,34.4071],[135.28882,34.40362],[135.29461,34.39916],[135.30038,34.39001],[135.28961,34.38341],[135.28963,34.37896],[135.30565,34.38209],[135.30967,34.38003],[135.31893,34.37028],[135.32354,34.3613],[135.32198,34.35537],[135.32657,34.35055],[135.32871,34.34184],[135.33914,34.34102],[135.33889,34.33496],[135.3422,34.33511],[135.34619,34.3305],[135.35898,34.33304],[135.36171,34.32935],[135.37414,34.33096],[135.38034,34.32844],[135.38678,34.32912],[135.38824,34.33242],[135.39445,34.33081],[135.40543,34.33385],[135.40922,34.34194],[135.40754,34.34711],[135.39227,34.34728],[135.38831,34.35543]]],[[[135.23992,34.4385],[135.25242,34.44693],[135.24158,34.45522],[135.22933,34.44605],[135.23992,34.4385]]],[[[135.252,34.42985],[135.25652,34.43376],[135.26513,34.4378],[135.25954,34.44346],[135.25176,34.44412],[135.2416,34.4373],[135.252,34.42985]]]]},"properties":{"pref":"大阪府","city":"泉佐野市","code5":"27213","code6":"272132"}},
{"type":"Feature","geometry":{"type":"Polygon","coordinates":[[[135.56654,34.51354],[135.5603,34.51163],[135.55958,34.49734],[135.56271,34.49294],[135.55834,34.48968],[135.5598,34.47947],[135.56637,34.47681],[135.57684,34.4749],[135.58259,34.46827],[135.57954,34.46494],[135.57788,34.45482],[135.58411,34.44861],[135.58738,34.44838],[135.59446,34.44187],[135.60253,34.4392],[135.60723,34.44566],[135.61078,34.44551],[135.616,34.45183],[135.61785,34.46229],[135.61486,34.47028],[135.61685,34.47432],[135.61736,34.47776],[135.61276,34.48223],[135.61304,34.49042],[135.62155,34.49152],[135.62783,34.49017],[135.6277,34.49794],[135.62193,34.50013],[135.61766,34.50706],[135.6204,34.51482],[135.62168,34.52275],[135.62714,34.52545],[135.6122,34.52616],[135.61051,34.52924],[135.59816,34.52862],[135.5872,34.5318],[135.58222,34.51878],[135.58214,34.51067],[135.57251,34.51146],[135.56654,34.51354]]]},"properties":{"pref":"大阪府","city":"富田林市","code5":"27214","code6":"272141"}},
{"type":"Feature","geometry":{"type":"Polygon","coordinates":[[[135.60227,34.78051],[135.58701,34.76752],[135.59461,34.76323],[135.59685,34.75727],[135.60164,34.75518],[135.60628,34.7502],[135.61214,34.74425],[135.61864,34.74426],[135.6234,34.73632],[135.62077,34.72911],[135.63361,34.72821],[135.63194,34.73219],[135.62523,34.73421],[135.62667,34.74521],[135.63052,34.74966],[135.65224,34.7489],[135.65987,34.74998],[135.65801,34.75774],[135.66208,34.76673],[135.65954,34.77497],[135.65303,34.77309],[135.64867,34.7834],[135.6416,34.78591],[135.63186,34.78542],[135.62995,34.79036],[135.62288,34.78994],[135.61426,34.79151],[135.61038,34.78567],[135.60227,34.78051]]]},"properties":{"pref":"大阪府","city":"寝屋川市","code5":"27215","code6":"272159"}},
{"type":"Feature","geometry":{"type":"Polygon","coordinates":[[[135.51959,34.43117],[135.52464,34.4291],[135.52654,34.42489],[135.52537,34.40843],[135.52253,34.39993],[135.52028,34.39873],[135.51971,34.38834],[135.51179,34.38161],[135.50409,34.38186],[135.50075,34.37682],[135.49079,34.37291],[135.48939,34.36562],[135.48538,34.36283],[135.4887,34.35637],[135.50175,34.3502],[135.5049,34.34122],[135.5035,34.33654],[135.51204,34.33833],[135.52915,34.35143],[135.53486,34.35236],[135.54146,34.35763],[135.54787,34.35669],[135.55444,34.35943],[135.5634,34.36933],[135.57245,34.37191],[135.57712,34.37605],[135.59499,34.37538],[135.59595,34.37921],[135.60137,34.38008],[135.60412,34.37739],[135.61327,34.37658],[135.61991,34.38448],[135.63195,34.38304],[135.65113,34.38321],[135.65471,34.38383],[135.66338,34.39654],[135.65933,34.39554],[135.65154,34.40086],[135.63961,34.41807],[135.62591,34.42165],[135.61563,34.43054],[135.61048,34.43035],[135.60475,34.43475],[135.60253,34.4392],[135.59446,34.44187],[135.58738,34.44838],[135.58411,34.44861],[135.57788,34.45482],[135.57954,34.46494],[135.58259,34.46827],[135.57684,34.4749],[135.56637,34.47681],[135.5598,34.47947],[135.55409,34.47683],[135.55308,34.47193],[135.54206,34.4665],[135.54539,34.46232],[135.53631,34.4531],[135.53364,34.44861],[135.52204,34.44015],[135.51839,34.43304],[135.51959,34.43117]]]},"properties":{"pref":"大阪府","city":"河内長野市","code5":"27216","code6":"272167"}},
{"type":"Feature","geometry":{"type":"Polygon","coordinates":[[[135.52199,34.59434],[135.52242,34.57666],[135.53176,34.57664],[135.53557,34.57161],[135.53726,34.56559],[135.54804,34.56591],[135.5491,34.55986],[135.55319,34.5539],[135.5672,34.56001],[135.56978,34.56496],[135.56719,34.57669],[135.5765,34.57741],[135.58123,34.58206],[135.5847,34.58844],[135.57683,34.59307],[135.56716,34.59554],[135.54358,34.5952],[135.54346,34.59942],[135.5315,34.59831],[135.5225,34.59458],[135.52199,34.59434]]]},"properties":{"pref":"大阪府","city":"松原市","code5":"27217","code6":"272175"}},
{"type":"Feature","geometry":{"type":"Polygon","coordinates":[[[135.59499,34.7035],[135.59677,34.70058],[135.6054,34.70139],[135.60787,34.6982],[135.61879,34.69596],[135.61784,34.70098],[135.65279,34.70258],[135.65991,34.70137],[135.66337,34.69888],[135.67314,34.70008],[135.67308,34.70177],[135.67461,34.71219],[135.67203,34.71631],[135.66082,34.71993],[135.65685,34.72249],[135.65683,34.72784],[135.6468,34.73159],[135.63194,34.73219],[135.63361,34.72821],[135.62077,34.72911],[135.62382,34.72161],[135.6135,34.72029],[135.60938,34.72211],[135.60641,34.71807],[135.59935,34.71469],[135.59499,34.7035]]]},"properties":{"pref":"大阪府","city":"大東市","code5":"27218","code6":"272183"}},
{"type":"Feature","geometry":{"type":"Polygon","coordinates":[[[135.45465,34.51514],[135.44775,34.51129],[135.43338,34.51398],[135.4339,34.50872],[135.42394,34.50068],[135.42922,34.49435],[135.42457,34.48941],[135.42119,34.48983],[135.4153,34.48154],[135.41868,34.47794],[135.41508,34.47354],[135.42425,34.4663],[135.42959,34.47036],[135.44038,34.46232],[135.44222,34.45558],[135.44227,34.44208],[135.44881,34.43236],[135.44844,34.42756],[135.45154,34.42367],[135.4515,34.41723],[135.4544,34.40041],[135.45,34.39075],[135.45391,34.39013],[135.45619,34.38568],[135.46245,34.38212],[135.46373,34.37639],[135.45983,34.37471],[135.45437,34.35868],[135.45654,34.35425],[135.45313,34.34986],[135.45759,34.34734],[135.47009,34.35047],[135.47774,34.35355],[135.47929,34.35812],[135.48538,34.36283],[135.48939,34.36562],[135.49079,34.37291],[135.50075,34.37682],[135.50409,34.38186],[135.51179,34.38161],[135.51971,34.38834],[135.52028,34.39873],[135.52253,34.39993],[135.52537,34.40843],[135.52654,34.42489],[135.52464,34.4291],[135.51959,34.43117],[135.51129,34.43143],[135.50632,34.43398],[135.50078,34.43368],[135.49819,34.43775],[135.49925,34.44152],[135.49726,34.45157],[135.48963,34.46035],[135.4844,34.46104],[135.47851,34.4649],[135.4782,34.4709],[135.47135,34.47764],[135.46999,34.48328],[135.4662,34.48301],[135.46653,34.49602],[135.46503,34.49974],[135.4607,34.51211],[135.45465,34.51514]]]},"properties":{"pref":"大阪府","city":"和泉市","code5":"27219","code6":"272191"}},
{"type":"Feature","geometry":{"type":"Polygon","coordinates":[[[135.49765,34.82488],[135.5057,34.83081],[135.51242,34.82668],[135.51549,34.82812],[135.52399,34.82624],[135.52622,34.83079],[135.51891,34.83921],[135.52494,34.84086],[135.52282,34.852],[135.51447,34.86007],[135.5158,34.86413],[135.51181,34.86787],[135.51173,34.87436],[135.50721,34.87442],[135.50325,34.87003],[135.49953,34.87752],[135.4938,34.87945],[135.48721,34.87385],[135.48198,34.87479],[135.48052,34.88415],[135.4777,34.88996],[135.48597,34.89576],[135.47568,34.9036],[135.47345,34.91043],[135.46571,34.90952],[135.4639,34.90333],[135.45835,34.90049],[135.45789,34.89717],[135.45285,34.89484],[135.44513,34.89544],[135.44094,34.89046],[135.43749,34.87712],[135.44569,34.87212],[135.44925,34.86706],[135.45627,34.86473],[135.45934,34.8612],[135.45896,34.84597],[135.45373,34.84278],[135.45371,34.83416],[135.45034,34.82479],[135.45128,34.81743],[135.44784,34.81593],[135.44921,34.81096],[135.44855,34.80979],[135.44811,34.80843],[135.45342,34.8072],[135.47577,34.82107],[135.48352,34.8171],[135.49283,34.81749],[135.4933,34.82179],[135.49765,34.82488]]]},"properties":{"pref":"大阪府","city":"箕面市","code5":"27220","code6":"272205"}},
{"type":"Feature","geometry":{"type":"Polygon","coordinates":[[[135.60844,34.58872],[135.62759,34.57768],[135.62193,34.56937],[135.62164,34.56428],[135.62204,34.55376],[135.62912,34.55295],[135.63508,34.5574],[135.63649,34.55073],[135.64573,34.54762],[135.65319,34.54699],[135.65577,34.5492],[135.65778,34.56132],[135.66452,34.56762],[135.67308,34.57073],[135.6706,34.5762],[135.68176,34.58478],[135.67491,34.60172],[135.66954,34.60296],[135.66117,34.60191],[135.65229,34.60395],[135.65179,34.60681],[135.65055,34.60227],[135.64099,34.59958],[135.63533,34.60086],[135.62517,34.59981],[135.61897,34.59292],[135.61078,34.59295],[135.60844,34.58872]]]},"properties":{"pref":"大阪府","city":"柏原市","code5":"27221","code6":"272213"}},
{"type":"Feature","geometry":{"type":"Polygon","coordinates":[[[135.5872,34.5318],[135.59816,34.52862],[135.61051,34.52924],[135.6122,34.52616],[135.62714,34.52545],[135.63482,34.52717],[135.63955,34.53101],[135.64302,34.53023],[135.65,34.53308],[135.66014,34.54107],[135.65365,34.5414],[135.65319,34.54699],[135.64573,34.54762],[135.63649,34.55073],[135.63508,34.5574],[135.62912,34.55295],[135.62204,34.55376],[135.62164,34.56428],[135.61484,34.56326],[135.61147,34.56581],[135.60422,34.56595],[135.60633,34.5609],[135.60111,34.55351],[135.59567,34.55605],[135.59474,34.56323],[135.59167,34.56413],[135.58688,34.57115],[135.5873,34.57636],[135.58485,34.58154],[135.58123,34.58206],[135.5765,34.57741],[135.56719,34.57669],[135.56978,34.56496],[135.5672,34.56001],[135.56885,34.55724],[135.5674,34.54871],[135.57259,34.54844],[135.5872,34.5318]]]},"properties":{"pref":"大阪府","city":"羽曳野市","code5":"27222","code6":"272221"}},
{"type":"Feature","geometry":{"type":"Polygon","coordinates":[[[135.59935,34.71469],[135.60641,34.71807],[135.60938,34.72211],[135.6135,34.72029],[135.62382,34.72161],[135.62077,34.72911],[135.6234,34.73632],[135.61864,34.74426],[135.61214,34.74425],[135.60628,34.7502],[135.60478,34.74545],[135.59919,34.74512],[135.58111,34.74779],[135.57896,34.7434],[135.57189,34.7376],[135.58168,34.72877],[135.58426,34.72237],[135.58985,34.7137],[135.59935,34.71469]]]},"properties":{"pref":"大阪府","city":"門真市","code5":"27223","code6":"272230"}},
{"type":"Feature","geometry":{"type":"Polygon","coordinates":[[[135.56053,34.75399],[135.57305,34.7576],[135.58053,34.7618],[135.58701,34.76752],[135.60227,34.78051],[135.59807,34.78578],[135.59762,34.79866],[135.58968,34.79401],[135.5823,34.78657],[135.57768,34.78441],[135.57053,34.77663],[135.56781,34.77777],[135.56828,34.78561],[135.56388,34.78662],[135.56203,34.79147],[135.55193,34.79356],[135.53681,34.78655],[135.55075,34.76945],[135.54877,34.76845],[135.55116,34.76664],[135.55076,34.75715],[135.55825,34.7569],[135.56053,34.75399]]]},"properties":{"pref":"大阪府","city":"摂津市","code5":"27224","code6":"272248"}},
{"type":"Feature","geometry":{"type":"MultiPolygon","coordinates":[[[[135.4377,34.54106],[135.43196,34.53187],[135.41888,34.51948],[135.42682,34.51274],[135.43338,34.51398],[135.44775,34.51129],[135.45465,34.51514],[135.4595,34.51988],[135.45468,34.52406],[135.44604,34.52594],[135.44823,34.52948],[135.44609,34.53688],[135.4377,34.54106]]],[[[135.42625,34.54709],[135.42023,34.53798],[135.4122,34.54353],[135.40526,34.54723],[135.39917,34.53649],[135.40739,34.53504],[135.4046,34.53014],[135.41771,34.52424],[135.42147,34.52481],[135.43067,34.534],[135.43636,34.54258],[135.42625,34.54709]]],[[[135.40111,34.52742],[135.39753,34.53161],[135.39385,34.53143],[135.3984,34.52611],[135.40111,34.52742]]]]},"properties":{"pref":"大阪府","city":"高石市","code5":"27225","code6":"272256"}},
{"type":"Feature","geometry":{"type":"Polygon","coordinates":[[[135.5847,34.58844],[135.58123,34.58206],[135.58485,34.58154],[135.5873,34.57636],[135.58688,34.57115],[135.59167,34.56413],[135.59474,34.56323],[135.59567,34.55605],[135.60111,34.55351],[135.60633,34.5609],[135.60422,34.56595],[135.61147,34.56581],[135.61484,34.56326],[135.62164,34.56428],[135.62193,34.56937],[135.62759,34.57768],[135.60844,34.58872],[135.60528,34.58345],[135.60116,34.58349],[135.5847,34.58844]]]},"properties":{"pref":"大阪府","city":"藤井寺市","code5":"27226","code6":"272264"}},
{"type":"Feature","geometry":{"type":"Polygon","coordinates":[[[135.59499,34.7035],[135.58484,34.69862],[135.57952,34.68966],[135.57644,34.68812],[135.56564,34.68775],[135.5634,34.67802],[135.5622,34.66791],[135.55707,34.66427],[135.56116,34.66258],[135.56182,34.65825],[135.55856,34.65583],[135.56114,34.64355],[135.56841,34.63816],[135.56858,34.63436],[135.57468,34.63218],[135.58887,34.63243],[135.58521,34.63935],[135.59592,34.64172],[135.5945,34.65062],[135.62553,34.65031],[135.62548,34.64466],[135.66429,34.64328],[135.66426,34.64998],[135.6711,34.66156],[135.67105,34.66692],[135.6787,34.67776],[135.67838,34.68317],[135.6731,34.69015],[135.67314,34.70008],[135.66337,34.69888],[135.65991,34.70137],[135.65279,34.70258],[135.61784,34.70098],[135.61879,34.69596],[135.60787,34.6982],[135.6054,34.70139],[135.59677,34.70058],[135.59499,34.7035]]]},"properties":{"pref":"大阪府","city":"東大阪市","code5":"27227","code6":"272272"}},
{"type":"Feature","geometry":{"type":"MultiPolygon","coordinates":[[[[135.28961,34.38341],[135.28525,34.38382],[135.28132,34.3896],[135.2798,34.39539],[135.26379,34.38108],[135.25709,34.38167],[135.2507,34.37696],[135.2496,34.36428],[135.25264,34.36042],[135.25969,34.35695],[135.26034,34.35292],[135.26524,34.34685],[135.26973,34.33681],[135.27897,34.32597],[135.28255,34.31788],[135.2866,34.31258],[135.28698,34.30675],[135.29164,34.29955],[135.29755,34.30078],[135.30264,34.30488],[135.30397,34.31371],[135.31316,34.31409],[135.3242,34.31913],[135.33041,34.3167],[135.32803,34.32403],[135.33444,34.32561],[135.33914,34.32943],[135.33889,34.33496],[135.33914,34.34102],[135.32871,34.34184],[135.32657,34.35055],[135.32198,34.35537],[135.32354,34.3613],[135.31893,34.37028],[135.30967,34.38003],[135.30565,34.38209],[135.28963,34.37896],[135.28961,34.38341]]],[[[135.24034,34.42289],[135.23046,34.42983],[135.21912,34.42222],[135.22769,34.41348],[135.24034,34.42289]]],[[[135.22889,34.43093],[135.21805,34.4385],[135.20116,34.42809],[135.20617,34.42311],[135.22163,34.43349],[135.2259,34.4291],[135.22889,34.43093]]]]},"properties":{"pref":"大阪府","city":"泉南市","code5":"27228","code6":"272281"}},
{"type":"Feature","geometry":{"type":"Polygon","coordinates":[[[135.63194,34.73219],[135.6468,34.73159],[135.65683,34.72784],[135.65685,34.72249],[135.66082,34.71993],[135.67203,34.71631],[135.67461,34.71219],[135.67308,34.70177],[135.68308,34.71129],[135.68941,34.71374],[135.70169,34.72168],[135.70274,34.7251],[135.69683,34.74388],[135.68942,34.74471],[135.68476,34.74213],[135.66563,34.74631],[135.65987,34.74998],[135.65224,34.7489],[135.63052,34.74966],[135.62667,34.74521],[135.62523,34.73421],[135.63194,34.73219]]]},"properties":{"pref":"大阪府","city":"四條畷市","code5":"27229","code6":"272299"}},
{"type":"Feature","geometry":{"type":"Polygon","coordinates":[[[135.65954,34.77497],[135.66208,34.76673],[135.65801,34.75774],[135.65987,34.74998],[135.66563,34.74631],[135.68476,34.74213],[135.68942,34.74471],[135.69683,34.74388],[135.69783,34.74947],[135.70226,34.75072],[135.7068,34.74865],[135.71019,34.75591],[135.70857,34.76876],[135.70662,34.77234],[135.71197,34.78133],[135.71543,34.78334],[135.71669,34.78891],[135.7146,34.79372],[135.70892,34.79752],[135.69569,34.8006],[135.68703,34.79938],[135.67945,34.80239],[135.66599,34.79738],[135.66886,34.79177],[135.6718,34.77872],[135.65954,34.77497]]]},"properties":{"pref":"大阪府","city":"交野市","code5":"27230","code6":"272302"}},
{"type":"Feature","geometry":{"type":"Polygon","coordinates":[[[135.56654,34.51354],[135.56352,34.5174],[135.56286,34.52522],[135.55505,34.52796],[135.55313,34.51803],[135.54638,34.51801],[135.5407,34.51114],[135.53264,34.51461],[135.53432,34.50798],[135.53971,34.50109],[135.53852,34.49525],[135.53497,34.49292],[135.53527,34.47985],[135.5386,34.46926],[135.54206,34.4665],[135.55308,34.47193],[135.55409,34.47683],[135.5598,34.47947],[135.55834,34.48968],[135.56271,34.49294],[135.55958,34.49734],[135.5603,34.51163],[135.56654,34.51354]]]},"properties":{"pref":"大阪府","city":"大阪狭山市","code5":"27231","code6":"272311"}},
{"type":"Feature","geometry":{"type":"Polygon","coordinates":[[[135.2507,34.37696],[135.23501,34.36117],[135.22557,34.34948],[135.21701,34.34416],[135.2028,34.34257],[135.19312,34.33813],[135.18813,34.33189],[135.19279,34.32892],[135.19352,34.32113],[135.19076,34.31809],[135.19162,34.31245],[135.19517,34.31088],[135.20225,34.31213],[135.20804,34.3082],[135.22181,34.30385],[135.225,34.30086],[135.23552,34.30364],[135.2466,34.31329],[135.25424,34.31575],[135.26312,34.31315],[135.27104,34.31247],[135.28255,34.31788],[135.27897,34.32597],[135.26973,34.33681],[135.26524,34.34685],[135.26034,34.35292],[135.25969,34.35695],[135.25264,34.36042],[135.2496,34.36428],[135.2507,34.37696]]]},"properties":{"pref":"大阪府","city":"阪南市","code5":"27232","code6":"272329"}},
{"type":"Feature","geometry":{"type":"Polygon","coordinates":[[[135.62811,34.93373],[135.62973,34.9199],[135.63021,34.90681],[135.63652,34.91012],[135.63621,34.90409],[135.63372,34.90224],[135.63467,34.89231],[135.64143,34.89022],[135.64507,34.88227],[135.65027,34.8809],[135.65714,34.87224],[135.66081,34.87518],[135.67276,34.87003],[135.67992,34.88134],[135.68269,34.88784],[135.67921,34.89032],[135.67464,34.90018],[135.6671,34.90423],[135.66203,34.9037],[135.65409,34.90934],[135.6485,34.90955],[135.64954,34.91676],[135.65232,34.91708],[135.64854,34.92599],[135.64316,34.92971],[135.63297,34.93462],[135.62811,34.93373]]]},"properties":{"pref":"大阪府","county":"三島郡","city":"島本町","code5":"27301","code6":"273015"}},
{"type":"Feature","geometry":{"type":"Polygon","coordinates":[[[135.48463,34.94741],[135.47983,34.94493],[135.47689,34.93887],[135.47518,34.93066],[135.46709,34.92877],[135.46541,34.91959],[135.45671,34.91791],[135.45145,34.9199],[135.4393,34.9205],[135.43452,34.91677],[135.4303,34.91635],[135.4191,34.90975],[135.42568,34.90674],[135.43108,34.89724],[135.4305,34.89352],[135.43947,34.89602],[135.44513,34.89544],[135.45285,34.89484],[135.45789,34.89717],[135.45835,34.90049],[135.4639,34.90333],[135.46571,34.90952],[135.47345,34.91043],[135.47568,34.9036],[135.48597,34.89576],[135.4777,34.88996],[135.48052,34.88415],[135.48198,34.87479],[135.48721,34.87385],[135.4938,34.87945],[135.49953,34.87752],[135.4959,34.88115],[135.50063,34.88793],[135.50285,34.89596],[135.51125,34.90004],[135.51629,34.90712],[135.51698,34.91137],[135.52491,34.92026],[135.52538,34.9288],[135.52125,34.93329],[135.51502,34.93692],[135.5147,34.94373],[135.50403,34.94629],[135.49967,34.94134],[135.49042,34.94179],[135.48834,34.94639],[135.48463,34.94741]]]},"properties":{"pref":"大阪府","county":"豊能郡","city":"豊能町","code5":"27321","code6":"273210"}},
{"type":"Feature","geometry":{"type":"Polygon","coordinates":[[[135.38207,35.0309],[135.38004,35.03911],[135.37598,35.04414],[135.37125,35.04529],[135.36763,35.04399],[135.35948,35.05011],[135.34948,35.05087],[135.34909,35.0462],[135.3379,35.04265],[135.33374,35.03965],[135.33358,35.03516],[135.3398,35.02588],[135.34656,35.02667],[135.35472,35.02461],[135.35576,35.01652],[135.35371,35.0132],[135.35469,35.0066],[135.35256,34.99039],[135.35953,34.98252],[135.35224,34.97953],[135.34852,34.97578],[135.34875,34.97197],[135.34507,34.96685],[135.35425,34.96262],[135.36073,34.95442],[135.36392,34.95624],[135.37533,34.95513],[135.38189,34.95623],[135.38754,34.95098],[135.38717,34.94661],[135.39235,34.94137],[135.39596,34.94444],[135.40729,34.94367],[135.41041,34.93992],[135.41576,34.94079],[135.41848,34.93389],[135.42535,34.93643],[135.43855,34.93694],[135.44159,34.93938],[135.45282,34.92972],[135.46101,34.92627],[135.46709,34.92877],[135.47518,34.93066],[135.47689,34.93887],[135.47983,34.94493],[135.48463,34.94741],[135.48086,34.95029],[135.48478,34.95456],[135.48194,34.96523],[135.48846,34.96657],[135.48316,34.98187],[135.48668,34.98529],[135.49306,34.98767],[135.48189,34.99515],[135.47122,34.9948],[135.45987,35.00159],[135.45197,35.00175],[135.44679,35.00545],[135.43619,35.00841],[135.42282,35.00211],[135.4181,35.00322],[135.40977,35.01153],[135.40325,35.00669],[135.39747,35.01064],[135.39416,35.00875],[135.38906,35.01141],[135.38155,35.01038],[135.37769,35.02064],[135.38169,35.02619],[135.38207,35.0309]]]},"properties":{"pref":"大阪府","county":"豊能郡","city":"能勢町","code5":"27322","code6":"273228"}},
{"type":"Feature","geometry":{"type":"Polygon","coordinates":[[[135.41508,34.47354],[135.41868,34.47794],[135.4153,34.48154],[135.41133,34.48216],[135.40549,34.48864],[135.4024,34.49518],[135.38975,34.49893],[135.37783,34.50784],[135.37375,34.50727],[135.37087,34.5004],[135.39473,34.48884],[135.41508,34.47354]]]},"properties":{"pref":"大阪府","county":"泉北郡","city":"忠岡町","code5":"27341","code6":"273414"}},
{"type":"Feature","geometry":{"type":"Polygon","coordinates":[[[135.35717,34.41827],[135.3532,34.40663],[135.34528,34.40771],[135.33895,34.40541],[135.33546,34.39903],[135.34296,34.38674],[135.34971,34.3801],[135.35518,34.37853],[135.3556,34.37271],[135.3703,34.36447],[135.37935,34.36407],[135.38136,34.35608],[135.38831,34.35543],[135.38761,34.3616],[135.38341,34.36871],[135.3871,34.37007],[135.38523,34.3756],[135.38714,34.38463],[135.38006,34.39205],[135.37674,34.40338],[135.36666,34.41162],[135.36398,34.41671],[135.35717,34.41827]]]},"properties":{"pref":"大阪府","county":"泉南郡","city":"熊取町","code5":"27361","code6":"273619"}},
{"type":"Feature","geometry":{"type":"MultiPolygon","coordinates":[[[[135.22933,34.44605],[135.21805,34.4385],[135.22889,34.43093],[135.23046,34.42983],[135.24034,34.42289],[135.252,34.42985],[135.2416,34.4373],[135.23992,34.4385],[135.22933,34.44605]]],[[[135.28882,34.40362],[135.28822,34.398],[135.28283,34.3986],[135.2798,34.39539],[135.28132,34.3896],[135.28525,34.38382],[135.28961,34.38341],[135.30038,34.39001],[135.29461,34.39916],[135.28882,34.40362]]]]},"properties":{"pref":"大阪府","county":"泉南郡","city":"田尻町","code5":"27362","code6":"273627"}},
{"type":"Feature","geometry":{"type":"Polygon","coordinates":[[[135.19312,34.33813],[135.18264,34.33626],[135.17668,34.33786],[135.16875,34.33542],[135.16382,34.33151],[135.15915,34.3314],[135.15294,34.33115],[135.14814,34.32333],[135.14132,34.31822],[135.13014,34.32048],[135.13056,34.32617],[135.11013,34.32187],[135.10146,34.31929],[135.09924,34.31524],[135.09283,34.31201],[135.09708,34.30794],[135.10273,34.31093],[135.10641,34.3058],[135.09693,34.2971],[135.09978,34.29268],[135.0987,34.28904],[135.10907,34.28267],[135.10736,34.27846],[135.1103,34.27379],[135.12099,34.27391],[135.12597,34.27739],[135.13209,34.27235],[135.13662,34.27351],[135.1394,34.27938],[135.14648,34.28365],[135.15482,34.28088],[135.15741,34.27708],[135.17152,34.28059],[135.18066,34.27989],[135.18958,34.28278],[135.19161,34.28646],[135.20265,34.28762],[135.20436,34.29055],[135.20535,34.30053],[135.20847,34.30282],[135.20804,34.3082],[135.20225,34.31213],[135.19517,34.31088],[135.19162,34.31245],[135.19076,34.31809],[135.19352,34.32113],[135.19279,34.32892],[135.18813,34.33189],[135.19312,34.33813]]]},"properties":{"pref":"大阪府","county":"泉南郡","city":"岬町","code5":"27366","code6":"273660"}},
{"type":"Feature","geometry":{"type":"Polygon","coordinates":[[[135.6204,34.51482],[135.62943,34.51469],[135.6418,34.5039],[135.65545,34.49727],[135.66206,34.5023],[135.66862,34.50531],[135.67532,34.50573],[135.6775,34.50964],[135.67693,34.52553],[135.6675,34.53086],[135.66283,34.52963],[135.66014,34.54107],[135.65,34.53308],[135.64302,34.53023],[135.63955,34.53101],[135.63482,34.52717],[135.62714,34.52545],[135.62168,34.52275],[135.6204,34.51482]]]},"properties":{"pref":"大阪府","county":"南河内郡","city":"太子町","code5":"27381","code6":"273813"}},
{"type":"Feature","geometry":{"type":"Polygon","coordinates":[[[135.61685,34.47432],[135.62707,34.47626],[135.62795,34.46749],[135.63554,34.46749],[135.64282,34.45946],[135.64841,34.45557],[135.65448,34.45593],[135.65793,34.46671],[135.66661,34.46904],[135.67521,34.46941],[135.68217,34.46525],[135.68335,34.47612],[135.68121,34.48023],[135.6848,34.48359],[135.67898,34.49306],[135.6783,34.4995],[135.67301,34.5029],[135.67532,34.50573],[135.66862,34.50531],[135.66206,34.5023],[135.65545,34.49727],[135.6418,34.5039],[135.62943,34.51469],[135.6204,34.51482],[135.61766,34.50706],[135.62193,34.50013],[135.6277,34.49794],[135.62783,34.49017],[135.62155,34.49152],[135.61304,34.49042],[135.61276,34.48223],[135.61736,34.47776],[135.61685,34.47432]]]},"properties":{"pref":"大阪府","county":"南河内郡","city":"河南町","code5":"27382","code6":"273821"}},
{"type":"Feature","geometry":{"type":"Polygon","coordinates":[[[135.60253,34.4392],[135.60475,34.43475],[135.61048,34.43035],[135.61563,34.43054],[135.62591,34.42165],[135.63961,34.41807],[135.65154,34.40086],[135.65933,34.39554],[135.66338,34.39654],[135.67555,34.39946],[135.67604,34.40558],[135.68,34.40832],[135.67556,34.41374],[135.66942,34.41368],[135.66533,34.42424],[135.67861,34.43236],[135.68152,34.43791],[135.68173,34.44335],[135.68698,34.45146],[135.68241,34.45605],[135.68217,34.46487],[135.68217,34.46525],[135.67521,34.46941],[135.66661,34.46904],[135.65793,34.46671],[135.65448,34.45593],[135.64841,34.45557],[135.64282,34.45946],[135.63554,34.46749],[135.62795,34.46749],[135.62707,34.47626],[135.61685,34.47432],[135.61486,34.47028],[135.61785,34.46229],[135.616,34.45183],[135.61078,34.44551],[135.60723,34.44566],[135.60253,34.4392]]]},"properties":{"pref":"大阪府","county":"南河内郡","city":"千早赤阪村","code5":"27383","code6":"273830"}},
{"type":"Feature","geometry":{"type":"MultiPolygon","coordinates":[[[[135.40729,34.6971],[135.41169,34.69087],[135.41771,34.68806],[135.42036,34.68285],[135.42226,34.67963],[135.40887,34.6755],[135.40825,34.67182],[135.41667,34.67321],[135.41808,34.65952],[135.42631,34.65574],[135.42813,34.65115],[135.44412,34.64446],[135.45041,34.64592],[135.4471,34.64126],[135.44824,34.63488],[135.45267,34.63494],[135.45357,34.62922],[135.4485,34.62647],[135.44756,34.61788],[135.44291,34.61812],[135.4413,34.62618],[135.43129,34.62181],[135.43296,34.61302],[135.43755,34.60817],[135.44654,34.60833],[135.46936,34.60185],[135.47816,34.5982],[135.48696,34.59601],[135.49525,34.59431],[135.50009,34.58723],[135.50278,34.58616],[135.50588,34.5866],[135.52199,34.59434],[135.5225,34.59458],[135.5315,34.59831],[135.54346,34.59942],[135.54358,34.5952],[135.56716,34.59554],[135.57683,34.59307],[135.57992,34.59409],[135.57997,34.60088],[135.58732,34.60474],[135.58693,34.60914],[135.57623,34.61377],[135.56924,34.61382],[135.56196,34.61699],[135.56591,34.62133],[135.57518,34.61824],[135.57663,34.62652],[135.57468,34.63218],[135.56858,34.63436],[135.56841,34.63816],[135.56114,34.64355],[135.55856,34.65583],[135.56182,34.65825],[135.56116,34.66258],[135.55707,34.66427],[135.5622,34.66791],[135.5634,34.67802],[135.56564,34.68775],[135.57644,34.68812],[135.57952,34.68966],[135.58484,34.69862],[135.59499,34.7035],[135.59935,34.71469],[135.58985,34.7137],[135.58426,34.72237],[135.58287,34.71739],[135.57505,34.71741],[135.57429,34.70893],[135.5699,34.7089],[135.56763,34.71778],[135.56554,34.72269],[135.55992,34.72617],[135.55512,34.72481],[135.5534,34.7331],[135.56029,34.73683],[135.561,34.74021],[135.55644,34.74608],[135.55684,34.75077],[135.56053,34.75399],[135.55825,34.7569],[135.55076,34.75715],[135.55116,34.76664],[135.54877,34.76845],[135.54412,34.76846],[135.5391,34.76112],[135.53236,34.75942],[135.52899,34.75457],[135.53161,34.75234],[135.5251,34.74785],[135.51579,34.74968],[135.50671,34.74473],[135.49519,34.75137],[135.48791,34.74981],[135.48105,34.73814],[135.47547,34.73612],[135.46696,34.7307],[135.46029,34.73314],[135.44899,34.7341],[135.44556,34.72908],[135.44811,34.72169],[135.44581,34.71809],[135.42958,34.71135],[135.42457,34.7059],[135.41286,34.702],[135.40729,34.6971]]],[[[135.37963,34.66092],[135.3729,34.65208],[135.37894,34.64319],[135.3928,34.64184],[135.40452,34.65372],[135.39973,34.65694],[135.37963,34.66092]]],[[[135.40262,34.67318],[135.38805,34.66784],[135.38685,34.66268],[135.40978,34.65905],[135.41095,34.66565],[135.40939,34.66879],[135.40262,34.67318]]],[[[135.35353,34.63225],[135.34398,34.62273],[135.34567,34.61728],[135.35871,34.62778],[135.35353,34.63225]]],[[[135.41694,34.64464],[135.39851,34.63817],[135.3985,34.63134],[135.4045,34.63154],[135.41228,34.6372],[135.4148,34.63482],[135.40748,34.6295],[135.41043,34.62587],[135.42057,34.62585],[135.42216,34.62191],[135.43179,34.62442],[135.4417,34.62921],[135.4393,34.64121],[135.43235,34.64402],[135.42421,34.64265],[135.41694,34.64464]]],[[[135.38966,34.62828],[135.39944,34.62066],[135.40267,34.61211],[135.42043,34.61292],[135.41843,34.61955],[135.3995,34.62072],[135.38966,34.62828]]]]},"properties":{"pref":"大阪府","city":"大阪市","code5":"27100","code6":"271004"}},
{"type":"Feature","geometry":{"type":"MultiPolygon","coordinates":[[[[135.52199,34.59434],[135.50588,34.5866],[135.50278,34.58616],[135.50009,34.58723],[135.49525,34.59431],[135.48696,34.59601],[135.47816,34.5982],[135.46936,34.60185],[135.44654,34.60833],[135.43755,34.60817],[135.43697,34.60471],[135.44657,34.60186],[135.44383,34.59766],[135.43332,34.60079],[135.42354,34.60492],[135.42555,34.59334],[135.43681,34.58902],[135.44392,34.58944],[135.44939,34.58697],[135.45175,34.57715],[135.44943,34.56805],[135.45333,34.56649],[135.4453,34.56741],[135.44151,34.58295],[135.43439,34.58266],[135.43376,34.58668],[135.42619,34.58962],[135.42943,34.5707],[135.42082,34.56968],[135.41576,34.59373],[135.40207,34.59967],[135.41054,34.56075],[135.43049,34.56077],[135.44479,34.55722],[135.44215,34.54785],[135.4377,34.54106],[135.44609,34.53688],[135.44823,34.52948],[135.44604,34.52594],[135.45468,34.52406],[135.4595,34.51988],[135.45465,34.51514],[135.4607,34.51211],[135.46503,34.49974],[135.46653,34.49602],[135.4662,34.48301],[135.46999,34.48328],[135.47135,34.47764],[135.4782,34.4709],[135.47851,34.4649],[135.4844,34.46104],[135.48963,34.46035],[135.49726,34.45157],[135.49925,34.44152],[135.49819,34.43775],[135.50078,34.43368],[135.50632,34.43398],[135.51129,34.43143],[135.51959,34.43117],[135.51839,34.43304],[135.52204,34.44015],[135.53364,34.44861],[135.53631,34.4531],[135.54539,34.46232],[135.54206,34.4665],[135.5386,34.46926],[135.53527,34.47985],[135.53497,34.49292],[135.53852,34.49525],[135.53971,34.50109],[135.53432,34.50798],[135.53264,34.51461],[135.5407,34.51114],[135.54638,34.51801],[135.55313,34.51803],[135.55505,34.52796],[135.56286,34.52522],[135.56352,34.5174],[135.56654,34.51354],[135.57251,34.51146],[135.58214,34.51067],[135.58222,34.51878],[135.5872,34.5318],[135.57259,34.54844],[135.5674,34.54871],[135.56885,34.55724],[135.5672,34.56001],[135.55319,34.5539],[135.5491,34.55986],[135.54804,34.56591],[135.53726,34.56559],[135.53557,34.57161],[135.53176,34.57664],[135.52242,34.57666],[135.52199,34.59434]]],[[[135.43636,34.54258],[135.44081,34.54926],[135.44096,34.55426],[135.43066,34.55382],[135.42625,34.54709],[135.43636,34.54258]]],[[[135.4122,34.54353],[135.41588,34.54999],[135.40945,34.55443],[135.40526,34.54723],[135.4122,34.54353]]]]},"properties":{"pref":"大阪府","city":"堺市","code5":"27140","code6":"271403"}}
]}