{"type":"FeatureCollection", "features": [
{"type":"Feature","geometry":{"type":"Polygon","coordinates":[[[136.05547,34.73856],[136.04489,34.73725],[136.04187,34.73428],[136.03945,34.72012],[136.02932,34.71374],[136.02681,34.7061],[136.01941,34.70857],[136.01387,34.7078],[136.01268,34.71403],[136.00524,34.71733],[135.99975,34.71298],[135.98616,34.71531],[135.98609,34.72632],[135.98095,34.73714],[135.97809,34.73707],[135.97278,34.74208],[135.96975,34.74052],[135.96599,34.74319],[135.95826,34.74088],[135.95492,34.74829],[135.94111,34.73905],[135.93609,34.74007],[135.93247,34.73765],[135.92392,34.74145],[135.92318,34.74459],[135.92892,34.75273],[135.92896,34.75684],[135.92207,34.75476],[135.91616,34.75369],[135.91175,34.74385],[135.90851,34.74137],[135.90302,34.73292],[135.89739,34.73087],[135.89017,34.70944],[135.88516,34.71362],[135.87614,34.71388],[135.86794,34.71047],[135.86331,34.70624],[135.85971,34.70711],[135.84902,34.70597],[135.839,34.7118],[135.82664,34.71366],[135.81979,34.71169],[135.81237,34.71727],[135.80584,34.718],[135.80368,34.72186],[135.79196,34.72473],[135.77813,34.72317],[135.7734,34.7247],[135.75551,34.72753],[135.75372,34.72561],[135.74203,34.72556],[135.73595,34.7209],[135.72912,34.70986],[135.71935,34.70648],[135.71568,34.6975],[135.71715,34.69008],[135.72385,34.67373],[135.72685,34.67255],[135.72712,34.66515],[135.73354,34.66618],[135.74228,34.66049],[135.7545,34.6572],[135.76462,34.65749],[135.77087,34.66137],[135.79431,34.66125],[135.797,34.65291],[135.80542,34.65291],[135.80551,34.64899],[135.81623,34.64755],[135.81663,34.63703],[135.82362,34.6372],[135.82955,34.63528],[135.84564,34.63845],[135.84529,34.63416],[135.8528,34.62694],[135.85168,34.62305],[135.85477,34.61972],[135.86165,34.61865],[135.86716,34.6209],[135.8699,34.61279],[135.87312,34.6097],[135.87892,34.61311],[135.89201,34.60956],[135.89421,34.61409],[135.89198,34.61812],[135.89524,34.62325],[135.89455,34.63302],[135.90106,34.6348],[135.90356,34.63265],[135.91516,34.62895],[135.92631,34.632],[135.92676,34.64477],[135.93064,34.64181],[135.93956,34.64194],[135.94756,34.63085],[135.95079,34.62195],[135.94624,34.62124],[135.93838,34.61319],[135.94057,34.60696],[135.93592,34.60236],[135.93913,34.59928],[135.93732,34.59442],[135.93233,34.59582],[135.92972,34.59155],[135.92487,34.59033],[135.92793,34.58938],[135.9444,34.56688],[135.94292,34.56327],[135.94612,34.5603],[135.96202,34.55814],[135.9667,34.55984],[135.97205,34.55851],[135.97659,34.56533],[135.97345,34.57867],[135.97805,34.58064],[135.97664,34.58472],[135.97187,34.58466],[135.96974,34.58884],[135.97273,34.59305],[135.97998,34.59549],[135.97894,34.60239],[135.98393,34.60771],[135.98943,34.61053],[135.99959,34.61857],[135.99273,34.62817],[135.99368,34.63542],[135.99924,34.63792],[136.00006,34.64112],[135.99303,34.65328],[135.98888,34.65617],[135.99361,34.66738],[135.98828,34.66881],[135.98095,34.66481],[135.98356,34.65968],[135.97874,34.65587],[135.95924,34.65335],[135.9607,34.65736],[135.96001,34.6706],[135.95434,34.67362],[135.95285,34.68079],[135.96049,34.68654],[135.96828,34.68544],[135.97954,34.69109],[135.98258,34.69778],[135.98631,34.69915],[135.9897,34.68654],[135.99632,34.68688],[136.00914,34.68343],[136.01775,34.68544],[136.02132,34.69504],[136.02735,34.69681],[136.03507,34.69395],[136.03461,34.7007],[136.04259,34.70298],[136.0452,34.69775],[136.05188,34.69992],[136.05486,34.70292],[136.05419,34.70616],[136.06635,34.70979],[136.07107,34.71468],[136.06803,34.72389],[136.0631,34.72644],[136.06254,34.73067],[136.05547,34.73856]]]},"properties":{"pref":"奈良県","city":"奈良市","code5":"29201","code6":"292010"}},
{"type":"Feature","geometry":{"type":"Polygon","coordinates":[[[135.76447,34.52949],[135.75972,34.5323],[135.75017,34.53044],[135.73037,34.52856],[135.72854,34.5312],[135.72025,34.53066],[135.71667,34.52662],[135.71447,34.51929],[135.71827,34.51529],[135.7186,34.51025],[135.7302,34.51032],[135.7308,34.49823],[135.73477,34.49893],[135.73509,34.49157],[135.74679,34.49167],[135.74587,34.48708],[135.74196,34.48165],[135.75068,34.48167],[135.75387,34.47671],[135.75893,34.4768],[135.76107,34.48356],[135.76582,34.4837],[135.7659,34.4884],[135.75915,34.48849],[135.75777,34.49763],[135.75976,34.51085],[135.76439,34.52108],[135.76447,34.52949]]]},"properties":{"pref":"奈良県","city":"大和高田市","code5":"29202","code6":"292028"}},
{"type":"Feature","geometry":{"type":"Polygon","coordinates":[[[135.72712,34.66515],[135.72957,34.6586],[135.72606,34.64849],[135.72158,34.64673],[135.72707,34.64449],[135.73009,34.63994],[135.72607,34.63532],[135.72936,34.63175],[135.73386,34.63253],[135.73783,34.62873],[135.74288,34.62793],[135.74914,34.62397],[135.75187,34.61581],[135.75694,34.61873],[135.76136,34.61851],[135.76135,34.61019],[135.7675,34.60138],[135.76751,34.59713],[135.77463,34.59553],[135.78226,34.59756],[135.7864,34.59585],[135.79126,34.60145],[135.79517,34.60158],[135.795,34.6123],[135.81264,34.61039],[135.81675,34.61346],[135.81328,34.62301],[135.82389,34.62521],[135.82362,34.6372],[135.81663,34.63703],[135.81623,34.64755],[135.80551,34.64899],[135.80542,34.65291],[135.797,34.65291],[135.79431,34.66125],[135.77087,34.66137],[135.76462,34.65749],[135.7545,34.6572],[135.74228,34.66049],[135.73354,34.66618],[135.72712,34.66515]]]},"properties":{"pref":"奈良県","city":"大和郡山市","code5":"29203","code6":"292036"}},
{"type":"Feature","geometry":{"type":"Polygon","coordinates":[[[135.82362,34.6372],[135.82389,34.62521],[135.81328,34.62301],[135.81675,34.61346],[135.81264,34.61039],[135.795,34.6123],[135.79517,34.60158],[135.79126,34.60145],[135.7864,34.59585],[135.79438,34.58692],[135.78658,34.58004],[135.7903,34.57786],[135.8051,34.58405],[135.8094,34.57408],[135.81249,34.5739],[135.81152,34.56416],[135.8141,34.56056],[135.82084,34.5606],[135.82121,34.55454],[135.82615,34.54855],[135.83167,34.54855],[135.83169,34.55242],[135.83804,34.55247],[135.84405,34.54895],[135.8517,34.55029],[135.86188,34.54836],[135.8724,34.55328],[135.87481,34.56133],[135.88165,34.55888],[135.88705,34.56238],[135.88597,34.56653],[135.89608,34.56888],[135.89983,34.57502],[135.90823,34.58237],[135.90894,34.59148],[135.91368,34.58947],[135.92015,34.59171],[135.92487,34.59033],[135.92972,34.59155],[135.93233,34.59582],[135.93732,34.59442],[135.93913,34.59928],[135.93592,34.60236],[135.94057,34.60696],[135.93838,34.61319],[135.94624,34.62124],[135.95079,34.62195],[135.94756,34.63085],[135.93956,34.64194],[135.93064,34.64181],[135.92676,34.64477],[135.92631,34.632],[135.91516,34.62895],[135.90356,34.63265],[135.90106,34.6348],[135.89455,34.63302],[135.89524,34.62325],[135.89198,34.61812],[135.89421,34.61409],[135.89201,34.60956],[135.87892,34.61311],[135.87312,34.6097],[135.8699,34.61279],[135.86716,34.6209],[135.86165,34.61865],[135.85477,34.61972],[135.85168,34.62305],[135.8528,34.62694],[135.84529,34.63416],[135.84564,34.63845],[135.82955,34.63528],[135.82362,34.6372]]]},"properties":{"pref":"奈良県","city":"天理市","code5":"29204","code6":"292044"}},
{"type":"Feature","geometry":{"type":"Polygon","coordinates":[[[135.75387,34.47671],[135.75409,34.46788],[135.76049,34.46314],[135.7636,34.46537],[135.77054,34.46718],[135.77453,34.47117],[135.78844,34.46726],[135.80825,34.47077],[135.80748,34.48239],[135.81246,34.4855],[135.81051,34.48973],[135.82507,34.4894],[135.82655,34.48631],[135.831,34.48877],[135.82669,34.49761],[135.83075,34.50254],[135.82651,34.5041],[135.82626,34.51127],[135.81883,34.51123],[135.81877,34.52296],[135.82138,34.5261],[135.81846,34.535],[135.80792,34.53466],[135.80417,34.53756],[135.79558,34.53685],[135.79571,34.53082],[135.78323,34.52995],[135.78285,34.53539],[135.76986,34.53532],[135.76447,34.52949],[135.76439,34.52108],[135.75976,34.51085],[135.75777,34.49763],[135.75915,34.48849],[135.7659,34.4884],[135.76582,34.4837],[135.76107,34.48356],[135.75893,34.4768],[135.75387,34.47671]]]},"properties":{"pref":"奈良県","city":"橿原市","code5":"29205","code6":"292052"}},
{"type":"Feature","geometry":{"type":"Polygon","coordinates":[[[135.92487,34.59033],[135.92015,34.59171],[135.91368,34.58947],[135.90894,34.59148],[135.90823,34.58237],[135.89983,34.57502],[135.89608,34.56888],[135.88597,34.56653],[135.88705,34.56238],[135.88165,34.55888],[135.87481,34.56133],[135.8724,34.55328],[135.86188,34.54836],[135.8517,34.55029],[135.84405,34.54895],[135.83804,34.55247],[135.83169,34.55242],[135.83167,34.54855],[135.82615,34.54855],[135.82548,34.54577],[135.81889,34.54446],[135.81846,34.535],[135.82138,34.5261],[135.81877,34.52296],[135.81883,34.51123],[135.82626,34.51127],[135.82651,34.5041],[135.83075,34.50254],[135.82669,34.49761],[135.831,34.48877],[135.82655,34.48631],[135.82753,34.4812],[135.84038,34.47133],[135.85619,34.46098],[135.85727,34.45821],[135.86554,34.45814],[135.86186,34.4529],[135.86724,34.44328],[135.87278,34.44398],[135.87941,34.45127],[135.88741,34.45341],[135.89292,34.46267],[135.8902,34.47312],[135.88687,34.4767],[135.89137,34.48037],[135.89474,34.48646],[135.89868,34.48778],[135.90399,34.49513],[135.90413,34.49873],[135.91263,34.50818],[135.90835,34.51051],[135.91201,34.5186],[135.92175,34.52144],[135.92929,34.52527],[135.92898,34.53053],[135.93528,34.53088],[135.93606,34.53439],[135.94281,34.54047],[135.94022,34.55041],[135.94665,34.55442],[135.94612,34.5603],[135.94292,34.56327],[135.9444,34.56688],[135.92793,34.58938],[135.92487,34.59033]]]},"properties":{"pref":"奈良県","city":"桜井市","code5":"29206","code6":"292061"}},
{"type":"Feature","geometry":{"type":"Polygon","coordinates":[[[135.65113,34.38321],[135.65584,34.36622],[135.66353,34.35544],[135.66216,34.35088],[135.6615,34.338],[135.659,34.334],[135.66033,34.32693],[135.66813,34.32575],[135.66909,34.31537],[135.66639,34.30869],[135.66925,34.29695],[135.67216,34.29569],[135.67516,34.2881],[135.67276,34.28148],[135.68118,34.27166],[135.68939,34.27172],[135.69247,34.27827],[135.70085,34.2754],[135.70385,34.27156],[135.71845,34.26332],[135.72015,34.2499],[135.72345,34.24008],[135.73002,34.2316],[135.72748,34.22073],[135.72333,34.21979],[135.71765,34.2149],[135.71364,34.21446],[135.70962,34.20879],[135.71439,34.20621],[135.70752,34.19974],[135.70351,34.20053],[135.69791,34.19596],[135.69804,34.19081],[135.69011,34.18475],[135.69801,34.17883],[135.6989,34.17469],[135.70732,34.17421],[135.7104,34.16603],[135.72795,34.16077],[135.73017,34.15558],[135.72606,34.14832],[135.72951,34.13883],[135.72299,34.13791],[135.71705,34.13281],[135.70779,34.12966],[135.70358,34.12231],[135.70019,34.12024],[135.69968,34.11208],[135.6949,34.10915],[135.69568,34.10417],[135.68788,34.09999],[135.68352,34.09513],[135.67694,34.09498],[135.66786,34.09017],[135.665,34.08435],[135.67684,34.08286],[135.68431,34.08497],[135.68888,34.08333],[135.69756,34.0874],[135.70251,34.08598],[135.71163,34.08962],[135.7137,34.09925],[135.72442,34.11022],[135.7237,34.11578],[135.72989,34.12026],[135.73816,34.13076],[135.74214,34.13235],[135.74538,34.13889],[135.74452,34.14469],[135.75194,34.1466],[135.75096,34.15197],[135.75668,34.15329],[135.77114,34.15047],[135.78098,34.14278],[135.78882,34.13411],[135.79905,34.13566],[135.80744,34.13861],[135.81197,34.13809],[135.82364,34.14011],[135.82929,34.14273],[135.83935,34.14007],[135.84241,34.14163],[135.84763,34.13892],[135.85548,34.14518],[135.8636,34.14919],[135.87611,34.15119],[135.88271,34.15056],[135.89426,34.14415],[135.90059,34.14592],[135.90507,34.14422],[135.91077,34.1556],[135.90502,34.16412],[135.90351,34.1701],[135.89623,34.17467],[135.88898,34.18488],[135.88503,34.18536],[135.87359,34.1787],[135.86226,34.17603],[135.85839,34.17638],[135.85644,34.18333],[135.86128,34.19043],[135.8557,34.1939],[135.85128,34.18967],[135.84367,34.19066],[135.8375,34.18635],[135.82761,34.18489],[135.82588,34.18137],[135.81447,34.18486],[135.80499,34.18184],[135.80361,34.17875],[135.79571,34.17565],[135.79301,34.17929],[135.78556,34.18341],[135.76557,34.18506],[135.75895,34.19205],[135.75342,34.1913],[135.74606,34.19543],[135.74692,34.19991],[135.74411,34.20548],[135.74584,34.21059],[135.75106,34.21781],[135.75198,34.22212],[135.74845,34.23222],[135.75568,34.23417],[135.77346,34.24131],[135.77893,34.24124],[135.78618,34.23861],[135.79188,34.23184],[135.79588,34.23401],[135.80326,34.23429],[135.80903,34.24004],[135.8165,34.24039],[135.81973,34.24391],[135.8187,34.25],[135.8277,34.2538],[135.83066,34.25736],[135.84505,34.26521],[135.84322,34.2699],[135.83619,34.2745],[135.82637,34.27426],[135.82221,34.27977],[135.80689,34.28514],[135.80053,34.28304],[135.79298,34.28328],[135.78179,34.28608],[135.77399,34.28992],[135.77557,34.29338],[135.77599,34.30242],[135.77975,34.30769],[135.77535,34.31435],[135.77994,34.31571],[135.77983,34.32501],[135.77015,34.32639],[135.76895,34.33445],[135.77184,34.34502],[135.77201,34.35309],[135.76787,34.36061],[135.77312,34.36709],[135.77068,34.37225],[135.77388,34.3746],[135.77184,34.37993],[135.75923,34.37711],[135.75559,34.38223],[135.7568,34.38532],[135.74781,34.38936],[135.74278,34.38932],[135.74055,34.38691],[135.73082,34.38626],[135.7219,34.39016],[135.71547,34.39095],[135.71687,34.3953],[135.70986,34.39922],[135.6968,34.39841],[135.69259,34.40162],[135.68624,34.40289],[135.68,34.40832],[135.67604,34.40558],[135.67555,34.39946],[135.66338,34.39654],[135.65471,34.38383],[135.65113,34.38321]]]},"properties":{"pref":"奈良県","city":"五條市","code5":"29207","code6":"292079"}},
{"type":"Feature","geometry":{"type":"Polygon","coordinates":[[[135.68,34.40832],[135.68624,34.40289],[135.69259,34.40162],[135.6968,34.39841],[135.70986,34.39922],[135.71687,34.3953],[135.71547,34.39095],[135.7219,34.39016],[135.73082,34.38626],[135.74055,34.38691],[135.74278,34.38932],[135.74442,34.39311],[135.7414,34.3961],[135.73952,34.40256],[135.7431,34.4083],[135.7485,34.40643],[135.76187,34.41943],[135.76542,34.42034],[135.76067,34.42437],[135.75928,34.42924],[135.76217,34.43752],[135.76554,34.44178],[135.77074,34.44158],[135.76944,34.44956],[135.76353,34.45496],[135.7636,34.46537],[135.76049,34.46314],[135.75409,34.46788],[135.75387,34.47671],[135.75068,34.48167],[135.74961,34.47355],[135.74224,34.47451],[135.74107,34.47064],[135.73159,34.47357],[135.72695,34.47356],[135.72392,34.46867],[135.71741,34.46738],[135.71475,34.47016],[135.70241,34.46537],[135.68984,34.46608],[135.68217,34.46487],[135.68241,34.45605],[135.68698,34.45146],[135.68173,34.44335],[135.68152,34.43791],[135.67861,34.43236],[135.66533,34.42424],[135.66942,34.41368],[135.67556,34.41374],[135.68,34.40832]]]},"properties":{"pref":"奈良県","city":"御所市","code5":"29208","code6":"292087"}},
{"type":"Feature","geometry":{"type":"Polygon","coordinates":[[[135.72863,34.778],[135.72023,34.77462],[135.71197,34.78133],[135.70662,34.77234],[135.70857,34.76876],[135.71019,34.75591],[135.7068,34.74865],[135.70226,34.75072],[135.69783,34.74947],[135.69683,34.74388],[135.70274,34.7251],[135.70169,34.72168],[135.68941,34.71374],[135.68308,34.71129],[135.67308,34.70177],[135.67314,34.70008],[135.6731,34.69015],[135.67838,34.68317],[135.6787,34.67776],[135.67105,34.66692],[135.6711,34.66156],[135.67626,34.66219],[135.68592,34.66023],[135.68888,34.65487],[135.69658,34.65081],[135.70695,34.64784],[135.7189,34.64825],[135.72015,34.64649],[135.72158,34.64673],[135.72606,34.64849],[135.72957,34.6586],[135.72712,34.66515],[135.72685,34.67255],[135.72385,34.67373],[135.71715,34.69008],[135.71568,34.6975],[135.71935,34.70648],[135.72912,34.70986],[135.73595,34.7209],[135.74203,34.72556],[135.75372,34.72561],[135.75551,34.72753],[135.75706,34.73592],[135.74758,34.74324],[135.74636,34.74683],[135.73923,34.74827],[135.73671,34.75181],[135.73335,34.75478],[135.73012,34.76777],[135.72863,34.778]]]},"properties":{"pref":"奈良県","city":"生駒市","code5":"29209","code6":"292095"}},
{"type":"Feature","geometry":{"type":"Polygon","coordinates":[[[135.65319,34.54699],[135.65365,34.5414],[135.66014,34.54107],[135.66283,34.52963],[135.6675,34.53086],[135.66608,34.53507],[135.67729,34.53895],[135.67858,34.5335],[135.69559,34.53556],[135.69701,34.52498],[135.70619,34.5252],[135.70659,34.51923],[135.71447,34.51929],[135.71667,34.52662],[135.72025,34.53066],[135.72854,34.5312],[135.72957,34.53708],[135.72587,34.53937],[135.72795,34.54413],[135.72053,34.54684],[135.71988,34.55158],[135.71582,34.55177],[135.71165,34.54831],[135.70619,34.54825],[135.70533,34.56506],[135.70676,34.56959],[135.70489,34.57377],[135.69391,34.57198],[135.68985,34.57501],[135.68088,34.57498],[135.67308,34.57073],[135.66452,34.56762],[135.65778,34.56132],[135.65577,34.5492],[135.65319,34.54699]]]},"properties":{"pref":"奈良県","city":"香芝市","code5":"29210","code6":"292109"}},
{"type":"Feature","geometry":{"type":"Polygon","coordinates":[[[135.67532,34.50573],[135.67301,34.5029],[135.6783,34.4995],[135.67898,34.49306],[135.6848,34.48359],[135.68121,34.48023],[135.68335,34.47612],[135.68217,34.46525],[135.68217,34.46487],[135.68984,34.46608],[135.70241,34.46537],[135.71475,34.47016],[135.71741,34.46738],[135.72392,34.46867],[135.72695,34.47356],[135.73159,34.47357],[135.74107,34.47064],[135.74224,34.47451],[135.74961,34.47355],[135.75068,34.48167],[135.74196,34.48165],[135.74587,34.48708],[135.74679,34.49167],[135.73509,34.49157],[135.73477,34.49893],[135.7308,34.49823],[135.7302,34.51032],[135.7186,34.51025],[135.71827,34.51529],[135.71447,34.51929],[135.70659,34.51923],[135.70619,34.5252],[135.69701,34.52498],[135.69559,34.53556],[135.67858,34.5335],[135.67729,34.53895],[135.66608,34.53507],[135.6675,34.53086],[135.67693,34.52553],[135.6775,34.50964],[135.67532,34.50573]]]},"properties":{"pref":"奈良県","city":"葛城市","code5":"29211","code6":"292117"}},
{"type":"Feature","geometry":{"type":"Polygon","coordinates":[[[136.06247,34.61996],[136.0574,34.6217],[136.05074,34.62105],[136.03714,34.6269],[136.02525,34.63524],[136.02085,34.63554],[136.01363,34.62881],[136.00507,34.62568],[135.99273,34.62817],[135.99959,34.61857],[135.98943,34.61053],[135.98393,34.60771],[135.97894,34.60239],[135.97998,34.59549],[135.97273,34.59305],[135.96974,34.58884],[135.97187,34.58466],[135.97664,34.58472],[135.97805,34.58064],[135.97345,34.57867],[135.97659,34.56533],[135.97205,34.55851],[135.9667,34.55984],[135.96202,34.55814],[135.94612,34.5603],[135.94665,34.55442],[135.94022,34.55041],[135.94281,34.54047],[135.93606,34.53439],[135.93528,34.53088],[135.92898,34.53053],[135.92929,34.52527],[135.92175,34.52144],[135.91201,34.5186],[135.90835,34.51051],[135.91263,34.50818],[135.90413,34.49873],[135.90399,34.49513],[135.89868,34.48778],[135.89474,34.48646],[135.89137,34.48037],[135.88687,34.4767],[135.8902,34.47312],[135.89292,34.46267],[135.88741,34.45341],[135.89726,34.44288],[135.90231,34.44386],[135.90663,34.44788],[135.91911,34.4449],[135.92944,34.43535],[135.93352,34.43025],[135.93947,34.4274],[135.945,34.42713],[135.94596,34.43422],[135.9493,34.4356],[135.955,34.43072],[135.95966,34.43623],[135.96833,34.43768],[135.97551,34.43659],[135.98462,34.44115],[135.99676,34.44391],[136.00714,34.44357],[136.01295,34.45353],[136.02505,34.45498],[136.03705,34.46178],[136.04202,34.46305],[136.04997,34.47018],[136.0385,34.47788],[136.05085,34.47769],[136.05387,34.47901],[136.07269,34.47713],[136.06823,34.48593],[136.07095,34.49189],[136.08003,34.49368],[136.08523,34.5037],[136.08602,34.50944],[136.09321,34.51667],[136.08851,34.52105],[136.08985,34.52605],[136.10221,34.52853],[136.10237,34.53642],[136.09775,34.54045],[136.09992,34.54511],[136.10608,34.55181],[136.107,34.55631],[136.09903,34.55586],[136.08336,34.55933],[136.08233,34.56217],[136.07136,34.56773],[136.06578,34.567],[136.06031,34.56942],[136.0608,34.57496],[136.04977,34.58027],[136.04652,34.58522],[136.05065,34.58691],[136.05214,34.59306],[136.04657,34.60056],[136.05032,34.60602],[136.05583,34.61016],[136.06247,34.61996]]]},"properties":{"pref":"奈良県","city":"宇陀市","code5":"29212","code6":"292125"}},
{"type":"Feature","geometry":{"type":"Polygon","coordinates":[[[136.08574,34.67643],[136.08211,34.67901],[136.07886,34.68991],[136.07508,34.6977],[136.05994,34.69975],[136.05486,34.70292],[136.05188,34.69992],[136.0452,34.69775],[136.04259,34.70298],[136.03461,34.7007],[136.03507,34.69395],[136.02735,34.69681],[136.02132,34.69504],[136.01775,34.68544],[136.00914,34.68343],[135.99632,34.68688],[135.9897,34.68654],[135.98631,34.69915],[135.98258,34.69778],[135.97954,34.69109],[135.96828,34.68544],[135.96049,34.68654],[135.95285,34.68079],[135.95434,34.67362],[135.96001,34.6706],[135.9607,34.65736],[135.95924,34.65335],[135.97874,34.65587],[135.98356,34.65968],[135.98095,34.66481],[135.98828,34.66881],[135.99361,34.66738],[135.98888,34.65617],[135.99303,34.65328],[136.00006,34.64112],[135.99924,34.63792],[135.99368,34.63542],[135.99273,34.62817],[136.00507,34.62568],[136.01363,34.62881],[136.02085,34.63554],[136.02525,34.63524],[136.03714,34.6269],[136.05074,34.62105],[136.0574,34.6217],[136.06247,34.61996],[136.06886,34.6223],[136.06942,34.62856],[136.07358,34.63409],[136.07122,34.64054],[136.06794,34.64388],[136.06485,34.65156],[136.05822,34.65281],[136.05047,34.6523],[136.04096,34.65919],[136.04399,34.66023],[136.06451,34.65196],[136.07058,34.65775],[136.07778,34.65876],[136.07784,34.66257],[136.08197,34.66517],[136.08222,34.66993],[136.08574,34.67643]]]},"properties":{"pref":"奈良県","county":"山辺郡","city":"山添村","code5":"29322","code6":"293229"}},
{"type":"Feature","geometry":{"type":"Polygon","coordinates":[[[135.65877,34.61473],[135.66551,34.61257],[135.66896,34.60833],[135.67367,34.60842],[135.67693,34.61267],[135.68427,34.61438],[135.68866,34.61256],[135.69764,34.61593],[135.70301,34.61113],[135.7099,34.60973],[135.71875,34.62064],[135.71882,34.62977],[135.71618,34.63996],[135.72015,34.64649],[135.7189,34.64825],[135.70695,34.64784],[135.69658,34.65081],[135.68888,34.65487],[135.68592,34.66023],[135.67626,34.66219],[135.6711,34.66156],[135.66426,34.64998],[135.66429,34.64328],[135.66265,34.64026],[135.6632,34.62952],[135.65889,34.62313],[135.65877,34.61473]]]},"properties":{"pref":"奈良県","county":"生駒郡","city":"平群町","code5":"29342","code6":"293423"}},
{"type":"Feature","geometry":{"type":"Polygon","coordinates":[[[135.65179,34.60681],[135.65229,34.60395],[135.66117,34.60191],[135.66954,34.60296],[135.67491,34.60172],[135.68176,34.58478],[135.69629,34.59251],[135.69586,34.59878],[135.69943,34.60098],[135.7093,34.59896],[135.71159,34.60148],[135.7099,34.60973],[135.70301,34.61113],[135.69764,34.61593],[135.68866,34.61256],[135.68427,34.61438],[135.67693,34.61267],[135.67367,34.60842],[135.66896,34.60833],[135.66551,34.61257],[135.65877,34.61473],[135.6568,34.61174],[135.65099,34.60995],[135.65179,34.60681]]]},"properties":{"pref":"奈良県","county":"生駒郡","city":"三郷町","code5":"29343","code6":"293431"}},
{"type":"Feature","geometry":{"type":"Polygon","coordinates":[[[135.72158,34.64673],[135.72015,34.64649],[135.71618,34.63996],[135.71882,34.62977],[135.71875,34.62064],[135.7099,34.60973],[135.71159,34.60148],[135.7093,34.59896],[135.71571,34.59488],[135.72089,34.59582],[135.72686,34.59067],[135.74154,34.59318],[135.74131,34.60094],[135.75166,34.6074],[135.75644,34.61434],[135.75694,34.61873],[135.75187,34.61581],[135.74914,34.62397],[135.74288,34.62793],[135.73783,34.62873],[135.73386,34.63253],[135.72936,34.63175],[135.72607,34.63532],[135.73009,34.63994],[135.72707,34.64449],[135.72158,34.64673]]]},"properties":{"pref":"奈良県","county":"生駒郡","city":"斑鳩町","code5":"29344","code6":"293440"}},
{"type":"Feature","geometry":{"type":"Polygon","coordinates":[[[135.75694,34.61873],[135.75644,34.61434],[135.75166,34.6074],[135.74131,34.60094],[135.74154,34.59318],[135.75163,34.59196],[135.76072,34.59164],[135.76334,34.59593],[135.76751,34.59713],[135.7675,34.60138],[135.76135,34.61019],[135.76136,34.61851],[135.75694,34.61873]]]},"properties":{"pref":"奈良県","county":"生駒郡","city":"安堵町","code5":"29345","code6":"293458"}},
{"type":"Feature","geometry":{"type":"Polygon","coordinates":[[[135.76751,34.59713],[135.76334,34.59593],[135.76072,34.59164],[135.75163,34.59196],[135.7509,34.58055],[135.75317,34.58058],[135.7618,34.5792],[135.78658,34.58004],[135.79438,34.58692],[135.7864,34.59585],[135.78226,34.59756],[135.77463,34.59553],[135.76751,34.59713]]]},"properties":{"pref":"奈良県","county":"磯城郡","city":"川西町","code5":"29361","code6":"293610"}},
{"type":"Feature","geometry":{"type":"Polygon","coordinates":[[[135.78658,34.58004],[135.7618,34.5792],[135.75317,34.58058],[135.75255,34.57832],[135.76265,34.57272],[135.76424,34.56727],[135.76337,34.56151],[135.76516,34.5639],[135.77376,34.56524],[135.77146,34.56991],[135.78163,34.56997],[135.78318,34.5672],[135.79358,34.567],[135.7903,34.57786],[135.78658,34.58004]]]},"properties":{"pref":"奈良県","county":"磯城郡","city":"三宅町","code5":"29362","code6":"293628"}},
{"type":"Feature","geometry":{"type":"Polygon","coordinates":[[[135.7903,34.57786],[135.79358,34.567],[135.78318,34.5672],[135.78163,34.56997],[135.77146,34.56991],[135.77376,34.56524],[135.76516,34.5639],[135.76337,34.56151],[135.76248,34.55277],[135.76986,34.53532],[135.78285,34.53539],[135.78323,34.52995],[135.79571,34.53082],[135.79558,34.53685],[135.80417,34.53756],[135.80792,34.53466],[135.81846,34.535],[135.81889,34.54446],[135.82548,34.54577],[135.82615,34.54855],[135.82121,34.55454],[135.82084,34.5606],[135.8141,34.56056],[135.81152,34.56416],[135.81249,34.5739],[135.8094,34.57408],[135.8051,34.58405],[135.7903,34.57786]]]},"properties":{"pref":"奈良県","county":"磯城郡","city":"田原本町","code5":"29363","code6":"293636"}},
{"type":"Feature","geometry":{"type":"Polygon","coordinates":[[[136.16169,34.5483],[136.15759,34.55269],[136.1555,34.55973],[136.14661,34.55579],[136.1396,34.55926],[136.11863,34.54649],[136.11363,34.54645],[136.11125,34.55523],[136.107,34.55631],[136.10608,34.55181],[136.09992,34.54511],[136.09775,34.54045],[136.10237,34.53642],[136.10221,34.52853],[136.08985,34.52605],[136.08851,34.52105],[136.09321,34.51667],[136.08602,34.50944],[136.08523,34.5037],[136.08003,34.49368],[136.07095,34.49189],[136.06823,34.48593],[136.07269,34.47713],[136.08196,34.47331],[136.09018,34.47607],[136.09869,34.47627],[136.10372,34.48137],[136.10735,34.48969],[136.11699,34.49354],[136.13522,34.49371],[136.13905,34.49566],[136.14744,34.49653],[136.15173,34.49967],[136.15146,34.50437],[136.15756,34.50741],[136.15752,34.51351],[136.16371,34.51578],[136.1674,34.52017],[136.17177,34.53482],[136.16972,34.53888],[136.15977,34.54671],[136.16169,34.5483]]]},"properties":{"pref":"奈良県","county":"宇陀郡","city":"曽爾村","code5":"29385","code6":"293857"}},
{"type":"Feature","geometry":{"type":"Polygon","coordinates":[[[136.1674,34.52017],[136.16371,34.51578],[136.15752,34.51351],[136.15756,34.50741],[136.15146,34.50437],[136.15173,34.49967],[136.14744,34.49653],[136.13905,34.49566],[136.13522,34.49371],[136.11699,34.49354],[136.10735,34.48969],[136.10372,34.48137],[136.09869,34.47627],[136.09018,34.47607],[136.08196,34.47331],[136.08244,34.46628],[136.08559,34.46166],[136.08796,34.45155],[136.09491,34.4415],[136.0959,34.43522],[136.11126,34.4357],[136.11802,34.44271],[136.13132,34.4451],[136.14422,34.44109],[136.15144,34.44185],[136.15824,34.44901],[136.17848,34.44552],[136.18852,34.4506],[136.20625,34.44868],[136.2086,34.4555],[136.20745,34.46055],[136.20932,34.46706],[136.21473,34.47272],[136.21556,34.48115],[136.2192,34.48523],[136.22852,34.48907],[136.22904,34.49472],[136.21826,34.49702],[136.21467,34.50131],[136.21579,34.50781],[136.21948,34.51053],[136.21978,34.51589],[136.21598,34.52329],[136.21663,34.52798],[136.20994,34.52903],[136.19361,34.52348],[136.18978,34.52396],[136.18212,34.51675],[136.17182,34.51815],[136.1674,34.52017]]]},"properties":{"pref":"奈良県","county":"宇陀郡","city":"御杖村","code5":"29386","code6":"293865"}},
{"type":"Feature","geometry":{"type":"Polygon","coordinates":[[[135.7636,34.46537],[135.76353,34.45496],[135.76944,34.44956],[135.77074,34.44158],[135.76554,34.44178],[135.76217,34.43752],[135.75928,34.42924],[135.76067,34.42437],[135.76542,34.42034],[135.77058,34.42128],[135.77294,34.41778],[135.78189,34.41781],[135.78782,34.42125],[135.79512,34.41862],[135.80194,34.42153],[135.81249,34.42233],[135.81222,34.41615],[135.81779,34.41264],[135.8254,34.41866],[135.82521,34.42267],[135.83045,34.42661],[135.84228,34.42465],[135.84676,34.42896],[135.82636,34.44491],[135.82063,34.44622],[135.8133,34.442],[135.80374,34.44448],[135.80335,34.45135],[135.79552,34.45974],[135.78879,34.45893],[135.78056,34.46255],[135.78844,34.46726],[135.77453,34.47117],[135.77054,34.46718],[135.7636,34.46537]]]},"properties":{"pref":"奈良県","county":"高市郡","city":"高取町","code5":"29401","code6":"294012"}},
{"type":"Feature","geometry":{"type":"Polygon","coordinates":[[[135.78844,34.46726],[135.78056,34.46255],[135.78879,34.45893],[135.79552,34.45974],[135.80335,34.45135],[135.80374,34.44448],[135.8133,34.442],[135.82063,34.44622],[135.82636,34.44491],[135.84676,34.42896],[135.85416,34.43417],[135.8609,34.44236],[135.86724,34.44328],[135.86186,34.4529],[135.86554,34.45814],[135.85727,34.45821],[135.85619,34.46098],[135.84038,34.47133],[135.82753,34.4812],[135.82655,34.48631],[135.82507,34.4894],[135.81051,34.48973],[135.81246,34.4855],[135.80748,34.48239],[135.80825,34.47077],[135.78844,34.46726]]]},"properties":{"pref":"奈良県","county":"高市郡","city":"明日香村","code5":"29402","code6":"294021"}},
{"type":"Feature","geometry":{"type":"Polygon","coordinates":[[[135.71988,34.55158],[135.72594,34.55544],[135.72631,34.56117],[135.72914,34.56595],[135.72518,34.57009],[135.72704,34.57688],[135.72232,34.57765],[135.71717,34.58209],[135.7121,34.58244],[135.7056,34.57701],[135.70489,34.57377],[135.70676,34.56959],[135.70533,34.56506],[135.70619,34.54825],[135.71165,34.54831],[135.71582,34.55177],[135.71988,34.55158]]]},"properties":{"pref":"奈良県","county":"北葛城郡","city":"上牧町","code5":"29424","code6":"294241"}},
{"type":"Feature","geometry":{"type":"Polygon","coordinates":[[[135.67308,34.57073],[135.68088,34.57498],[135.68985,34.57501],[135.69391,34.57198],[135.70489,34.57377],[135.7056,34.57701],[135.7121,34.58244],[135.70946,34.58863],[135.71571,34.59488],[135.7093,34.59896],[135.69943,34.60098],[135.69586,34.59878],[135.69629,34.59251],[135.68176,34.58478],[135.6706,34.5762],[135.67308,34.57073]]]},"properties":{"pref":"奈良県","county":"北葛城郡","city":"王寺町","code5":"29425","code6":"294250"}},
{"type":"Feature","geometry":{"type":"Polygon","coordinates":[[[135.76447,34.52949],[135.76986,34.53532],[135.76248,34.55277],[135.76337,34.56151],[135.76424,34.56727],[135.76265,34.57272],[135.75255,34.57832],[135.74319,34.57845],[135.73843,34.57649],[135.73616,34.56838],[135.74094,34.56331],[135.73828,34.55812],[135.72893,34.55733],[135.72594,34.55544],[135.71988,34.55158],[135.72053,34.54684],[135.72795,34.54413],[135.72587,34.53937],[135.72957,34.53708],[135.72854,34.5312],[135.73037,34.52856],[135.75017,34.53044],[135.75972,34.5323],[135.76447,34.52949]]]},"properties":{"pref":"奈良県","county":"北葛城郡","city":"広陵町","code5":"29426","code6":"294268"}},
{"type":"Feature","geometry":{"type":"Polygon","coordinates":[[[135.71571,34.59488],[135.70946,34.58863],[135.7121,34.58244],[135.71717,34.58209],[135.72232,34.57765],[135.72704,34.57688],[135.72518,34.57009],[135.72914,34.56595],[135.72631,34.56117],[135.72594,34.55544],[135.72893,34.55733],[135.73828,34.55812],[135.74094,34.56331],[135.73616,34.56838],[135.73843,34.57649],[135.74319,34.57845],[135.75255,34.57832],[135.75317,34.58058],[135.7509,34.58055],[135.75163,34.59196],[135.74154,34.59318],[135.72686,34.59067],[135.72089,34.59582],[135.71571,34.59488]]]},"properties":{"pref":"奈良県","county":"北葛城郡","city":"河合町","code5":"29427","code6":"294276"}},
{"type":"Feature","geometry":{"type":"Polygon","coordinates":[[[135.86724,34.44328],[135.8609,34.44236],[135.85416,34.43417],[135.84676,34.42896],[135.85209,34.42377],[135.85086,34.42144],[135.85839,34.41546],[135.85799,34.40584],[135.85299,34.39898],[135.84525,34.40055],[135.84333,34.3932],[135.81801,34.38735],[135.82153,34.37329],[135.83044,34.36698],[135.8354,34.36612],[135.84325,34.35948],[135.8489,34.35759],[135.865,34.35455],[135.8696,34.35171],[135.86795,34.34579],[135.86932,34.34308],[135.87553,34.34193],[135.87817,34.33282],[135.88382,34.33809],[135.8884,34.33981],[135.89527,34.34662],[135.89608,34.34954],[135.90986,34.35788],[135.91225,34.36329],[135.92321,34.36855],[135.92135,34.37579],[135.93274,34.36931],[135.93671,34.37492],[135.94071,34.38035],[135.94187,34.3861],[135.93748,34.38915],[135.93879,34.39686],[135.95458,34.40529],[135.9589,34.40518],[135.95744,34.41319],[135.96178,34.41821],[135.96828,34.41966],[135.97945,34.42882],[135.97551,34.43659],[135.96833,34.43768],[135.95966,34.43623],[135.955,34.43072],[135.9493,34.4356],[135.94596,34.43422],[135.945,34.42713],[135.93947,34.4274],[135.93352,34.43025],[135.92944,34.43535],[135.91911,34.4449],[135.90663,34.44788],[135.90231,34.44386],[135.89726,34.44288],[135.88741,34.45341],[135.87941,34.45127],[135.87278,34.44398],[135.86724,34.44328]]]},"properties":{"pref":"奈良県","county":"吉野郡","city":"吉野町","code5":"29441","code6":"294411"}},
{"type":"Feature","geometry":{"type":"Polygon","coordinates":[[[135.77184,34.37993],[135.7793,34.38336],[135.78691,34.37936],[135.7985,34.38553],[135.81122,34.38543],[135.81801,34.38735],[135.84333,34.3932],[135.84525,34.40055],[135.85299,34.39898],[135.85799,34.40584],[135.85839,34.41546],[135.85086,34.42144],[135.85209,34.42377],[135.84676,34.42896],[135.84228,34.42465],[135.83045,34.42661],[135.82521,34.42267],[135.8254,34.41866],[135.81779,34.41264],[135.81222,34.41615],[135.81249,34.42233],[135.80194,34.42153],[135.79512,34.41862],[135.78782,34.42125],[135.78189,34.41781],[135.77294,34.41778],[135.77058,34.42128],[135.76542,34.42034],[135.76187,34.41943],[135.7485,34.40643],[135.7431,34.4083],[135.73952,34.40256],[135.7414,34.3961],[135.74442,34.39311],[135.74278,34.38932],[135.74781,34.38936],[135.7568,34.38532],[135.75559,34.38223],[135.75923,34.37711],[135.77184,34.37993]]]},"properties":{"pref":"奈良県","county":"吉野郡","city":"大淀町","code5":"29442","code6":"294420"}},
{"type":"Feature","geometry":{"type":"Polygon","coordinates":[[[135.82221,34.27977],[135.82277,34.28865],[135.82036,34.29184],[135.8213,34.30132],[135.82379,34.30443],[135.81711,34.30848],[135.81499,34.31193],[135.82036,34.31815],[135.82162,34.32299],[135.82845,34.32523],[135.8314,34.32966],[135.84003,34.33234],[135.85252,34.32998],[135.85835,34.33633],[135.86024,34.34244],[135.86795,34.34579],[135.8696,34.35171],[135.865,34.35455],[135.8489,34.35759],[135.84325,34.35948],[135.8354,34.36612],[135.83044,34.36698],[135.82153,34.37329],[135.81801,34.38735],[135.81122,34.38543],[135.7985,34.38553],[135.78691,34.37936],[135.7793,34.38336],[135.77184,34.37993],[135.77388,34.3746],[135.77068,34.37225],[135.77312,34.36709],[135.76787,34.36061],[135.77201,34.35309],[135.77184,34.34502],[135.76895,34.33445],[135.77015,34.32639],[135.77983,34.32501],[135.77994,34.31571],[135.77535,34.31435],[135.77975,34.30769],[135.77599,34.30242],[135.77557,34.29338],[135.77399,34.28992],[135.78179,34.28608],[135.79298,34.28328],[135.80053,34.28304],[135.80689,34.28514],[135.82221,34.27977]]]},"properties":{"pref":"奈良県","county":"吉野郡","city":"下市町","code5":"29443","code6":"294438"}},
{"type":"Feature","geometry":{"type":"Polygon","coordinates":[[[135.84322,34.2699],[135.84559,34.2736],[135.85079,34.27427],[135.85649,34.28341],[135.87017,34.28388],[135.87407,34.28757],[135.88711,34.28996],[135.89263,34.28861],[135.90178,34.29262],[135.91447,34.28463],[135.91668,34.28997],[135.91292,34.29899],[135.91103,34.3106],[135.91278,34.31421],[135.90981,34.32066],[135.9059,34.32324],[135.90327,34.33081],[135.89243,34.33496],[135.8884,34.33981],[135.88382,34.33809],[135.87817,34.33282],[135.87553,34.34193],[135.86932,34.34308],[135.86795,34.34579],[135.86024,34.34244],[135.85835,34.33633],[135.85252,34.32998],[135.84003,34.33234],[135.8314,34.32966],[135.82845,34.32523],[135.82162,34.32299],[135.82036,34.31815],[135.81499,34.31193],[135.81711,34.30848],[135.82379,34.30443],[135.8213,34.30132],[135.82036,34.29184],[135.82277,34.28865],[135.82221,34.27977],[135.82637,34.27426],[135.83619,34.2745],[135.84322,34.2699]]]},"properties":{"pref":"奈良県","county":"吉野郡","city":"黒滝村","code5":"29444","code6":"294446"}},
{"type":"Feature","geometry":{"type":"Polygon","coordinates":[[[135.90351,34.1701],[135.91453,34.17989],[135.93136,34.17838],[135.94392,34.18184],[135.94297,34.1853],[135.94599,34.18959],[135.94407,34.19656],[135.9453,34.20473],[135.95131,34.2104],[135.95448,34.21832],[135.95579,34.22558],[135.96297,34.22786],[135.96479,34.2314],[135.96297,34.23564],[135.96971,34.2481],[135.97272,34.25748],[135.96536,34.25947],[135.96255,34.27166],[135.9538,34.2774],[135.94275,34.27472],[135.93526,34.27825],[135.92651,34.2785],[135.91447,34.28463],[135.90178,34.29262],[135.89263,34.28861],[135.88711,34.28996],[135.87407,34.28757],[135.87017,34.28388],[135.85649,34.28341],[135.85079,34.27427],[135.84559,34.2736],[135.84322,34.2699],[135.84505,34.26521],[135.83066,34.25736],[135.8277,34.2538],[135.8187,34.25],[135.81973,34.24391],[135.8165,34.24039],[135.80903,34.24004],[135.80326,34.23429],[135.79588,34.23401],[135.79188,34.23184],[135.78618,34.23861],[135.77893,34.24124],[135.77346,34.24131],[135.75568,34.23417],[135.74845,34.23222],[135.75198,34.22212],[135.75106,34.21781],[135.74584,34.21059],[135.74411,34.20548],[135.74692,34.19991],[135.74606,34.19543],[135.75342,34.1913],[135.75895,34.19205],[135.76557,34.18506],[135.78556,34.18341],[135.79301,34.17929],[135.79571,34.17565],[135.80361,34.17875],[135.80499,34.18184],[135.81447,34.18486],[135.82588,34.18137],[135.82761,34.18489],[135.8375,34.18635],[135.84367,34.19066],[135.85128,34.18967],[135.8557,34.1939],[135.86128,34.19043],[135.85644,34.18333],[135.85839,34.17638],[135.86226,34.17603],[135.87359,34.1787],[135.88503,34.18536],[135.88898,34.18488],[135.89623,34.17467],[135.90351,34.1701]]]},"properties":{"pref":"奈良県","county":"吉野郡","city":"天川村","code5":"29446","code6":"294462"}},
{"type":"Feature","geometry":{"type":"Polygon","coordinates":[[[135.70962,34.20879],[135.70175,34.21227],[135.69781,34.21183],[135.69388,34.21707],[135.68791,34.21729],[135.68547,34.2204],[135.67769,34.22344],[135.66782,34.22419],[135.66197,34.21831],[135.65529,34.21628],[135.64808,34.21899],[135.64091,34.21303],[135.64117,34.2095],[135.63448,34.20459],[135.63412,34.19908],[135.64132,34.19149],[135.64511,34.19067],[135.64196,34.18319],[135.63762,34.17927],[135.62857,34.17689],[135.62057,34.16609],[135.62192,34.15842],[135.6168,34.15588],[135.60463,34.15431],[135.59086,34.149],[135.58519,34.14066],[135.58462,34.13224],[135.58208,34.12825],[135.57879,34.11637],[135.56584,34.11284],[135.5573,34.10805],[135.55841,34.10339],[135.54625,34.09801],[135.54873,34.09681],[135.54979,34.08498],[135.54313,34.0818],[135.5397,34.07538],[135.54822,34.06814],[135.55132,34.06842],[135.56889,34.07529],[135.57447,34.07849],[135.58952,34.0778],[135.59329,34.07894],[135.61,34.07167],[135.61138,34.06964],[135.62336,34.06531],[135.63626,34.06914],[135.64119,34.07585],[135.65186,34.07746],[135.65976,34.08024],[135.665,34.08435],[135.66786,34.09017],[135.67694,34.09498],[135.68352,34.09513],[135.68788,34.09999],[135.69568,34.10417],[135.6949,34.10915],[135.69968,34.11208],[135.70019,34.12024],[135.70358,34.12231],[135.70779,34.12966],[135.71705,34.13281],[135.72299,34.13791],[135.72951,34.13883],[135.72606,34.14832],[135.73017,34.15558],[135.72795,34.16077],[135.7104,34.16603],[135.70732,34.17421],[135.6989,34.17469],[135.69801,34.17883],[135.69011,34.18475],[135.69804,34.19081],[135.69791,34.19596],[135.70351,34.20053],[135.70752,34.19974],[135.71439,34.20621],[135.70962,34.20879]]]},"properties":{"pref":"奈良県","county":"吉野郡","city":"野迫川村","code5":"29447","code6":"294471"}},
{"type":"Feature","geometry":{"type":"Polygon","coordinates":[[[135.87483,33.8616],[135.87288,33.8679],[135.87482,33.87288],[135.88269,33.87887],[135.87832,33.88411],[135.87465,33.88393],[135.87162,33.88865],[135.86481,33.88911],[135.86147,33.88715],[135.8584,33.8971],[135.85872,33.90119],[135.86894,33.91446],[135.86747,33.92055],[135.88189,33.91467],[135.88076,33.90937],[135.88217,33.90783],[135.89395,33.90615],[135.89787,33.91261],[135.8937,33.92001],[135.89815,33.9216],[135.90908,33.91847],[135.90973,33.9227],[135.89843,33.92669],[135.89809,33.93378],[135.89307,33.93918],[135.89385,33.95007],[135.89818,33.95374],[135.90229,33.95391],[135.90706,33.95949],[135.90667,33.96308],[135.91198,33.96409],[135.91599,33.96786],[135.91567,33.97259],[135.90791,33.97612],[135.89853,33.98282],[135.90278,33.98687],[135.90322,33.99429],[135.90852,33.99897],[135.9051,34.00444],[135.90664,34.0084],[135.90246,34.01525],[135.90168,34.01984],[135.90965,34.02431],[135.91098,34.02972],[135.89672,34.04201],[135.89212,34.05188],[135.89685,34.05813],[135.89081,34.06699],[135.8958,34.07492],[135.90106,34.07816],[135.89815,34.08603],[135.90077,34.09397],[135.90642,34.09902],[135.90203,34.10632],[135.90155,34.11366],[135.91514,34.12385],[135.91527,34.12644],[135.91284,34.13402],[135.90838,34.1364],[135.90507,34.14422],[135.90059,34.14592],[135.89426,34.14415],[135.88271,34.15056],[135.87611,34.15119],[135.8636,34.14919],[135.85548,34.14518],[135.84763,34.13892],[135.84241,34.14163],[135.83935,34.14007],[135.82929,34.14273],[135.82364,34.14011],[135.81197,34.13809],[135.80744,34.13861],[135.79905,34.13566],[135.78882,34.13411],[135.78098,34.14278],[135.77114,34.15047],[135.75668,34.15329],[135.75096,34.15197],[135.75194,34.1466],[135.74452,34.14469],[135.74538,34.13889],[135.74214,34.13235],[135.73816,34.13076],[135.72989,34.12026],[135.7237,34.11578],[135.72442,34.11022],[135.7137,34.09925],[135.71163,34.08962],[135.70251,34.08598],[135.69756,34.0874],[135.68888,34.08333],[135.68431,34.08497],[135.67684,34.08286],[135.665,34.08435],[135.65976,34.08024],[135.65186,34.07746],[135.64119,34.07585],[135.63626,34.06914],[135.62336,34.06531],[135.61138,34.06964],[135.61,34.07167],[135.59329,34.07894],[135.58952,34.0778],[135.57447,34.07849],[135.56889,34.07529],[135.55132,34.06842],[135.55211,34.06566],[135.56353,34.06328],[135.56706,34.05735],[135.57516,34.05884],[135.58061,34.05619],[135.588,34.04677],[135.59461,34.04399],[135.5947,34.03972],[135.59966,34.03202],[135.59483,34.02784],[135.59538,34.02359],[135.59149,34.01937],[135.59573,34.01159],[135.60838,34.01362],[135.61181,34.01028],[135.62176,34.00978],[135.62523,34.00736],[135.62355,34.00214],[135.62903,33.99775],[135.63088,33.99101],[135.63673,33.98987],[135.63924,33.98273],[135.63759,33.97652],[135.64032,33.96742],[135.63863,33.96132],[135.63567,33.95908],[135.63695,33.95055],[135.63102,33.94909],[135.62538,33.95021],[135.6181,33.95461],[135.61539,33.94845],[135.61861,33.94421],[135.61684,33.93688],[135.61141,33.93695],[135.60946,33.93208],[135.61405,33.92514],[135.61077,33.91871],[135.61023,33.91287],[135.59999,33.90826],[135.60111,33.90257],[135.6062,33.89912],[135.61948,33.89943],[135.62287,33.89796],[135.62343,33.89153],[135.62678,33.88474],[135.61796,33.87206],[135.62905,33.8731],[135.63555,33.87695],[135.64799,33.8769],[135.65139,33.88065],[135.65591,33.88157],[135.6572,33.88561],[135.6622,33.88908],[135.6606,33.89757],[135.67096,33.90041],[135.67871,33.89817],[135.68538,33.90372],[135.70459,33.90364],[135.71424,33.9026],[135.72411,33.90329],[135.73023,33.90019],[135.74077,33.89126],[135.74851,33.88779],[135.75181,33.88956],[135.75594,33.88519],[135.76606,33.89079],[135.77316,33.8903],[135.77765,33.88818],[135.79257,33.89462],[135.80182,33.89582],[135.80336,33.90298],[135.8086,33.90647],[135.81632,33.90561],[135.83686,33.8954],[135.84633,33.89674],[135.85216,33.89261],[135.85529,33.88782],[135.85215,33.88202],[135.85309,33.87733],[135.85792,33.87315],[135.86212,33.87655],[135.86219,33.86272],[135.86707,33.8599],[135.87483,33.8616]]]},"properties":{"pref":"奈良県","county":"吉野郡","city":"十津川村","code5":"29449","code6":"294497"}},
{"type":"Feature","geometry":{"type":"Polygon","coordinates":[[[136.05562,34.0352],[136.05115,34.03991],[136.05044,34.04409],[136.04596,34.05017],[136.04092,34.05279],[136.03971,34.05799],[136.02991,34.05523],[136.01583,34.06293],[136.00978,34.06782],[136.01029,34.07305],[136.00518,34.07587],[136.00088,34.07438],[135.9968,34.06946],[135.98237,34.06299],[135.9806,34.06084],[135.97149,34.063],[135.9688,34.0668],[135.97098,34.07072],[135.96873,34.07391],[135.96915,34.08233],[135.96676,34.08725],[135.96925,34.09379],[135.96695,34.10186],[135.95866,34.10591],[135.95365,34.11112],[135.94436,34.11147],[135.93628,34.12207],[135.92345,34.12774],[135.91527,34.12644],[135.91514,34.12385],[135.90155,34.11366],[135.90203,34.10632],[135.90642,34.09902],[135.90077,34.09397],[135.89815,34.08603],[135.90106,34.07816],[135.8958,34.07492],[135.89081,34.06699],[135.89685,34.05813],[135.89212,34.05188],[135.89672,34.04201],[135.91098,34.02972],[135.90965,34.02431],[135.90168,34.01984],[135.90246,34.01525],[135.90664,34.0084],[135.9051,34.00444],[135.90852,33.99897],[135.90322,33.99429],[135.90278,33.98687],[135.89853,33.98282],[135.90791,33.97612],[135.91567,33.97259],[135.92656,33.98145],[135.94054,33.98002],[135.95398,33.98033],[135.96093,33.98453],[135.9746,33.98597],[135.97733,33.98972],[135.98461,33.99164],[135.98484,33.99477],[135.98948,34.00225],[135.99383,34.0051],[136.00078,34.00597],[136.00361,34.00988],[136.00735,34.01975],[136.01496,34.0246],[136.01704,34.03352],[136.02298,34.03652],[136.03173,34.03187],[136.03584,34.03911],[136.039,34.03652],[136.0509,34.03344],[136.05562,34.0352]]]},"properties":{"pref":"奈良県","county":"吉野郡","city":"下北山村","code5":"29450","code6":"294501"}},
{"type":"Feature","geometry":{"type":"Polygon","coordinates":[[[136.10451,34.11416],[136.09968,34.12042],[136.1084,34.12678],[136.10195,34.14133],[136.10622,34.14386],[136.10569,34.15252],[136.11084,34.15472],[136.11469,34.16082],[136.11204,34.16756],[136.1056,34.17162],[136.10881,34.18078],[136.10886,34.18514],[136.0962,34.18781],[136.09268,34.19039],[136.09345,34.1957],[136.08693,34.19892],[136.06942,34.19915],[136.06297,34.20023],[136.05782,34.20706],[136.0476,34.20671],[136.04386,34.2088],[136.03494,34.20816],[136.02835,34.21584],[136.02486,34.2245],[136.02721,34.2277],[136.02499,34.23474],[136.01996,34.23676],[136.01691,34.23417],[136.00357,34.23342],[135.99648,34.22873],[135.98371,34.22794],[135.97254,34.22451],[135.96597,34.22514],[135.96297,34.22786],[135.95579,34.22558],[135.95448,34.21832],[135.95131,34.2104],[135.9453,34.20473],[135.94407,34.19656],[135.94599,34.18959],[135.94297,34.1853],[135.94392,34.18184],[135.93136,34.17838],[135.91453,34.17989],[135.90351,34.1701],[135.90502,34.16412],[135.91077,34.1556],[135.90507,34.14422],[135.90838,34.1364],[135.91284,34.13402],[135.91527,34.12644],[135.92345,34.12774],[135.93628,34.12207],[135.94436,34.11147],[135.95365,34.11112],[135.95866,34.10591],[135.96695,34.10186],[135.96925,34.09379],[135.96676,34.08725],[135.96915,34.08233],[135.96873,34.07391],[135.97098,34.07072],[135.9688,34.0668],[135.97149,34.063],[135.9806,34.06084],[135.98237,34.06299],[135.9968,34.06946],[136.00088,34.07438],[136.00518,34.07587],[136.01029,34.07305],[136.00978,34.06782],[136.01583,34.06293],[136.02991,34.05523],[136.03971,34.05799],[136.04092,34.05279],[136.04596,34.05017],[136.05044,34.04409],[136.05115,34.03991],[136.05562,34.0352],[136.06238,34.03228],[136.07266,34.03386],[136.08212,34.02756],[136.08554,34.02879],[136.09638,34.02246],[136.10106,34.02576],[136.10447,34.02696],[136.09782,34.04482],[136.09223,34.04817],[136.09708,34.05741],[136.09392,34.06661],[136.09659,34.07906],[136.09331,34.08288],[136.0961,34.08635],[136.10338,34.08391],[136.11599,34.08176],[136.11276,34.08666],[136.10236,34.09603],[136.10787,34.10309],[136.1043,34.1059],[136.10451,34.11416]]]},"properties":{"pref":"奈良県","county":"吉野郡","city":"上北山村","code5":"29451","code6":"294519"}},
{"type":"Feature","geometry":{"type":"Polygon","coordinates":[[[136.09081,34.36255],[136.06874,34.36416],[136.06522,34.35979],[136.06853,34.35519],[136.06386,34.34654],[136.05749,34.34637],[136.04627,34.34379],[136.03586,34.3466],[136.03074,34.34583],[136.02704,34.35187],[136.01761,34.35623],[136.00981,34.35318],[136.00033,34.35303],[135.99816,34.3498],[135.98159,34.35445],[135.98111,34.36345],[135.97656,34.36946],[135.97487,34.37684],[135.96953,34.38126],[135.96486,34.37739],[135.95906,34.378],[135.95522,34.37433],[135.9434,34.37635],[135.93671,34.37492],[135.93274,34.36931],[135.92135,34.37579],[135.92321,34.36855],[135.91225,34.36329],[135.90986,34.35788],[135.89608,34.34954],[135.89527,34.34662],[135.8884,34.33981],[135.89243,34.33496],[135.90327,34.33081],[135.9059,34.32324],[135.90981,34.32066],[135.91278,34.31421],[135.91103,34.3106],[135.91292,34.29899],[135.91668,34.28997],[135.91447,34.28463],[135.92651,34.2785],[135.93526,34.27825],[135.94275,34.27472],[135.9538,34.2774],[135.96255,34.27166],[135.96536,34.25947],[135.97272,34.25748],[135.96971,34.2481],[135.96297,34.23564],[135.96479,34.2314],[135.96297,34.22786],[135.96597,34.22514],[135.97254,34.22451],[135.98371,34.22794],[135.99648,34.22873],[136.00357,34.23342],[136.01691,34.23417],[136.01996,34.23676],[136.02499,34.23474],[136.02721,34.2277],[136.02486,34.2245],[136.02835,34.21584],[136.03494,34.20816],[136.04386,34.2088],[136.0476,34.20671],[136.05782,34.20706],[136.06297,34.20023],[136.06942,34.19915],[136.08693,34.19892],[136.09345,34.1957],[136.09758,34.20247],[136.1074,34.20738],[136.10974,34.21124],[136.11547,34.21083],[136.11874,34.21551],[136.1173,34.22311],[136.10965,34.22422],[136.11067,34.22935],[136.11578,34.22962],[136.11744,34.23395],[136.12469,34.24132],[136.13031,34.24287],[136.12939,34.2491],[136.13185,34.2519],[136.12781,34.25665],[136.11806,34.2606],[136.11936,34.26567],[136.11342,34.27876],[136.10546,34.283],[136.09783,34.28882],[136.0949,34.30145],[136.10036,34.30554],[136.11165,34.30501],[136.11494,34.30881],[136.12231,34.31043],[136.12951,34.31617],[136.12222,34.32542],[136.11535,34.32632],[136.10923,34.32911],[136.10236,34.33605],[136.10207,34.34216],[136.09673,34.34954],[136.09863,34.3521],[136.09552,34.35981],[136.09081,34.36255]]]},"properties":{"pref":"奈良県","county":"吉野郡","city":"川上村","code5":"29452","code6":"294527"}},
{"type":"Feature","geometry":{"type":"Polygon","coordinates":[[[136.0959,34.43522],[136.09491,34.4415],[136.08796,34.45155],[136.08559,34.46166],[136.08244,34.46628],[136.08196,34.47331],[136.07269,34.47713],[136.05387,34.47901],[136.05085,34.47769],[136.0385,34.47788],[136.04997,34.47018],[136.04202,34.46305],[136.03705,34.46178],[136.02505,34.45498],[136.01295,34.45353],[136.00714,34.44357],[135.99676,34.44391],[135.98462,34.44115],[135.97551,34.43659],[135.97945,34.42882],[135.96828,34.41966],[135.96178,34.41821],[135.95744,34.41319],[135.9589,34.40518],[135.95458,34.40529],[135.93879,34.39686],[135.93748,34.38915],[135.94187,34.3861],[135.94071,34.38035],[135.93671,34.37492],[135.9434,34.37635],[135.95522,34.37433],[135.95906,34.378],[135.96486,34.37739],[135.96953,34.38126],[135.97487,34.37684],[135.97656,34.36946],[135.98111,34.36345],[135.98159,34.35445],[135.99816,34.3498],[136.00033,34.35303],[136.00981,34.35318],[136.01761,34.35623],[136.02704,34.35187],[136.03074,34.34583],[136.03586,34.3466],[136.04627,34.34379],[136.05749,34.34637],[136.06386,34.34654],[136.06853,34.35519],[136.06522,34.35979],[136.06874,34.36416],[136.09081,34.36255],[136.09194,34.36856],[136.08609,34.37962],[136.07816,34.3864],[136.06931,34.38934],[136.06914,34.39426],[136.07499,34.39837],[136.07654,34.40586],[136.08349,34.40951],[136.09027,34.41604],[136.0911,34.42287],[136.0887,34.42872],[136.0959,34.43522]]]},"properties":{"pref":"奈良県","county":"吉野郡","city":"東吉野村","code5":"29453","code6":"294535"}}
]}