{"type":"FeatureCollection", "features": [
{"type":"Feature","geometry":{"type":"MultiPolygon","coordinates":[[[[135.20804,34.3082],[135.20847,34.30282],[135.20535,34.30053],[135.20436,34.29055],[135.20265,34.28762],[135.19161,34.28646],[135.18958,34.28278],[135.18066,34.27989],[135.17152,34.28059],[135.15741,34.27708],[135.15482,34.28088],[135.14648,34.28365],[135.1394,34.27938],[135.13662,34.27351],[135.13209,34.27235],[135.12597,34.27739],[135.12099,34.27391],[135.1103,34.27379],[135.10736,34.27846],[135.10907,34.28267],[135.0987,34.28904],[135.09978,34.29268],[135.09693,34.2971],[135.10641,34.3058],[135.10273,34.31093],[135.09708,34.30794],[135.09283,34.31201],[135.0875,34.3075],[135.07967,34.30824],[135.07427,34.30537],[135.06999,34.29815],[135.0681,34.29076],[135.07007,34.28553],[135.07429,34.28097],[135.07243,34.2754],[135.07251,34.27535],[135.07225,34.27522],[135.06964,34.27562],[135.06793,34.27505],[135.06779,34.27496],[135.06522,34.27315],[135.0627,34.26237],[135.07234,34.26056],[135.08938,34.26087],[135.09512,34.25845],[135.09584,34.25292],[135.11109,34.24512],[135.11629,34.24641],[135.12308,34.24159],[135.13274,34.22988],[135.12825,34.22733],[135.12319,34.22962],[135.11839,34.23473],[135.10377,34.23707],[135.10039,34.23561],[135.1071,34.22847],[135.12152,34.2249],[135.13953,34.22541],[135.14485,34.21479],[135.13991,34.21207],[135.14352,34.2028],[135.15012,34.20027],[135.14544,34.19578],[135.14128,34.20212],[135.13725,34.20105],[135.14255,34.18675],[135.14747,34.18393],[135.15683,34.1847],[135.16286,34.18795],[135.17008,34.1825],[135.17386,34.18824],[135.17997,34.18691],[135.17774,34.17906],[135.18199,34.17193],[135.18193,34.16665],[135.18443,34.1571],[135.19162,34.15853],[135.19163,34.15854],[135.19192,34.15889],[135.19238,34.16271],[135.20384,34.1673],[135.20333,34.17345],[135.2139,34.17367],[135.21691,34.17529],[135.22691,34.17449],[135.22808,34.17882],[135.24051,34.18205],[135.25343,34.18065],[135.25501,34.17773],[135.26166,34.17788],[135.26745,34.17571],[135.2766,34.1757],[135.28323,34.17855],[135.28495,34.18273],[135.27787,34.187],[135.27848,34.19066],[135.28428,34.19708],[135.28457,34.20296],[135.27996,34.20756],[135.28099,34.21333],[135.27456,34.21683],[135.27451,34.22189],[135.28472,34.22793],[135.29618,34.23101],[135.30713,34.23778],[135.31471,34.2389],[135.3115,34.24731],[135.30764,34.25229],[135.29766,34.25528],[135.28737,34.25374],[135.27278,34.25355],[135.27214,34.25711],[135.27692,34.27118],[135.27607,34.27774],[135.27133,34.29196],[135.27322,34.29687],[135.26962,34.30512],[135.27104,34.31247],[135.26312,34.31315],[135.25424,34.31575],[135.2466,34.31329],[135.23552,34.30364],[135.225,34.30086],[135.22181,34.30385],[135.20804,34.3082]]],[[[135.02076,34.29309],[135.01228,34.28372],[135.00503,34.28474],[134.99935,34.28137],[135.00466,34.27725],[135.01163,34.27652],[135.01675,34.28068],[135.02039,34.28659],[135.02076,34.29309]]],[[[135.05528,34.29919],[135.03564,34.29681],[135.03868,34.29342],[135.04872,34.29287],[135.05673,34.29733],[135.05528,34.29919]]]]},"properties":{"pref":"和歌山県","city":"和歌山市","code5":"30201","code6":"302015"}},
{"type":"Feature","geometry":{"type":"Polygon","coordinates":[[[135.19192,34.15889],[135.19267,34.15697],[135.18665,34.15576],[135.18421,34.14843],[135.19704,34.14871],[135.19338,34.14444],[135.18087,34.14147],[135.16678,34.13433],[135.1581,34.13609],[135.15551,34.13898],[135.13228,34.13828],[135.12607,34.13677],[135.12299,34.12907],[135.12715,34.12798],[135.13125,34.13132],[135.13447,34.12606],[135.13098,34.12213],[135.1335,34.11888],[135.13973,34.11847],[135.14402,34.11591],[135.14473,34.11159],[135.1371,34.10994],[135.13632,34.11279],[135.12287,34.11491],[135.11871,34.11972],[135.11425,34.11913],[135.11203,34.11295],[135.11826,34.11371],[135.13203,34.10689],[135.13847,34.10095],[135.13994,34.09434],[135.14892,34.09542],[135.16655,34.09401],[135.17856,34.10105],[135.18753,34.09806],[135.20502,34.1001],[135.22188,34.11017],[135.22431,34.10757],[135.23128,34.10729],[135.23533,34.11207],[135.23553,34.11779],[135.23917,34.12216],[135.24907,34.12257],[135.26282,34.11562],[135.27366,34.11717],[135.28449,34.1204],[135.28678,34.12435],[135.29207,34.12602],[135.2971,34.13603],[135.30283,34.1501],[135.30148,34.15719],[135.30301,34.16553],[135.29482,34.16159],[135.29151,34.1621],[135.29121,34.1679],[135.29641,34.16934],[135.29976,34.17547],[135.31263,34.17837],[135.31443,34.18827],[135.31816,34.19353],[135.31512,34.19486],[135.31355,34.20139],[135.30891,34.20252],[135.30811,34.1968],[135.30046,34.19723],[135.29092,34.20271],[135.28457,34.20296],[135.28428,34.19708],[135.27848,34.19066],[135.27787,34.187],[135.28495,34.18273],[135.28323,34.17855],[135.2766,34.1757],[135.26745,34.17571],[135.26166,34.17788],[135.25501,34.17773],[135.25343,34.18065],[135.24051,34.18205],[135.22808,34.17882],[135.22691,34.17449],[135.21691,34.17529],[135.2139,34.17367],[135.20333,34.17345],[135.20384,34.1673],[135.19238,34.16271],[135.19192,34.15889]]]},"properties":{"pref":"和歌山県","city":"海南市","code5":"30202","code6":"302023"}},
{"type":"Feature","geometry":{"type":"MultiPolygon","coordinates":[[[[135.52915,34.35143],[135.52669,34.34547],[135.52852,34.34164],[135.52693,34.3292],[135.53773,34.32104],[135.54265,34.31103],[135.54215,34.30416],[135.54975,34.29835],[135.5612,34.29386],[135.57086,34.30006],[135.57269,34.29441],[135.57094,34.28963],[135.57396,34.28441],[135.58627,34.28503],[135.59112,34.27814],[135.60691,34.28289],[135.61718,34.28141],[135.62594,34.28437],[135.62946,34.27827],[135.6343,34.27647],[135.63528,34.27156],[135.64374,34.26801],[135.64419,34.26482],[135.63632,34.26309],[135.63754,34.25787],[135.63073,34.25395],[135.63235,34.24888],[135.64393,34.249],[135.65436,34.24128],[135.66146,34.24475],[135.66597,34.25072],[135.67447,34.25804],[135.67092,34.2629],[135.68118,34.27166],[135.67276,34.28148],[135.67516,34.2881],[135.67216,34.29569],[135.66925,34.29695],[135.66639,34.30869],[135.66909,34.31537],[135.66813,34.32575],[135.66033,34.32693],[135.659,34.334],[135.6615,34.338],[135.66216,34.35088],[135.66353,34.35544],[135.65584,34.36622],[135.65113,34.38321],[135.63195,34.38304],[135.61991,34.38448],[135.61327,34.37658],[135.60412,34.37739],[135.60137,34.38008],[135.59595,34.37921],[135.59499,34.37538],[135.57712,34.37605],[135.57245,34.37191],[135.5634,34.36933],[135.55444,34.35943],[135.54787,34.35669],[135.54146,34.35763],[135.53486,34.35236],[135.52915,34.35143]]],[[[135.55194,34.27675],[135.55706,34.28817],[135.54667,34.28421],[135.54576,34.2808],[135.55194,34.27675]]]]},"properties":{"pref":"和歌山県","city":"橋本市","code5":"30203","code6":"302031"}},
{"type":"Feature","geometry":{"type":"MultiPolygon","coordinates":[[[[135.11203,34.11295],[135.11324,34.10947],[135.10788,34.09827],[135.10277,34.09591],[135.10113,34.0907],[135.09672,34.0912],[135.09462,34.08545],[135.0957,34.07944],[135.08895,34.07627],[135.08831,34.077],[135.08955,34.07352],[135.08289,34.07247],[135.08401,34.07165],[135.08484,34.07009],[135.08485,34.06991],[135.08777,34.06869],[135.08791,34.06853],[135.09117,34.06759],[135.1044,34.07126],[135.1123,34.06892],[135.11241,34.06877],[135.11245,34.06872],[135.1146,34.06815],[135.11462,34.06811],[135.11462,34.06814],[135.12225,34.06733],[135.12491,34.06478],[135.12674,34.06533],[135.13585,34.06458],[135.13897,34.05696],[135.14879,34.0585],[135.15836,34.06265],[135.1661,34.06309],[135.17316,34.05536],[135.18077,34.0572],[135.18635,34.06153],[135.19053,34.06611],[135.19301,34.07719],[135.18941,34.08468],[135.18675,34.09417],[135.18753,34.09806],[135.17856,34.10105],[135.16655,34.09401],[135.14892,34.09542],[135.13994,34.09434],[135.13847,34.10095],[135.13203,34.10689],[135.11826,34.11371],[135.11203,34.11295]]],[[[135.09851,34.11619],[135.09738,34.11133],[135.10028,34.10816],[135.10477,34.10983],[135.10156,34.11721],[135.09851,34.11619]]],[[[135.12557,34.06439],[135.12503,34.06463],[135.12551,34.06437],[135.12557,34.06439]]]]},"properties":{"pref":"和歌山県","city":"有田市","code5":"30204","code6":"302040"}},
{"type":"Feature","geometry":{"type":"MultiPolygon","coordinates":[[[[135.1995,33.882],[135.1977,33.88453],[135.19893,33.8925],[135.19105,33.90361],[135.17277,33.91383],[135.17138,33.92874],[135.17764,33.935],[135.17492,33.94282],[135.17689,33.9471],[135.17388,33.95271],[135.1614,33.9498],[135.15687,33.94212],[135.15597,33.93611],[135.15924,33.93348],[135.15956,33.9227],[135.15706,33.91927],[135.14942,33.91834],[135.14144,33.91386],[135.14741,33.89557],[135.14868,33.89594],[135.15426,33.8803],[135.15247,33.87554],[135.15896,33.8673],[135.15938,33.85834],[135.16562,33.85212],[135.16844,33.8432],[135.17473,33.83974],[135.17447,33.83261],[135.1783,33.82925],[135.18482,33.8271],[135.18609,33.81951],[135.19498,33.81642],[135.19927,33.81314],[135.20296,33.82376],[135.20176,33.82997],[135.2083,33.83808],[135.20241,33.84208],[135.2029,33.85049],[135.20043,33.85376],[135.19255,33.85482],[135.184,33.85848],[135.18618,33.86563],[135.18938,33.86807],[135.197,33.86857],[135.20397,33.86721],[135.20989,33.86419],[135.21594,33.86712],[135.21492,33.87228],[135.2011,33.87332],[135.1995,33.882]]],[[[135.14327,33.86332],[135.14769,33.85679],[135.15502,33.85818],[135.15537,33.86228],[135.14625,33.86057],[135.14327,33.86332]]]]},"properties":{"pref":"和歌山県","city":"御坊市","code5":"30205","code6":"302058"}},
{"type":"Feature","geometry":{"type":"Polygon","coordinates":[[[135.54822,34.06814],[135.53849,34.05777],[135.5356,34.05102],[135.52822,34.04776],[135.51918,34.04813],[135.50581,34.04451],[135.50505,34.04203],[135.50826,34.03635],[135.50833,34.02399],[135.51318,34.02243],[135.52091,34.02352],[135.52856,34.02234],[135.53793,34.01209],[135.53731,34.00773],[135.52959,33.999],[135.53696,33.99406],[135.54356,33.97985],[135.5427,33.97632],[135.54743,33.97382],[135.54119,33.96206],[135.5326,33.95825],[135.52193,33.95174],[135.51607,33.95289],[135.50754,33.9499],[135.50152,33.94606],[135.4963,33.94575],[135.48533,33.9403],[135.47622,33.94225],[135.47246,33.9376],[135.46316,33.93744],[135.4579,33.94511],[135.4545,33.94647],[135.44353,33.9462],[135.43232,33.93992],[135.42943,33.94419],[135.42469,33.94612],[135.41772,33.93741],[135.41801,33.93341],[135.41306,33.93],[135.40226,33.93061],[135.39771,33.92941],[135.39825,33.92514],[135.39437,33.92252],[135.39324,33.91682],[135.39599,33.91467],[135.39527,33.90764],[135.3968,33.90407],[135.39198,33.90204],[135.39312,33.89569],[135.40156,33.89454],[135.40088,33.88789],[135.40697,33.88142],[135.41589,33.87936],[135.42896,33.87998],[135.43111,33.87668],[135.42704,33.87065],[135.42859,33.86426],[135.43517,33.86662],[135.44448,33.86266],[135.44403,33.8577],[135.45087,33.85458],[135.46501,33.85313],[135.46047,33.84268],[135.46086,33.8385],[135.45476,33.83826],[135.4498,33.84069],[135.44309,33.84105],[135.43097,33.83771],[135.42472,33.83853],[135.41402,33.83407],[135.4071,33.834],[135.40181,33.83794],[135.39583,33.8363],[135.39079,33.83762],[135.38113,33.83256],[135.36918,33.82209],[135.36477,33.81439],[135.35625,33.80904],[135.34685,33.80923],[135.34935,33.8037],[135.35011,33.79484],[135.34811,33.78831],[135.34918,33.7774],[135.34524,33.77478],[135.34514,33.76384],[135.33922,33.75312],[135.33643,33.753],[135.33627,33.74554],[135.35107,33.74668],[135.35737,33.73997],[135.35191,33.73482],[135.35213,33.72753],[135.35662,33.72685],[135.36318,33.73269],[135.36831,33.7314],[135.3775,33.72542],[135.37847,33.72131],[135.38924,33.71557],[135.39555,33.71443],[135.39277,33.70986],[135.39489,33.70244],[135.38708,33.70079],[135.37727,33.69508],[135.38251,33.69112],[135.38714,33.68629],[135.39685,33.68702],[135.40014,33.69336],[135.40324,33.70319],[135.4096,33.70717],[135.4103,33.71091],[135.41632,33.71438],[135.42119,33.71333],[135.42561,33.72035],[135.43415,33.72439],[135.43723,33.73437],[135.44044,33.73546],[135.44046,33.74105],[135.44477,33.74426],[135.45057,33.74411],[135.4534,33.74676],[135.46534,33.74806],[135.46466,33.75609],[135.46929,33.76797],[135.47504,33.76597],[135.47991,33.75796],[135.48716,33.75134],[135.48709,33.74547],[135.48391,33.74308],[135.48168,33.73582],[135.47695,33.72914],[135.48256,33.72423],[135.48226,33.71327],[135.48793,33.70579],[135.49583,33.70146],[135.5073,33.70458],[135.51195,33.70078],[135.52107,33.70476],[135.52418,33.69763],[135.52427,33.69062],[135.53487,33.69194],[135.54132,33.68955],[135.54597,33.69124],[135.55166,33.68215],[135.55637,33.6783],[135.55568,33.66218],[135.55324,33.65673],[135.56386,33.65633],[135.57638,33.66022],[135.58586,33.65703],[135.58846,33.65145],[135.59516,33.64932],[135.59818,33.64571],[135.60521,33.64446],[135.61246,33.64959],[135.61903,33.64918],[135.62589,33.65157],[135.63107,33.64488],[135.63735,33.64513],[135.64355,33.64928],[135.65085,33.64891],[135.65372,33.6552],[135.65763,33.65665],[135.65763,33.65966],[135.65013,33.66343],[135.65171,33.67083],[135.65476,33.6741],[135.65143,33.67714],[135.65509,33.68892],[135.67274,33.69011],[135.67761,33.69206],[135.68904,33.70338],[135.69121,33.71115],[135.70374,33.71589],[135.71075,33.71142],[135.71677,33.71977],[135.71386,33.72689],[135.7224,33.72775],[135.72718,33.73158],[135.72847,33.73546],[135.7341,33.73776],[135.74314,33.73523],[135.74707,33.73738],[135.74641,33.74492],[135.75518,33.74942],[135.75391,33.7571],[135.75767,33.76215],[135.76737,33.76481],[135.77325,33.7722],[135.77797,33.77142],[135.78192,33.76706],[135.79843,33.76973],[135.79891,33.77669],[135.802,33.77944],[135.8093,33.77992],[135.81801,33.7876],[135.8219,33.79278],[135.82355,33.80061],[135.82974,33.80527],[135.83014,33.81171],[135.82399,33.81777],[135.81362,33.8241],[135.80995,33.83118],[135.80203,33.83489],[135.79352,33.84537],[135.7913,33.85385],[135.79515,33.86501],[135.79527,33.87125],[135.7978,33.87314],[135.80374,33.86572],[135.80584,33.87009],[135.80318,33.87761],[135.80612,33.87981],[135.80671,33.88519],[135.80113,33.89179],[135.80182,33.89582],[135.79257,33.89462],[135.77765,33.88818],[135.77316,33.8903],[135.76606,33.89079],[135.75594,33.88519],[135.75181,33.88956],[135.74851,33.88779],[135.74077,33.89126],[135.73023,33.90019],[135.72411,33.90329],[135.71424,33.9026],[135.70459,33.90364],[135.68538,33.90372],[135.67871,33.89817],[135.67096,33.90041],[135.6606,33.89757],[135.6622,33.88908],[135.6572,33.88561],[135.65591,33.88157],[135.65139,33.88065],[135.64799,33.8769],[135.63555,33.87695],[135.62905,33.8731],[135.61796,33.87206],[135.62678,33.88474],[135.62343,33.89153],[135.62287,33.89796],[135.61948,33.89943],[135.6062,33.89912],[135.60111,33.90257],[135.59999,33.90826],[135.61023,33.91287],[135.61077,33.91871],[135.61405,33.92514],[135.60946,33.93208],[135.61141,33.93695],[135.61684,33.93688],[135.61861,33.94421],[135.61539,33.94845],[135.6181,33.95461],[135.62538,33.95021],[135.63102,33.94909],[135.63695,33.95055],[135.63567,33.95908],[135.63863,33.96132],[135.64032,33.96742],[135.63759,33.97652],[135.63924,33.98273],[135.63673,33.98987],[135.63088,33.99101],[135.62903,33.99775],[135.62355,34.00214],[135.62523,34.00736],[135.62176,34.00978],[135.61181,34.01028],[135.60838,34.01362],[135.59573,34.01159],[135.59149,34.01937],[135.59538,34.02359],[135.59483,34.02784],[135.59966,34.03202],[135.5947,34.03972],[135.59461,34.04399],[135.588,34.04677],[135.58061,34.05619],[135.57516,34.05884],[135.56706,34.05735],[135.56353,34.06328],[135.55211,34.06566],[135.55132,34.06842],[135.54822,34.06814]]]},"properties":{"pref":"和歌山県","city":"田辺市","code5":"30206","code6":"302066"}},
{"type":"Feature","geometry":{"type":"MultiPolygon","coordinates":[[[[135.85792,33.87315],[135.85309,33.87733],[135.85215,33.88202],[135.85529,33.88782],[135.85216,33.89261],[135.84633,33.89674],[135.83686,33.8954],[135.81632,33.90561],[135.8086,33.90647],[135.80336,33.90298],[135.80182,33.89582],[135.80113,33.89179],[135.80671,33.88519],[135.80612,33.87981],[135.80318,33.87761],[135.80584,33.87009],[135.80374,33.86572],[135.7978,33.87314],[135.79527,33.87125],[135.79515,33.86501],[135.7913,33.85385],[135.79352,33.84537],[135.80203,33.83489],[135.80995,33.83118],[135.81362,33.8241],[135.82399,33.81777],[135.83014,33.81171],[135.82974,33.80527],[135.82355,33.80061],[135.8219,33.79278],[135.81801,33.7876],[135.8093,33.77992],[135.802,33.77944],[135.79891,33.77669],[135.79843,33.76973],[135.78192,33.76706],[135.77797,33.77142],[135.77325,33.7722],[135.76737,33.76481],[135.75767,33.76215],[135.75391,33.7571],[135.75518,33.74942],[135.74641,33.74492],[135.74707,33.73738],[135.74314,33.73523],[135.7341,33.73776],[135.72847,33.73546],[135.72718,33.73158],[135.7224,33.72775],[135.7337,33.72503],[135.73836,33.72262],[135.74217,33.71546],[135.74718,33.71585],[135.75109,33.70858],[135.74916,33.70009],[135.75399,33.69736],[135.75835,33.70244],[135.76576,33.70019],[135.77836,33.7026],[135.78157,33.70026],[135.78816,33.7001],[135.78947,33.70566],[135.79413,33.70594],[135.79655,33.70176],[135.80075,33.70142],[135.80645,33.7079],[135.81034,33.70003],[135.81491,33.69841],[135.82317,33.69157],[135.82627,33.69386],[135.83958,33.69655],[135.8391,33.70003],[135.83317,33.70191],[135.8332,33.70501],[135.84485,33.71067],[135.84924,33.71462],[135.84993,33.71847],[135.85535,33.72138],[135.86172,33.72229],[135.8664,33.7181],[135.86462,33.71375],[135.88193,33.70946],[135.88146,33.70519],[135.88444,33.70125],[135.89387,33.69701],[135.90076,33.69556],[135.90655,33.68738],[135.90588,33.6818],[135.91687,33.67957],[135.93038,33.69071],[135.93581,33.68457],[135.94583,33.68455],[135.95268,33.67941],[135.95593,33.67245],[135.97313,33.67005],[135.97896,33.67994],[135.98837,33.68451],[135.98676,33.68936],[135.99104,33.69303],[135.99216,33.69984],[135.99812,33.70876],[136.01189,33.7233],[136.00808,33.72702],[135.99716,33.73051],[135.98328,33.73637],[135.97296,33.73544],[135.9717,33.73173],[135.97707,33.72477],[135.97319,33.72299],[135.96352,33.72431],[135.94593,33.73203],[135.93993,33.73859],[135.93888,33.75626],[135.93481,33.75723],[135.92837,33.75402],[135.9205,33.75876],[135.91928,33.76409],[135.91586,33.76702],[135.90915,33.76657],[135.90568,33.76848],[135.9014,33.78082],[135.89678,33.78694],[135.89823,33.7901],[135.89471,33.79767],[135.89091,33.80168],[135.88041,33.80296],[135.87217,33.809],[135.8644,33.81047],[135.85803,33.8162],[135.85586,33.82034],[135.85893,33.83019],[135.85573,33.83669],[135.85703,33.84257],[135.86059,33.84896],[135.85344,33.85784],[135.85325,33.8623],[135.85889,33.86848],[135.85792,33.87315]]],[[[135.88076,33.90937],[135.88189,33.91467],[135.86747,33.92055],[135.86894,33.91446],[135.85872,33.90119],[135.8584,33.8971],[135.86147,33.88715],[135.86481,33.88911],[135.87162,33.88865],[135.87465,33.88393],[135.87832,33.88411],[135.88269,33.87887],[135.87482,33.87288],[135.87288,33.8679],[135.87483,33.8616],[135.87815,33.86462],[135.87779,33.87134],[135.88641,33.87202],[135.89088,33.86839],[135.89763,33.86975],[135.90131,33.88541],[135.8931,33.89349],[135.89105,33.88097],[135.88422,33.88654],[135.88792,33.8963],[135.88086,33.90232],[135.88076,33.90937]]]]},"properties":{"pref":"和歌山県","city":"新宮市","code5":"30207","code6":"302074"}},
{"type":"Feature","geometry":{"type":"Polygon","coordinates":[[[135.43429,34.34823],[135.4287,34.34556],[135.42479,34.33997],[135.41564,34.3399],[135.40922,34.34194],[135.40543,34.33385],[135.39445,34.33081],[135.38824,34.33242],[135.38678,34.32912],[135.38034,34.32844],[135.37414,34.33096],[135.36171,34.32935],[135.35898,34.33304],[135.34619,34.3305],[135.3422,34.33511],[135.33889,34.33496],[135.33914,34.32943],[135.33444,34.32561],[135.32803,34.32403],[135.33041,34.3167],[135.32719,34.3136],[135.33411,34.30819],[135.33654,34.30378],[135.33225,34.29943],[135.33443,34.29572],[135.33308,34.28145],[135.33501,34.27289],[135.3382,34.26959],[135.33847,34.2646],[135.33591,34.26011],[135.33382,34.24801],[135.32125,34.24736],[135.32475,34.24184],[135.31471,34.2389],[135.30713,34.23778],[135.29618,34.23101],[135.28472,34.22793],[135.27451,34.22189],[135.27456,34.21683],[135.28099,34.21333],[135.27996,34.20756],[135.28457,34.20296],[135.29092,34.20271],[135.30046,34.19723],[135.30811,34.1968],[135.30891,34.20252],[135.31355,34.20139],[135.31512,34.19486],[135.31816,34.19353],[135.31982,34.19066],[135.32738,34.18835],[135.33499,34.19399],[135.34275,34.19374],[135.34514,34.1963],[135.35593,34.1844],[135.36291,34.18319],[135.37648,34.18641],[135.39409,34.185],[135.39947,34.18914],[135.40596,34.18951],[135.40723,34.18548],[135.41262,34.18536],[135.42138,34.18251],[135.42468,34.1792],[135.43222,34.17643],[135.43796,34.1767],[135.45109,34.18036],[135.46233,34.18811],[135.46658,34.19219],[135.46593,34.1964],[135.48028,34.20198],[135.48186,34.21081],[135.48172,34.2188],[135.48512,34.22015],[135.4847,34.22708],[135.48793,34.23237],[135.48439,34.24168],[135.47456,34.24813],[135.47047,34.253],[135.46735,34.25294],[135.46465,34.2611],[135.46553,34.26693],[135.46048,34.27108],[135.45487,34.27217],[135.44816,34.27925],[135.4476,34.28514],[135.45346,34.29534],[135.45821,34.29962],[135.46914,34.31313],[135.46087,34.32175],[135.45488,34.33485],[135.44705,34.33527],[135.44723,34.33974],[135.44416,34.34771],[135.43429,34.34823]]]},"properties":{"pref":"和歌山県","city":"紀の川市","code5":"30208","code6":"302082"}},
{"type":"Feature","geometry":{"type":"Polygon","coordinates":[[[135.28255,34.31788],[135.27104,34.31247],[135.26962,34.30512],[135.27322,34.29687],[135.27133,34.29196],[135.27607,34.27774],[135.27692,34.27118],[135.27214,34.25711],[135.27278,34.25355],[135.28737,34.25374],[135.29766,34.25528],[135.30764,34.25229],[135.3115,34.24731],[135.31471,34.2389],[135.32475,34.24184],[135.32125,34.24736],[135.33382,34.24801],[135.33591,34.26011],[135.33847,34.2646],[135.3382,34.26959],[135.33501,34.27289],[135.33308,34.28145],[135.33443,34.29572],[135.33225,34.29943],[135.33654,34.30378],[135.33411,34.30819],[135.32719,34.3136],[135.33041,34.3167],[135.3242,34.31913],[135.31316,34.31409],[135.30397,34.31371],[135.30264,34.30488],[135.29755,34.30078],[135.29164,34.29955],[135.28698,34.30675],[135.2866,34.31258],[135.28255,34.31788]]]},"properties":{"pref":"和歌山県","city":"岩出市","code5":"30209","code6":"302091"}},
{"type":"Feature","geometry":{"type":"Polygon","coordinates":[[[135.2971,34.13603],[135.30143,34.13203],[135.30868,34.12153],[135.30612,34.11681],[135.31146,34.1148],[135.31209,34.11002],[135.31748,34.10445],[135.3352,34.10535],[135.33811,34.11353],[135.34622,34.11639],[135.35615,34.11344],[135.35883,34.11512],[135.36547,34.11343],[135.37465,34.11317],[135.37435,34.12073],[135.40371,34.12168],[135.42829,34.1155],[135.43466,34.11713],[135.43855,34.12171],[135.44912,34.12558],[135.45201,34.1296],[135.45812,34.13255],[135.45919,34.13647],[135.46785,34.14168],[135.48487,34.15333],[135.48894,34.15492],[135.49265,34.15887],[135.49186,34.16471],[135.49937,34.16684],[135.50302,34.17129],[135.5083,34.17338],[135.4948,34.18601],[135.48521,34.19165],[135.48028,34.20198],[135.46593,34.1964],[135.46658,34.19219],[135.46233,34.18811],[135.45109,34.18036],[135.43796,34.1767],[135.43222,34.17643],[135.42468,34.1792],[135.42138,34.18251],[135.41262,34.18536],[135.40723,34.18548],[135.40596,34.18951],[135.39947,34.18914],[135.39409,34.185],[135.37648,34.18641],[135.36291,34.18319],[135.35593,34.1844],[135.34514,34.1963],[135.34275,34.19374],[135.33499,34.19399],[135.32738,34.18835],[135.31982,34.19066],[135.31816,34.19353],[135.31443,34.18827],[135.31263,34.17837],[135.29976,34.17547],[135.29641,34.16934],[135.29121,34.1679],[135.29151,34.1621],[135.29482,34.16159],[135.30301,34.16553],[135.30148,34.15719],[135.30283,34.1501],[135.2971,34.13603]]]},"properties":{"pref":"和歌山県","county":"海草郡","city":"紀美野町","code5":"30304","code6":"303046"}},
{"type":"Feature","geometry":{"type":"Polygon","coordinates":[[[135.44416,34.34771],[135.44723,34.33974],[135.44705,34.33527],[135.45488,34.33485],[135.46087,34.32175],[135.46914,34.31313],[135.45821,34.29962],[135.45346,34.29534],[135.4476,34.28514],[135.44816,34.27925],[135.45487,34.27217],[135.46048,34.27108],[135.46553,34.26693],[135.46465,34.2611],[135.46735,34.25294],[135.47047,34.253],[135.47456,34.24813],[135.48439,34.24168],[135.48793,34.23237],[135.4847,34.22708],[135.48512,34.22015],[135.48172,34.2188],[135.48186,34.21081],[135.48028,34.20198],[135.48521,34.19165],[135.4948,34.18601],[135.5083,34.17338],[135.50302,34.17129],[135.49937,34.16684],[135.49186,34.16471],[135.49265,34.15887],[135.48894,34.15492],[135.49792,34.15172],[135.50355,34.14434],[135.50643,34.14352],[135.51543,34.12992],[135.51385,34.12809],[135.52239,34.1194],[135.53286,34.11475],[135.53424,34.10889],[135.53341,34.10126],[135.5438,34.09709],[135.54625,34.09801],[135.55841,34.10339],[135.5573,34.10805],[135.56584,34.11284],[135.57879,34.11637],[135.58208,34.12825],[135.58462,34.13224],[135.58519,34.14066],[135.59086,34.149],[135.60463,34.15431],[135.60121,34.15865],[135.59331,34.15911],[135.58178,34.1578],[135.5767,34.16148],[135.57769,34.1668],[135.5733,34.16885],[135.57008,34.17416],[135.57218,34.1789],[135.56652,34.18683],[135.56614,34.19234],[135.56106,34.19239],[135.56053,34.18384],[135.5622,34.17486],[135.55427,34.16257],[135.54705,34.16105],[135.53883,34.15665],[135.52307,34.16136],[135.51468,34.17101],[135.51543,34.17872],[135.51257,34.18507],[135.52034,34.19102],[135.52107,34.19833],[135.52855,34.20365],[135.51862,34.20928],[135.52163,34.23781],[135.53302,34.23921],[135.53034,34.24959],[135.52599,34.25539],[135.53042,34.26265],[135.53189,34.26821],[135.53215,34.27792],[135.5367,34.28348],[135.54312,34.28388],[135.5419,34.28843],[135.53556,34.29678],[135.53201,34.29838],[135.53846,34.30422],[135.54215,34.30416],[135.54265,34.31103],[135.53773,34.32104],[135.52693,34.3292],[135.52852,34.34164],[135.52669,34.34547],[135.52915,34.35143],[135.51204,34.33833],[135.5035,34.33654],[135.5049,34.34122],[135.50175,34.3502],[135.4887,34.35637],[135.48538,34.36283],[135.47929,34.35812],[135.47774,34.35355],[135.47009,34.35047],[135.45759,34.34734],[135.45313,34.34986],[135.44416,34.34771]]]},"properties":{"pref":"和歌山県","county":"伊都郡","city":"かつらぎ町","code5":"30341","code6":"303411"}},
{"type":"Feature","geometry":{"type":"Polygon","coordinates":[[[135.54215,34.30416],[135.53846,34.30422],[135.53201,34.29838],[135.53556,34.29678],[135.5419,34.28843],[135.54312,34.28388],[135.5367,34.28348],[135.53215,34.27792],[135.53189,34.26821],[135.53042,34.26265],[135.52599,34.25539],[135.53034,34.24959],[135.53302,34.23921],[135.55133,34.24019],[135.55342,34.2468],[135.56162,34.24903],[135.56913,34.24648],[135.57423,34.25026],[135.57106,34.25722],[135.57354,34.26568],[135.57279,34.27091],[135.58131,34.27111],[135.58444,34.25986],[135.5847,34.25342],[135.58933,34.24536],[135.60021,34.24382],[135.60365,34.23757],[135.6145,34.2337],[135.62019,34.23725],[135.62505,34.24533],[135.63235,34.24888],[135.63073,34.25395],[135.63754,34.25787],[135.63632,34.26309],[135.64419,34.26482],[135.64374,34.26801],[135.63528,34.27156],[135.6343,34.27647],[135.62946,34.27827],[135.62594,34.28437],[135.61718,34.28141],[135.60691,34.28289],[135.59112,34.27814],[135.58627,34.28503],[135.57396,34.28441],[135.57094,34.28963],[135.57269,34.29441],[135.57086,34.30006],[135.5612,34.29386],[135.54975,34.29835],[135.54215,34.30416]],[[135.55194,34.27675],[135.54576,34.2808],[135.54667,34.28421],[135.55706,34.28817],[135.55194,34.27675]]]},"properties":{"pref":"和歌山県","county":"伊都郡","city":"九度山町","code5":"30343","code6":"303437"}},
{"type":"Feature","geometry":{"type":"Polygon","coordinates":[[[135.68118,34.27166],[135.67092,34.2629],[135.67447,34.25804],[135.66597,34.25072],[135.66146,34.24475],[135.65436,34.24128],[135.64393,34.249],[135.63235,34.24888],[135.62505,34.24533],[135.62019,34.23725],[135.6145,34.2337],[135.60365,34.23757],[135.60021,34.24382],[135.58933,34.24536],[135.5847,34.25342],[135.58444,34.25986],[135.58131,34.27111],[135.57279,34.27091],[135.57354,34.26568],[135.57106,34.25722],[135.57423,34.25026],[135.56913,34.24648],[135.56162,34.24903],[135.55342,34.2468],[135.55133,34.24019],[135.53302,34.23921],[135.52163,34.23781],[135.51862,34.20928],[135.52855,34.20365],[135.52107,34.19833],[135.52034,34.19102],[135.51257,34.18507],[135.51543,34.17872],[135.51468,34.17101],[135.52307,34.16136],[135.53883,34.15665],[135.54705,34.16105],[135.55427,34.16257],[135.5622,34.17486],[135.56053,34.18384],[135.56106,34.19239],[135.56614,34.19234],[135.56652,34.18683],[135.57218,34.1789],[135.57008,34.17416],[135.5733,34.16885],[135.57769,34.1668],[135.5767,34.16148],[135.58178,34.1578],[135.59331,34.15911],[135.60121,34.15865],[135.60463,34.15431],[135.6168,34.15588],[135.62192,34.15842],[135.62057,34.16609],[135.62857,34.17689],[135.63762,34.17927],[135.64196,34.18319],[135.64511,34.19067],[135.64132,34.19149],[135.63412,34.19908],[135.63448,34.20459],[135.64117,34.2095],[135.64091,34.21303],[135.64808,34.21899],[135.65529,34.21628],[135.66197,34.21831],[135.66782,34.22419],[135.67769,34.22344],[135.68547,34.2204],[135.68791,34.21729],[135.69388,34.21707],[135.69781,34.21183],[135.70175,34.21227],[135.70962,34.20879],[135.71364,34.21446],[135.71765,34.2149],[135.72333,34.21979],[135.72748,34.22073],[135.73002,34.2316],[135.72345,34.24008],[135.72015,34.2499],[135.71845,34.26332],[135.70385,34.27156],[135.70085,34.2754],[135.69247,34.27827],[135.68939,34.27172],[135.68118,34.27166]]]},"properties":{"pref":"和歌山県","county":"伊都郡","city":"高野町","code5":"30344","code6":"303445"}},
{"type":"Feature","geometry":{"type":"Polygon","coordinates":[[[135.13897,34.05696],[135.14637,34.05611],[135.14786,34.05283],[135.14616,34.04532],[135.15184,34.04476],[135.15772,34.04728],[135.1625,34.04375],[135.16244,34.03682],[135.16768,34.0373],[135.17076,34.0318],[135.18117,34.02929],[135.18246,34.02618],[135.1972,34.0249],[135.20137,34.02306],[135.21119,34.01007],[135.22291,34.0071],[135.23886,34.00928],[135.2416,34.01402],[135.23996,34.01674],[135.23655,34.02015],[135.23171,34.03092],[135.22427,34.03313],[135.21661,34.03077],[135.2102,34.037],[135.19903,34.03449],[135.19306,34.0405],[135.19453,34.04532],[135.19,34.05235],[135.18635,34.06153],[135.18077,34.0572],[135.17316,34.05536],[135.1661,34.06309],[135.15836,34.06265],[135.14879,34.0585],[135.13897,34.05696]]]},"properties":{"pref":"和歌山県","county":"有田郡","city":"湯浅町","code5":"30361","code6":"303615"}},
{"type":"Feature","geometry":{"type":"Polygon","coordinates":[[[135.17076,34.0318],[135.1584,34.02585],[135.15079,34.02465],[135.15177,34.01977],[135.14297,34.01555],[135.15154,34.00765],[135.14766,34.00527],[135.14075,34.00618],[135.14009,34.00314],[135.13455,34.00002],[135.13846,33.99721],[135.14363,33.98949],[135.15508,33.99222],[135.16417,33.99596],[135.17486,33.99464],[135.17538,33.98399],[135.17792,33.97931],[135.17405,33.97483],[135.17463,33.96505],[135.17761,33.96426],[135.17798,33.95607],[135.18453,33.95767],[135.19436,33.9559],[135.19756,33.95368],[135.20645,33.95428],[135.2091,33.95233],[135.22212,33.95278],[135.2234,33.94864],[135.23297,33.94759],[135.23593,33.95856],[135.244,33.96018],[135.25465,33.96475],[135.25928,33.97326],[135.25676,33.9764],[135.25907,33.98969],[135.27332,33.99776],[135.27928,34.00422],[135.27012,34.00996],[135.26874,34.01539],[135.26113,34.01361],[135.25505,34.01456],[135.24356,34.01423],[135.23996,34.01674],[135.2416,34.01402],[135.23886,34.00928],[135.22291,34.0071],[135.21119,34.01007],[135.20137,34.02306],[135.1972,34.0249],[135.18246,34.02618],[135.18117,34.02929],[135.17076,34.0318]]]},"properties":{"pref":"和歌山県","county":"有田郡","city":"広川町","code5":"30362","code6":"303623"}},
{"type":"Feature","geometry":{"type":"Polygon","coordinates":[[[135.54625,34.09801],[135.5438,34.09709],[135.53341,34.10126],[135.53424,34.10889],[135.53286,34.11475],[135.52239,34.1194],[135.51385,34.12809],[135.51543,34.12992],[135.50643,34.14352],[135.50355,34.14434],[135.49792,34.15172],[135.48894,34.15492],[135.48487,34.15333],[135.46785,34.14168],[135.45919,34.13647],[135.45812,34.13255],[135.45201,34.1296],[135.44912,34.12558],[135.43855,34.12171],[135.43466,34.11713],[135.42829,34.1155],[135.40371,34.12168],[135.37435,34.12073],[135.37465,34.11317],[135.36547,34.11343],[135.35883,34.11512],[135.35615,34.11344],[135.34622,34.11639],[135.33811,34.11353],[135.3352,34.10535],[135.31748,34.10445],[135.31209,34.11002],[135.31146,34.1148],[135.30612,34.11681],[135.30868,34.12153],[135.30143,34.13203],[135.2971,34.13603],[135.29207,34.12602],[135.28678,34.12435],[135.28449,34.1204],[135.27366,34.11717],[135.26282,34.11562],[135.24907,34.12257],[135.23917,34.12216],[135.23553,34.11779],[135.23533,34.11207],[135.23128,34.10729],[135.22431,34.10757],[135.22188,34.11017],[135.20502,34.1001],[135.18753,34.09806],[135.18675,34.09417],[135.18941,34.08468],[135.19301,34.07719],[135.19053,34.06611],[135.18635,34.06153],[135.19,34.05235],[135.19453,34.04532],[135.19306,34.0405],[135.19903,34.03449],[135.2102,34.037],[135.21661,34.03077],[135.22427,34.03313],[135.23171,34.03092],[135.23655,34.02015],[135.23996,34.01674],[135.24356,34.01423],[135.25505,34.01456],[135.26113,34.01361],[135.26874,34.01539],[135.27012,34.00996],[135.27928,34.00422],[135.28798,34.00364],[135.29443,34.00711],[135.30213,34.00354],[135.31045,34.00516],[135.31302,34.00771],[135.31946,34.00673],[135.32485,34.00871],[135.32936,34.00644],[135.3457,34.00455],[135.34749,34.0059],[135.35736,34.00492],[135.3642,34.00786],[135.36703,34.01292],[135.3715,34.01368],[135.38907,34.01124],[135.3917,34.01012],[135.40101,34.01493],[135.40229,34.01897],[135.41694,34.02482],[135.41728,34.02692],[135.42657,34.02721],[135.42811,34.02918],[135.43722,34.03081],[135.44588,34.03812],[135.45176,34.04089],[135.45893,34.03838],[135.46747,34.03162],[135.48165,34.03262],[135.4957,34.03693],[135.49883,34.04316],[135.50505,34.04203],[135.50581,34.04451],[135.51918,34.04813],[135.52822,34.04776],[135.5356,34.05102],[135.53849,34.05777],[135.54822,34.06814],[135.5397,34.07538],[135.54313,34.0818],[135.54979,34.08498],[135.54873,34.09681],[135.54625,34.09801]]]},"properties":{"pref":"和歌山県","county":"有田郡","city":"有田川町","code5":"30366","code6":"303666"}},
{"type":"Feature","geometry":{"type":"Polygon","coordinates":[[[135.14144,33.91386],[135.13347,33.91575],[135.13341,33.90731],[135.13067,33.90378],[135.12351,33.90256],[135.10915,33.90375],[135.1033,33.90134],[135.08732,33.90263],[135.07208,33.8968],[135.07158,33.88906],[135.06567,33.88832],[135.06354,33.88366],[135.05765,33.87988],[135.06998,33.8835],[135.07266,33.88681],[135.08007,33.89096],[135.08417,33.88717],[135.10047,33.88898],[135.11191,33.89338],[135.11968,33.89227],[135.13162,33.88894],[135.14192,33.88482],[135.14967,33.87938],[135.15247,33.87554],[135.15426,33.8803],[135.14868,33.89594],[135.14741,33.89557],[135.14144,33.91386]]]},"properties":{"pref":"和歌山県","county":"日高郡","city":"美浜町","code5":"30381","code6":"303810"}},
{"type":"Feature","geometry":{"type":"Polygon","coordinates":[[[135.17388,33.95271],[135.17798,33.95607],[135.17761,33.96426],[135.17463,33.96505],[135.17405,33.97483],[135.17792,33.97931],[135.17538,33.98399],[135.17168,33.98344],[135.16079,33.97716],[135.15435,33.97568],[135.1411,33.96371],[135.13871,33.95749],[135.13083,33.95082],[135.12247,33.94603],[135.1082,33.9446],[135.10276,33.95438],[135.10057,33.94958],[135.09602,33.94791],[135.08897,33.94914],[135.0834,33.94162],[135.08504,33.93521],[135.0757,33.93485],[135.07331,33.93133],[135.0683,33.93166],[135.06633,33.92803],[135.06988,33.92473],[135.07412,33.92769],[135.07972,33.92443],[135.07611,33.91972],[135.08298,33.91752],[135.08178,33.9066],[135.07616,33.90307],[135.06695,33.90621],[135.05898,33.90489],[135.06048,33.89867],[135.06491,33.89616],[135.06431,33.89175],[135.057,33.88874],[135.05765,33.87988],[135.06354,33.88366],[135.06567,33.88832],[135.07158,33.88906],[135.07208,33.8968],[135.08732,33.90263],[135.1033,33.90134],[135.10915,33.90375],[135.12351,33.90256],[135.13067,33.90378],[135.13341,33.90731],[135.13347,33.91575],[135.14144,33.91386],[135.14942,33.91834],[135.15706,33.91927],[135.15956,33.9227],[135.15924,33.93348],[135.15597,33.93611],[135.15687,33.94212],[135.1614,33.9498],[135.17388,33.95271]]]},"properties":{"pref":"和歌山県","county":"日高郡","city":"日高町","code5":"30382","code6":"303828"}},
{"type":"Feature","geometry":{"type":"Polygon","coordinates":[[[135.13455,34.00002],[135.12922,34.00059],[135.12611,33.99755],[135.12019,33.99923],[135.11218,33.99526],[135.11277,33.99091],[135.10768,33.98892],[135.10491,33.99303],[135.09356,33.99321],[135.09101,33.98379],[135.08807,33.97921],[135.07811,33.97928],[135.07028,33.97782],[135.07746,33.97354],[135.07747,33.97354],[135.08604,33.96737],[135.08376,33.96144],[135.07328,33.95968],[135.08018,33.95575],[135.09598,33.95803],[135.10185,33.96434],[135.11079,33.96288],[135.11442,33.95677],[135.10548,33.95625],[135.10276,33.95438],[135.1082,33.9446],[135.12247,33.94603],[135.13083,33.95082],[135.13871,33.95749],[135.1411,33.96371],[135.15435,33.97568],[135.16079,33.97716],[135.17168,33.98344],[135.17538,33.98399],[135.17486,33.99464],[135.16417,33.99596],[135.15508,33.99222],[135.14363,33.98949],[135.13846,33.99721],[135.13455,34.00002]]]},"properties":{"pref":"和歌山県","county":"日高郡","city":"由良町","code5":"30383","code6":"303836"}},
{"type":"Feature","geometry":{"type":"Polygon","coordinates":[[[135.19927,33.81314],[135.20523,33.81247],[135.2099,33.80905],[135.21625,33.80968],[135.22069,33.80468],[135.23132,33.80114],[135.23586,33.79787],[135.23704,33.79112],[135.23307,33.78511],[135.23816,33.7805],[135.24575,33.78019],[135.25347,33.78253],[135.26605,33.78292],[135.25955,33.79907],[135.2705,33.81486],[135.27823,33.81818],[135.28609,33.81804],[135.29652,33.81947],[135.30142,33.82698],[135.3002,33.83026],[135.30918,33.83576],[135.30813,33.84587],[135.31224,33.84843],[135.3139,33.85325],[135.30974,33.85723],[135.30988,33.8613],[135.31458,33.86232],[135.32172,33.86873],[135.32174,33.8739],[135.32717,33.87732],[135.33519,33.87968],[135.34589,33.87849],[135.35092,33.88035],[135.3562,33.8878],[135.36924,33.88566],[135.39397,33.88456],[135.40088,33.88789],[135.40156,33.89454],[135.39312,33.89569],[135.39198,33.90204],[135.3968,33.90407],[135.39527,33.90764],[135.39599,33.91467],[135.39324,33.91682],[135.38306,33.91656],[135.37958,33.91909],[135.37486,33.91552],[135.36816,33.91648],[135.35482,33.91454],[135.35014,33.9128],[135.33534,33.91231],[135.33023,33.9098],[135.32546,33.90416],[135.31504,33.90482],[135.31098,33.90078],[135.30129,33.89622],[135.29908,33.89204],[135.28915,33.89231],[135.28168,33.88805],[135.2755,33.88786],[135.27482,33.88253],[135.27126,33.87717],[135.26545,33.87226],[135.25225,33.87404],[135.24723,33.87258],[135.23646,33.87791],[135.21635,33.8781],[135.21167,33.88033],[135.1995,33.882],[135.2011,33.87332],[135.21492,33.87228],[135.21594,33.86712],[135.20989,33.86419],[135.20397,33.86721],[135.197,33.86857],[135.18938,33.86807],[135.18618,33.86563],[135.184,33.85848],[135.19255,33.85482],[135.20043,33.85376],[135.2029,33.85049],[135.20241,33.84208],[135.2083,33.83808],[135.20176,33.82997],[135.20296,33.82376],[135.19927,33.81314]]]},"properties":{"pref":"和歌山県","county":"日高郡","city":"印南町","code5":"30390","code6":"303909"}},
{"type":"Feature","geometry":{"type":"Polygon","coordinates":[[[135.40088,33.88789],[135.39397,33.88456],[135.36924,33.88566],[135.3562,33.8878],[135.35092,33.88035],[135.34589,33.87849],[135.33519,33.87968],[135.32717,33.87732],[135.32174,33.8739],[135.32172,33.86873],[135.31458,33.86232],[135.30988,33.8613],[135.30974,33.85723],[135.3139,33.85325],[135.31224,33.84843],[135.30813,33.84587],[135.30918,33.83576],[135.3002,33.83026],[135.30142,33.82698],[135.29652,33.81947],[135.28609,33.81804],[135.27823,33.81818],[135.2705,33.81486],[135.25955,33.79907],[135.26605,33.78292],[135.27069,33.78263],[135.28149,33.77805],[135.28715,33.77308],[135.29276,33.77244],[135.30103,33.76671],[135.31194,33.76955],[135.31709,33.76767],[135.32467,33.75973],[135.32483,33.7539],[135.32852,33.74739],[135.32843,33.74363],[135.33627,33.74554],[135.33643,33.753],[135.33922,33.75312],[135.34514,33.76384],[135.34524,33.77478],[135.34918,33.7774],[135.34811,33.78831],[135.35011,33.79484],[135.34935,33.8037],[135.34685,33.80923],[135.35625,33.80904],[135.36477,33.81439],[135.36918,33.82209],[135.38113,33.83256],[135.39079,33.83762],[135.39583,33.8363],[135.40181,33.83794],[135.4071,33.834],[135.41402,33.83407],[135.42472,33.83853],[135.43097,33.83771],[135.44309,33.84105],[135.4498,33.84069],[135.45476,33.83826],[135.46086,33.8385],[135.46047,33.84268],[135.46501,33.85313],[135.45087,33.85458],[135.44403,33.8577],[135.44448,33.86266],[135.43517,33.86662],[135.42859,33.86426],[135.42704,33.87065],[135.43111,33.87668],[135.42896,33.87998],[135.41589,33.87936],[135.40697,33.88142],[135.40088,33.88789]]]},"properties":{"pref":"和歌山県","county":"日高郡","city":"みなべ町","code5":"30391","code6":"303917"}},
{"type":"Feature","geometry":{"type":"Polygon","coordinates":[[[135.1995,33.882],[135.21167,33.88033],[135.21635,33.8781],[135.23646,33.87791],[135.24723,33.87258],[135.25225,33.87404],[135.26545,33.87226],[135.27126,33.87717],[135.27482,33.88253],[135.2755,33.88786],[135.28168,33.88805],[135.28915,33.89231],[135.29908,33.89204],[135.30129,33.89622],[135.31098,33.90078],[135.31504,33.90482],[135.32546,33.90416],[135.33023,33.9098],[135.33534,33.91231],[135.35014,33.9128],[135.35482,33.91454],[135.36816,33.91648],[135.37486,33.91552],[135.37958,33.91909],[135.38306,33.91656],[135.39324,33.91682],[135.39437,33.92252],[135.39825,33.92514],[135.39771,33.92941],[135.40226,33.93061],[135.41306,33.93],[135.41801,33.93341],[135.41772,33.93741],[135.42469,33.94612],[135.42943,33.94419],[135.43232,33.93992],[135.44353,33.9462],[135.4545,33.94647],[135.4579,33.94511],[135.46316,33.93744],[135.47246,33.9376],[135.47622,33.94225],[135.48533,33.9403],[135.4963,33.94575],[135.50152,33.94606],[135.50754,33.9499],[135.51607,33.95289],[135.52193,33.95174],[135.5326,33.95825],[135.54119,33.96206],[135.54743,33.97382],[135.5427,33.97632],[135.54356,33.97985],[135.53696,33.99406],[135.52959,33.999],[135.53731,34.00773],[135.53793,34.01209],[135.52856,34.02234],[135.52091,34.02352],[135.51318,34.02243],[135.50833,34.02399],[135.50826,34.03635],[135.50505,34.04203],[135.49883,34.04316],[135.4957,34.03693],[135.48165,34.03262],[135.46747,34.03162],[135.45893,34.03838],[135.45176,34.04089],[135.44588,34.03812],[135.43722,34.03081],[135.42811,34.02918],[135.42657,34.02721],[135.41728,34.02692],[135.41694,34.02482],[135.40229,34.01897],[135.40101,34.01493],[135.3917,34.01012],[135.38907,34.01124],[135.3715,34.01368],[135.36703,34.01292],[135.3642,34.00786],[135.35736,34.00492],[135.34749,34.0059],[135.3457,34.00455],[135.32936,34.00644],[135.32485,34.00871],[135.31946,34.00673],[135.31302,34.00771],[135.31045,34.00516],[135.30213,34.00354],[135.29443,34.00711],[135.28798,34.00364],[135.27928,34.00422],[135.27332,33.99776],[135.25907,33.98969],[135.25676,33.9764],[135.25928,33.97326],[135.25465,33.96475],[135.244,33.96018],[135.23593,33.95856],[135.23297,33.94759],[135.2234,33.94864],[135.22212,33.95278],[135.2091,33.95233],[135.20645,33.95428],[135.19756,33.95368],[135.19436,33.9559],[135.18453,33.95767],[135.17798,33.95607],[135.17388,33.95271],[135.17689,33.9471],[135.17492,33.94282],[135.17764,33.935],[135.17138,33.92874],[135.17277,33.91383],[135.19105,33.90361],[135.19893,33.8925],[135.1977,33.88453],[135.1995,33.882]]]},"properties":{"pref":"和歌山県","county":"日高郡","city":"日高川町","code5":"30392","code6":"303925"}},
{"type":"Feature","geometry":{"type":"Polygon","coordinates":[[[135.51195,33.70078],[135.51186,33.69592],[135.50718,33.68979],[135.49627,33.68298],[135.49896,33.67648],[135.49886,33.66729],[135.48341,33.6675],[135.4771,33.66861],[135.47434,33.66672],[135.46784,33.66795],[135.45961,33.67534],[135.4485,33.67522],[135.44596,33.67296],[135.42939,33.67941],[135.42394,33.68349],[135.4161,33.68665],[135.40642,33.67734],[135.39872,33.68343],[135.39685,33.68702],[135.38714,33.68629],[135.38251,33.69112],[135.37569,33.69051],[135.37174,33.68616],[135.36026,33.68375],[135.35516,33.68583],[135.35575,33.69212],[135.34936,33.69444],[135.33406,33.69248],[135.34448,33.68885],[135.34201,33.68624],[135.34439,33.68184],[135.34281,33.67796],[135.33243,33.67387],[135.32967,33.67029],[135.33197,33.66621],[135.34263,33.65879],[135.35303,33.65483],[135.36696,33.65231],[135.38189,33.65114],[135.3833,33.64766],[135.39138,33.64301],[135.39341,33.63998],[135.39295,33.63034],[135.39653,33.62519],[135.39441,33.62531],[135.39023,33.61728],[135.39335,33.61426],[135.3897,33.60931],[135.386,33.60015],[135.39122,33.59774],[135.3926,33.58856],[135.40293,33.58289],[135.40563,33.57776],[135.41003,33.57561],[135.41667,33.58061],[135.41929,33.56965],[135.42418,33.57143],[135.43729,33.56686],[135.44386,33.56322],[135.44913,33.55647],[135.44638,33.54893],[135.45157,33.54853],[135.4577,33.55316],[135.45882,33.54601],[135.45979,33.54698],[135.45996,33.54712],[135.46045,33.54757],[135.4606,33.54771],[135.46098,33.5479],[135.46098,33.54792],[135.46105,33.54795],[135.46111,33.54798],[135.46875,33.55158],[135.47158,33.55847],[135.47599,33.56349],[135.47493,33.56661],[135.48149,33.5714],[135.48458,33.57978],[135.48944,33.58298],[135.491,33.58672],[135.48706,33.5925],[135.48623,33.59707],[135.49326,33.60507],[135.49926,33.6071],[135.50424,33.61267],[135.51254,33.61192],[135.51703,33.60913],[135.52802,33.60857],[135.53144,33.61577],[135.52818,33.61962],[135.52995,33.62455],[135.5393,33.62652],[135.54334,33.63103],[135.54447,33.63597],[135.55252,33.63351],[135.55916,33.63608],[135.56175,33.63398],[135.56769,33.6357],[135.56991,33.63296],[135.57794,33.63008],[135.58537,33.63113],[135.59695,33.62722],[135.6061,33.63317],[135.61407,33.6302],[135.61351,33.62594],[135.62184,33.61985],[135.62975,33.62292],[135.63608,33.62065],[135.64367,33.62308],[135.64,33.63081],[135.64187,33.63538],[135.65626,33.63888],[135.66234,33.6463],[135.66806,33.65022],[135.66672,33.65328],[135.65763,33.65665],[135.65372,33.6552],[135.65085,33.64891],[135.64355,33.64928],[135.63735,33.64513],[135.63107,33.64488],[135.62589,33.65157],[135.61903,33.64918],[135.61246,33.64959],[135.60521,33.64446],[135.59818,33.64571],[135.59516,33.64932],[135.58846,33.65145],[135.58586,33.65703],[135.57638,33.66022],[135.56386,33.65633],[135.55324,33.65673],[135.55568,33.66218],[135.55637,33.6783],[135.55166,33.68215],[135.54597,33.69124],[135.54132,33.68955],[135.53487,33.69194],[135.52427,33.69062],[135.52418,33.69763],[135.52107,33.70476],[135.51195,33.70078]]]},"properties":{"pref":"和歌山県","county":"西牟婁郡","city":"白浜町","code5":"30401","code6":"304018"}},
{"type":"Feature","geometry":{"type":"Polygon","coordinates":[[[135.39685,33.68702],[135.39872,33.68343],[135.40642,33.67734],[135.4161,33.68665],[135.42394,33.68349],[135.42939,33.67941],[135.44596,33.67296],[135.4485,33.67522],[135.45961,33.67534],[135.46784,33.66795],[135.47434,33.66672],[135.4771,33.66861],[135.48341,33.6675],[135.49886,33.66729],[135.49896,33.67648],[135.49627,33.68298],[135.50718,33.68979],[135.51186,33.69592],[135.51195,33.70078],[135.5073,33.70458],[135.49583,33.70146],[135.48793,33.70579],[135.48226,33.71327],[135.48256,33.72423],[135.47695,33.72914],[135.48168,33.73582],[135.48391,33.74308],[135.48709,33.74547],[135.48716,33.75134],[135.47991,33.75796],[135.47504,33.76597],[135.46929,33.76797],[135.46466,33.75609],[135.46534,33.74806],[135.4534,33.74676],[135.45057,33.74411],[135.44477,33.74426],[135.44046,33.74105],[135.44044,33.73546],[135.43723,33.73437],[135.43415,33.72439],[135.42561,33.72035],[135.42119,33.71333],[135.41632,33.71438],[135.4103,33.71091],[135.4096,33.70717],[135.40324,33.70319],[135.40014,33.69336],[135.39685,33.68702]]]},"properties":{"pref":"和歌山県","county":"西牟婁郡","city":"上富田町","code5":"30404","code6":"304042"}},
{"type":"Feature","geometry":{"type":"Polygon","coordinates":[[[135.46111,33.54798],[135.46595,33.54618],[135.47452,33.55098],[135.47969,33.55059],[135.47888,33.546],[135.48791,33.54964],[135.49169,33.54879],[135.49312,33.54417],[135.48973,33.54088],[135.49937,33.54099],[135.50116,33.53524],[135.5089,33.53536],[135.51391,33.53192],[135.51227,33.52554],[135.51804,33.52187],[135.52425,33.52329],[135.53516,33.51981],[135.54481,33.52027],[135.54713,33.51611],[135.55123,33.51654],[135.55968,33.51418],[135.5695,33.51737],[135.575,33.51567],[135.58042,33.50792],[135.58733,33.5064],[135.59686,33.50705],[135.6016,33.5043],[135.60645,33.50969],[135.61095,33.50616],[135.61718,33.50609],[135.61948,33.50322],[135.62611,33.50308],[135.62824,33.50819],[135.63552,33.50659],[135.63858,33.52212],[135.63081,33.52692],[135.62182,33.53041],[135.62643,33.53268],[135.63667,33.54237],[135.63632,33.54593],[135.64101,33.55348],[135.62921,33.55393],[135.6277,33.56818],[135.63197,33.57261],[135.63172,33.57965],[135.63736,33.58024],[135.64635,33.57629],[135.6607,33.57602],[135.66261,33.57981],[135.66222,33.58991],[135.6677,33.58972],[135.66665,33.59491],[135.66032,33.59783],[135.65484,33.6092],[135.64959,33.61558],[135.64727,33.62105],[135.64367,33.62308],[135.63608,33.62065],[135.62975,33.62292],[135.62184,33.61985],[135.61351,33.62594],[135.61407,33.6302],[135.6061,33.63317],[135.59695,33.62722],[135.58537,33.63113],[135.57794,33.63008],[135.56991,33.63296],[135.56769,33.6357],[135.56175,33.63398],[135.55916,33.63608],[135.55252,33.63351],[135.54447,33.63597],[135.54334,33.63103],[135.5393,33.62652],[135.52995,33.62455],[135.52818,33.61962],[135.53144,33.61577],[135.52802,33.60857],[135.51703,33.60913],[135.51254,33.61192],[135.50424,33.61267],[135.49926,33.6071],[135.49326,33.60507],[135.48623,33.59707],[135.48706,33.5925],[135.491,33.58672],[135.48944,33.58298],[135.48458,33.57978],[135.48149,33.5714],[135.47493,33.56661],[135.47599,33.56349],[135.47158,33.55847],[135.46875,33.55158],[135.46111,33.54798]]]},"properties":{"pref":"和歌山県","county":"西牟婁郡","city":"すさみ町","code5":"30406","code6":"304069"}},
{"type":"Feature","geometry":{"type":"Polygon","coordinates":[[[135.77836,33.7026],[135.77694,33.69883],[135.78215,33.69466],[135.77926,33.68962],[135.77921,33.68292],[135.79668,33.67457],[135.79496,33.6697],[135.79781,33.66699],[135.7973,33.65862],[135.80458,33.64205],[135.80491,33.63553],[135.81243,33.6274],[135.82048,33.62063],[135.8238,33.61158],[135.81779,33.60913],[135.82477,33.59448],[135.82226,33.5872],[135.83062,33.58345],[135.83955,33.58141],[135.84909,33.58449],[135.85323,33.58764],[135.86083,33.5837],[135.86254,33.5788],[135.87023,33.58157],[135.8756,33.58145],[135.88037,33.57885],[135.88453,33.5636],[135.88006,33.56078],[135.88383,33.55458],[135.8873,33.55243],[135.89455,33.55228],[135.89921,33.54606],[135.91247,33.55],[135.91496,33.55681],[135.92261,33.56227],[135.90872,33.56189],[135.90193,33.5581],[135.9009,33.56324],[135.90565,33.56321],[135.91158,33.56928],[135.92759,33.57725],[135.93438,33.57341],[135.9394,33.57445],[135.9398,33.57815],[135.93914,33.58415],[135.92796,33.58881],[135.92307,33.59213],[135.92194,33.59863],[135.92925,33.59976],[135.92949,33.60441],[135.92602,33.60725],[135.92549,33.60731],[135.92785,33.6094],[135.92813,33.61485],[135.93072,33.61869],[135.93655,33.61724],[135.94361,33.61728],[135.94362,33.61728],[135.94469,33.61786],[135.94471,33.61783],[135.94507,33.6192],[135.94169,33.61988],[135.94491,33.62793],[135.94925,33.62715],[135.95054,33.62192],[135.95254,33.62283],[135.95281,33.63112],[135.95164,33.63344],[135.94102,33.63398],[135.93652,33.64025],[135.93902,33.64538],[135.9487,33.64951],[135.95703,33.64919],[135.96249,33.65448],[135.97031,33.65251],[135.97499,33.65672],[135.9847,33.65473],[135.97615,33.66242],[135.97619,33.66267],[135.97368,33.66631],[135.97403,33.66757],[135.97313,33.67005],[135.95593,33.67245],[135.95268,33.67941],[135.94583,33.68455],[135.93581,33.68457],[135.93038,33.69071],[135.91687,33.67957],[135.90588,33.6818],[135.90655,33.68738],[135.90076,33.69556],[135.89387,33.69701],[135.88444,33.70125],[135.88146,33.70519],[135.88193,33.70946],[135.86462,33.71375],[135.8664,33.7181],[135.86172,33.72229],[135.85535,33.72138],[135.84993,33.71847],[135.84924,33.71462],[135.84485,33.71067],[135.8332,33.70501],[135.83317,33.70191],[135.8391,33.70003],[135.83958,33.69655],[135.82627,33.69386],[135.82317,33.69157],[135.81491,33.69841],[135.81034,33.70003],[135.80645,33.7079],[135.80075,33.70142],[135.79655,33.70176],[135.79413,33.70594],[135.78947,33.70566],[135.78816,33.7001],[135.78157,33.70026],[135.77836,33.7026]]]},"properties":{"pref":"和歌山県","county":"東牟婁郡","city":"那智勝浦町","code5":"30421","code6":"304212"}},
{"type":"Feature","geometry":{"type":"MultiPolygon","coordinates":[[[[135.9398,33.57815],[135.94933,33.57877],[135.95398,33.57802],[135.95953,33.58208],[135.95914,33.5857],[135.96196,33.59513],[135.95038,33.58965],[135.94895,33.5934],[135.94894,33.59341],[135.94607,33.59719],[135.94865,33.60318],[135.94396,33.60373],[135.93643,33.59883],[135.93631,33.59871],[135.93479,33.59368],[135.93082,33.59699],[135.93121,33.59734],[135.93241,33.59997],[135.92925,33.59976],[135.92194,33.59863],[135.92307,33.59213],[135.92796,33.58881],[135.93914,33.58415],[135.9398,33.57815]]],[[[135.92785,33.6094],[135.92785,33.60938],[135.92784,33.60937],[135.92784,33.60935],[135.93306,33.61193],[135.93574,33.61268],[135.93538,33.61304],[135.9351,33.61354],[135.93458,33.61391],[135.93649,33.61493],[135.93655,33.61724],[135.93072,33.61869],[135.92813,33.61485],[135.92785,33.6094]]]]},"properties":{"pref":"和歌山県","county":"東牟婁郡","city":"太地町","code5":"30422","code6":"304221"}},
{"type":"Feature","geometry":{"type":"Polygon","coordinates":[[[135.65763,33.65665],[135.66672,33.65328],[135.66806,33.65022],[135.66234,33.6463],[135.65626,33.63888],[135.64187,33.63538],[135.64,33.63081],[135.64367,33.62308],[135.64727,33.62105],[135.64959,33.61558],[135.65484,33.6092],[135.66032,33.59783],[135.66665,33.59491],[135.6677,33.58972],[135.66222,33.58991],[135.66261,33.57981],[135.6607,33.57602],[135.64635,33.57629],[135.63736,33.58024],[135.63172,33.57965],[135.63197,33.57261],[135.64237,33.56675],[135.65159,33.56578],[135.655,33.55904],[135.66231,33.55569],[135.66223,33.54857],[135.66679,33.53405],[135.66671,33.53032],[135.67246,33.52992],[135.67566,33.52679],[135.68096,33.527],[135.68572,33.52087],[135.69268,33.52196],[135.7008,33.51952],[135.70475,33.52765],[135.71584,33.52452],[135.71924,33.52569],[135.72093,33.53113],[135.7311,33.52967],[135.73634,33.52564],[135.73695,33.52076],[135.74553,33.51678],[135.75314,33.52205],[135.75729,33.52268],[135.7699,33.52105],[135.78041,33.52208],[135.7842,33.52513],[135.79652,33.52739],[135.80278,33.53264],[135.81015,33.53601],[135.81883,33.5251],[135.82234,33.52264],[135.82687,33.52899],[135.82582,33.53563],[135.83472,33.53579],[135.83583,33.54238],[135.82909,33.55927],[135.83515,33.56375],[135.83585,33.57059],[135.83994,33.57427],[135.83955,33.58141],[135.83062,33.58345],[135.82226,33.5872],[135.82477,33.59448],[135.81779,33.60913],[135.8238,33.61158],[135.82048,33.62063],[135.81243,33.6274],[135.80491,33.63553],[135.80458,33.64205],[135.7973,33.65862],[135.79781,33.66699],[135.79496,33.6697],[135.79668,33.67457],[135.77921,33.68292],[135.77926,33.68962],[135.78215,33.69466],[135.77694,33.69883],[135.77836,33.7026],[135.76576,33.70019],[135.75835,33.70244],[135.75399,33.69736],[135.74916,33.70009],[135.75109,33.70858],[135.74718,33.71585],[135.74217,33.71546],[135.73836,33.72262],[135.7337,33.72503],[135.7224,33.72775],[135.71386,33.72689],[135.71677,33.71977],[135.71075,33.71142],[135.70374,33.71589],[135.69121,33.71115],[135.68904,33.70338],[135.67761,33.69206],[135.67274,33.69011],[135.65509,33.68892],[135.65143,33.67714],[135.65476,33.6741],[135.65171,33.67083],[135.65013,33.66343],[135.65763,33.65966],[135.65763,33.65665]]]},"properties":{"pref":"和歌山県","county":"東牟婁郡","city":"古座川町","code5":"30424","code6":"304247"}},
{"type":"Feature","geometry":{"type":"Polygon","coordinates":[[[136.00361,34.00988],[136.00078,34.00597],[135.99383,34.0051],[135.98948,34.00225],[135.98484,33.99477],[135.98461,33.99164],[135.97733,33.98972],[135.9746,33.98597],[135.96093,33.98453],[135.95398,33.98033],[135.94054,33.98002],[135.92656,33.98145],[135.91567,33.97259],[135.91599,33.96786],[135.91198,33.96409],[135.90667,33.96308],[135.90706,33.95949],[135.90229,33.95391],[135.89818,33.95374],[135.89385,33.95007],[135.89307,33.93918],[135.89809,33.93378],[135.89843,33.92669],[135.90973,33.9227],[135.90908,33.91847],[135.91579,33.91988],[135.92226,33.91411],[135.93249,33.91685],[135.93267,33.92266],[135.92369,33.91982],[135.91729,33.92506],[135.919,33.93175],[135.92183,33.93433],[135.92795,33.9348],[135.92954,33.94143],[135.93683,33.93919],[135.94419,33.93955],[135.95759,33.93447],[135.96455,33.92836],[135.96976,33.93002],[135.97554,33.94146],[135.97796,33.95146],[135.97516,33.96064],[135.97761,33.96698],[135.98545,33.96856],[135.99146,33.96505],[135.99716,33.95688],[136.00144,33.95721],[136.00426,33.96303],[136.01035,33.9656],[136.01333,33.96923],[136.01336,33.97423],[136.00817,33.97914],[136.00415,33.98571],[136.00404,33.99177],[135.99716,33.99776],[136.00695,34.0074],[136.00361,34.00988]]]},"properties":{"pref":"和歌山県","county":"東牟婁郡","city":"北山村","code5":"30427","code6":"304271"}},
{"type":"Feature","geometry":{"type":"MultiPolygon","coordinates":[[[[135.63552,33.50659],[135.64343,33.50179],[135.65395,33.50057],[135.65993,33.496],[135.66317,33.49073],[135.66997,33.49171],[135.67526,33.48778],[135.68224,33.49012],[135.69077,33.4879],[135.69897,33.49037],[135.70418,33.48773],[135.70981,33.48808],[135.71604,33.48202],[135.72541,33.47732],[135.73398,33.48365],[135.73677,33.48329],[135.73827,33.47679],[135.74729,33.48237],[135.7552,33.48227],[135.76959,33.47865],[135.77475,33.47845],[135.77349,33.47246],[135.77351,33.47244],[135.77358,33.47241],[135.77362,33.47238],[135.77367,33.47234],[135.77376,33.47224],[135.77378,33.47221],[135.77379,33.47217],[135.77381,33.47214],[135.77382,33.47211],[135.77384,33.47208],[135.77386,33.47205],[135.77388,33.47202],[135.7739,33.47199],[135.77391,33.47196],[135.77393,33.47191],[135.77392,33.47187],[135.77391,33.47184],[135.77383,33.47176],[135.77382,33.47173],[135.77381,33.4717],[135.77381,33.47166],[135.77403,33.47138],[135.77406,33.47136],[135.77416,33.4713],[135.77421,33.47126],[135.77428,33.47099],[135.77427,33.47095],[135.77427,33.47089],[135.77428,33.47086],[135.7743,33.47083],[135.77432,33.4708],[135.77434,33.47077],[135.77436,33.47074],[135.77437,33.47071],[135.77439,33.47067],[135.7744,33.47064],[135.7744,33.4706],[135.77441,33.47057],[135.77441,33.47054],[135.77442,33.4705],[135.77442,33.47045],[135.77441,33.47042],[135.77441,33.47037],[135.77442,33.47034],[135.77443,33.47031],[135.77445,33.47028],[135.77446,33.47024],[135.77446,33.47022],[135.77445,33.47018],[135.7744,33.4701],[135.77439,33.46974],[135.77439,33.4697],[135.77438,33.46967],[135.77437,33.46963],[135.77438,33.46955],[135.77439,33.46953],[135.7744,33.4695],[135.77441,33.46946],[135.77442,33.46943],[135.77443,33.4694],[135.77445,33.46937],[135.77446,33.46931],[135.77445,33.46928],[135.77543,33.46066],[135.76479,33.45611],[135.76173,33.45623],[135.75003,33.44936],[135.75588,33.4443],[135.75376,33.43644],[135.75951,33.43504],[135.76465,33.43539],[135.76762,33.44404],[135.77099,33.44719],[135.77854,33.44602],[135.78345,33.43975],[135.789,33.44356],[135.79334,33.44784],[135.79275,33.45253],[135.78604,33.46236],[135.78122,33.46334],[135.78401,33.47489],[135.78588,33.47609],[135.78887,33.48181],[135.78911,33.48165],[135.7895,33.4815],[135.78962,33.48161],[135.78962,33.48165],[135.78979,33.48178],[135.78979,33.48185],[135.78977,33.48192],[135.78983,33.48202],[135.78983,33.4821],[135.78981,33.48213],[135.78971,33.48219],[135.78937,33.48229],[135.78937,33.48233],[135.78937,33.48238],[135.78939,33.48244],[135.78941,33.48253],[135.78943,33.48256],[135.78944,33.4826],[135.78944,33.48263],[135.78942,33.48281],[135.7895,33.48306],[135.78952,33.48309],[135.78968,33.48309],[135.7898,33.48307],[135.78976,33.48317],[135.78962,33.48324],[135.79545,33.48904],[135.79706,33.49685],[135.80591,33.50289],[135.81108,33.50174],[135.81832,33.50709],[135.8197,33.51096],[135.82524,33.51459],[135.83789,33.51158],[135.84071,33.51284],[135.84197,33.5172],[135.84811,33.52105],[135.85659,33.52289],[135.85883,33.52628],[135.86468,33.52736],[135.86645,33.53039],[135.87421,33.53377],[135.87836,33.52886],[135.88207,33.5357],[135.89921,33.54606],[135.89455,33.55228],[135.8873,33.55243],[135.88383,33.55458],[135.88006,33.56078],[135.88453,33.5636],[135.88037,33.57885],[135.8756,33.58145],[135.87023,33.58157],[135.86254,33.5788],[135.86083,33.5837],[135.85323,33.58764],[135.84909,33.58449],[135.83955,33.58141],[135.83994,33.57427],[135.83585,33.57059],[135.83515,33.56375],[135.82909,33.55927],[135.83583,33.54238],[135.83472,33.53579],[135.82582,33.53563],[135.82687,33.52899],[135.82234,33.52264],[135.81883,33.5251],[135.81015,33.53601],[135.80278,33.53264],[135.79652,33.52739],[135.7842,33.52513],[135.78041,33.52208],[135.7699,33.52105],[135.75729,33.52268],[135.75314,33.52205],[135.74553,33.51678],[135.73695,33.52076],[135.73634,33.52564],[135.7311,33.52967],[135.72093,33.53113],[135.71924,33.52569],[135.71584,33.52452],[135.70475,33.52765],[135.7008,33.51952],[135.69268,33.52196],[135.68572,33.52087],[135.68096,33.527],[135.67566,33.52679],[135.67246,33.52992],[135.66671,33.53032],[135.66679,33.53405],[135.66223,33.54857],[135.66231,33.55569],[135.655,33.55904],[135.65159,33.56578],[135.64237,33.56675],[135.63197,33.57261],[135.6277,33.56818],[135.62921,33.55393],[135.64101,33.55348],[135.63632,33.54593],[135.63667,33.54237],[135.62643,33.53268],[135.62182,33.53041],[135.63081,33.52692],[135.63858,33.52212],[135.63552,33.50659]]],[[[135.82156,33.47602],[135.81414,33.47625],[135.80805,33.47928],[135.80599,33.47465],[135.79983,33.46955],[135.80259,33.46381],[135.8082,33.4652],[135.82088,33.46225],[135.82492,33.4595],[135.82162,33.45237],[135.83162,33.45089],[135.83874,33.45562],[135.83973,33.45975],[135.8525,33.46095],[135.8561,33.47071],[135.84814,33.47164],[135.84562,33.47466],[135.82847,33.4775],[135.82183,33.47603],[135.82181,33.47603],[135.82156,33.47602]]],[[[135.76333,33.43414],[135.76337,33.43414],[135.76336,33.43415],[135.76334,33.43415],[135.76333,33.43414]]]]},"properties":{"pref":"和歌山県","county":"東牟婁郡","city":"串本町","code5":"30428","code6":"304280"}}
]}