{"type":"FeatureCollection", "features": [
{"type":"Feature","geometry":{"type":"Polygon","coordinates":[[[134.43444,35.47083],[134.42715,35.48173],[134.4271,35.48607],[134.41357,35.48982],[134.40885,35.48689],[134.40044,35.49009],[134.40032,35.49218],[134.39317,35.50064],[134.38746,35.49813],[134.37888,35.50069],[134.36111,35.48388],[134.35269,35.48203],[134.35043,35.47789],[134.33865,35.47934],[134.33592,35.47816],[134.3286,35.48493],[134.31943,35.48703],[134.31893,35.49183],[134.32433,35.49764],[134.32347,35.50245],[134.32662,35.51041],[134.32305,35.51301],[134.32882,35.52814],[134.32683,35.53377],[134.31755,35.53565],[134.31687,35.53839],[134.30928,35.53819],[134.30608,35.54714],[134.29935,35.54865],[134.29472,35.56197],[134.29161,35.56216],[134.28664,35.56786],[134.28272,35.56707],[134.27779,35.57271],[134.27407,35.56615],[134.27252,35.56067],[134.25755,35.55457],[134.23117,35.54646],[134.20779,35.54166],[134.19714,35.54086],[134.19305,35.54301],[134.18729,35.53979],[134.1917,35.53597],[134.18629,35.53849],[134.16949,35.53359],[134.15221,35.5309],[134.09844,35.5244],[134.08443,35.52501],[134.07667,35.52093],[134.05698,35.51893],[134.03391,35.51849],[134.0218,35.51969],[134.01841,35.52201],[134.01522,35.52996],[134.00846,35.53767],[134.00239,35.53171],[134.00074,35.52607],[133.98939,35.52292],[133.98009,35.52218],[133.9652,35.52284],[133.9706,35.51826],[133.9709,35.51217],[133.96434,35.50314],[133.95725,35.49921],[133.95423,35.48836],[133.95579,35.48595],[133.95226,35.47978],[133.95174,35.47484],[133.94604,35.46183],[133.94828,35.4566],[133.95369,35.4508],[133.94741,35.44113],[133.95085,35.43682],[133.95138,35.42815],[133.96478,35.42661],[133.97087,35.42211],[133.978,35.42512],[133.98306,35.42513],[133.98877,35.4207],[133.9937,35.4235],[133.99523,35.41397],[134.00084,35.40639],[133.99497,35.40303],[133.99131,35.39366],[133.99955,35.38921],[134.00284,35.39081],[134.01668,35.38692],[134.03162,35.3792],[134.0415,35.37648],[134.03157,35.36639],[134.0285,35.36903],[134.02423,35.36443],[134.01776,35.36109],[134.01985,35.35608],[134.01481,35.35039],[134.01542,35.34529],[134.01082,35.3404],[134.01536,35.33386],[134.01199,35.32989],[134.00416,35.32528],[133.99947,35.31465],[134.00784,35.3084],[134.02169,35.30557],[134.02533,35.30749],[134.03014,35.30542],[134.04414,35.30276],[134.04813,35.29848],[134.05466,35.29819],[134.0622,35.30304],[134.07066,35.29926],[134.07584,35.30275],[134.08168,35.30226],[134.0863,35.30733],[134.09791,35.3033],[134.10279,35.29639],[134.11411,35.28846],[134.11382,35.28595],[134.1223,35.28107],[134.13153,35.28033],[134.13568,35.28234],[134.13924,35.27905],[134.14804,35.27792],[134.15656,35.27171],[134.1601,35.27194],[134.18676,35.27879],[134.1947,35.27883],[134.1979,35.28078],[134.19914,35.28718],[134.20781,35.28969],[134.21382,35.29426],[134.21978,35.30142],[134.22375,35.29736],[134.23572,35.29625],[134.24442,35.29825],[134.25235,35.29605],[134.2573,35.30288],[134.2657,35.30507],[134.27054,35.30901],[134.26902,35.31246],[134.26268,35.31266],[134.25737,35.31537],[134.25463,35.32049],[134.25413,35.32741],[134.24501,35.3281],[134.23922,35.34095],[134.23836,35.34775],[134.2422,35.3528],[134.24128,35.35583],[134.23429,35.36087],[134.23078,35.37163],[134.2338,35.37893],[134.23235,35.38148],[134.23589,35.3862],[134.23184,35.39128],[134.22541,35.3932],[134.21975,35.39768],[134.21592,35.40329],[134.21552,35.41177],[134.2185,35.41386],[134.22699,35.41423],[134.23198,35.41872],[134.23812,35.42109],[134.23806,35.42486],[134.24488,35.42976],[134.24836,35.42892],[134.26217,35.43143],[134.26514,35.44013],[134.27287,35.44336],[134.2743,35.44926],[134.2781,35.44989],[134.28005,35.44444],[134.28884,35.44186],[134.29685,35.44508],[134.30355,35.4402],[134.31035,35.43868],[134.32551,35.42971],[134.33037,35.4281],[134.34073,35.43033],[134.34838,35.42535],[134.36332,35.4263],[134.3773,35.43159],[134.37971,35.43756],[134.39401,35.43822],[134.39743,35.44031],[134.40473,35.43951],[134.41564,35.43389],[134.4231,35.43613],[134.42799,35.43491],[134.44077,35.43986],[134.4401,35.4428],[134.43818,35.46123],[134.43458,35.46363],[134.43444,35.47083]]]},"properties":{"pref":"鳥取県","city":"鳥取市","code5":"31201","code6":"312011"}},
{"type":"Feature","geometry":{"type":"Polygon","coordinates":[[[133.37405,35.45629],[133.35434,35.46059],[133.34837,35.4607],[133.32319,35.46628],[133.30687,35.47205],[133.29344,35.47782],[133.27987,35.48647],[133.26885,35.49505],[133.26283,35.50098],[133.25609,35.49731],[133.25095,35.49701],[133.24338,35.49229],[133.22685,35.47716],[133.25974,35.45388],[133.27202,35.44601],[133.30072,35.4363],[133.30869,35.43088],[133.32057,35.41028],[133.32106,35.39551],[133.31514,35.39176],[133.31357,35.38735],[133.31902,35.38349],[133.32443,35.37428],[133.32884,35.37467],[133.33925,35.38532],[133.34994,35.38704],[133.35576,35.38631],[133.35999,35.38101],[133.37299,35.37876],[133.3867,35.38642],[133.38931,35.39688],[133.39506,35.39587],[133.39982,35.40392],[133.40307,35.39791],[133.41485,35.38961],[133.42994,35.39168],[133.44044,35.39038],[133.44537,35.39238],[133.44568,35.39777],[133.44183,35.41456],[133.45097,35.41656],[133.46566,35.41595],[133.47028,35.42295],[133.47968,35.42988],[133.48025,35.4372],[133.47121,35.43996],[133.46498,35.44542],[133.45844,35.44722],[133.45915,35.45172],[133.45286,35.46207],[133.44184,35.4597],[133.43412,35.45962],[133.4346,35.46875],[133.42932,35.46989],[133.4277,35.46293],[133.42264,35.45836],[133.41178,35.45471],[133.40105,35.45331],[133.39161,35.45382],[133.39055,35.44603],[133.38659,35.44149],[133.38457,35.43257],[133.37982,35.42999],[133.37654,35.4333],[133.36756,35.43436],[133.37405,35.45629]]]},"properties":{"pref":"鳥取県","city":"米子市","code5":"31202","code6":"312029"}},
{"type":"Feature","geometry":{"type":"Polygon","coordinates":[[[133.84663,35.47843],[133.83872,35.47727],[133.82756,35.4814],[133.82539,35.47554],[133.82655,35.47232],[133.82541,35.4639],[133.82215,35.46343],[133.81849,35.45789],[133.80384,35.46076],[133.80442,35.4646],[133.79641,35.46989],[133.78446,35.46325],[133.77655,35.46939],[133.7656,35.46847],[133.76119,35.47111],[133.75167,35.46591],[133.74693,35.4604],[133.74955,35.45497],[133.74311,35.44917],[133.73714,35.44684],[133.73098,35.44083],[133.72626,35.44035],[133.71739,35.43377],[133.70954,35.43283],[133.69887,35.42664],[133.68984,35.42279],[133.68183,35.42079],[133.67059,35.42021],[133.66583,35.41871],[133.65886,35.41251],[133.65001,35.40696],[133.64445,35.40095],[133.64418,35.39555],[133.63969,35.3908],[133.63881,35.38685],[133.62616,35.37916],[133.61525,35.37744],[133.60559,35.37386],[133.60106,35.37063],[133.59387,35.37054],[133.58822,35.36731],[133.58456,35.36809],[133.57623,35.36587],[133.57656,35.35993],[133.58039,35.35897],[133.58536,35.35196],[133.59368,35.35043],[133.59641,35.3449],[133.60581,35.34106],[133.618,35.3396],[133.62219,35.33671],[133.63161,35.3395],[133.6389,35.33895],[133.64069,35.33666],[133.64918,35.33634],[133.66574,35.32401],[133.67396,35.32337],[133.67736,35.31929],[133.68357,35.31875],[133.69176,35.32084],[133.69606,35.32692],[133.70496,35.3243],[133.70902,35.32506],[133.71721,35.31992],[133.72473,35.31965],[133.72713,35.31701],[133.74868,35.31706],[133.75069,35.3114],[133.75696,35.3082],[133.76234,35.31109],[133.76456,35.31694],[133.77183,35.32045],[133.77544,35.32652],[133.77906,35.32476],[133.7831,35.32772],[133.78662,35.33427],[133.79725,35.33732],[133.80783,35.34742],[133.81998,35.34852],[133.83016,35.35705],[133.8319,35.36547],[133.83147,35.37139],[133.83531,35.38491],[133.84172,35.39188],[133.84572,35.40127],[133.85051,35.40774],[133.85974,35.41006],[133.86697,35.4218],[133.87146,35.41943],[133.88748,35.42346],[133.88746,35.42722],[133.88116,35.43259],[133.87071,35.43526],[133.86768,35.44068],[133.86035,35.44355],[133.86317,35.45229],[133.86284,35.45912],[133.86658,35.46325],[133.8658,35.47174],[133.85894,35.47793],[133.85458,35.47647],[133.84663,35.47843]]]},"properties":{"pref":"鳥取県","city":"倉吉市","code5":"31203","code6":"312037"}},
{"type":"Feature","geometry":{"type":"Polygon","coordinates":[[[133.26283,35.50098],[133.2534,35.51295],[133.25308,35.51696],[133.26057,35.51976],[133.25578,35.52828],[133.24629,35.52769],[133.25037,35.53721],[133.25854,35.54164],[133.26522,35.54892],[133.2585,35.55023],[133.24982,35.54645],[133.24462,35.54911],[133.22772,35.54887],[133.21851,35.54631],[133.20102,35.53524],[133.19863,35.52602],[133.20802,35.5105],[133.21605,35.49556],[133.222,35.4814],[133.22685,35.47716],[133.24338,35.49229],[133.25095,35.49701],[133.25609,35.49731],[133.26283,35.50098]]]},"properties":{"pref":"鳥取県","city":"境港市","code5":"31204","code6":"312045"}},
{"type":"Feature","geometry":{"type":"Polygon","coordinates":[[[134.36994,35.61458],[134.37103,35.6061],[134.36644,35.60209],[134.35958,35.60047],[134.34772,35.60131],[134.34334,35.60777],[134.3382,35.60188],[134.33758,35.60042],[134.33771,35.6003],[134.34064,35.59861],[134.33706,35.59337],[134.33152,35.59112],[134.32394,35.59053],[134.31586,35.59392],[134.31132,35.59342],[134.30997,35.59184],[134.30956,35.59233],[134.30939,35.59193],[134.30824,35.5915],[134.30803,35.59143],[134.30338,35.59212],[134.30285,35.59032],[134.30285,35.59028],[134.30273,35.59019],[134.29611,35.58973],[134.29524,35.5895],[134.29455,35.58932],[134.29152,35.57975],[134.28741,35.57355],[134.28274,35.57472],[134.27779,35.57271],[134.28272,35.56707],[134.28664,35.56786],[134.29161,35.56216],[134.29472,35.56197],[134.29935,35.54865],[134.30608,35.54714],[134.30928,35.53819],[134.31687,35.53839],[134.31755,35.53565],[134.32683,35.53377],[134.32882,35.52814],[134.32305,35.51301],[134.32662,35.51041],[134.32347,35.50245],[134.32433,35.49764],[134.31893,35.49183],[134.31943,35.48703],[134.3286,35.48493],[134.33592,35.47816],[134.33865,35.47934],[134.35043,35.47789],[134.35269,35.48203],[134.36111,35.48388],[134.37888,35.50069],[134.38746,35.49813],[134.39317,35.50064],[134.40032,35.49218],[134.40044,35.49009],[134.40885,35.48689],[134.41357,35.48982],[134.4271,35.48607],[134.42715,35.48173],[134.43444,35.47083],[134.43791,35.47428],[134.43022,35.49228],[134.42743,35.49657],[134.43088,35.50247],[134.42763,35.50865],[134.42443,35.50875],[134.4131,35.5176],[134.42067,35.52857],[134.42333,35.53491],[134.42401,35.542],[134.42102,35.54489],[134.42506,35.55203],[134.42228,35.55657],[134.4215,35.56291],[134.41411,35.56406],[134.40995,35.5629],[134.40507,35.57071],[134.40714,35.5793],[134.40562,35.58443],[134.40826,35.58732],[134.40164,35.59503],[134.3931,35.59827],[134.39309,35.60137],[134.38729,35.60372],[134.38163,35.60334],[134.37484,35.60825],[134.37152,35.60857],[134.36994,35.61458]]]},"properties":{"pref":"鳥取県","county":"岩美郡","city":"岩美町","code5":"31302","code6":"313025"}},
{"type":"Feature","geometry":{"type":"Polygon","coordinates":[[[134.50287,35.36596],[134.48656,35.36919],[134.48284,35.37308],[134.47475,35.37471],[134.47138,35.38003],[134.4744,35.38619],[134.47442,35.39203],[134.48143,35.4105],[134.4767,35.41456],[134.47987,35.42496],[134.47735,35.42902],[134.47233,35.42981],[134.46273,35.4368],[134.45226,35.43645],[134.44598,35.44202],[134.4401,35.4428],[134.44077,35.43986],[134.44723,35.43204],[134.44472,35.42304],[134.44562,35.4188],[134.44374,35.41223],[134.43841,35.40833],[134.434,35.39626],[134.42468,35.39099],[134.4076,35.38769],[134.40649,35.38481],[134.39789,35.37996],[134.38829,35.37716],[134.39193,35.37246],[134.38729,35.36331],[134.38642,35.35448],[134.37847,35.36018],[134.37384,35.35698],[134.37542,35.34257],[134.3646,35.3376],[134.35814,35.33739],[134.36132,35.33174],[134.35917,35.32648],[134.35946,35.31985],[134.35452,35.31377],[134.35413,35.30726],[134.35926,35.3054],[134.3623,35.30016],[134.36916,35.29494],[134.37558,35.29615],[134.38356,35.29188],[134.3822,35.28733],[134.38749,35.279],[134.38708,35.25573],[134.38138,35.24885],[134.38973,35.25212],[134.39366,35.25175],[134.40169,35.24582],[134.40281,35.24102],[134.4153,35.2391],[134.43532,35.22917],[134.44035,35.23166],[134.44419,35.23685],[134.44802,35.23794],[134.46382,35.2374],[134.46177,35.2431],[134.47142,35.2483],[134.47652,35.24909],[134.48234,35.25465],[134.48359,35.26028],[134.48991,35.26139],[134.49509,35.26685],[134.50198,35.26873],[134.50479,35.2718],[134.51524,35.27723],[134.5131,35.28653],[134.50928,35.29378],[134.51163,35.30529],[134.5148,35.30767],[134.50505,35.3163],[134.50192,35.32654],[134.50455,35.33727],[134.50684,35.33852],[134.5094,35.34213],[134.51028,35.35085],[134.5135,35.35409],[134.5046,35.35943],[134.50287,35.36596]]]},"properties":{"pref":"鳥取県","county":"八頭郡","city":"若桜町","code5":"31325","code6":"313254"}},
{"type":"Feature","geometry":{"type":"Polygon","coordinates":[[[134.13924,35.27905],[134.1413,35.27494],[134.1376,35.26956],[134.14225,35.26394],[134.15058,35.25796],[134.14276,35.24943],[134.14542,35.24284],[134.13748,35.23925],[134.14446,35.2313],[134.15825,35.23456],[134.16418,35.22798],[134.1623,35.22546],[134.16216,35.21645],[134.15434,35.20555],[134.15398,35.19464],[134.16086,35.19182],[134.16495,35.18798],[134.16889,35.18017],[134.16753,35.17183],[134.1776,35.16917],[134.18994,35.17587],[134.19368,35.18435],[134.19285,35.18856],[134.19841,35.19053],[134.20317,35.18879],[134.21264,35.19072],[134.21652,35.18949],[134.22162,35.19042],[134.22763,35.19711],[134.23468,35.19926],[134.24424,35.19845],[134.24976,35.20068],[134.2541,35.20829],[134.2609,35.21046],[134.26797,35.20842],[134.26854,35.20393],[134.27846,35.19687],[134.28133,35.1967],[134.28232,35.19788],[134.299,35.20186],[134.31379,35.20059],[134.3227,35.20275],[134.33468,35.21289],[134.33655,35.21948],[134.3504,35.22282],[134.35466,35.22655],[134.3689,35.23172],[134.37467,35.23724],[134.37316,35.24588],[134.38138,35.24885],[134.38708,35.25573],[134.38749,35.279],[134.3822,35.28733],[134.38356,35.29188],[134.37558,35.29615],[134.36916,35.29494],[134.3623,35.30016],[134.35926,35.3054],[134.35413,35.30726],[134.34008,35.30712],[134.33095,35.30874],[134.31996,35.3141],[134.31731,35.31183],[134.30673,35.31359],[134.30274,35.31143],[134.28999,35.30848],[134.28854,35.30376],[134.28349,35.30204],[134.27488,35.30319],[134.27054,35.30901],[134.2657,35.30507],[134.2573,35.30288],[134.25235,35.29605],[134.24442,35.29825],[134.23572,35.29625],[134.22375,35.29736],[134.21978,35.30142],[134.21382,35.29426],[134.20781,35.28969],[134.19914,35.28718],[134.1979,35.28078],[134.1947,35.27883],[134.18676,35.27879],[134.1601,35.27194],[134.15656,35.27171],[134.14804,35.27792],[134.13924,35.27905]]]},"properties":{"pref":"鳥取県","county":"八頭郡","city":"智頭町","code5":"31328","code6":"313289"}},
{"type":"Feature","geometry":{"type":"Polygon","coordinates":[[[134.27054,35.30901],[134.27488,35.30319],[134.28349,35.30204],[134.28854,35.30376],[134.28999,35.30848],[134.30274,35.31143],[134.30673,35.31359],[134.31731,35.31183],[134.31996,35.3141],[134.33095,35.30874],[134.34008,35.30712],[134.35413,35.30726],[134.35452,35.31377],[134.35946,35.31985],[134.35917,35.32648],[134.36132,35.33174],[134.35814,35.33739],[134.3646,35.3376],[134.37542,35.34257],[134.37384,35.35698],[134.37847,35.36018],[134.38642,35.35448],[134.38729,35.36331],[134.39193,35.37246],[134.38829,35.37716],[134.39789,35.37996],[134.40649,35.38481],[134.4076,35.38769],[134.42468,35.39099],[134.434,35.39626],[134.43841,35.40833],[134.44374,35.41223],[134.44562,35.4188],[134.44472,35.42304],[134.44723,35.43204],[134.44077,35.43986],[134.42799,35.43491],[134.4231,35.43613],[134.41564,35.43389],[134.40473,35.43951],[134.39743,35.44031],[134.39401,35.43822],[134.37971,35.43756],[134.3773,35.43159],[134.36332,35.4263],[134.34838,35.42535],[134.34073,35.43033],[134.33037,35.4281],[134.32551,35.42971],[134.31035,35.43868],[134.30355,35.4402],[134.29685,35.44508],[134.28884,35.44186],[134.28005,35.44444],[134.2781,35.44989],[134.2743,35.44926],[134.27287,35.44336],[134.26514,35.44013],[134.26217,35.43143],[134.24836,35.42892],[134.24488,35.42976],[134.23806,35.42486],[134.23812,35.42109],[134.23198,35.41872],[134.22699,35.41423],[134.2185,35.41386],[134.21552,35.41177],[134.21592,35.40329],[134.21975,35.39768],[134.22541,35.3932],[134.23184,35.39128],[134.23589,35.3862],[134.23235,35.38148],[134.2338,35.37893],[134.23078,35.37163],[134.23429,35.36087],[134.24128,35.35583],[134.2422,35.3528],[134.23836,35.34775],[134.23922,35.34095],[134.24501,35.3281],[134.25413,35.32741],[134.25463,35.32049],[134.25737,35.31537],[134.26268,35.31266],[134.26902,35.31246],[134.27054,35.30901]]]},"properties":{"pref":"鳥取県","county":"八頭郡","city":"八頭町","code5":"31329","code6":"313297"}},
{"type":"Feature","geometry":{"type":"Polygon","coordinates":[[[133.95138,35.42815],[133.94473,35.4316],[133.94125,35.42997],[133.93223,35.4301],[133.92139,35.4267],[133.909,35.42843],[133.90169,35.42355],[133.89616,35.42202],[133.88748,35.42346],[133.87146,35.41943],[133.86697,35.4218],[133.85974,35.41006],[133.85051,35.40774],[133.84572,35.40127],[133.84172,35.39188],[133.83531,35.38491],[133.83147,35.37139],[133.8319,35.36547],[133.83016,35.35705],[133.81998,35.34852],[133.80783,35.34742],[133.79725,35.33732],[133.78662,35.33427],[133.7831,35.32772],[133.77906,35.32476],[133.77544,35.32652],[133.77183,35.32045],[133.76456,35.31694],[133.76234,35.31109],[133.7757,35.29956],[133.78237,35.29787],[133.79348,35.29285],[133.79987,35.29269],[133.80138,35.28483],[133.80928,35.27692],[133.80761,35.27029],[133.81522,35.26489],[133.81815,35.25924],[133.81815,35.25263],[133.83208,35.24883],[133.84373,35.25349],[133.85224,35.26237],[133.85556,35.26812],[133.86594,35.27226],[133.86346,35.2771],[133.86513,35.28586],[133.86082,35.28809],[133.86201,35.29236],[133.88138,35.29395],[133.90684,35.30664],[133.91756,35.30758],[133.92522,35.3069],[133.93127,35.31471],[133.93202,35.31792],[133.92782,35.3221],[133.93154,35.33321],[133.93713,35.33557],[133.94532,35.33262],[133.95389,35.33829],[133.95407,35.3407],[133.96477,35.34669],[133.96963,35.34783],[133.97978,35.34341],[133.99767,35.3529],[134.00965,35.34952],[134.01481,35.35039],[134.01985,35.35608],[134.01776,35.36109],[134.02423,35.36443],[134.0285,35.36903],[134.03157,35.36639],[134.0415,35.37648],[134.03162,35.3792],[134.01668,35.38692],[134.00284,35.39081],[133.99955,35.38921],[133.99131,35.39366],[133.99497,35.40303],[134.00084,35.40639],[133.99523,35.41397],[133.9937,35.4235],[133.98877,35.4207],[133.98306,35.42513],[133.978,35.42512],[133.97087,35.42211],[133.96478,35.42661],[133.95138,35.42815]]]},"properties":{"pref":"鳥取県","county":"東伯郡","city":"三朝町","code5":"31364","code6":"313645"}},
{"type":"Feature","geometry":{"type":"Polygon","coordinates":[[[133.9652,35.52284],[133.96498,35.52295],[133.96402,35.52295],[133.95976,35.5252],[133.95963,35.5251],[133.95955,35.52516],[133.95954,35.52516],[133.95954,35.52513],[133.95934,35.51958],[133.95271,35.51714],[133.94836,35.51889],[133.9398,35.51633],[133.93331,35.51206],[133.9198,35.50928],[133.91038,35.50896],[133.9022,35.51018],[133.89698,35.50751],[133.87603,35.50709],[133.87427,35.50603],[133.85559,35.50451],[133.85549,35.49883],[133.84663,35.47843],[133.85458,35.47647],[133.85894,35.47793],[133.8658,35.47174],[133.86658,35.46325],[133.86284,35.45912],[133.86317,35.45229],[133.86035,35.44355],[133.86768,35.44068],[133.87071,35.43526],[133.88116,35.43259],[133.88746,35.42722],[133.88748,35.42346],[133.89616,35.42202],[133.90169,35.42355],[133.909,35.42843],[133.92139,35.4267],[133.93223,35.4301],[133.94125,35.42997],[133.94473,35.4316],[133.95138,35.42815],[133.95085,35.43682],[133.94741,35.44113],[133.95369,35.4508],[133.94828,35.4566],[133.94604,35.46183],[133.95174,35.47484],[133.95226,35.47978],[133.95579,35.48595],[133.95423,35.48836],[133.95725,35.49921],[133.96434,35.50314],[133.9709,35.51217],[133.9706,35.51826],[133.9652,35.52284]]]},"properties":{"pref":"鳥取県","county":"東伯郡","city":"湯梨浜町","code5":"31370","code6":"313700"}},
{"type":"Feature","geometry":{"type":"Polygon","coordinates":[[[133.67059,35.42021],[133.67264,35.42407],[133.67714,35.42551],[133.69191,35.43581],[133.70043,35.44532],[133.71084,35.45006],[133.71431,35.45533],[133.72382,35.4619],[133.7252,35.46608],[133.71816,35.47744],[133.72054,35.48225],[133.72059,35.4919],[133.722,35.49538],[133.71743,35.50401],[133.70117,35.50668],[133.68922,35.50748],[133.67187,35.50638],[133.65606,35.50994],[133.65536,35.51271],[133.63319,35.51944],[133.6234,35.51962],[133.60816,35.52217],[133.59979,35.51214],[133.60177,35.50594],[133.60102,35.48913],[133.59759,35.4745],[133.59786,35.46484],[133.59986,35.45887],[133.59683,35.44575],[133.58935,35.44004],[133.58583,35.43053],[133.57564,35.42903],[133.57711,35.42227],[133.58066,35.41845],[133.58367,35.40861],[133.58376,35.40194],[133.58084,35.39618],[133.58278,35.38901],[133.57657,35.38227],[133.5785,35.37895],[133.56084,35.38105],[133.55894,35.36365],[133.56586,35.36164],[133.57195,35.3551],[133.57656,35.35993],[133.57623,35.36587],[133.58456,35.36809],[133.58822,35.36731],[133.59387,35.37054],[133.60106,35.37063],[133.60559,35.37386],[133.61525,35.37744],[133.62616,35.37916],[133.63881,35.38685],[133.63969,35.3908],[133.64418,35.39555],[133.64445,35.40095],[133.65001,35.40696],[133.65886,35.41251],[133.66583,35.41871],[133.67059,35.42021]]]},"properties":{"pref":"鳥取県","county":"東伯郡","city":"琴浦町","code5":"31371","code6":"313718"}},
{"type":"Feature","geometry":{"type":"Polygon","coordinates":[[[133.84663,35.47843],[133.85549,35.49883],[133.85559,35.50451],[133.84605,35.50341],[133.79987,35.5009],[133.75518,35.50082],[133.72457,35.50286],[133.71743,35.50401],[133.722,35.49538],[133.72059,35.4919],[133.72054,35.48225],[133.71816,35.47744],[133.7252,35.46608],[133.72382,35.4619],[133.71431,35.45533],[133.71084,35.45006],[133.70043,35.44532],[133.69191,35.43581],[133.67714,35.42551],[133.67264,35.42407],[133.67059,35.42021],[133.68183,35.42079],[133.68984,35.42279],[133.69887,35.42664],[133.70954,35.43283],[133.71739,35.43377],[133.72626,35.44035],[133.73098,35.44083],[133.73714,35.44684],[133.74311,35.44917],[133.74955,35.45497],[133.74693,35.4604],[133.75167,35.46591],[133.76119,35.47111],[133.7656,35.46847],[133.77655,35.46939],[133.78446,35.46325],[133.79641,35.46989],[133.80442,35.4646],[133.80384,35.46076],[133.81849,35.45789],[133.82215,35.46343],[133.82541,35.4639],[133.82655,35.47232],[133.82539,35.47554],[133.82756,35.4814],[133.83872,35.47727],[133.84663,35.47843]]]},"properties":{"pref":"鳥取県","county":"東伯郡","city":"北栄町","code5":"31372","code6":"313726"}},
{"type":"Feature","geometry":{"type":"Polygon","coordinates":[[[133.39161,35.45382],[133.37786,35.45663],[133.37405,35.45629],[133.36756,35.43436],[133.37654,35.4333],[133.37982,35.42999],[133.38457,35.43257],[133.38659,35.44149],[133.39055,35.44603],[133.39161,35.45382]]]},"properties":{"pref":"鳥取県","county":"西伯郡","city":"日吉津村","code5":"31384","code6":"313840"}},
{"type":"Feature","geometry":{"type":"Polygon","coordinates":[[[133.44568,35.39777],[133.44975,35.39635],[133.47105,35.39906],[133.47637,35.39753],[133.49114,35.40014],[133.5136,35.39724],[133.5159,35.39291],[133.52362,35.38683],[133.52395,35.38312],[133.52112,35.36996],[133.52749,35.35967],[133.53693,35.35534],[133.54259,35.34955],[133.55041,35.34673],[133.55071,35.35191],[133.55641,35.3571],[133.55894,35.36365],[133.56084,35.38105],[133.5785,35.37895],[133.57657,35.38227],[133.58278,35.38901],[133.58084,35.39618],[133.58376,35.40194],[133.58367,35.40861],[133.58066,35.41845],[133.57711,35.42227],[133.57564,35.42903],[133.58583,35.43053],[133.58935,35.44004],[133.59683,35.44575],[133.59986,35.45887],[133.59786,35.46484],[133.59759,35.4745],[133.60102,35.48913],[133.60177,35.50594],[133.59979,35.51214],[133.60816,35.52217],[133.6007,35.52606],[133.59493,35.52646],[133.59055,35.53199],[133.57826,35.52995],[133.56798,35.53036],[133.55944,35.52734],[133.55671,35.52432],[133.54183,35.5211],[133.53484,35.52359],[133.53041,35.51945],[133.51987,35.52092],[133.5149,35.51748],[133.50227,35.51521],[133.49548,35.51249],[133.48489,35.50505],[133.47259,35.49902],[133.46032,35.49875],[133.44639,35.49419],[133.44276,35.48738],[133.43315,35.48208],[133.43458,35.47873],[133.42932,35.46989],[133.4346,35.46875],[133.43412,35.45962],[133.44184,35.4597],[133.45286,35.46207],[133.45915,35.45172],[133.45844,35.44722],[133.46498,35.44542],[133.47121,35.43996],[133.48025,35.4372],[133.47968,35.42988],[133.47028,35.42295],[133.46566,35.41595],[133.45097,35.41656],[133.44183,35.41456],[133.44568,35.39777]]]},"properties":{"pref":"鳥取県","county":"西伯郡","city":"大山町","code5":"31386","code6":"313866"}},
{"type":"Feature","geometry":{"type":"Polygon","coordinates":[[[133.32443,35.37428],[133.31823,35.3724],[133.31928,35.36895],[133.31597,35.36549],[133.30866,35.36649],[133.30249,35.35674],[133.29605,35.34937],[133.29525,35.34061],[133.29689,35.33907],[133.29557,35.32887],[133.29856,35.3251],[133.29264,35.32075],[133.30123,35.30897],[133.30691,35.30348],[133.29951,35.29227],[133.30726,35.2819],[133.31047,35.26838],[133.31769,35.26461],[133.32728,35.26283],[133.33226,35.25747],[133.33349,35.24902],[133.33021,35.24473],[133.33659,35.2344],[133.34328,35.23241],[133.3461,35.23789],[133.35196,35.2363],[133.35727,35.2401],[133.35598,35.24532],[133.36027,35.24719],[133.35402,35.2566],[133.35808,35.26103],[133.35965,35.26339],[133.3689,35.26569],[133.37591,35.26986],[133.3842,35.27148],[133.38604,35.2808],[133.38183,35.29021],[133.38498,35.29444],[133.38225,35.30276],[133.37953,35.30632],[133.38401,35.31459],[133.38378,35.32258],[133.4058,35.3215],[133.41207,35.32402],[133.40816,35.33203],[133.41682,35.33494],[133.41833,35.33892],[133.42713,35.34452],[133.4276,35.34887],[133.42209,35.35372],[133.4148,35.35191],[133.41038,35.35631],[133.40416,35.3571],[133.4016,35.36641],[133.39307,35.3703],[133.39148,35.37435],[133.38223,35.37223],[133.37446,35.37467],[133.37299,35.37876],[133.35999,35.38101],[133.35576,35.38631],[133.34994,35.38704],[133.33925,35.38532],[133.32884,35.37467],[133.32443,35.37428]]]},"properties":{"pref":"鳥取県","county":"西伯郡","city":"南部町","code5":"31389","code6":"313891"}},
{"type":"Feature","geometry":{"type":"Polygon","coordinates":[[[133.37299,35.37876],[133.37446,35.37467],[133.38223,35.37223],[133.39148,35.37435],[133.39307,35.3703],[133.4016,35.36641],[133.40416,35.3571],[133.41038,35.35631],[133.4148,35.35191],[133.42209,35.35372],[133.4276,35.34887],[133.42713,35.34452],[133.41833,35.33892],[133.41682,35.33494],[133.40816,35.33203],[133.41207,35.32402],[133.4058,35.3215],[133.38378,35.32258],[133.38401,35.31459],[133.37953,35.30632],[133.38225,35.30276],[133.38498,35.29444],[133.38183,35.29021],[133.38604,35.2808],[133.3842,35.27148],[133.37591,35.26986],[133.3689,35.26569],[133.35965,35.26339],[133.35808,35.26103],[133.36208,35.25427],[133.36996,35.25252],[133.3694,35.2482],[133.37469,35.24559],[133.37571,35.24],[133.38014,35.23499],[133.39195,35.23633],[133.39958,35.23986],[133.3998,35.24402],[133.411,35.25158],[133.41237,35.25471],[133.42396,35.25784],[133.43001,35.26533],[133.44462,35.27061],[133.4494,35.27968],[133.44906,35.28508],[133.44389,35.29099],[133.44512,35.29631],[133.4504,35.30095],[133.45916,35.3028],[133.46394,35.30944],[133.47582,35.31369],[133.4797,35.32001],[133.48833,35.3238],[133.4995,35.32507],[133.50513,35.32723],[133.50862,35.33459],[133.51901,35.34704],[133.51946,35.35207],[133.52452,35.35503],[133.52749,35.35967],[133.52112,35.36996],[133.52395,35.38312],[133.52362,35.38683],[133.5159,35.39291],[133.5136,35.39724],[133.49114,35.40014],[133.47637,35.39753],[133.47105,35.39906],[133.44975,35.39635],[133.44568,35.39777],[133.44537,35.39238],[133.44044,35.39038],[133.42994,35.39168],[133.41485,35.38961],[133.40307,35.39791],[133.39982,35.40392],[133.39506,35.39587],[133.38931,35.39688],[133.3867,35.38642],[133.37299,35.37876]]]},"properties":{"pref":"鳥取県","county":"西伯郡","city":"伯耆町","code5":"31390","code6":"313904"}},
{"type":"Feature","geometry":{"type":"Polygon","coordinates":[[[133.31047,35.26838],[133.30254,35.26312],[133.29869,35.26457],[133.2918,35.26077],[133.28224,35.2624],[133.27521,35.25781],[133.26406,35.25842],[133.25867,35.26139],[133.25194,35.25929],[133.24342,35.25048],[133.22818,35.2468],[133.22561,35.24956],[133.21202,35.2417],[133.20632,35.24206],[133.19352,35.23728],[133.18162,35.23444],[133.17726,35.23037],[133.16329,35.22258],[133.15888,35.22266],[133.15247,35.2188],[133.15171,35.21616],[133.15342,35.20981],[133.15288,35.2038],[133.15763,35.2039],[133.17182,35.20872],[133.17377,35.20538],[133.18081,35.20267],[133.18466,35.19537],[133.18213,35.18803],[133.18866,35.18513],[133.19365,35.1775],[133.19491,35.16989],[133.19186,35.16273],[133.18416,35.1569],[133.17091,35.15355],[133.16613,35.14921],[133.15746,35.14891],[133.15516,35.1443],[133.1484,35.13977],[133.14531,35.13173],[133.14665,35.12369],[133.1403,35.11728],[133.14421,35.11128],[133.14559,35.10534],[133.13982,35.1],[133.13668,35.0887],[133.14129,35.08284],[133.14081,35.07564],[133.13642,35.07426],[133.13628,35.06957],[133.14201,35.06475],[133.15827,35.07165],[133.16126,35.07414],[133.16846,35.06744],[133.17345,35.06919],[133.17953,35.0673],[133.18645,35.06992],[133.19424,35.07049],[133.19939,35.07254],[133.2149,35.07387],[133.22723,35.06819],[133.2316,35.06944],[133.23319,35.07512],[133.23993,35.07904],[133.24878,35.07869],[133.25379,35.07522],[133.26081,35.06344],[133.26914,35.05768],[133.27263,35.05975],[133.27691,35.06611],[133.28342,35.06595],[133.29082,35.07094],[133.28886,35.07445],[133.29066,35.08442],[133.28826,35.09591],[133.29094,35.10036],[133.29903,35.1038],[133.30283,35.09958],[133.30833,35.09945],[133.31943,35.09386],[133.32814,35.095],[133.33236,35.10127],[133.33822,35.10656],[133.34727,35.1056],[133.35487,35.10077],[133.3584,35.10213],[133.36668,35.11015],[133.37879,35.11467],[133.38699,35.11312],[133.40336,35.11432],[133.40576,35.11802],[133.41183,35.12115],[133.41262,35.13349],[133.41122,35.13875],[133.40514,35.14293],[133.40451,35.14867],[133.40036,35.15327],[133.40072,35.15843],[133.39852,35.16358],[133.39336,35.16914],[133.39695,35.17246],[133.39464,35.17733],[133.38648,35.17434],[133.37816,35.17712],[133.37485,35.17561],[133.36974,35.16072],[133.36489,35.15972],[133.35923,35.16205],[133.35338,35.16735],[133.34368,35.16272],[133.3348,35.1658],[133.32902,35.17669],[133.31225,35.18366],[133.30359,35.18999],[133.29998,35.18967],[133.29382,35.19707],[133.29381,35.20307],[133.29883,35.2098],[133.30656,35.2118],[133.30811,35.20268],[133.31748,35.2065],[133.32105,35.20563],[133.33086,35.20887],[133.3346,35.215],[133.34541,35.21357],[133.35022,35.21471],[133.35371,35.21872],[133.35149,35.22645],[133.35196,35.2363],[133.3461,35.23789],[133.34328,35.23241],[133.33659,35.2344],[133.33021,35.24473],[133.33349,35.24902],[133.33226,35.25747],[133.32728,35.26283],[133.31769,35.26461],[133.31047,35.26838]]]},"properties":{"pref":"鳥取県","county":"日野郡","city":"日南町","code5":"31401","code6":"314013"}},
{"type":"Feature","geometry":{"type":"Polygon","coordinates":[[[133.35196,35.2363],[133.35149,35.22645],[133.35371,35.21872],[133.35022,35.21471],[133.34541,35.21357],[133.3346,35.215],[133.33086,35.20887],[133.32105,35.20563],[133.31748,35.2065],[133.30811,35.20268],[133.30656,35.2118],[133.29883,35.2098],[133.29381,35.20307],[133.29382,35.19707],[133.29998,35.18967],[133.30359,35.18999],[133.31225,35.18366],[133.32902,35.17669],[133.3348,35.1658],[133.34368,35.16272],[133.35338,35.16735],[133.35923,35.16205],[133.36489,35.15972],[133.36974,35.16072],[133.37485,35.17561],[133.37816,35.17712],[133.38648,35.17434],[133.39464,35.17733],[133.3961,35.1806],[133.40278,35.18218],[133.40744,35.18588],[133.41557,35.18472],[133.42085,35.18098],[133.42218,35.17611],[133.42812,35.17741],[133.43805,35.17307],[133.44756,35.1713],[133.45652,35.17311],[133.45983,35.17779],[133.46697,35.17516],[133.47316,35.17859],[133.47485,35.18202],[133.48256,35.18241],[133.48544,35.1864],[133.49846,35.18823],[133.50041,35.19237],[133.50805,35.19309],[133.51047,35.19011],[133.51634,35.19052],[133.51918,35.18291],[133.52611,35.18289],[133.52908,35.18694],[133.52682,35.19367],[133.52068,35.20602],[133.52151,35.21057],[133.51541,35.22053],[133.51131,35.22152],[133.50554,35.22817],[133.50809,35.23303],[133.49525,35.23975],[133.48788,35.23444],[133.4768,35.23244],[133.47018,35.22977],[133.46707,35.23527],[133.46569,35.24297],[133.46947,35.24531],[133.4608,35.25755],[133.45522,35.25448],[133.44491,35.26647],[133.44462,35.27061],[133.43001,35.26533],[133.42396,35.25784],[133.41237,35.25471],[133.411,35.25158],[133.3998,35.24402],[133.39958,35.23986],[133.39195,35.23633],[133.38014,35.23499],[133.37571,35.24],[133.37469,35.24559],[133.3694,35.2482],[133.36996,35.25252],[133.36208,35.25427],[133.35808,35.26103],[133.35402,35.2566],[133.36027,35.24719],[133.35598,35.24532],[133.35727,35.2401],[133.35196,35.2363]]]},"properties":{"pref":"鳥取県","county":"日野郡","city":"日野町","code5":"31402","code6":"314021"}},
{"type":"Feature","geometry":{"type":"Polygon","coordinates":[[[133.57656,35.35993],[133.57195,35.3551],[133.56586,35.36164],[133.55894,35.36365],[133.55641,35.3571],[133.55071,35.35191],[133.55041,35.34673],[133.54259,35.34955],[133.53693,35.35534],[133.52749,35.35967],[133.52452,35.35503],[133.51946,35.35207],[133.51901,35.34704],[133.50862,35.33459],[133.50513,35.32723],[133.4995,35.32507],[133.48833,35.3238],[133.4797,35.32001],[133.47582,35.31369],[133.46394,35.30944],[133.45916,35.3028],[133.4504,35.30095],[133.44512,35.29631],[133.44389,35.29099],[133.44906,35.28508],[133.4494,35.27968],[133.44462,35.27061],[133.44491,35.26647],[133.45522,35.25448],[133.4608,35.25755],[133.46947,35.24531],[133.46569,35.24297],[133.46707,35.23527],[133.47018,35.22977],[133.4768,35.23244],[133.48788,35.23444],[133.49525,35.23975],[133.50809,35.23303],[133.51449,35.23549],[133.51723,35.24074],[133.52567,35.23945],[133.52836,35.23666],[133.53483,35.23672],[133.54149,35.24218],[133.54595,35.24368],[133.55491,35.24181],[133.56181,35.24888],[133.56222,35.25412],[133.56664,35.25559],[133.56818,35.25706],[133.56677,35.26581],[133.57192,35.27257],[133.56885,35.27749],[133.57232,35.28166],[133.57054,35.28709],[133.57755,35.29726],[133.57576,35.30082],[133.57679,35.31441],[133.58793,35.32489],[133.59245,35.33081],[133.58934,35.33786],[133.59453,35.34079],[133.59641,35.3449],[133.59368,35.35043],[133.58536,35.35196],[133.58039,35.35897],[133.57656,35.35993]]]},"properties":{"pref":"鳥取県","county":"日野郡","city":"江府町","code5":"31403","code6":"314030"}}
]}