{"type":"FeatureCollection", "features": [
{"type":"Feature","geometry":{"type":"Polygon","coordinates":[[[133.24462,35.54911],[133.25223,35.55263],[133.26487,35.55561],[133.27898,35.55603],[133.28117,35.55744],[133.29749,35.55885],[133.30628,35.55843],[133.31899,35.56257],[133.32678,35.56795],[133.31581,35.56968],[133.30728,35.57612],[133.30339,35.57321],[133.29341,35.57672],[133.2872,35.57446],[133.28217,35.57818],[133.27929,35.57665],[133.26759,35.57867],[133.26256,35.57479],[133.25202,35.57549],[133.24471,35.57032],[133.23689,35.5726],[133.22499,35.57109],[133.22561,35.57545],[133.21764,35.58015],[133.21569,35.56998],[133.21094,35.56709],[133.19849,35.56972],[133.19256,35.58013],[133.18699,35.57773],[133.191,35.56514],[133.17767,35.56746],[133.17542,35.56457],[133.16847,35.56332],[133.16148,35.57192],[133.15819,35.56723],[133.16003,35.56296],[133.15083,35.55958],[133.14126,35.56091],[133.13861,35.56781],[133.12994,35.57717],[133.12225,35.57833],[133.11532,35.58735],[133.11219,35.58893],[133.11445,35.59399],[133.10408,35.59777],[133.09667,35.59912],[133.09731,35.60351],[133.0902,35.60376],[133.08933,35.59854],[133.09415,35.59239],[133.09157,35.58844],[133.09255,35.58436],[133.09791,35.58075],[133.09585,35.57816],[133.0891,35.58151],[133.08489,35.57996],[133.0757,35.58305],[133.06863,35.58386],[133.06597,35.57829],[133.05813,35.57896],[133.04904,35.57512],[133.06041,35.57154],[133.06069,35.56715],[133.05136,35.55947],[133.04892,35.55436],[133.0445,35.55354],[133.03377,35.55583],[133.02886,35.55022],[133.03013,35.54105],[133.01438,35.53979],[133.00974,35.53779],[133.00539,35.5405],[132.9982,35.53975],[132.99823,35.54366],[132.98333,35.54636],[132.98032,35.54167],[132.97166,35.54459],[132.96947,35.53866],[132.96854,35.52913],[132.97433,35.52771],[132.97443,35.51944],[132.9714,35.51594],[132.96485,35.51474],[132.95478,35.51826],[132.94667,35.51602],[132.93468,35.51698],[132.92533,35.51593],[132.92056,35.51833],[132.91222,35.51325],[132.90316,35.51197],[132.90264,35.50835],[132.90691,35.49939],[132.90542,35.48916],[132.90992,35.47573],[132.91252,35.46496],[132.93441,35.44538],[132.9304,35.43462],[132.89564,35.41194],[132.88784,35.40287],[132.87661,35.39973],[132.87648,35.38711],[132.88155,35.38622],[132.88489,35.38023],[132.8834,35.37469],[132.89169,35.3744],[132.8953,35.37178],[132.90331,35.3715],[132.90841,35.37677],[132.91403,35.37661],[132.91421,35.37201],[132.9256,35.36708],[132.92798,35.37454],[132.9335,35.37593],[132.93693,35.37089],[132.94192,35.37713],[132.952,35.37289],[132.97315,35.36993],[132.97643,35.37181],[132.98912,35.3706],[132.99568,35.37268],[132.99763,35.36967],[133.00614,35.36711],[133.01093,35.36897],[133.00899,35.37382],[133.01133,35.37836],[133.01746,35.37504],[133.02177,35.37883],[133.03494,35.37492],[133.03655,35.37254],[133.04815,35.37451],[133.04973,35.36715],[133.04509,35.3608],[133.04514,35.35322],[133.04971,35.34918],[133.05342,35.33973],[133.06503,35.3297],[133.08286,35.33969],[133.0907,35.3496],[133.09983,35.35559],[133.10831,35.35952],[133.11513,35.35888],[133.12025,35.36037],[133.13741,35.37213],[133.13877,35.3775],[133.15083,35.38377],[133.15905,35.3848],[133.1685,35.38995],[133.17048,35.39513],[133.17825,35.39904],[133.18024,35.40545],[133.18198,35.41981],[133.18476,35.42518],[133.19128,35.43249],[133.19127,35.4399],[133.18739,35.44451],[133.18515,35.46087],[133.18999,35.4636],[133.20022,35.46646],[133.222,35.4814],[133.21605,35.49556],[133.20802,35.5105],[133.19863,35.52602],[133.20102,35.53524],[133.21851,35.54631],[133.22772,35.54887],[133.24462,35.54911]]]},"properties":{"pref":"島根県","city":"松江市","code5":"32201","code6":"322016"}},
{"type":"Feature","geometry":{"type":"Polygon","coordinates":[[[132.30829,34.89612],[132.30093,34.89751],[132.28808,34.90824],[132.28142,34.90609],[132.27697,34.90811],[132.27413,34.90032],[132.27071,34.9018],[132.26404,34.89993],[132.25829,34.90358],[132.26277,34.90745],[132.2632,34.91113],[132.25842,34.91875],[132.2509,34.91942],[132.24855,34.93056],[132.25062,34.93397],[132.24163,34.93661],[132.23586,34.9407],[132.236,34.93354],[132.22922,34.92645],[132.22788,34.91878],[132.21502,34.91844],[132.21134,34.92349],[132.20505,34.92247],[132.19579,34.92834],[132.19059,34.92915],[132.19418,34.94807],[132.18722,34.95471],[132.18039,34.95194],[132.17887,34.94803],[132.16402,34.94669],[132.15711,34.95155],[132.15455,34.94787],[132.14909,34.94678],[132.14642,34.95452],[132.14337,34.95817],[132.14422,34.96401],[132.12773,34.95541],[132.11757,34.95127],[132.11078,34.95055],[132.10512,34.94546],[132.10856,34.93996],[132.1063,34.93554],[132.10085,34.9325],[132.09475,34.93467],[132.09127,34.93354],[132.08461,34.92789],[132.08116,34.92202],[132.07751,34.91966],[132.0775,34.91954],[132.07345,34.91863],[132.07363,34.9176],[132.07372,34.91711],[132.07277,34.91098],[132.07688,34.9124],[132.07841,34.91116],[132.07658,34.90457],[132.07205,34.90763],[132.06585,34.90735],[132.06352,34.90421],[132.06544,34.89235],[132.05756,34.88897],[132.059,34.88416],[132.05427,34.88302],[132.05684,34.87303],[132.05148,34.87105],[132.04435,34.87219],[132.04116,34.87868],[132.03595,34.88207],[132.03069,34.87496],[132.02144,34.87062],[132.01819,34.87211],[132.01103,34.86859],[132.00795,34.86545],[132.01079,34.86084],[132.01533,34.8591],[132.00807,34.84729],[131.99729,34.84225],[131.99363,34.838],[131.98921,34.82781],[131.9835,34.82638],[131.97601,34.82122],[131.97264,34.8232],[131.9629,34.81796],[131.95464,34.81636],[131.95643,34.81336],[131.94846,34.79742],[131.94844,34.79745],[131.94845,34.79741],[131.94739,34.79635],[131.94679,34.79293],[131.94,34.78918],[131.93499,34.78957],[131.92538,34.78243],[131.92311,34.78869],[131.91675,34.78349],[131.91449,34.77408],[131.90756,34.77527],[131.90093,34.77417],[131.89727,34.77568],[131.8936,34.76978],[131.89405,34.76245],[131.8975,34.75685],[131.90781,34.7533],[131.91323,34.75411],[131.92896,34.74867],[131.93268,34.74505],[131.93193,34.73992],[131.93453,34.73598],[131.942,34.73792],[131.94491,34.7368],[131.94772,34.72388],[131.95599,34.72714],[131.95772,34.72018],[131.96699,34.72022],[131.97413,34.71514],[131.98853,34.71551],[132.00083,34.71374],[132.00142,34.71738],[132.00917,34.71372],[132.01386,34.70888],[132.01503,34.70435],[132.02075,34.70074],[132.02974,34.70583],[132.03814,34.70621],[132.03519,34.71644],[132.03682,34.7191],[132.04571,34.71775],[132.04926,34.71346],[132.05327,34.71444],[132.06108,34.70952],[132.06964,34.70646],[132.07936,34.7072],[132.08375,34.70515],[132.09255,34.71258],[132.10149,34.71475],[132.10699,34.71889],[132.1145,34.71193],[132.12118,34.7149],[132.12957,34.71272],[132.13077,34.70803],[132.13541,34.70745],[132.1415,34.71005],[132.14309,34.71605],[132.15416,34.71999],[132.15578,34.72313],[132.17125,34.72971],[132.17785,34.73663],[132.18467,34.7338],[132.19653,34.73857],[132.19569,34.74445],[132.20336,34.74883],[132.20989,34.74488],[132.21498,34.74565],[132.2225,34.74972],[132.22456,34.75775],[132.22217,34.76028],[132.22678,34.7646],[132.22519,34.76998],[132.23278,34.77311],[132.24286,34.78373],[132.24124,34.78754],[132.24305,34.79801],[132.23838,34.80186],[132.24279,34.80669],[132.25963,34.80682],[132.26791,34.80176],[132.27857,34.79752],[132.27471,34.7916],[132.27925,34.78998],[132.27956,34.78438],[132.28956,34.77839],[132.29865,34.77701],[132.3022,34.78528],[132.30672,34.78999],[132.30588,34.79335],[132.31296,34.797],[132.31582,34.80142],[132.3249,34.79256],[132.3338,34.79004],[132.34679,34.79344],[132.35235,34.79807],[132.35686,34.79695],[132.36032,34.79987],[132.37308,34.80123],[132.38305,34.7948],[132.383,34.80256],[132.38525,34.80636],[132.38344,34.81076],[132.38745,34.8177],[132.39044,34.81932],[132.39041,34.83239],[132.39318,34.83585],[132.38408,34.84836],[132.38038,34.85029],[132.38081,34.85757],[132.37369,34.86093],[132.36571,34.86227],[132.35411,34.86039],[132.35103,34.8579],[132.33914,34.86143],[132.33556,34.86754],[132.3261,34.87785],[132.32369,34.87798],[132.31621,34.88462],[132.31012,34.88672],[132.30631,34.89375],[132.30829,34.89612]]]},"properties":{"pref":"島根県","city":"浜田市","code5":"32202","code6":"322024"}},
{"type":"Feature","geometry":{"type":"Polygon","coordinates":[[[132.90316,35.51197],[132.8966,35.51272],[132.89043,35.51074],[132.86225,35.51079],[132.85625,35.51012],[132.84193,35.50322],[132.83103,35.50505],[132.82587,35.49739],[132.8127,35.49689],[132.80641,35.49305],[132.80029,35.4837],[132.79543,35.48439],[132.79016,35.48139],[132.77973,35.47892],[132.77523,35.48057],[132.77009,35.47771],[132.76309,35.47752],[132.7581,35.47528],[132.7408,35.47102],[132.73152,35.46936],[132.75709,35.45606],[132.75766,35.45055],[132.75343,35.44757],[132.74648,35.4485],[132.73925,35.44635],[132.72381,35.44711],[132.70898,35.44141],[132.70266,35.44501],[132.70137,35.44863],[132.6849,35.45172],[132.687,35.44506],[132.67924,35.44438],[132.6757,35.4478],[132.66824,35.44456],[132.65851,35.44469],[132.65544,35.44008],[132.65055,35.44141],[132.64716,35.43819],[132.64317,35.44075],[132.64538,35.43284],[132.64048,35.43381],[132.62831,35.42897],[132.62379,35.42514],[132.62277,35.41856],[132.63056,35.41719],[132.63571,35.41838],[132.64466,35.41622],[132.64975,35.41085],[132.65653,35.41046],[132.66189,35.40522],[132.67166,35.40076],[132.6748,35.3874],[132.67471,35.37221],[132.67139,35.355],[132.66252,35.33095],[132.65597,35.31892],[132.64323,35.30194],[132.62896,35.28826],[132.61705,35.28234],[132.6041,35.27758],[132.5896,35.2757],[132.58925,35.2758],[132.58925,35.27578],[132.58124,35.27132],[132.57552,35.27204],[132.57921,35.26429],[132.58101,35.25019],[132.58453,35.2461],[132.58079,35.23993],[132.5798,35.23422],[132.5854,35.22866],[132.59005,35.22791],[132.5984,35.22117],[132.60043,35.21721],[132.6085,35.21744],[132.60965,35.21201],[132.61561,35.21314],[132.6201,35.20873],[132.62591,35.20893],[132.63077,35.20221],[132.63864,35.20256],[132.64069,35.20911],[132.64647,35.21052],[132.65467,35.20255],[132.65971,35.19958],[132.66122,35.19144],[132.66639,35.1858],[132.6654,35.18165],[132.66807,35.1762],[132.66633,35.17048],[132.67457,35.17462],[132.68802,35.17054],[132.69097,35.16829],[132.69017,35.16206],[132.69513,35.16003],[132.70076,35.16166],[132.7099,35.16167],[132.71069,35.16726],[132.71749,35.17147],[132.72585,35.17019],[132.7303,35.17189],[132.73423,35.16855],[132.74096,35.16901],[132.73714,35.17554],[132.74162,35.18252],[132.74962,35.18276],[132.75681,35.19674],[132.76333,35.1985],[132.76367,35.20461],[132.76651,35.21167],[132.76266,35.21685],[132.76381,35.22549],[132.77636,35.23031],[132.78123,35.23603],[132.78453,35.24368],[132.79228,35.24646],[132.79348,35.25392],[132.78681,35.26243],[132.79243,35.26873],[132.79495,35.27885],[132.7991,35.28087],[132.80028,35.28519],[132.80529,35.28808],[132.8146,35.28916],[132.81259,35.29755],[132.82419,35.29961],[132.83196,35.29791],[132.84255,35.29841],[132.84171,35.3038],[132.83707,35.31386],[132.84046,35.31887],[132.84618,35.3173],[132.85064,35.3203],[132.85768,35.31966],[132.86325,35.32184],[132.87165,35.33157],[132.86314,35.34002],[132.86886,35.3475],[132.86531,35.35445],[132.86965,35.35801],[132.8731,35.36414],[132.88432,35.36609],[132.87974,35.36958],[132.8834,35.37469],[132.88489,35.38023],[132.88155,35.38622],[132.87648,35.38711],[132.87661,35.39973],[132.88784,35.40287],[132.89564,35.41194],[132.9304,35.43462],[132.93441,35.44538],[132.91252,35.46496],[132.90992,35.47573],[132.90542,35.48916],[132.90691,35.49939],[132.90264,35.50835],[132.90316,35.51197]]]},"properties":{"pref":"島根県","city":"出雲市","code5":"32203","code6":"322032"}},
{"type":"Feature","geometry":{"type":"Polygon","coordinates":[[[131.89405,34.76245],[131.8861,34.75668],[131.87584,34.75977],[131.86961,34.75865],[131.86465,34.75529],[131.86931,34.74547],[131.87429,34.74382],[131.86907,34.73688],[131.87126,34.73403],[131.86499,34.72819],[131.8612,34.72248],[131.85586,34.72262],[131.85511,34.71732],[131.84913,34.71128],[131.82872,34.69949],[131.8108,34.69211],[131.79011,34.68647],[131.78355,34.68586],[131.76251,34.67902],[131.73968,34.67461],[131.72445,34.67389],[131.71909,34.67608],[131.71484,34.67305],[131.70936,34.67551],[131.70498,34.67264],[131.69916,34.67563],[131.69097,34.67711],[131.69062,34.68105],[131.68884,34.67335],[131.68444,34.66716],[131.68988,34.66309],[131.68876,34.65681],[131.69524,34.65597],[131.69886,34.64886],[131.69707,34.64189],[131.69827,34.63178],[131.69423,34.62773],[131.69482,34.62068],[131.69993,34.61623],[131.70665,34.6129],[131.71841,34.6134],[131.71692,34.60599],[131.71984,34.60068],[131.71899,34.59682],[131.72084,34.58202],[131.72517,34.5805],[131.72734,34.57615],[131.72442,34.57199],[131.72843,34.56656],[131.73775,34.56109],[131.7446,34.56417],[131.74875,34.56894],[131.75437,34.57013],[131.75845,34.56847],[131.76352,34.57122],[131.76692,34.5775],[131.76616,34.58264],[131.77594,34.57988],[131.78149,34.58262],[131.78791,34.58256],[131.78852,34.58577],[131.79622,34.58513],[131.79943,34.58764],[131.80689,34.58629],[131.81062,34.58093],[131.815,34.57947],[131.82584,34.58352],[131.83139,34.57822],[131.83721,34.57716],[131.84381,34.57376],[131.85316,34.57489],[131.85814,34.56961],[131.86302,34.57216],[131.86258,34.58653],[131.86564,34.5847],[131.87058,34.59383],[131.87903,34.59834],[131.8851,34.59577],[131.8942,34.60105],[131.9021,34.5995],[131.90312,34.58404],[131.91183,34.58574],[131.9216,34.57957],[131.91412,34.57503],[131.91309,34.56811],[131.92013,34.56844],[131.92585,34.56357],[131.92228,34.56146],[131.91914,34.55569],[131.91238,34.5546],[131.90461,34.54124],[131.90811,34.53546],[131.90505,34.52477],[131.91237,34.52133],[131.91294,34.51852],[131.91969,34.5165],[131.9213,34.51235],[131.9389,34.50838],[131.94275,34.50842],[131.95115,34.51638],[131.95713,34.51638],[131.96622,34.50531],[131.96449,34.50151],[131.96684,34.4962],[131.96562,34.49121],[131.97062,34.48359],[131.96715,34.47783],[131.9674,34.47478],[131.97363,34.47138],[131.98406,34.47485],[131.98915,34.47262],[131.99517,34.47294],[131.99654,34.46946],[131.99492,34.46387],[131.99094,34.45882],[131.99097,34.45217],[131.99563,34.45037],[132.00631,34.45379],[132.00748,34.45969],[132.01624,34.46728],[132.02164,34.46674],[132.02775,34.47071],[132.04047,34.47525],[132.04971,34.47435],[132.05519,34.4678],[132.06418,34.46888],[132.06858,34.46767],[132.06718,34.47201],[132.06149,34.47938],[132.05807,34.48032],[132.05745,34.48662],[132.05974,34.49227],[132.0522,34.49892],[132.04753,34.50039],[132.03936,34.49949],[132.03645,34.50126],[132.04712,34.51247],[132.04784,34.52149],[132.05271,34.53027],[132.0588,34.53108],[132.07609,34.53693],[132.08395,34.53753],[132.08877,34.54408],[132.09507,34.54793],[132.10019,34.5551],[132.1071,34.55733],[132.11374,34.56261],[132.11903,34.57263],[132.11788,34.5783],[132.12553,34.58315],[132.12428,34.58784],[132.12968,34.59548],[132.12064,34.60064],[132.11655,34.60672],[132.11707,34.61153],[132.12239,34.61903],[132.12192,34.62165],[132.12669,34.62736],[132.13081,34.62917],[132.13087,34.63365],[132.12676,34.63925],[132.13444,34.64514],[132.1335,34.648],[132.14029,34.65422],[132.14608,34.66209],[132.14779,34.66755],[132.15543,34.67699],[132.16108,34.68812],[132.15751,34.69272],[132.14455,34.69396],[132.14222,34.69159],[132.13631,34.69656],[132.12959,34.70003],[132.13204,34.70233],[132.13077,34.70803],[132.12957,34.71272],[132.12118,34.7149],[132.1145,34.71193],[132.10699,34.71889],[132.10149,34.71475],[132.09255,34.71258],[132.08375,34.70515],[132.07936,34.7072],[132.06964,34.70646],[132.06108,34.70952],[132.05327,34.71444],[132.04926,34.71346],[132.04571,34.71775],[132.03682,34.7191],[132.03519,34.71644],[132.03814,34.70621],[132.02974,34.70583],[132.02075,34.70074],[132.01503,34.70435],[132.01386,34.70888],[132.00917,34.71372],[132.00142,34.71738],[132.00083,34.71374],[131.98853,34.71551],[131.97413,34.71514],[131.96699,34.72022],[131.95772,34.72018],[131.95599,34.72714],[131.94772,34.72388],[131.94491,34.7368],[131.942,34.73792],[131.93453,34.73598],[131.93193,34.73992],[131.93268,34.74505],[131.92896,34.74867],[131.91323,34.75411],[131.90781,34.7533],[131.8975,34.75685],[131.89405,34.76245]]]},"properties":{"pref":"島根県","city":"益田市","code5":"32204","code6":"322041"}},
{"type":"Feature","geometry":{"type":"MultiPolygon","coordinates":[[[[132.57552,35.27204],[132.57545,35.27207],[132.57543,35.27208],[132.57542,35.27208],[132.57511,35.27225],[132.57502,35.2723],[132.57315,35.2712],[132.56712,35.26789],[132.56361,35.26732],[132.55865,35.26487],[132.55603,35.26441],[132.55584,35.26452],[132.55573,35.26453],[132.55454,35.26367],[132.55186,35.26165],[132.55167,35.26082],[132.55167,35.26081],[132.54914,35.26015],[132.54912,35.26015],[132.54911,35.26014],[132.54502,35.25931],[132.5429,35.25847],[132.54282,35.25832],[132.54234,35.25784],[132.53263,35.25385],[132.53261,35.25385],[132.53265,35.2537],[132.53253,35.25332],[132.52951,35.25232],[132.52747,35.24208],[132.5173,35.24062],[132.50871,35.23789],[132.50825,35.23774],[132.50632,35.23599],[132.50577,35.23474],[132.5043,35.23049],[132.49826,35.22763],[132.48839,35.22959],[132.48828,35.22968],[132.48791,35.23016],[132.48738,35.23051],[132.487,35.2305],[132.48692,35.23007],[132.48727,35.22974],[132.48731,35.22971],[132.48715,35.22976],[132.48811,35.22515],[132.48309,35.22069],[132.4677,35.21736],[132.46526,35.20922],[132.45311,35.20193],[132.45085,35.1991],[132.43423,35.19142],[132.418,35.18822],[132.42184,35.18289],[132.41562,35.18271],[132.41609,35.17644],[132.40934,35.17473],[132.40315,35.16963],[132.40439,35.16005],[132.40133,35.15672],[132.39647,35.15715],[132.39143,35.14848],[132.39141,35.14851],[132.39113,35.14828],[132.3911,35.14826],[132.38391,35.14732],[132.39104,35.14014],[132.38938,35.13174],[132.38519,35.12753],[132.37337,35.12587],[132.37475,35.12322],[132.36896,35.12216],[132.36925,35.12197],[132.36925,35.12195],[132.36966,35.12106],[132.36463,35.12138],[132.36434,35.12076],[132.36496,35.12077],[132.36619,35.12031],[132.36538,35.1201],[132.36498,35.12015],[132.36427,35.11889],[132.36423,35.1186],[132.36404,35.11805],[132.3644,35.1167],[132.36478,35.11607],[132.36519,35.11578],[132.35877,35.11183],[132.35344,35.10645],[132.34999,35.10822],[132.34447,35.10401],[132.33684,35.10144],[132.3285,35.09132],[132.3264,35.08959],[132.32328,35.0844],[132.32576,35.08152],[132.32714,35.08111],[132.32642,35.07514],[132.31803,35.07296],[132.31414,35.06415],[132.32367,35.05176],[132.33058,35.05426],[132.33904,35.04899],[132.34413,35.05083],[132.35639,35.04393],[132.35445,35.04132],[132.35785,35.03566],[132.36374,35.03324],[132.36403,35.02811],[132.36088,35.022],[132.36841,35.00712],[132.37353,35.00761],[132.37886,35.00502],[132.38368,34.99845],[132.38737,35.00356],[132.38846,35.00874],[132.40199,35.01152],[132.4039,35.01554],[132.4091,35.01853],[132.41766,35.01802],[132.42242,35.01979],[132.43051,35.01697],[132.43669,35.0179],[132.44043,35.02204],[132.44583,35.02338],[132.4572,35.0167],[132.45787,35.02574],[132.46005,35.03048],[132.46437,35.0299],[132.47276,35.03551],[132.47618,35.04271],[132.47491,35.04897],[132.47939,35.05199],[132.48366,35.05828],[132.48527,35.06354],[132.48013,35.06689],[132.47426,35.07489],[132.48392,35.07738],[132.48016,35.08035],[132.48514,35.08896],[132.48643,35.09599],[132.49189,35.09899],[132.50016,35.09472],[132.50519,35.09814],[132.50896,35.09784],[132.52447,35.10315],[132.52453,35.10642],[132.53912,35.11749],[132.54304,35.11639],[132.54767,35.12256],[132.55587,35.12118],[132.55889,35.11812],[132.57781,35.11756],[132.58055,35.11977],[132.58872,35.11991],[132.59526,35.1133],[132.60567,35.11603],[132.61404,35.10933],[132.61542,35.10617],[132.61257,35.10067],[132.61315,35.09655],[132.61005,35.093],[132.61285,35.08974],[132.62245,35.0907],[132.63061,35.0982],[132.64164,35.09317],[132.65243,35.0927],[132.65873,35.09011],[132.66623,35.09703],[132.6684,35.10251],[132.66357,35.10702],[132.6706,35.11187],[132.67203,35.11734],[132.66708,35.12104],[132.66378,35.11829],[132.65609,35.1177],[132.65104,35.11976],[132.65174,35.12358],[132.63331,35.13496],[132.62902,35.13633],[132.63183,35.14157],[132.6378,35.14661],[132.64893,35.14923],[132.65368,35.16075],[132.65903,35.16378],[132.66092,35.17047],[132.66633,35.17048],[132.66807,35.1762],[132.6654,35.18165],[132.66639,35.1858],[132.66122,35.19144],[132.65971,35.19958],[132.65467,35.20255],[132.64647,35.21052],[132.64069,35.20911],[132.63864,35.20256],[132.63077,35.20221],[132.62591,35.20893],[132.6201,35.20873],[132.61561,35.21314],[132.60965,35.21201],[132.6085,35.21744],[132.60043,35.21721],[132.5984,35.22117],[132.59005,35.22791],[132.5854,35.22866],[132.5798,35.23422],[132.58079,35.23993],[132.58453,35.2461],[132.58101,35.25019],[132.57921,35.26429],[132.57552,35.27204]]],[[[132.36463,35.12138],[132.36473,35.12153],[132.36472,35.12154],[132.36463,35.12138]]]]},"properties":{"pref":"島根県","city":"大田市","code5":"32205","code6":"322059"}},
{"type":"Feature","geometry":{"type":"Polygon","coordinates":[[[133.22685,35.47716],[133.222,35.4814],[133.20022,35.46646],[133.18999,35.4636],[133.18515,35.46087],[133.18739,35.44451],[133.19127,35.4399],[133.19128,35.43249],[133.18476,35.42518],[133.18198,35.41981],[133.18024,35.40545],[133.17825,35.39904],[133.17048,35.39513],[133.1685,35.38995],[133.15905,35.3848],[133.15083,35.38377],[133.13877,35.3775],[133.13741,35.37213],[133.12025,35.36037],[133.11513,35.35888],[133.10831,35.35952],[133.09983,35.35559],[133.0907,35.3496],[133.08286,35.33969],[133.06503,35.3297],[133.06263,35.32649],[133.06557,35.31949],[133.06435,35.30972],[133.06081,35.30342],[133.06386,35.30036],[133.06275,35.29237],[133.06658,35.29067],[133.06535,35.27864],[133.06915,35.27575],[133.06925,35.26784],[133.07316,35.2638],[133.07053,35.25544],[133.07331,35.24987],[133.08588,35.24868],[133.09191,35.25005],[133.1003,35.24021],[133.10663,35.23924],[133.10873,35.23614],[133.10293,35.22289],[133.10737,35.21441],[133.11479,35.21396],[133.12319,35.20938],[133.1303,35.20904],[133.13232,35.21118],[133.14382,35.21146],[133.15171,35.21616],[133.15247,35.2188],[133.15888,35.22266],[133.16329,35.22258],[133.17726,35.23037],[133.18162,35.23444],[133.19352,35.23728],[133.20632,35.24206],[133.21202,35.2417],[133.22561,35.24956],[133.22818,35.2468],[133.24342,35.25048],[133.25194,35.25929],[133.25867,35.26139],[133.26406,35.25842],[133.27521,35.25781],[133.28224,35.2624],[133.2918,35.26077],[133.29869,35.26457],[133.30254,35.26312],[133.31047,35.26838],[133.30726,35.2819],[133.29951,35.29227],[133.30691,35.30348],[133.30123,35.30897],[133.29264,35.32075],[133.29856,35.3251],[133.29557,35.32887],[133.29689,35.33907],[133.29525,35.34061],[133.29605,35.34937],[133.30249,35.35674],[133.30866,35.36649],[133.31597,35.36549],[133.31928,35.36895],[133.31823,35.3724],[133.32443,35.37428],[133.31902,35.38349],[133.31357,35.38735],[133.31514,35.39176],[133.32106,35.39551],[133.32057,35.41028],[133.30869,35.43088],[133.30072,35.4363],[133.27202,35.44601],[133.25974,35.45388],[133.22685,35.47716]]]},"properties":{"pref":"島根県","city":"安来市","code5":"32206","code6":"322067"}},
{"type":"Feature","geometry":{"type":"MultiPolygon","coordinates":[[[[132.30829,34.89612],[132.31134,34.90346],[132.31024,34.90866],[132.32125,34.9137],[132.32368,34.91681],[132.3332,34.91946],[132.34656,34.92014],[132.35168,34.92546],[132.36511,34.93324],[132.36807,34.94053],[132.37864,34.94128],[132.38401,34.93579],[132.39419,34.9357],[132.39817,34.93722],[132.41204,34.92805],[132.41623,34.92968],[132.42022,34.92628],[132.42865,34.92737],[132.43439,34.93668],[132.43515,34.941],[132.44062,34.94544],[132.44985,34.9477],[132.45354,34.94648],[132.45896,34.95004],[132.46509,34.94865],[132.46169,34.95679],[132.45321,34.96436],[132.43762,34.96484],[132.42845,34.9692],[132.42563,34.97661],[132.41628,34.97568],[132.41344,34.97271],[132.39345,34.97843],[132.38753,34.97729],[132.38592,34.98256],[132.3893,34.98572],[132.38816,34.99333],[132.38368,34.99845],[132.37886,35.00502],[132.37353,35.00761],[132.36841,35.00712],[132.36088,35.022],[132.36403,35.02811],[132.36374,35.03324],[132.35785,35.03566],[132.35445,35.04132],[132.35639,35.04393],[132.34413,35.05083],[132.33904,35.04899],[132.33058,35.05426],[132.32367,35.05176],[132.31414,35.06415],[132.31082,35.05784],[132.30371,35.05295],[132.28978,35.04806],[132.2856,35.04824],[132.28021,35.04331],[132.26917,35.03932],[132.25248,35.03802],[132.23628,35.0346],[132.23132,35.03163],[132.23091,35.02656],[132.22565,35.02509],[132.20355,35.00753],[132.19541,35.00177],[132.18916,34.99433],[132.18277,34.98982],[132.16887,34.9824],[132.15464,34.97646],[132.14984,34.97224],[132.14794,34.96615],[132.14422,34.96401],[132.14337,34.95817],[132.14642,34.95452],[132.14909,34.94678],[132.15455,34.94787],[132.15711,34.95155],[132.16402,34.94669],[132.17887,34.94803],[132.18039,34.95194],[132.18722,34.95471],[132.19418,34.94807],[132.19059,34.92915],[132.19579,34.92834],[132.20505,34.92247],[132.21134,34.92349],[132.21502,34.91844],[132.22788,34.91878],[132.22922,34.92645],[132.236,34.93354],[132.23586,34.9407],[132.24163,34.93661],[132.25062,34.93397],[132.24855,34.93056],[132.2509,34.91942],[132.25842,34.91875],[132.2632,34.91113],[132.26277,34.90745],[132.25829,34.90358],[132.26404,34.89993],[132.27071,34.9018],[132.27413,34.90032],[132.27697,34.90811],[132.28142,34.90609],[132.28808,34.90824],[132.30093,34.89751],[132.30829,34.89612]]],[[[132.31398,35.06431],[132.31406,35.06426],[132.31403,35.06429],[132.31398,35.06431]]]]},"properties":{"pref":"島根県","city":"江津市","code5":"32207","code6":"322075"}},
{"type":"Feature","geometry":{"type":"Polygon","coordinates":[[[132.8834,35.37469],[132.87974,35.36958],[132.88432,35.36609],[132.8731,35.36414],[132.86965,35.35801],[132.86531,35.35445],[132.86886,35.3475],[132.86314,35.34002],[132.87165,35.33157],[132.86325,35.32184],[132.85768,35.31966],[132.85064,35.3203],[132.84618,35.3173],[132.84046,35.31887],[132.83707,35.31386],[132.84171,35.3038],[132.84255,35.29841],[132.83196,35.29791],[132.82419,35.29961],[132.81259,35.29755],[132.8146,35.28916],[132.80529,35.28808],[132.80028,35.28519],[132.7991,35.28087],[132.79495,35.27885],[132.79243,35.26873],[132.78681,35.26243],[132.79348,35.25392],[132.79228,35.24646],[132.78453,35.24368],[132.78123,35.23603],[132.77636,35.23031],[132.76381,35.22549],[132.76266,35.21685],[132.76651,35.21167],[132.76367,35.20461],[132.76333,35.1985],[132.75681,35.19674],[132.74962,35.18276],[132.74162,35.18252],[132.73714,35.17554],[132.74096,35.16901],[132.73423,35.16855],[132.7303,35.17189],[132.72585,35.17019],[132.71749,35.17147],[132.71069,35.16726],[132.7099,35.16167],[132.70076,35.16166],[132.70377,35.15806],[132.70293,35.1486],[132.71117,35.14331],[132.71094,35.13511],[132.71581,35.1317],[132.71214,35.12772],[132.71432,35.12451],[132.72579,35.12598],[132.73014,35.12352],[132.73897,35.1216],[132.74168,35.11443],[132.7451,35.11303],[132.75349,35.11759],[132.75764,35.11353],[132.7694,35.11245],[132.77363,35.12156],[132.78679,35.12766],[132.79012,35.13056],[132.79893,35.13135],[132.80989,35.13063],[132.81361,35.10486],[132.82113,35.1031],[132.83309,35.10452],[132.84183,35.11041],[132.85237,35.09832],[132.85786,35.09621],[132.85975,35.09237],[132.8613,35.09576],[132.87749,35.10156],[132.88351,35.1049],[132.89274,35.10508],[132.8946,35.11821],[132.89734,35.12327],[132.90872,35.12742],[132.91057,35.13317],[132.89979,35.13936],[132.8982,35.14663],[132.90444,35.1516],[132.91114,35.15374],[132.91569,35.1498],[132.92627,35.14865],[132.93662,35.1537],[132.94584,35.15652],[132.94842,35.16209],[132.94411,35.17491],[132.94781,35.18107],[132.9433,35.18869],[132.94542,35.19326],[132.94309,35.2009],[132.95132,35.20593],[132.95106,35.21343],[132.9557,35.21796],[132.9632,35.21651],[132.96561,35.21828],[132.96596,35.22542],[132.96189,35.22536],[132.96305,35.23823],[132.95947,35.23916],[132.95901,35.246],[132.96547,35.24594],[132.97431,35.24853],[132.98031,35.2462],[132.98371,35.24966],[133.00141,35.2489],[133.00301,35.24737],[133.02761,35.24574],[133.0314,35.2489],[133.04684,35.24456],[133.0555,35.24525],[133.06449,35.24845],[133.07331,35.24987],[133.07053,35.25544],[133.07316,35.2638],[133.06925,35.26784],[133.06915,35.27575],[133.06535,35.27864],[133.06658,35.29067],[133.06275,35.29237],[133.06386,35.30036],[133.06081,35.30342],[133.06435,35.30972],[133.06557,35.31949],[133.06263,35.32649],[133.06503,35.3297],[133.05342,35.33973],[133.04971,35.34918],[133.04514,35.35322],[133.04509,35.3608],[133.04973,35.36715],[133.04815,35.37451],[133.03655,35.37254],[133.03494,35.37492],[133.02177,35.37883],[133.01746,35.37504],[133.01133,35.37836],[133.00899,35.37382],[133.01093,35.36897],[133.00614,35.36711],[132.99763,35.36967],[132.99568,35.37268],[132.98912,35.3706],[132.97643,35.37181],[132.97315,35.36993],[132.952,35.37289],[132.94192,35.37713],[132.93693,35.37089],[132.9335,35.37593],[132.92798,35.37454],[132.9256,35.36708],[132.91421,35.37201],[132.91403,35.37661],[132.90841,35.37677],[132.90331,35.3715],[132.8953,35.37178],[132.89169,35.3744],[132.8834,35.37469]]]},"properties":{"pref":"島根県","city":"雲南市","code5":"32209","code6":"322091"}},
{"type":"Feature","geometry":{"type":"Polygon","coordinates":[[[133.15171,35.21616],[133.14382,35.21146],[133.13232,35.21118],[133.1303,35.20904],[133.12319,35.20938],[133.11479,35.21396],[133.10737,35.21441],[133.10293,35.22289],[133.10873,35.23614],[133.10663,35.23924],[133.1003,35.24021],[133.09191,35.25005],[133.08588,35.24868],[133.07331,35.24987],[133.06449,35.24845],[133.0555,35.24525],[133.04684,35.24456],[133.0314,35.2489],[133.02761,35.24574],[133.00301,35.24737],[133.00141,35.2489],[132.98371,35.24966],[132.98031,35.2462],[132.97431,35.24853],[132.96547,35.24594],[132.95901,35.246],[132.95947,35.23916],[132.96305,35.23823],[132.96189,35.22536],[132.96596,35.22542],[132.96561,35.21828],[132.9632,35.21651],[132.9557,35.21796],[132.95106,35.21343],[132.95132,35.20593],[132.94309,35.2009],[132.94542,35.19326],[132.9433,35.18869],[132.94781,35.18107],[132.94411,35.17491],[132.94842,35.16209],[132.94584,35.15652],[132.93662,35.1537],[132.92627,35.14865],[132.91569,35.1498],[132.91114,35.15374],[132.90444,35.1516],[132.8982,35.14663],[132.89979,35.13936],[132.91057,35.13317],[132.90872,35.12742],[132.89734,35.12327],[132.8946,35.11821],[132.89274,35.10508],[132.90283,35.09658],[132.90948,35.08622],[132.9204,35.08385],[132.92661,35.08111],[132.93359,35.08392],[132.94759,35.07576],[132.95518,35.07824],[132.96581,35.07974],[132.97496,35.08318],[132.9824,35.09756],[132.9907,35.1013],[132.99231,35.09836],[133.00011,35.09719],[133.00326,35.09296],[133.01462,35.08765],[133.01641,35.07841],[133.02391,35.07776],[133.03138,35.07287],[133.03311,35.06824],[133.04342,35.0676],[133.05236,35.07023],[133.05998,35.0811],[133.07149,35.08224],[133.08134,35.0806],[133.08539,35.07818],[133.0962,35.08539],[133.10013,35.08295],[133.10678,35.08236],[133.11131,35.08558],[133.12217,35.08399],[133.12657,35.07688],[133.13642,35.07426],[133.14081,35.07564],[133.14129,35.08284],[133.13668,35.0887],[133.13982,35.1],[133.14559,35.10534],[133.14421,35.11128],[133.1403,35.11728],[133.14665,35.12369],[133.14531,35.13173],[133.1484,35.13977],[133.15516,35.1443],[133.15746,35.14891],[133.16613,35.14921],[133.17091,35.15355],[133.18416,35.1569],[133.19186,35.16273],[133.19491,35.16989],[133.19365,35.1775],[133.18866,35.18513],[133.18213,35.18803],[133.18466,35.19537],[133.18081,35.20267],[133.17377,35.20538],[133.17182,35.20872],[133.15763,35.2039],[133.15288,35.2038],[133.15342,35.20981],[133.15171,35.21616]]]},"properties":{"pref":"島根県","county":"仁多郡","city":"奥出雲町","code5":"32343","code6":"323438"}},
{"type":"Feature","geometry":{"type":"Polygon","coordinates":[[[132.66633,35.17048],[132.66092,35.17047],[132.65903,35.16378],[132.65368,35.16075],[132.64893,35.14923],[132.6378,35.14661],[132.63183,35.14157],[132.62902,35.13633],[132.63331,35.13496],[132.65174,35.12358],[132.65104,35.11976],[132.65609,35.1177],[132.66378,35.11829],[132.66708,35.12104],[132.67203,35.11734],[132.6706,35.11187],[132.66357,35.10702],[132.6684,35.10251],[132.66623,35.09703],[132.65873,35.09011],[132.67011,35.07886],[132.67673,35.07694],[132.68376,35.07001],[132.68806,35.07322],[132.69885,35.06534],[132.7047,35.05709],[132.71014,35.0559],[132.71742,35.05688],[132.72177,35.05125],[132.71851,35.04987],[132.71257,35.03828],[132.7171,35.03338],[132.71548,35.02863],[132.71755,35.02364],[132.71383,35.02249],[132.70084,35.02474],[132.69528,35.02916],[132.68632,35.02497],[132.68677,35.02116],[132.6775,35.01614],[132.67462,35.01091],[132.66431,35.00867],[132.66267,35.00561],[132.66516,35.00011],[132.6633,34.99507],[132.66784,34.99211],[132.66236,34.98569],[132.65558,34.9895],[132.64915,34.98617],[132.65165,34.98228],[132.65698,34.98134],[132.65465,34.97536],[132.65683,34.9688],[132.66729,34.96707],[132.6699,34.96432],[132.68326,34.96705],[132.68545,34.96469],[132.68176,34.95968],[132.68271,34.95245],[132.68509,34.95056],[132.69837,34.95364],[132.70198,34.95146],[132.70646,34.95487],[132.71442,34.95338],[132.72039,34.94799],[132.72744,34.95335],[132.72768,34.95644],[132.74054,34.96104],[132.7406,34.95674],[132.74972,34.96026],[132.75135,34.96982],[132.74513,34.97683],[132.75323,34.97887],[132.75594,34.97728],[132.7687,34.98395],[132.76699,34.9912],[132.76343,34.99287],[132.7698,34.99758],[132.77732,34.99886],[132.78132,35.00318],[132.78785,35.0049],[132.78703,35.0133],[132.79313,35.01974],[132.79903,35.02137],[132.80883,35.02856],[132.81332,35.03594],[132.81372,35.04055],[132.82743,35.04709],[132.83677,35.0471],[132.83794,35.05093],[132.82785,35.06122],[132.83149,35.06597],[132.83926,35.07054],[132.84483,35.07694],[132.84591,35.08077],[132.85837,35.08894],[132.85975,35.09237],[132.85786,35.09621],[132.85237,35.09832],[132.84183,35.11041],[132.83309,35.10452],[132.82113,35.1031],[132.81361,35.10486],[132.80989,35.13063],[132.79893,35.13135],[132.79012,35.13056],[132.78679,35.12766],[132.77363,35.12156],[132.7694,35.11245],[132.75764,35.11353],[132.75349,35.11759],[132.7451,35.11303],[132.74168,35.11443],[132.73897,35.1216],[132.73014,35.12352],[132.72579,35.12598],[132.71432,35.12451],[132.71214,35.12772],[132.71581,35.1317],[132.71094,35.13511],[132.71117,35.14331],[132.70293,35.1486],[132.70377,35.15806],[132.70076,35.16166],[132.69513,35.16003],[132.69017,35.16206],[132.69097,35.16829],[132.68802,35.17054],[132.67457,35.17462],[132.66633,35.17048]]]},"properties":{"pref":"島根県","county":"飯石郡","city":"飯南町","code5":"32386","code6":"323861"}},
{"type":"Feature","geometry":{"type":"Polygon","coordinates":[[[132.38368,34.99845],[132.38816,34.99333],[132.3893,34.98572],[132.38592,34.98256],[132.38753,34.97729],[132.39345,34.97843],[132.41344,34.97271],[132.41628,34.97568],[132.42563,34.97661],[132.42845,34.9692],[132.43762,34.96484],[132.45321,34.96436],[132.46169,34.95679],[132.46509,34.94865],[132.47367,34.94616],[132.48029,34.94575],[132.48571,34.94965],[132.49475,34.95002],[132.50334,34.94292],[132.50842,34.94116],[132.51594,34.94227],[132.52125,34.94815],[132.51997,34.95623],[132.52781,34.96059],[132.54076,34.96194],[132.54187,34.95749],[132.55181,34.95772],[132.55294,34.9482],[132.56259,34.95212],[132.56137,34.96102],[132.57174,34.96785],[132.56653,34.97197],[132.56986,34.97444],[132.56981,34.98034],[132.56417,34.9855],[132.56428,34.9936],[132.56022,34.99336],[132.55164,34.99639],[132.54388,34.99254],[132.53017,34.98805],[132.52534,34.99174],[132.52363,34.99587],[132.52493,35.00234],[132.52369,35.00922],[132.51845,35.00946],[132.51421,35.01563],[132.51007,35.01674],[132.50142,35.02454],[132.5056,35.02872],[132.49401,35.03386],[132.4927,35.03867],[132.50051,35.04043],[132.50094,35.05238],[132.48692,35.0563],[132.48366,35.05828],[132.47939,35.05199],[132.47491,35.04897],[132.47618,35.04271],[132.47276,35.03551],[132.46437,35.0299],[132.46005,35.03048],[132.45787,35.02574],[132.4572,35.0167],[132.44583,35.02338],[132.44043,35.02204],[132.43669,35.0179],[132.43051,35.01697],[132.42242,35.01979],[132.41766,35.01802],[132.4091,35.01853],[132.4039,35.01554],[132.40199,35.01152],[132.38846,35.00874],[132.38737,35.00356],[132.38368,34.99845]]]},"properties":{"pref":"島根県","county":"邑智郡","city":"川本町","code5":"32441","code6":"324418"}},
{"type":"Feature","geometry":{"type":"Polygon","coordinates":[[[132.48366,35.05828],[132.48692,35.0563],[132.50094,35.05238],[132.50051,35.04043],[132.4927,35.03867],[132.49401,35.03386],[132.5056,35.02872],[132.50142,35.02454],[132.51007,35.01674],[132.51421,35.01563],[132.51845,35.00946],[132.52369,35.00922],[132.52493,35.00234],[132.52363,34.99587],[132.52534,34.99174],[132.53017,34.98805],[132.54388,34.99254],[132.55164,34.99639],[132.56022,34.99336],[132.56428,34.9936],[132.56417,34.9855],[132.56981,34.98034],[132.56986,34.97444],[132.56653,34.97197],[132.57174,34.96785],[132.57754,34.96585],[132.57565,34.96163],[132.57806,34.95646],[132.57664,34.95343],[132.58034,34.9498],[132.5835,34.9416],[132.59239,34.93839],[132.59252,34.92707],[132.59838,34.93054],[132.60577,34.93234],[132.61607,34.93071],[132.62097,34.92597],[132.6267,34.92517],[132.6246,34.92036],[132.63288,34.91754],[132.63153,34.91189],[132.63403,34.9048],[132.64125,34.90377],[132.64284,34.90901],[132.64711,34.91044],[132.65116,34.91986],[132.65602,34.92323],[132.66081,34.92326],[132.66704,34.9308],[132.67593,34.93277],[132.68509,34.95056],[132.68271,34.95245],[132.68176,34.95968],[132.68545,34.96469],[132.68326,34.96705],[132.6699,34.96432],[132.66729,34.96707],[132.65683,34.9688],[132.65465,34.97536],[132.65698,34.98134],[132.65165,34.98228],[132.64915,34.98617],[132.65558,34.9895],[132.66236,34.98569],[132.66784,34.99211],[132.6633,34.99507],[132.66516,35.00011],[132.66267,35.00561],[132.66431,35.00867],[132.67462,35.01091],[132.6775,35.01614],[132.68677,35.02116],[132.68632,35.02497],[132.69528,35.02916],[132.70084,35.02474],[132.71383,35.02249],[132.71755,35.02364],[132.71548,35.02863],[132.7171,35.03338],[132.71257,35.03828],[132.71851,35.04987],[132.72177,35.05125],[132.71742,35.05688],[132.71014,35.0559],[132.7047,35.05709],[132.69885,35.06534],[132.68806,35.07322],[132.68376,35.07001],[132.67673,35.07694],[132.67011,35.07886],[132.65873,35.09011],[132.65243,35.0927],[132.64164,35.09317],[132.63061,35.0982],[132.62245,35.0907],[132.61285,35.08974],[132.61005,35.093],[132.61315,35.09655],[132.61257,35.10067],[132.61542,35.10617],[132.61404,35.10933],[132.60567,35.11603],[132.59526,35.1133],[132.58872,35.11991],[132.58055,35.11977],[132.57781,35.11756],[132.55889,35.11812],[132.55587,35.12118],[132.54767,35.12256],[132.54304,35.11639],[132.53912,35.11749],[132.52453,35.10642],[132.52447,35.10315],[132.50896,35.09784],[132.50519,35.09814],[132.50016,35.09472],[132.49189,35.09899],[132.48643,35.09599],[132.48514,35.08896],[132.48016,35.08035],[132.48392,35.07738],[132.47426,35.07489],[132.48013,35.06689],[132.48527,35.06354],[132.48366,35.05828]]]},"properties":{"pref":"島根県","county":"邑智郡","city":"美郷町","code5":"32448","code6":"324485"}},
{"type":"Feature","geometry":{"type":"Polygon","coordinates":[[[132.38305,34.7948],[132.3814,34.78584],[132.38744,34.78274],[132.39862,34.78334],[132.40676,34.78955],[132.40689,34.79169],[132.41449,34.79717],[132.42471,34.79908],[132.42441,34.8069],[132.42116,34.81178],[132.42992,34.81422],[132.43662,34.82095],[132.44599,34.8152],[132.44518,34.81332],[132.45668,34.80741],[132.45669,34.80434],[132.46579,34.80166],[132.47199,34.80225],[132.48005,34.79998],[132.48354,34.79715],[132.49502,34.80143],[132.50108,34.79953],[132.50515,34.79602],[132.5205,34.80365],[132.52724,34.79887],[132.53806,34.79499],[132.54365,34.79655],[132.54653,34.80264],[132.55408,34.80828],[132.568,34.80654],[132.56845,34.81074],[132.58018,34.81588],[132.58585,34.82301],[132.59027,34.82133],[132.59212,34.82704],[132.60028,34.83186],[132.60544,34.8307],[132.61249,34.83346],[132.61095,34.83781],[132.61964,34.8435],[132.63118,34.84313],[132.63313,34.83987],[132.64304,34.83765],[132.64751,34.84007],[132.65976,34.83234],[132.66744,34.83228],[132.67112,34.84214],[132.67516,34.84759],[132.68386,34.85135],[132.68962,34.85029],[132.69396,34.84354],[132.69866,34.84295],[132.70251,34.8473],[132.7106,34.84986],[132.71014,34.85828],[132.70635,34.86228],[132.70209,34.87987],[132.69983,34.88223],[132.68772,34.88465],[132.68152,34.88435],[132.67873,34.89071],[132.67456,34.89443],[132.66403,34.88975],[132.65933,34.89222],[132.65788,34.89724],[132.65125,34.9007],[132.63738,34.89858],[132.63403,34.9048],[132.63153,34.91189],[132.63288,34.91754],[132.6246,34.92036],[132.6267,34.92517],[132.62097,34.92597],[132.61607,34.93071],[132.60577,34.93234],[132.59838,34.93054],[132.59252,34.92707],[132.59239,34.93839],[132.5835,34.9416],[132.58034,34.9498],[132.57664,34.95343],[132.57806,34.95646],[132.57565,34.96163],[132.57754,34.96585],[132.57174,34.96785],[132.56137,34.96102],[132.56259,34.95212],[132.55294,34.9482],[132.55181,34.95772],[132.54187,34.95749],[132.54076,34.96194],[132.52781,34.96059],[132.51997,34.95623],[132.52125,34.94815],[132.51594,34.94227],[132.50842,34.94116],[132.50334,34.94292],[132.49475,34.95002],[132.48571,34.94965],[132.48029,34.94575],[132.47367,34.94616],[132.46509,34.94865],[132.45896,34.95004],[132.45354,34.94648],[132.44985,34.9477],[132.44062,34.94544],[132.43515,34.941],[132.43439,34.93668],[132.42865,34.92737],[132.42022,34.92628],[132.41623,34.92968],[132.41204,34.92805],[132.39817,34.93722],[132.39419,34.9357],[132.38401,34.93579],[132.37864,34.94128],[132.36807,34.94053],[132.36511,34.93324],[132.35168,34.92546],[132.34656,34.92014],[132.3332,34.91946],[132.32368,34.91681],[132.32125,34.9137],[132.31024,34.90866],[132.31134,34.90346],[132.30829,34.89612],[132.30631,34.89375],[132.31012,34.88672],[132.31621,34.88462],[132.32369,34.87798],[132.3261,34.87785],[132.33556,34.86754],[132.33914,34.86143],[132.35103,34.8579],[132.35411,34.86039],[132.36571,34.86227],[132.37369,34.86093],[132.38081,34.85757],[132.38038,34.85029],[132.38408,34.84836],[132.39318,34.83585],[132.39041,34.83239],[132.39044,34.81932],[132.38745,34.8177],[132.38344,34.81076],[132.38525,34.80636],[132.383,34.80256],[132.38305,34.7948]]]},"properties":{"pref":"島根県","county":"邑智郡","city":"邑南町","code5":"32449","code6":"324493"}},
{"type":"Feature","geometry":{"type":"Polygon","coordinates":[[[131.72442,34.57199],[131.72,34.57239],[131.7132,34.56281],[131.70602,34.56339],[131.70092,34.55101],[131.70314,34.55047],[131.70511,34.54205],[131.70121,34.53873],[131.70674,34.53308],[131.70141,34.53061],[131.6953,34.52379],[131.67848,34.51684],[131.67258,34.51065],[131.66927,34.51065],[131.66797,34.5041],[131.67551,34.50096],[131.68237,34.48807],[131.68067,34.48538],[131.68345,34.47849],[131.6961,34.48086],[131.70001,34.47471],[131.69888,34.47012],[131.69391,34.46572],[131.69647,34.45805],[131.69554,34.45461],[131.6991,34.45146],[131.6939,34.44357],[131.69743,34.43531],[131.70199,34.43601],[131.71007,34.4318],[131.71287,34.42849],[131.72112,34.42868],[131.72961,34.4327],[131.73783,34.4286],[131.74122,34.42911],[131.74545,34.43528],[131.75195,34.43901],[131.76139,34.43367],[131.77078,34.43709],[131.77286,34.43502],[131.78004,34.4357],[131.78658,34.43445],[131.79382,34.43621],[131.79939,34.44745],[131.8043,34.44835],[131.81912,34.45582],[131.82999,34.45603],[131.83215,34.46211],[131.83699,34.46543],[131.83991,34.47561],[131.848,34.47472],[131.85033,34.47814],[131.84946,34.48397],[131.85769,34.48456],[131.86934,34.47974],[131.88045,34.47855],[131.88357,34.47552],[131.89286,34.47687],[131.89396,34.47277],[131.90725,34.46898],[131.90894,34.47208],[131.91717,34.47655],[131.9252,34.46872],[131.93272,34.4671],[131.94018,34.46278],[131.94927,34.47108],[131.95477,34.47191],[131.96026,34.47614],[131.96715,34.47783],[131.97062,34.48359],[131.96562,34.49121],[131.96684,34.4962],[131.96449,34.50151],[131.96622,34.50531],[131.95713,34.51638],[131.95115,34.51638],[131.94275,34.50842],[131.9389,34.50838],[131.9213,34.51235],[131.91969,34.5165],[131.91294,34.51852],[131.91237,34.52133],[131.90505,34.52477],[131.90811,34.53546],[131.90461,34.54124],[131.91238,34.5546],[131.91914,34.55569],[131.92228,34.56146],[131.92585,34.56357],[131.92013,34.56844],[131.91309,34.56811],[131.91412,34.57503],[131.9216,34.57957],[131.91183,34.58574],[131.90312,34.58404],[131.9021,34.5995],[131.8942,34.60105],[131.8851,34.59577],[131.87903,34.59834],[131.87058,34.59383],[131.86564,34.5847],[131.86258,34.58653],[131.86302,34.57216],[131.85814,34.56961],[131.85316,34.57489],[131.84381,34.57376],[131.83721,34.57716],[131.83139,34.57822],[131.82584,34.58352],[131.815,34.57947],[131.81062,34.58093],[131.80689,34.58629],[131.79943,34.58764],[131.79622,34.58513],[131.78852,34.58577],[131.78791,34.58256],[131.78149,34.58262],[131.77594,34.57988],[131.76616,34.58264],[131.76692,34.5775],[131.76352,34.57122],[131.75845,34.56847],[131.75437,34.57013],[131.74875,34.56894],[131.7446,34.56417],[131.73775,34.56109],[131.72843,34.56656],[131.72442,34.57199]]]},"properties":{"pref":"島根県","county":"鹿足郡","city":"津和野町","code5":"32501","code6":"325015"}},
{"type":"Feature","geometry":{"type":"Polygon","coordinates":[[[131.96715,34.47783],[131.96026,34.47614],[131.95477,34.47191],[131.94927,34.47108],[131.94018,34.46278],[131.93272,34.4671],[131.9252,34.46872],[131.91717,34.47655],[131.90894,34.47208],[131.90725,34.46898],[131.89396,34.47277],[131.89286,34.47687],[131.88357,34.47552],[131.88045,34.47855],[131.86934,34.47974],[131.85769,34.48456],[131.84946,34.48397],[131.85033,34.47814],[131.848,34.47472],[131.83991,34.47561],[131.83699,34.46543],[131.83215,34.46211],[131.82999,34.45603],[131.81912,34.45582],[131.8043,34.44835],[131.79939,34.44745],[131.79382,34.43621],[131.79494,34.43289],[131.79322,34.42234],[131.78692,34.41239],[131.78478,34.39986],[131.77878,34.39858],[131.77471,34.39479],[131.77268,34.38728],[131.76948,34.38663],[131.76346,34.38094],[131.76722,34.37486],[131.76616,34.36487],[131.77095,34.35619],[131.77796,34.35342],[131.77949,34.34456],[131.77461,34.33752],[131.78807,34.32876],[131.79614,34.32656],[131.79647,34.31888],[131.80245,34.31699],[131.80632,34.31238],[131.8131,34.31238],[131.81654,34.31024],[131.81946,34.30297],[131.82346,34.30529],[131.83144,34.30262],[131.83406,34.31116],[131.84131,34.30838],[131.84519,34.31098],[131.85072,34.30661],[131.86034,34.30462],[131.86958,34.30497],[131.87286,34.30847],[131.88129,34.30862],[131.88642,34.31357],[131.88401,34.32129],[131.89053,34.32433],[131.89983,34.31907],[131.9087,34.32548],[131.91328,34.33029],[131.91505,34.33546],[131.92765,34.33464],[131.93487,34.32794],[131.94217,34.32532],[131.95012,34.31462],[131.95868,34.30634],[131.96351,34.3136],[131.96076,34.32079],[131.96244,34.32297],[131.97042,34.32372],[131.97417,34.32895],[131.97547,34.33744],[131.97402,34.34113],[131.97978,34.34278],[131.98364,34.35096],[131.9896,34.35238],[131.99422,34.35806],[131.99454,34.3616],[132.001,34.36623],[132.00722,34.36478],[132.01211,34.3674],[132.01176,34.37503],[132.01352,34.38203],[132.00746,34.38595],[132.00704,34.39085],[132.00026,34.39728],[131.99752,34.40709],[131.98988,34.41395],[131.99746,34.42779],[132.01623,34.43747],[132.01732,34.44027],[132.01542,34.45204],[132.02328,34.46115],[132.03482,34.46341],[132.03905,34.46889],[132.04594,34.46949],[132.04984,34.46639],[132.05519,34.4678],[132.04971,34.47435],[132.04047,34.47525],[132.02775,34.47071],[132.02164,34.46674],[132.01624,34.46728],[132.00748,34.45969],[132.00631,34.45379],[131.99563,34.45037],[131.99097,34.45217],[131.99094,34.45882],[131.99492,34.46387],[131.99654,34.46946],[131.99517,34.47294],[131.98915,34.47262],[131.98406,34.47485],[131.97363,34.47138],[131.9674,34.47478],[131.96715,34.47783]]]},"properties":{"pref":"島根県","county":"鹿足郡","city":"吉賀町","code5":"32505","code6":"325058"}},
{"type":"Feature","geometry":{"type":"MultiPolygon","coordinates":[[[[133.11256,36.12012],[133.10451,36.11679],[133.09978,36.11833],[133.09411,36.1171],[133.09055,36.11091],[133.09385,36.10884],[133.09053,36.10294],[133.08522,36.10247],[133.08777,36.11011],[133.08142,36.11018],[133.08182,36.1035],[133.07676,36.10265],[133.07139,36.10566],[133.06988,36.1011],[133.06436,36.09816],[133.07343,36.08088],[133.07148,36.0765],[133.079,36.07268],[133.07485,36.06361],[133.07038,36.05923],[133.07248,36.05164],[133.06827,36.04198],[133.07047,36.03804],[133.07797,36.03701],[133.08229,36.04062],[133.07699,36.04431],[133.08079,36.04687],[133.08785,36.04623],[133.08775,36.05279],[133.09702,36.04932],[133.10381,36.05002],[133.09974,36.05452],[133.10814,36.0647],[133.11587,36.06634],[133.11805,36.071],[133.11574,36.07912],[133.13149,36.07341],[133.13668,36.08221],[133.14651,36.07403],[133.15053,36.0775],[133.14548,36.08253],[133.13733,36.08432],[133.11911,36.08145],[133.12771,36.09056],[133.12649,36.09788],[133.13596,36.10209],[133.12899,36.10715],[133.12181,36.11531],[133.11677,36.11495],[133.11256,36.12012]]],[[[133.16428,36.11403],[133.1565,36.10513],[133.16271,36.10295],[133.16618,36.10683],[133.16718,36.11301],[133.16428,36.11403]]]]},"properties":{"pref":"島根県","county":"隠岐郡","city":"海士町","code5":"32525","code6":"325252"}},
{"type":"Feature","geometry":{"type":"Polygon","coordinates":[[[133.0692,36.14274],[133.06563,36.13736],[133.05532,36.12971],[133.04692,36.12931],[133.04303,36.1342],[133.03626,36.13497],[133.03065,36.13757],[133.01992,36.13448],[133.01249,36.13577],[133.01409,36.12613],[133.01278,36.11549],[133.00639,36.11198],[132.99939,36.11428],[132.99325,36.11378],[132.98741,36.10948],[132.98605,36.11625],[132.97936,36.11399],[132.9723,36.10799],[132.96457,36.09776],[132.96791,36.09273],[132.96024,36.09204],[132.95364,36.08562],[132.95187,36.0817],[132.94728,36.07972],[132.95049,36.07277],[132.94604,36.06488],[132.95391,36.06065],[132.96144,36.06031],[132.97324,36.0573],[132.97474,36.05259],[132.98611,36.04897],[132.99002,36.04304],[132.99952,36.04019],[133.00047,36.04395],[132.9929,36.05209],[132.99359,36.05672],[132.98906,36.0636],[132.98303,36.06859],[132.98394,36.07136],[132.9767,36.08339],[132.98032,36.08615],[132.98933,36.08514],[132.99243,36.08837],[132.99108,36.09206],[133.00325,36.09184],[133.00802,36.0985],[133.01299,36.09785],[133.01139,36.09331],[133.00543,36.09042],[133.01154,36.07528],[133.01483,36.07413],[133.02275,36.06324],[133.02691,36.06482],[133.03772,36.06233],[133.05107,36.06601],[133.05039,36.07884],[133.05695,36.08313],[133.05603,36.08818],[133.05006,36.09605],[133.04487,36.09506],[133.03952,36.10613],[133.04234,36.11088],[133.04778,36.11317],[133.05323,36.11195],[133.06523,36.11467],[133.07029,36.11364],[133.07385,36.11792],[133.08087,36.12082],[133.09091,36.13424],[133.08992,36.1373],[133.07816,36.14266],[133.07294,36.14093],[133.0692,36.14274]]]},"properties":{"pref":"島根県","county":"隠岐郡","city":"西ノ島町","code5":"32526","code6":"325261"}},
{"type":"Feature","geometry":{"type":"Polygon","coordinates":[[[133.00383,36.03293],[133.00097,36.02707],[133.00756,36.01888],[133.00328,36.01617],[133.00826,36.01045],[133.0093,36.00194],[133.02014,36.00606],[133.03315,36.00648],[133.03816,36.00301],[133.04205,36.00835],[133.04788,36.00928],[133.04814,36.00423],[133.05355,36.0037],[133.05652,36.00059],[133.05704,35.99457],[133.06576,35.99597],[133.06461,36.0043],[133.07306,36.01086],[133.06513,36.01186],[133.06211,36.01038],[133.05489,36.01298],[133.05103,36.01661],[133.04459,36.01881],[133.04152,36.02361],[133.03529,36.02864],[133.03104,36.02864],[133.01067,36.03252],[133.00383,36.03293]]]},"properties":{"pref":"島根県","county":"隠岐郡","city":"知夫村","code5":"32527","code6":"325279"}},
{"type":"Feature","geometry":{"type":"Polygon","coordinates":[[[133.35447,36.20133],[133.3611,36.20413],[133.36787,36.20445],[133.37174,36.21406],[133.37198,36.22259],[133.37774,36.23059],[133.37667,36.23725],[133.37312,36.24296],[133.37621,36.24664],[133.37269,36.251],[133.37944,36.26235],[133.3852,36.26755],[133.37935,36.27093],[133.37908,36.27651],[133.3698,36.2812],[133.36269,36.27911],[133.36342,36.2886],[133.35613,36.29079],[133.35675,36.29939],[133.34895,36.29743],[133.33972,36.3043],[133.33496,36.31232],[133.3291,36.30901],[133.32614,36.31401],[133.32192,36.3161],[133.31635,36.32367],[133.30895,36.31921],[133.30813,36.32428],[133.29695,36.32818],[133.28788,36.33654],[133.28548,36.34267],[133.28003,36.3405],[133.26769,36.3325],[133.2634,36.32789],[133.25643,36.32739],[133.24747,36.33437],[133.23357,36.32876],[133.22639,36.32867],[133.22593,36.32324],[133.23182,36.31931],[133.22466,36.31341],[133.21861,36.31352],[133.21013,36.31083],[133.20848,36.30723],[133.21059,36.30092],[133.20492,36.30067],[133.19628,36.2978],[133.19394,36.29122],[133.20484,36.29145],[133.21375,36.28772],[133.20059,36.28812],[133.198,36.27998],[133.19169,36.28642],[133.18794,36.28195],[133.18639,36.26756],[133.18196,36.26057],[133.17659,36.25595],[133.17772,36.24978],[133.18829,36.24939],[133.19265,36.24546],[133.18955,36.23638],[133.1907,36.23069],[133.18361,36.2238],[133.18536,36.2147],[133.19219,36.21466],[133.19849,36.21173],[133.20762,36.20994],[133.20858,36.19808],[133.22407,36.18842],[133.23476,36.18959],[133.23833,36.19168],[133.24486,36.19016],[133.24631,36.18436],[133.23857,36.1833],[133.23496,36.16892],[133.24028,36.16646],[133.24752,36.17016],[133.24788,36.16113],[133.25284,36.16179],[133.2562,36.16884],[133.26332,36.17044],[133.26769,36.16899],[133.27802,36.16961],[133.27905,36.17237],[133.27668,36.18139],[133.27969,36.18231],[133.28859,36.17438],[133.30055,36.17667],[133.30309,36.17237],[133.30876,36.17436],[133.31365,36.17123],[133.32599,36.16743],[133.33507,36.17047],[133.33929,36.16964],[133.33681,36.18381],[133.33837,36.18675],[133.33505,36.19381],[133.33572,36.1972],[133.32256,36.19969],[133.315,36.19935],[133.3135,36.20434],[133.32292,36.20244],[133.32299,36.20247],[133.32306,36.20251],[133.32313,36.20255],[133.3232,36.20259],[133.32327,36.20263],[133.32344,36.20272],[133.32366,36.20289],[133.32368,36.20291],[133.32371,36.20294],[133.32374,36.20296],[133.32376,36.20299],[133.33189,36.20136],[133.33738,36.20608],[133.33552,36.21182],[133.33917,36.21315],[133.33971,36.22157],[133.34371,36.22025],[133.34542,36.21477],[133.35201,36.21224],[133.34944,36.20686],[133.34175,36.20045],[133.3436,36.19692],[133.34931,36.19623],[133.35447,36.20133]]]},"properties":{"pref":"島根県","county":"隠岐郡","city":"隠岐の島町","code5":"32528","code6":"325287"}}
]}