{"type":"FeatureCollection", "features": [
{"type":"Feature","geometry":{"type":"MultiPolygon","coordinates":[[[[133.80128,34.6626],[133.79877,34.6537],[133.79887,34.64053],[133.79324,34.63895],[133.78826,34.64217],[133.78049,34.64438],[133.77333,34.64307],[133.77079,34.64024],[133.76259,34.64345],[133.75794,34.64175],[133.75131,34.63422],[133.7572,34.63141],[133.7459,34.6223],[133.73906,34.62439],[133.73112,34.62216],[133.7263,34.63082],[133.72775,34.64013],[133.72724,34.64685],[133.72296,34.64804],[133.71677,34.6565],[133.71074,34.65567],[133.70504,34.65827],[133.6967,34.65935],[133.69319,34.6644],[133.68885,34.66313],[133.6817,34.65769],[133.67886,34.6604],[133.66854,34.65448],[133.66656,34.6494],[133.65886,34.64999],[133.64947,34.64519],[133.64546,34.6466],[133.63535,34.64396],[133.63208,34.64183],[133.63388,34.63768],[133.6334,34.62348],[133.637,34.61484],[133.63876,34.60603],[133.64938,34.59625],[133.64293,34.59241],[133.6323,34.58371],[133.62328,34.58048],[133.62301,34.57877],[133.63671,34.56944],[133.63968,34.56062],[133.64786,34.55731],[133.64273,34.54812],[133.64896,34.54518],[133.64079,34.53943],[133.62934,34.52055],[133.62321,34.51877],[133.623,34.51283],[133.61385,34.5078],[133.6076,34.50607],[133.60322,34.50105],[133.60374,34.49514],[133.61155,34.49538],[133.6194,34.49194],[133.62534,34.50099],[133.63144,34.50221],[133.63815,34.50137],[133.64052,34.50504],[133.64717,34.50376],[133.65076,34.50853],[133.64803,34.51212],[133.65712,34.51701],[133.65859,34.52035],[133.66982,34.51778],[133.67688,34.5184],[133.67683,34.5149],[133.67036,34.51275],[133.67019,34.50735],[133.68407,34.50707],[133.68399,34.5125],[133.69047,34.51238],[133.69083,34.52282],[133.70533,34.52306],[133.70403,34.47783],[133.71938,34.47312],[133.73122,34.47104],[133.7434,34.4706],[133.73718,34.49058],[133.71905,34.49641],[133.72169,34.50087],[133.73505,34.49859],[133.73514,34.50673],[133.73707,34.50863],[133.73663,34.51725],[133.74348,34.51251],[133.74288,34.50122],[133.74833,34.48947],[133.75958,34.48585],[133.75712,34.4817],[133.75962,34.4702],[133.76663,34.47232],[133.76749,34.46251],[133.7731,34.46289],[133.77535,34.45905],[133.77131,34.4553],[133.77455,34.45283],[133.78058,34.44538],[133.78164,34.44017],[133.78517,34.43608],[133.79168,34.43936],[133.79666,34.43672],[133.80173,34.43686],[133.80713,34.43589],[133.81433,34.43141],[133.81831,34.43613],[133.81441,34.43799],[133.81121,34.44539],[133.80859,34.4588],[133.81404,34.4615],[133.81708,34.46683],[133.82974,34.47253],[133.84373,34.47009],[133.85556,34.46944],[133.85842,34.46678],[133.86714,34.46728],[133.88014,34.45684],[133.881,34.46338],[133.87625,34.46792],[133.87645,34.47332],[133.87096,34.47649],[133.86358,34.47636],[133.8616,34.48131],[133.86496,34.49231],[133.87041,34.49306],[133.8701,34.50044],[133.86643,34.5107],[133.86649,34.51852],[133.85399,34.5199],[133.84995,34.52697],[133.84293,34.53075],[133.83841,34.53546],[133.82828,34.53453],[133.81928,34.55067],[133.82744,34.55189],[133.83317,34.55486],[133.83172,34.56089],[133.82604,34.56641],[133.83306,34.56847],[133.84289,34.57965],[133.8436,34.59003],[133.83829,34.59922],[133.82813,34.5916],[133.82441,34.59628],[133.81504,34.5989],[133.80915,34.59787],[133.80546,34.6005],[133.8018,34.60898],[133.80413,34.61142],[133.81394,34.61284],[133.81321,34.61663],[133.81817,34.62114],[133.83027,34.62788],[133.83533,34.63018],[133.83753,34.63541],[133.83182,34.65124],[133.83767,34.65502],[133.83503,34.66181],[133.82609,34.66643],[133.82493,34.66935],[133.81316,34.66776],[133.80128,34.6626]]],[[[133.68442,34.50427],[133.67469,34.50416],[133.66919,34.50203],[133.66889,34.48758],[133.68115,34.48741],[133.6835,34.48922],[133.68442,34.50427]]],[[[133.76117,34.43129],[133.76006,34.42692],[133.76397,34.41977],[133.77005,34.41878],[133.77448,34.42175],[133.77496,34.4265],[133.76437,34.42729],[133.76117,34.43129]]],[[[133.83678,34.42547],[133.82737,34.42276],[133.83092,34.4176],[133.83678,34.42547]]]]},"properties":{"pref":"岡山県","city":"倉敷市","code5":"33202","code6":"332020"}},
{"type":"Feature","geometry":{"type":"Polygon","coordinates":[[[134.03014,35.30542],[134.02543,35.29631],[134.01867,35.2899],[134.01743,35.28403],[134.02061,35.28199],[134.02191,35.27395],[134.01689,35.2668],[134.01011,35.26418],[134.00505,35.25695],[134.00027,35.25566],[134.00134,35.24885],[134.00576,35.24514],[134.0041,35.24087],[134.01243,35.23104],[134.00141,35.22506],[133.99689,35.21812],[133.99822,35.20148],[133.99606,35.17828],[133.98832,35.17186],[133.98745,35.16574],[133.98414,35.16108],[133.9784,35.15907],[133.97426,35.15068],[133.97522,35.14303],[133.96888,35.1373],[133.96823,35.1236],[133.96281,35.11568],[133.96519,35.11109],[133.9634,35.10681],[133.95573,35.10276],[133.95626,35.09845],[133.95051,35.09489],[133.94858,35.08775],[133.94329,35.08501],[133.94397,35.07097],[133.93982,35.06876],[133.93748,35.06306],[133.92158,35.06312],[133.91282,35.0674],[133.90458,35.07473],[133.89592,35.07987],[133.88952,35.08107],[133.88029,35.08071],[133.87363,35.08551],[133.87233,35.09255],[133.86788,35.10181],[133.85954,35.10514],[133.85547,35.10517],[133.8456,35.10151],[133.83655,35.0987],[133.83203,35.08825],[133.83577,35.08708],[133.83544,35.08232],[133.82882,35.07748],[133.82236,35.06644],[133.82434,35.0587],[133.82264,35.04682],[133.82609,35.04461],[133.83522,35.04743],[133.84282,35.03786],[133.85383,35.04045],[133.86127,35.03946],[133.86482,35.04202],[133.8745,35.04223],[133.87735,35.03655],[133.87703,35.02667],[133.87902,35.02226],[133.8796,35.01374],[133.87446,35.01167],[133.87206,35.00734],[133.8768,34.99896],[133.87776,34.99187],[133.88521,34.99354],[133.89575,34.98399],[133.89995,34.98809],[133.90941,34.99427],[133.91012,34.9986],[133.91928,35.00413],[133.92016,35.00957],[133.93036,35.01437],[133.92893,35.01731],[133.93474,35.02285],[133.9379,35.02974],[133.93704,35.03581],[133.93125,35.03841],[133.93533,35.04153],[133.94968,35.04391],[133.94832,35.05158],[133.95276,35.05124],[133.95687,35.04493],[133.95457,35.03537],[133.94998,35.029],[133.95017,35.02343],[133.94783,35.01812],[133.9515,35.00902],[133.95788,35.00915],[133.96268,35.01179],[133.97089,35.01144],[133.977,35.02009],[133.98843,35.02657],[133.99753,35.02331],[134.00465,35.01558],[134.01023,35.01508],[134.01702,35.00622],[134.02486,35.00585],[134.03169,35.00206],[134.04037,35.00232],[134.03288,35.01323],[134.03398,35.01585],[134.04165,35.02114],[134.04627,35.02618],[134.05779,35.02465],[134.06087,35.02086],[134.07086,35.02269],[134.07659,35.02526],[134.08436,35.01936],[134.08224,35.02601],[134.08191,35.03562],[134.08428,35.03992],[134.08439,35.04798],[134.0828,35.05093],[134.09176,35.05437],[134.09814,35.0505],[134.10231,35.05058],[134.10531,35.06086],[134.10526,35.06721],[134.10104,35.07005],[134.10416,35.08361],[134.10901,35.08368],[134.11807,35.08998],[134.11884,35.09272],[134.13134,35.10309],[134.13381,35.11743],[134.1374,35.12306],[134.13882,35.1301],[134.14338,35.14123],[134.143,35.15682],[134.14104,35.16259],[134.14555,35.16273],[134.15033,35.16721],[134.16519,35.16951],[134.16753,35.17183],[134.16889,35.18017],[134.16495,35.18798],[134.16086,35.19182],[134.15398,35.19464],[134.15434,35.20555],[134.16216,35.21645],[134.1623,35.22546],[134.16418,35.22798],[134.15825,35.23456],[134.14446,35.2313],[134.13748,35.23925],[134.14542,35.24284],[134.14276,35.24943],[134.15058,35.25796],[134.14225,35.26394],[134.1376,35.26956],[134.1413,35.27494],[134.13924,35.27905],[134.13568,35.28234],[134.13153,35.28033],[134.1223,35.28107],[134.11382,35.28595],[134.11411,35.28846],[134.10279,35.29639],[134.09791,35.3033],[134.0863,35.30733],[134.08168,35.30226],[134.07584,35.30275],[134.07066,35.29926],[134.0622,35.30304],[134.05466,35.29819],[134.04813,35.29848],[134.04414,35.30276],[134.03014,35.30542]]]},"properties":{"pref":"岡山県","city":"津山市","code5":"33203","code6":"332038"}},
{"type":"Feature","geometry":{"type":"MultiPolygon","coordinates":[[[[133.86649,34.51852],[133.86643,34.5107],[133.8701,34.50044],[133.87041,34.49306],[133.86496,34.49231],[133.8616,34.48131],[133.86358,34.47636],[133.87096,34.47649],[133.87645,34.47332],[133.87625,34.46792],[133.881,34.46338],[133.88014,34.45684],[133.89852,34.45714],[133.90746,34.45191],[133.9192,34.44979],[133.92779,34.45105],[133.92512,34.45543],[133.92842,34.45615],[133.93373,34.45154],[133.9371,34.45428],[133.94323,34.45529],[133.94069,34.46563],[133.93436,34.47324],[133.93926,34.47543],[133.93812,34.48107],[133.94547,34.48322],[133.95294,34.49271],[133.96118,34.49194],[133.96483,34.49495],[133.95647,34.50597],[133.96022,34.50937],[133.96235,34.51867],[133.95946,34.52273],[133.96994,34.53013],[133.97748,34.533],[133.98736,34.53068],[133.9935,34.51833],[133.99793,34.5209],[133.99584,34.52836],[133.99586,34.52837],[133.99537,34.53344],[134.0011,34.54504],[134.00392,34.54558],[134.00967,34.55068],[134.01477,34.55063],[134.01522,34.54581],[134.0196,34.54414],[134.02136,34.54925],[134.02923,34.55664],[134.0293,34.56426],[134.0342,34.57376],[134.02889,34.57844],[134.02307,34.57527],[134.01437,34.57771],[134.01016,34.57496],[133.99562,34.57753],[133.98719,34.57757],[133.98224,34.57214],[133.98252,34.56699],[133.97711,34.55981],[133.97101,34.5576],[133.96608,34.55858],[133.96172,34.56626],[133.95618,34.57043],[133.95132,34.57042],[133.93875,34.57644],[133.93125,34.56276],[133.91971,34.54494],[133.90222,34.53695],[133.89715,34.54276],[133.8933,34.54289],[133.88477,34.5379],[133.88658,34.52479],[133.87524,34.52412],[133.87468,34.52198],[133.86649,34.51852]]],[[[134.02388,34.50684],[134.01819,34.50702],[134.01179,34.50307],[134.00756,34.49804],[134.01196,34.49617],[134.01899,34.49821],[134.01944,34.50337],[134.02388,34.50684]]]]},"properties":{"pref":"岡山県","city":"玉野市","code5":"33204","code6":"332046"}},
{"type":"Feature","geometry":{"type":"MultiPolygon","coordinates":[[[[133.57014,34.58504],[133.56378,34.58684],[133.56098,34.59226],[133.55522,34.5937],[133.55222,34.59969],[133.54488,34.60331],[133.52935,34.59968],[133.52383,34.59261],[133.51221,34.59129],[133.50976,34.58823],[133.50979,34.58249],[133.50504,34.57923],[133.50402,34.57169],[133.50494,34.56326],[133.48989,34.55658],[133.48824,34.5533],[133.48213,34.5514],[133.4773,34.54701],[133.46513,34.54432],[133.45994,34.54049],[133.45651,34.54393],[133.44944,34.54276],[133.44871,34.53972],[133.45334,34.53497],[133.45393,34.53017],[133.45037,34.52674],[133.44727,34.5194],[133.44916,34.5132],[133.44521,34.50972],[133.44494,34.50589],[133.45337,34.50673],[133.45639,34.5001],[133.45544,34.4949],[133.4488,34.48855],[133.44587,34.48306],[133.44691,34.48027],[133.44922,34.47752],[133.45522,34.47738],[133.45648,34.47056],[133.45632,34.45454],[133.46278,34.45447],[133.4801,34.46369],[133.48402,34.46475],[133.49029,34.45996],[133.48229,34.45403],[133.47601,34.45215],[133.47305,34.44754],[133.47788,34.44342],[133.4891,34.44096],[133.49167,34.44219],[133.49505,34.44427],[133.50094,34.45173],[133.50717,34.45183],[133.5144,34.44918],[133.52415,34.45122],[133.52747,34.45389],[133.52467,34.45816],[133.52802,34.4683],[133.52697,34.47123],[133.51938,34.47313],[133.51849,34.47741],[133.50851,34.49056],[133.49988,34.49993],[133.50824,34.49713],[133.51475,34.49005],[133.51836,34.47912],[133.52497,34.47514],[133.5295,34.47705],[133.53099,34.47005],[133.54038,34.46138],[133.55365,34.46444],[133.56034,34.46826],[133.57324,34.4659],[133.57353,34.46806],[133.56874,34.47991],[133.56765,34.4863],[133.56293,34.48756],[133.56039,34.49353],[133.54586,34.49231],[133.52979,34.49677],[133.53804,34.5087],[133.54403,34.51148],[133.54684,34.51923],[133.54639,34.52278],[133.54953,34.52789],[133.54339,34.53618],[133.54406,34.54513],[133.54065,34.55052],[133.55114,34.54994],[133.55929,34.55582],[133.56235,34.5623],[133.56133,34.56839],[133.56557,34.57282],[133.5664,34.57745],[133.57125,34.5823],[133.57014,34.58504]]],[[[133.56024,34.37007],[133.55732,34.37547],[133.545,34.37737],[133.54479,34.38022],[133.55043,34.38783],[133.54993,34.39645],[133.54487,34.40218],[133.53762,34.40124],[133.53717,34.39584],[133.5275,34.38804],[133.52356,34.3916],[133.51915,34.38952],[133.5163,34.38407],[133.52484,34.37892],[133.5281,34.37858],[133.5322,34.37334],[133.5359,34.37391],[133.5457,34.36655],[133.54779,34.36903],[133.55862,34.36702],[133.56024,34.37007]]],[[[133.52476,34.4164],[133.52142,34.41567],[133.51867,34.40848],[133.50584,34.40664],[133.50518,34.40352],[133.5094,34.39668],[133.50884,34.39392],[133.51377,34.38969],[133.52024,34.39756],[133.5256,34.39887],[133.52351,34.40593],[133.52559,34.41119],[133.52476,34.4164]]],[[[133.57604,34.34957],[133.58087,34.35113],[133.58467,34.35833],[133.5911,34.3588],[133.58686,34.36366],[133.58156,34.36188],[133.5807,34.35666],[133.57463,34.35621],[133.56709,34.35105],[133.57282,34.34788],[133.57604,34.34957]]],[[[133.51215,34.43526],[133.50675,34.43336],[133.49975,34.42619],[133.50434,34.42437],[133.5117,34.42609],[133.51624,34.43272],[133.51215,34.43526]]],[[[133.50864,34.33898],[133.50676,34.34493],[133.49902,34.34558],[133.49725,34.34032],[133.50658,34.33571],[133.50864,34.33898]]],[[[133.53853,34.30942],[133.52606,34.30533],[133.52838,34.3005],[133.53616,34.3],[133.54014,34.30804],[133.53853,34.30942]]]]},"properties":{"pref":"岡山県","city":"笠岡市","code5":"33205","code6":"332054"}},
{"type":"Feature","geometry":{"type":"Polygon","coordinates":[[[133.52935,34.59968],[133.5277,34.60492],[133.53242,34.60792],[133.52723,34.62199],[133.5223,34.6245],[133.51883,34.62973],[133.5263,34.63245],[133.5336,34.62993],[133.53729,34.63247],[133.53515,34.63601],[133.53631,34.64104],[133.53075,34.64555],[133.54392,34.64853],[133.54944,34.64717],[133.5538,34.64324],[133.56103,34.64647],[133.56263,34.65206],[133.56117,34.65937],[133.56956,34.66989],[133.5715,34.67478],[133.57056,34.6794],[133.5764,34.68155],[133.58315,34.67961],[133.59406,34.68685],[133.59283,34.69826],[133.60855,34.70614],[133.60014,34.70884],[133.59426,34.71286],[133.58728,34.71001],[133.58303,34.7147],[133.58182,34.71925],[133.5749,34.72126],[133.57193,34.71952],[133.5612,34.72301],[133.55523,34.72855],[133.55453,34.73264],[133.55899,34.73837],[133.55343,34.74061],[133.54668,34.73957],[133.53628,34.74265],[133.52686,34.73922],[133.52028,34.73328],[133.521,34.72622],[133.5261,34.72334],[133.52998,34.71775],[133.52533,34.71282],[133.51741,34.70931],[133.50843,34.70826],[133.50258,34.7038],[133.50396,34.70012],[133.50035,34.69484],[133.48989,34.69575],[133.48074,34.69255],[133.47541,34.68843],[133.4726,34.69005],[133.46213,34.6839],[133.44682,34.68594],[133.44166,34.69091],[133.43801,34.69044],[133.4335,34.69609],[133.4268,34.69627],[133.42311,34.70077],[133.41894,34.70979],[133.41302,34.71368],[133.40995,34.72599],[133.40423,34.72887],[133.40416,34.7333],[133.39788,34.73557],[133.39396,34.73472],[133.38773,34.73809],[133.38448,34.74344],[133.37047,34.742],[133.36965,34.74459],[133.36464,34.74052],[133.36087,34.73453],[133.36146,34.72713],[133.36913,34.72355],[133.37059,34.71182],[133.37308,34.70799],[133.37417,34.69536],[133.38276,34.69013],[133.38641,34.68538],[133.38549,34.67754],[133.40141,34.67405],[133.40279,34.66707],[133.39643,34.65587],[133.39649,34.65208],[133.39177,34.64929],[133.38848,34.64343],[133.38719,34.63638],[133.39192,34.63113],[133.38498,34.62537],[133.38477,34.61676],[133.39063,34.61204],[133.39586,34.60535],[133.39811,34.59781],[133.39701,34.59488],[133.40578,34.58928],[133.41272,34.58692],[133.42069,34.58724],[133.42317,34.58554],[133.42313,34.57866],[133.42755,34.57169],[133.42673,34.56914],[133.43508,34.56577],[133.44035,34.55934],[133.44603,34.55643],[133.44636,34.55111],[133.44944,34.54276],[133.45651,34.54393],[133.45994,34.54049],[133.46513,34.54432],[133.4773,34.54701],[133.48213,34.5514],[133.48824,34.5533],[133.48989,34.55658],[133.50494,34.56326],[133.50402,34.57169],[133.50504,34.57923],[133.50979,34.58249],[133.50976,34.58823],[133.51221,34.59129],[133.52383,34.59261],[133.52935,34.59968]]]},"properties":{"pref":"岡山県","city":"井原市","code5":"33207","code6":"332071"}},
{"type":"Feature","geometry":{"type":"Polygon","coordinates":[[[133.74001,34.76813],[133.72837,34.77148],[133.72917,34.77411],[133.71984,34.77531],[133.71903,34.7697],[133.7124,34.76641],[133.71265,34.76321],[133.70485,34.76205],[133.69163,34.75569],[133.689,34.74527],[133.67988,34.75141],[133.6793,34.75558],[133.67439,34.76628],[133.66646,34.77339],[133.66132,34.7816],[133.65498,34.78092],[133.64861,34.77482],[133.64641,34.76591],[133.6362,34.75885],[133.62944,34.76152],[133.62438,34.75898],[133.62034,34.75383],[133.62189,34.75044],[133.61012,34.74222],[133.60364,34.73542],[133.60004,34.7347],[133.59146,34.72569],[133.58604,34.72535],[133.58182,34.71925],[133.58303,34.7147],[133.58728,34.71001],[133.59426,34.71286],[133.60014,34.70884],[133.60855,34.70614],[133.61873,34.70609],[133.62047,34.70186],[133.62563,34.7022],[133.62762,34.69638],[133.62288,34.6856],[133.61487,34.68333],[133.61726,34.66271],[133.62346,34.65819],[133.62243,34.64909],[133.63208,34.64183],[133.63535,34.64396],[133.64546,34.6466],[133.64947,34.64519],[133.65886,34.64999],[133.66656,34.6494],[133.66854,34.65448],[133.67886,34.6604],[133.6817,34.65769],[133.68885,34.66313],[133.69319,34.6644],[133.6967,34.65935],[133.70504,34.65827],[133.71074,34.65567],[133.71677,34.6565],[133.72296,34.64804],[133.72724,34.64685],[133.72775,34.64013],[133.7263,34.63082],[133.73112,34.62216],[133.73906,34.62439],[133.7459,34.6223],[133.7572,34.63141],[133.75131,34.63422],[133.75794,34.64175],[133.76259,34.64345],[133.77079,34.64024],[133.77333,34.64307],[133.78049,34.64438],[133.78826,34.64217],[133.79324,34.63895],[133.79887,34.64053],[133.79877,34.6537],[133.80128,34.6626],[133.79717,34.66663],[133.79564,34.67688],[133.80123,34.67913],[133.80416,34.68466],[133.80247,34.68927],[133.79863,34.69045],[133.79167,34.69852],[133.78713,34.69581],[133.78369,34.69921],[133.79832,34.7059],[133.79975,34.71103],[133.79617,34.72326],[133.79077,34.73132],[133.78139,34.73613],[133.77261,34.74215],[133.7682,34.74167],[133.7623,34.7453],[133.76206,34.74861],[133.75623,34.74942],[133.7494,34.74787],[133.73983,34.76152],[133.74001,34.76813]]]},"properties":{"pref":"岡山県","city":"総社市","code5":"33208","code6":"332089"}},
{"type":"Feature","geometry":{"type":"Polygon","coordinates":[[[133.58182,34.71925],[133.58604,34.72535],[133.59146,34.72569],[133.60004,34.7347],[133.60364,34.73542],[133.61012,34.74222],[133.62189,34.75044],[133.62034,34.75383],[133.62438,34.75898],[133.62944,34.76152],[133.6362,34.75885],[133.64641,34.76591],[133.64861,34.77482],[133.65498,34.78092],[133.66132,34.7816],[133.66235,34.78672],[133.65907,34.79353],[133.66061,34.79622],[133.65651,34.80463],[133.64774,34.81435],[133.64849,34.82366],[133.64596,34.82807],[133.64139,34.82945],[133.6405,34.8363],[133.6445,34.83986],[133.64779,34.8475],[133.65447,34.85096],[133.66457,34.86469],[133.6626,34.86866],[133.66331,34.87416],[133.67309,34.87836],[133.68234,34.87817],[133.68136,34.88154],[133.68672,34.88686],[133.69374,34.89141],[133.7047,34.89281],[133.70706,34.89897],[133.71157,34.90511],[133.71752,34.90872],[133.71201,34.91987],[133.71393,34.92463],[133.72034,34.93349],[133.71891,34.94554],[133.71408,34.95252],[133.71693,34.95536],[133.70536,34.9598],[133.70275,34.95379],[133.69513,34.94893],[133.68788,34.94744],[133.68073,34.95207],[133.67606,34.95047],[133.67193,34.94304],[133.65807,34.93825],[133.64797,34.94068],[133.64466,34.9347],[133.64816,34.93146],[133.65012,34.9237],[133.64971,34.91515],[133.63348,34.90937],[133.63241,34.90396],[133.6193,34.9002],[133.62134,34.90699],[133.62088,34.91572],[133.61786,34.92478],[133.61698,34.93216],[133.61303,34.93331],[133.60374,34.94633],[133.60102,34.95287],[133.59081,34.95117],[133.58963,34.94781],[133.58414,34.94684],[133.58461,34.94265],[133.59009,34.93649],[133.58612,34.92962],[133.58166,34.93107],[133.57226,34.92877],[133.56529,34.91686],[133.56178,34.91353],[133.56976,34.89793],[133.56185,34.8869],[133.55314,34.88213],[133.54351,34.88188],[133.53561,34.87689],[133.52606,34.87694],[133.52154,34.86964],[133.51427,34.86591],[133.50894,34.8693],[133.49557,34.87423],[133.48941,34.87505],[133.48379,34.87208],[133.47595,34.87835],[133.47284,34.88579],[133.46945,34.88432],[133.4686,34.87937],[133.46511,34.87677],[133.45118,34.87418],[133.44461,34.87929],[133.44183,34.88421],[133.43744,34.8814],[133.42767,34.88321],[133.42509,34.88651],[133.41477,34.87683],[133.41177,34.87993],[133.40454,34.87392],[133.3991,34.87518],[133.39288,34.8699],[133.37382,34.87433],[133.35828,34.87472],[133.35336,34.87744],[133.34849,34.87519],[133.33066,34.85593],[133.32886,34.85305],[133.33542,34.84452],[133.33259,34.84074],[133.33609,34.83475],[133.34223,34.83028],[133.35299,34.83064],[133.35647,34.82648],[133.35888,34.81964],[133.3679,34.81901],[133.36856,34.81488],[133.37451,34.81391],[133.37809,34.80836],[133.37759,34.79708],[133.3698,34.78977],[133.37238,34.78002],[133.36737,34.77433],[133.36466,34.76711],[133.36718,34.7612],[133.36185,34.7556],[133.36598,34.75455],[133.36965,34.74459],[133.37047,34.742],[133.38448,34.74344],[133.38773,34.73809],[133.39396,34.73472],[133.39788,34.73557],[133.40416,34.7333],[133.40423,34.72887],[133.40995,34.72599],[133.41302,34.71368],[133.41894,34.70979],[133.42311,34.70077],[133.4268,34.69627],[133.4335,34.69609],[133.43801,34.69044],[133.44166,34.69091],[133.44682,34.68594],[133.46213,34.6839],[133.4726,34.69005],[133.47541,34.68843],[133.48074,34.69255],[133.48989,34.69575],[133.50035,34.69484],[133.50396,34.70012],[133.50258,34.7038],[133.50843,34.70826],[133.51741,34.70931],[133.52533,34.71282],[133.52998,34.71775],[133.5261,34.72334],[133.521,34.72622],[133.52028,34.73328],[133.52686,34.73922],[133.53628,34.74265],[133.54668,34.73957],[133.55343,34.74061],[133.55899,34.73837],[133.55453,34.73264],[133.55523,34.72855],[133.5612,34.72301],[133.57193,34.71952],[133.5749,34.72126],[133.58182,34.71925]]]},"properties":{"pref":"岡山県","city":"高梁市","code5":"33209","code6":"332097"}},
{"type":"Feature","geometry":{"type":"Polygon","coordinates":[[[133.26914,35.05768],[133.26693,35.05243],[133.27342,35.04781],[133.27447,35.04498],[133.28524,35.04066],[133.291,35.03596],[133.29584,35.02949],[133.29688,35.02473],[133.303,35.02065],[133.305,35.01519],[133.3157,35.01243],[133.31962,35.00863],[133.32121,35.00363],[133.31922,34.99831],[133.32173,34.98793],[133.3195,34.98318],[133.31328,34.98007],[133.31084,34.97464],[133.30308,34.97204],[133.30489,34.96496],[133.29726,34.956],[133.29811,34.95298],[133.30803,34.94109],[133.30945,34.93705],[133.30187,34.92891],[133.30463,34.92172],[133.30297,34.91308],[133.29755,34.90947],[133.29579,34.90401],[133.29801,34.88934],[133.3011,34.88445],[133.3057,34.88206],[133.30941,34.87404],[133.31432,34.87282],[133.31681,34.86718],[133.32403,34.86436],[133.32311,34.85927],[133.33066,34.85593],[133.34849,34.87519],[133.35336,34.87744],[133.35828,34.87472],[133.37382,34.87433],[133.39288,34.8699],[133.3991,34.87518],[133.40454,34.87392],[133.41177,34.87993],[133.41477,34.87683],[133.42509,34.88651],[133.42767,34.88321],[133.43744,34.8814],[133.44183,34.88421],[133.44461,34.87929],[133.45118,34.87418],[133.46511,34.87677],[133.4686,34.87937],[133.46945,34.88432],[133.47284,34.88579],[133.47595,34.87835],[133.48379,34.87208],[133.48941,34.87505],[133.49557,34.87423],[133.50894,34.8693],[133.51427,34.86591],[133.52154,34.86964],[133.52606,34.87694],[133.53561,34.87689],[133.54351,34.88188],[133.55314,34.88213],[133.56185,34.8869],[133.56976,34.89793],[133.56178,34.91353],[133.56529,34.91686],[133.57226,34.92877],[133.58166,34.93107],[133.58612,34.92962],[133.59009,34.93649],[133.58461,34.94265],[133.58414,34.94684],[133.58963,34.94781],[133.59081,34.95117],[133.60102,34.95287],[133.60557,34.95483],[133.60742,34.9591],[133.61564,34.96176],[133.62164,34.96159],[133.61822,34.9692],[133.61916,34.9727],[133.61254,34.98001],[133.60141,34.98617],[133.60693,34.98807],[133.60785,34.99444],[133.5999,34.99916],[133.59467,35.00001],[133.59051,34.9929],[133.5842,34.99644],[133.58731,35.00536],[133.59377,35.00799],[133.59972,35.01541],[133.60031,35.02065],[133.58754,35.0247],[133.58847,35.0287],[133.58384,35.0314],[133.58366,35.03956],[133.59077,35.04807],[133.58514,35.05479],[133.58788,35.0634],[133.58691,35.06862],[133.58951,35.0725],[133.58937,35.07949],[133.58317,35.08703],[133.57626,35.09091],[133.57424,35.10005],[133.57569,35.112],[133.58003,35.11224],[133.5838,35.11604],[133.58623,35.12766],[133.59119,35.13657],[133.57733,35.14475],[133.568,35.14908],[133.55673,35.14876],[133.5541,35.1516],[133.54806,35.15053],[133.53858,35.15143],[133.53579,35.15777],[133.54144,35.16337],[133.54118,35.1681],[133.5354,35.17055],[133.53475,35.1765],[133.52977,35.17732],[133.52611,35.18289],[133.51918,35.18291],[133.51634,35.19052],[133.51047,35.19011],[133.50805,35.19309],[133.50041,35.19237],[133.49846,35.18823],[133.48544,35.1864],[133.48256,35.18241],[133.47485,35.18202],[133.47316,35.17859],[133.46697,35.17516],[133.45983,35.17779],[133.45652,35.17311],[133.44756,35.1713],[133.43805,35.17307],[133.42812,35.17741],[133.42218,35.17611],[133.42085,35.18098],[133.41557,35.18472],[133.40744,35.18588],[133.40278,35.18218],[133.3961,35.1806],[133.39464,35.17733],[133.39695,35.17246],[133.39336,35.16914],[133.39852,35.16358],[133.40072,35.15843],[133.40036,35.15327],[133.40451,35.14867],[133.40514,35.14293],[133.41122,35.13875],[133.41262,35.13349],[133.41183,35.12115],[133.40576,35.11802],[133.40336,35.11432],[133.38699,35.11312],[133.37879,35.11467],[133.36668,35.11015],[133.3584,35.10213],[133.35487,35.10077],[133.34727,35.1056],[133.33822,35.10656],[133.33236,35.10127],[133.32814,35.095],[133.31943,35.09386],[133.30833,35.09945],[133.30283,35.09958],[133.29903,35.1038],[133.29094,35.10036],[133.28826,35.09591],[133.29066,35.08442],[133.28886,35.07445],[133.29082,35.07094],[133.28342,35.06595],[133.27691,35.06611],[133.27263,35.05975],[133.26914,35.05768]]]},"properties":{"pref":"岡山県","city":"新見市","code5":"33210","code6":"332101"}},
{"type":"Feature","geometry":{"type":"MultiPolygon","coordinates":[[[[134.29561,34.81806],[134.28793,34.82156],[134.28842,34.82693],[134.28335,34.82975],[134.2663,34.82564],[134.26173,34.83115],[134.26461,34.83731],[134.26096,34.84697],[134.25456,34.84926],[134.254,34.85696],[134.26016,34.86731],[134.26708,34.87548],[134.26235,34.88198],[134.26749,34.8833],[134.26929,34.88909],[134.27779,34.89514],[134.28915,34.89769],[134.29411,34.9028],[134.29501,34.90746],[134.28736,34.91283],[134.28402,34.91697],[134.28449,34.92103],[134.27824,34.92168],[134.2748,34.92428],[134.2761,34.92968],[134.27309,34.93255],[134.26288,34.93766],[134.25994,34.93444],[134.25373,34.93909],[134.2542,34.946],[134.25034,34.94924],[134.24408,34.947],[134.24611,34.94149],[134.24111,34.93818],[134.23564,34.93742],[134.23599,34.92956],[134.22992,34.92401],[134.2264,34.92354],[134.22686,34.91704],[134.2238,34.91516],[134.22641,34.91032],[134.22395,34.90718],[134.21203,34.91033],[134.20532,34.91047],[134.20221,34.91488],[134.19645,34.91488],[134.19492,34.91097],[134.1968,34.90447],[134.19494,34.90126],[134.19969,34.8943],[134.19692,34.89101],[134.19514,34.88251],[134.18816,34.87468],[134.18438,34.87289],[134.18013,34.85961],[134.18779,34.86137],[134.19034,34.85891],[134.20644,34.85593],[134.21082,34.84933],[134.20843,34.84391],[134.21577,34.83931],[134.21184,34.83698],[134.20987,34.83011],[134.20516,34.82172],[134.19716,34.81605],[134.1967,34.81082],[134.19057,34.80025],[134.19226,34.79469],[134.19962,34.791],[134.19703,34.78361],[134.19105,34.77885],[134.19742,34.77607],[134.20159,34.76721],[134.19216,34.76343],[134.18626,34.76305],[134.18192,34.76519],[134.17697,34.76045],[134.15511,34.75951],[134.1493,34.76168],[134.14652,34.76679],[134.1423,34.76628],[134.13279,34.75884],[134.12576,34.75721],[134.12252,34.75291],[134.11973,34.74761],[134.11128,34.74597],[134.1062,34.74207],[134.1023,34.72668],[134.11111,34.72735],[134.11051,34.71831],[134.10752,34.71267],[134.11857,34.70556],[134.12822,34.71716],[134.1361,34.71843],[134.14401,34.72586],[134.14835,34.72568],[134.15356,34.72106],[134.16524,34.71466],[134.16128,34.70868],[134.15905,34.70146],[134.16181,34.69201],[134.16212,34.6844],[134.17454,34.68489],[134.18505,34.68947],[134.20315,34.70173],[134.21215,34.70442],[134.22161,34.703],[134.2317,34.70695],[134.22937,34.71475],[134.22004,34.70855],[134.21356,34.71011],[134.20707,34.70954],[134.20441,34.71709],[134.19758,34.7152],[134.19393,34.72015],[134.20438,34.72277],[134.20493,34.72683],[134.19549,34.72979],[134.18967,34.73365],[134.17922,34.73674],[134.18588,34.7424],[134.18705,34.73777],[134.19729,34.73283],[134.20798,34.73004],[134.22871,34.73138],[134.23234,34.72622],[134.23197,34.72269],[134.24144,34.71841],[134.24406,34.71527],[134.25172,34.71843],[134.26859,34.71918],[134.27111,34.72628],[134.27626,34.72825],[134.27545,34.73457],[134.2835,34.73028],[134.28566,34.73403],[134.29811,34.73655],[134.31513,34.73221],[134.31961,34.72817],[134.32173,34.72195],[134.32082,34.73537],[134.31303,34.7384],[134.31662,34.74413],[134.31845,34.75626],[134.32153,34.76171],[134.33307,34.76574],[134.33479,34.76889],[134.3296,34.77424],[134.32327,34.77426],[134.31583,34.78104],[134.31921,34.78819],[134.31647,34.79721],[134.31636,34.80257],[134.31129,34.80255],[134.30634,34.80862],[134.30735,34.81092],[134.29561,34.81806]]],[[[134.29834,34.7302],[134.29285,34.72971],[134.28529,34.72404],[134.28032,34.72234],[134.2747,34.71346],[134.28191,34.70671],[134.29265,34.70685],[134.295,34.7087],[134.30287,34.70817],[134.30668,34.71212],[134.31305,34.70354],[134.32138,34.70315],[134.32297,34.70836],[134.32721,34.7122],[134.33181,34.70844],[134.3369,34.7112],[134.34279,34.70643],[134.34696,34.70813],[134.33881,34.71973],[134.33178,34.72303],[134.32304,34.7141],[134.31839,34.71609],[134.31096,34.72723],[134.29834,34.7302]]],[[[134.25901,34.70703],[134.25039,34.70578],[134.25285,34.7014],[134.24966,34.69553],[134.25532,34.69023],[134.26107,34.69243],[134.263,34.69716],[134.26868,34.70119],[134.25901,34.70703]]],[[[134.2647,34.714],[134.24949,34.71146],[134.24989,34.70981],[134.26125,34.70793],[134.26923,34.71004],[134.2647,34.714]]],[[[134.28858,34.69632],[134.28984,34.70373],[134.27949,34.70292],[134.28858,34.69632]]],[[[134.21304,34.72589],[134.21468,34.72017],[134.21906,34.72277],[134.21304,34.72589]]]]},"properties":{"pref":"岡山県","city":"備前市","code5":"33211","code6":"332119"}},
{"type":"Feature","geometry":{"type":"MultiPolygon","coordinates":[[[[134.11219,34.58847],[134.11843,34.58981],[134.12798,34.59855],[134.13279,34.59767],[134.13838,34.59955],[134.13436,34.60782],[134.14133,34.60785],[134.1471,34.61179],[134.14704,34.61704],[134.15391,34.61536],[134.16222,34.61645],[134.16663,34.61305],[134.17315,34.61734],[134.17737,34.62412],[134.17907,34.63174],[134.17458,34.63409],[134.17205,34.64958],[134.1766,34.65375],[134.18853,34.65081],[134.19525,34.65827],[134.1928,34.66496],[134.20262,34.66365],[134.20668,34.67015],[134.2139,34.67554],[134.21791,34.6758],[134.22202,34.68202],[134.21692,34.6838],[134.22768,34.68796],[134.22635,34.69176],[134.23543,34.6915],[134.23786,34.69766],[134.24528,34.70105],[134.23551,34.71081],[134.23561,34.71486],[134.22937,34.71475],[134.2317,34.70695],[134.22161,34.703],[134.21215,34.70442],[134.20315,34.70173],[134.18505,34.68947],[134.17454,34.68489],[134.16212,34.6844],[134.16181,34.69201],[134.15905,34.70146],[134.16128,34.70868],[134.16524,34.71466],[134.15356,34.72106],[134.14835,34.72568],[134.14401,34.72586],[134.1361,34.71843],[134.12822,34.71716],[134.11857,34.70556],[134.10752,34.71267],[134.11051,34.71831],[134.11111,34.72735],[134.1023,34.72668],[134.10054,34.72296],[134.09299,34.71434],[134.08339,34.70612],[134.08416,34.69898],[134.07773,34.68198],[134.07254,34.67662],[134.0602,34.67014],[134.05193,34.65921],[134.05821,34.65179],[134.06684,34.6477],[134.07731,34.6501],[134.07307,34.63786],[134.08,34.63247],[134.08631,34.63252],[134.10129,34.63951],[134.10732,34.63316],[134.11634,34.62744],[134.11201,34.61594],[134.10929,34.61679],[134.10965,34.60563],[134.11287,34.60079],[134.11219,34.58847]]],[[[134.19898,34.61721],[134.18845,34.61474],[134.18563,34.61141],[134.17751,34.60881],[134.16791,34.61025],[134.16435,34.6039],[134.16791,34.6022],[134.18366,34.60613],[134.19468,34.60707],[134.20186,34.61586],[134.19898,34.61721]]],[[[134.25693,34.68735],[134.24441,34.68081],[134.25098,34.67801],[134.2564,34.67965],[134.26286,34.67503],[134.27349,34.68082],[134.2656,34.68172],[134.25693,34.68735]]],[[[134.24214,34.67832],[134.22886,34.67893],[134.22736,34.67623],[134.21849,34.67575],[134.2246,34.6678],[134.23736,34.67324],[134.24416,34.67224],[134.24214,34.67832]]],[[[134.19085,34.6023],[134.18967,34.5975],[134.19548,34.59659],[134.20068,34.59871],[134.19085,34.6023]]]]},"properties":{"pref":"岡山県","city":"瀬戸内市","code5":"33212","code6":"332127"}},
{"type":"Feature","geometry":{"type":"Polygon","coordinates":[[[133.95535,34.87273],[133.96111,34.86801],[133.96829,34.85315],[133.96276,34.8509],[133.97757,34.84713],[133.98193,34.85504],[133.98707,34.85442],[133.99399,34.85007],[133.99282,34.84129],[133.98774,34.83576],[133.9884,34.82974],[133.9912,34.82708],[133.98511,34.81995],[133.98709,34.81826],[133.98555,34.807],[133.97367,34.80257],[133.9617,34.78601],[133.97029,34.78422],[133.98068,34.77864],[133.97662,34.76927],[133.98585,34.76133],[133.97998,34.75554],[133.97257,34.75387],[133.97142,34.74943],[133.97961,34.74153],[133.98409,34.7395],[133.98653,34.73348],[133.99396,34.72654],[133.99359,34.71964],[134.00049,34.72623],[134.00916,34.72623],[134.0096,34.72924],[134.0287,34.73782],[134.03547,34.74432],[134.04531,34.74921],[134.0469,34.75655],[134.05122,34.76147],[134.04888,34.76655],[134.05245,34.77007],[134.05825,34.76781],[134.06092,34.77636],[134.06455,34.77984],[134.08104,34.78288],[134.08705,34.78196],[134.08786,34.77614],[134.09291,34.77014],[134.09022,34.76264],[134.10087,34.76093],[134.10685,34.75648],[134.10907,34.76084],[134.11465,34.75747],[134.11934,34.75721],[134.12252,34.75291],[134.12576,34.75721],[134.13279,34.75884],[134.1423,34.76628],[134.14652,34.76679],[134.1522,34.77244],[134.14975,34.78366],[134.14332,34.78655],[134.13427,34.79301],[134.11862,34.79367],[134.10854,34.80227],[134.10125,34.80271],[134.09381,34.80734],[134.08954,34.81241],[134.08773,34.82062],[134.07938,34.82593],[134.0766,34.82455],[134.06546,34.82819],[134.06078,34.8247],[134.05474,34.83254],[134.04871,34.83255],[134.04591,34.82786],[134.03869,34.83262],[134.04028,34.83528],[134.03924,34.84262],[134.04516,34.84903],[134.04346,34.85786],[134.05434,34.8575],[134.05987,34.85414],[134.0771,34.86329],[134.08058,34.86975],[134.081,34.87452],[134.08491,34.87646],[134.08853,34.87358],[134.0964,34.87554],[134.10407,34.88102],[134.09307,34.88543],[134.09756,34.89251],[134.09489,34.89743],[134.08905,34.89484],[134.08516,34.89661],[134.08763,34.90232],[134.09316,34.9063],[134.10045,34.91861],[134.09859,34.92339],[134.088,34.92939],[134.09134,34.93649],[134.09055,34.9408],[134.08616,34.94264],[134.0785,34.94085],[134.07265,34.94127],[134.06729,34.93682],[134.05895,34.93941],[134.05175,34.93707],[134.04106,34.94333],[134.0336,34.94413],[134.02509,34.95081],[134.01947,34.94144],[134.01603,34.93835],[134.01162,34.92143],[134.00655,34.91209],[134.00337,34.91199],[134.00117,34.90222],[134.00439,34.89605],[133.99906,34.8906],[133.98782,34.88674],[133.97948,34.88632],[133.97625,34.88044],[133.96369,34.87426],[133.95535,34.87273]]]},"properties":{"pref":"岡山県","city":"赤磐市","code5":"33213","code6":"332135"}},
{"type":"Feature","geometry":{"type":"Polygon","coordinates":[[[133.59641,35.3449],[133.59453,35.34079],[133.58934,35.33786],[133.59245,35.33081],[133.58793,35.32489],[133.57679,35.31441],[133.57576,35.30082],[133.57755,35.29726],[133.57054,35.28709],[133.57232,35.28166],[133.56885,35.27749],[133.57192,35.27257],[133.56677,35.26581],[133.56818,35.25706],[133.56664,35.25559],[133.57577,35.25225],[133.58086,35.24722],[133.59344,35.24428],[133.59644,35.24093],[133.59249,35.23575],[133.59975,35.22479],[133.59718,35.21467],[133.6063,35.20571],[133.60811,35.19489],[133.60619,35.18535],[133.58887,35.18417],[133.58829,35.1758],[133.58204,35.17328],[133.58224,35.16383],[133.58645,35.1578],[133.57657,35.15049],[133.568,35.14908],[133.57733,35.14475],[133.59119,35.13657],[133.58623,35.12766],[133.5838,35.11604],[133.58003,35.11224],[133.57569,35.112],[133.57424,35.10005],[133.57626,35.09091],[133.58317,35.08703],[133.58937,35.07949],[133.58951,35.0725],[133.58691,35.06862],[133.58788,35.0634],[133.58514,35.05479],[133.59077,35.04807],[133.58366,35.03956],[133.58384,35.0314],[133.58847,35.0287],[133.58754,35.0247],[133.60031,35.02065],[133.59972,35.01541],[133.59377,35.00799],[133.58731,35.00536],[133.5842,34.99644],[133.59051,34.9929],[133.59467,35.00001],[133.5999,34.99916],[133.60785,34.99444],[133.60693,34.98807],[133.60141,34.98617],[133.61254,34.98001],[133.61916,34.9727],[133.61822,34.9692],[133.62164,34.96159],[133.61564,34.96176],[133.60742,34.9591],[133.60557,34.95483],[133.60102,34.95287],[133.60374,34.94633],[133.61303,34.93331],[133.61698,34.93216],[133.61786,34.92478],[133.62088,34.91572],[133.62134,34.90699],[133.6193,34.9002],[133.63241,34.90396],[133.63348,34.90937],[133.64971,34.91515],[133.65012,34.9237],[133.64816,34.93146],[133.64466,34.9347],[133.64797,34.94068],[133.65807,34.93825],[133.67193,34.94304],[133.67606,34.95047],[133.68073,34.95207],[133.68788,34.94744],[133.69513,34.94893],[133.70275,34.95379],[133.70536,34.9598],[133.71693,34.95536],[133.72385,34.94875],[133.73376,34.95026],[133.74222,34.94564],[133.75011,34.94559],[133.75541,34.95206],[133.76189,34.95249],[133.77147,34.96028],[133.78099,34.9613],[133.78922,34.95569],[133.79115,34.95899],[133.7992,34.95925],[133.8006,34.95325],[133.80879,34.95148],[133.80762,34.95906],[133.80232,34.96577],[133.80517,34.96861],[133.80386,34.97814],[133.7941,34.98252],[133.78746,34.989],[133.78592,35.00308],[133.78958,35.00972],[133.78473,35.01959],[133.79302,35.02165],[133.80238,35.02226],[133.80511,35.02634],[133.8119,35.0296],[133.81934,35.03567],[133.81683,35.04231],[133.82609,35.04461],[133.82264,35.04682],[133.82434,35.0587],[133.82236,35.06644],[133.82882,35.07748],[133.83544,35.08232],[133.83577,35.08708],[133.83203,35.08825],[133.83655,35.0987],[133.8456,35.10151],[133.84289,35.10613],[133.84463,35.1088],[133.84376,35.11669],[133.8347,35.12091],[133.83356,35.12625],[133.82662,35.12838],[133.82156,35.12725],[133.81685,35.13227],[133.80956,35.13092],[133.80257,35.1316],[133.7927,35.13758],[133.782,35.14801],[133.78096,35.15302],[133.77516,35.15579],[133.77003,35.15575],[133.76606,35.15958],[133.77152,35.16411],[133.77049,35.17112],[133.77925,35.17621],[133.77734,35.18062],[133.77975,35.18948],[133.77849,35.1973],[133.77318,35.20173],[133.77254,35.20586],[133.77676,35.20766],[133.78135,35.21274],[133.77856,35.22244],[133.80005,35.21445],[133.80811,35.21975],[133.81657,35.219],[133.81028,35.22916],[133.81432,35.23091],[133.82058,35.24217],[133.81815,35.25263],[133.81815,35.25924],[133.81522,35.26489],[133.80761,35.27029],[133.80928,35.27692],[133.80138,35.28483],[133.79987,35.29269],[133.79348,35.29285],[133.78237,35.29787],[133.7757,35.29956],[133.76234,35.31109],[133.75696,35.3082],[133.75069,35.3114],[133.74868,35.31706],[133.72713,35.31701],[133.72473,35.31965],[133.71721,35.31992],[133.70902,35.32506],[133.70496,35.3243],[133.69606,35.32692],[133.69176,35.32084],[133.68357,35.31875],[133.67736,35.31929],[133.67396,35.32337],[133.66574,35.32401],[133.64918,35.33634],[133.64069,35.33666],[133.6389,35.33895],[133.63161,35.3395],[133.62219,35.33671],[133.618,35.3396],[133.60581,35.34106],[133.59641,35.3449]]]},"properties":{"pref":"岡山県","city":"真庭市","code5":"33214","code6":"332143"}},
{"type":"Feature","geometry":{"type":"Polygon","coordinates":[[[134.38299,35.19444],[134.37933,35.18691],[134.36913,35.17785],[134.36037,35.17361],[134.35481,35.16535],[134.34572,35.16146],[134.33929,35.14841],[134.33453,35.14507],[134.32037,35.14805],[134.31741,35.15186],[134.31101,35.15243],[134.30172,35.15731],[134.29374,35.15846],[134.29028,35.16356],[134.2873,35.17322],[134.28928,35.17737],[134.28292,35.18237],[134.2838,35.18761],[134.28029,35.19078],[134.28133,35.1967],[134.27846,35.19687],[134.26854,35.20393],[134.26797,35.20842],[134.2609,35.21046],[134.2541,35.20829],[134.24976,35.20068],[134.24424,35.19845],[134.23468,35.19926],[134.22763,35.19711],[134.22162,35.19042],[134.21652,35.18949],[134.21953,35.18139],[134.22437,35.17721],[134.22202,35.17417],[134.22167,35.16516],[134.2286,35.15576],[134.22863,35.14888],[134.2236,35.13687],[134.23132,35.1305],[134.23045,35.12432],[134.22493,35.12259],[134.22571,35.11657],[134.23249,35.11331],[134.23077,35.11001],[134.2222,35.10689],[134.21498,35.10011],[134.20671,35.09673],[134.20657,35.10035],[134.19895,35.10017],[134.19034,35.09794],[134.19021,35.09326],[134.18315,35.08937],[134.1763,35.09229],[134.17355,35.0884],[134.17306,35.08166],[134.17007,35.0768],[134.17735,35.07271],[134.17722,35.06858],[134.18265,35.06802],[134.18477,35.06224],[134.17689,35.06246],[134.17908,35.05416],[134.17609,35.04523],[134.17228,35.04379],[134.1563,35.04733],[134.137,35.04851],[134.13576,35.04719],[134.13858,35.03782],[134.14011,35.02173],[134.1373,35.01913],[134.12499,35.0177],[134.12214,35.01915],[134.11098,35.01457],[134.10005,35.01724],[134.09601,35.01417],[134.08813,35.01166],[134.09032,34.99969],[134.08623,34.99466],[134.08702,34.98777],[134.09367,34.98693],[134.09469,34.99175],[134.09991,34.99644],[134.10561,34.98986],[134.09979,34.98843],[134.10159,34.98102],[134.10035,34.97508],[134.10478,34.97217],[134.09968,34.96633],[134.09164,34.96519],[134.09358,34.9555],[134.1012,34.95379],[134.10774,34.9431],[134.11367,34.93847],[134.12189,34.9345],[134.12058,34.93137],[134.1122,34.93261],[134.1084,34.92908],[134.1088,34.92548],[134.10244,34.92268],[134.1109,34.91088],[134.12016,34.91607],[134.12735,34.91358],[134.12543,34.90781],[134.12695,34.90287],[134.12487,34.89915],[134.12436,34.89056],[134.1289,34.88838],[134.13338,34.88973],[134.13867,34.88722],[134.15386,34.88774],[134.16069,34.88108],[134.16576,34.88094],[134.17194,34.89873],[134.18641,34.89733],[134.19214,34.8903],[134.19692,34.89101],[134.19969,34.8943],[134.19494,34.90126],[134.1968,34.90447],[134.19492,34.91097],[134.19645,34.91488],[134.20221,34.91488],[134.20532,34.91047],[134.21203,34.91033],[134.22395,34.90718],[134.22641,34.91032],[134.2238,34.91516],[134.22686,34.91704],[134.2264,34.92354],[134.22992,34.92401],[134.23599,34.92956],[134.23564,34.93742],[134.24111,34.93818],[134.24611,34.94149],[134.24408,34.947],[134.25034,34.94924],[134.2542,34.946],[134.25999,34.95231],[134.2667,34.95443],[134.26734,34.95746],[134.27696,34.96333],[134.2743,34.96575],[134.27708,34.97579],[134.27193,34.97894],[134.27109,34.9839],[134.27784,34.98711],[134.28236,34.99659],[134.27897,35.00102],[134.26576,35.00497],[134.26444,35.01669],[134.2676,35.02154],[134.27521,35.02331],[134.28159,35.03362],[134.29267,35.039],[134.29779,35.04311],[134.30531,35.04017],[134.30774,35.0455],[134.31633,35.0432],[134.31433,35.05079],[134.31454,35.0609],[134.31718,35.06565],[134.32116,35.0675],[134.31908,35.08344],[134.33654,35.08875],[134.34955,35.09022],[134.34995,35.09411],[134.35503,35.09943],[134.35228,35.1111],[134.35346,35.11435],[134.36073,35.12035],[134.35643,35.12482],[134.36052,35.12931],[134.36329,35.13553],[134.36248,35.14009],[134.36739,35.14696],[134.37472,35.15087],[134.37756,35.14912],[134.38308,35.15249],[134.38826,35.15126],[134.39747,35.15214],[134.40869,35.14787],[134.41163,35.15196],[134.41316,35.15862],[134.41083,35.16291],[134.40618,35.16578],[134.40713,35.16985],[134.41263,35.17765],[134.41108,35.18697],[134.39967,35.18762],[134.39475,35.19135],[134.38299,35.19444]]]},"properties":{"pref":"岡山県","city":"美作市","code5":"33215","code6":"332151"}},
{"type":"Feature","geometry":{"type":"Polygon","coordinates":[[[133.62328,34.58048],[133.61809,34.57965],[133.61012,34.57358],[133.601,34.57698],[133.59452,34.57661],[133.58329,34.58254],[133.58481,34.58977],[133.57803,34.59011],[133.57014,34.58504],[133.57125,34.5823],[133.5664,34.57745],[133.56557,34.57282],[133.56133,34.56839],[133.56235,34.5623],[133.55929,34.55582],[133.55114,34.54994],[133.54065,34.55052],[133.54406,34.54513],[133.54339,34.53618],[133.54953,34.52789],[133.55085,34.5306],[133.56063,34.53137],[133.5605,34.53791],[133.56848,34.53604],[133.57286,34.53013],[133.58101,34.53352],[133.58382,34.52778],[133.57518,34.52493],[133.5775,34.51728],[133.5691,34.51391],[133.56302,34.50562],[133.56782,34.49804],[133.56629,34.49505],[133.56039,34.49353],[133.56293,34.48756],[133.56765,34.4863],[133.56874,34.47991],[133.57353,34.46806],[133.57324,34.4659],[133.57874,34.47052],[133.59171,34.47074],[133.59592,34.47577],[133.58873,34.48248],[133.59415,34.49106],[133.60374,34.49514],[133.60322,34.50105],[133.6076,34.50607],[133.61385,34.5078],[133.623,34.51283],[133.62321,34.51877],[133.62934,34.52055],[133.64079,34.53943],[133.64896,34.54518],[133.64273,34.54812],[133.64786,34.55731],[133.63968,34.56062],[133.63671,34.56944],[133.62301,34.57877],[133.62328,34.58048]]]},"properties":{"pref":"岡山県","city":"浅口市","code5":"33216","code6":"332160"}},
{"type":"Feature","geometry":{"type":"Polygon","coordinates":[[[134.19692,34.89101],[134.19214,34.8903],[134.18641,34.89733],[134.17194,34.89873],[134.16576,34.88094],[134.16069,34.88108],[134.15386,34.88774],[134.13867,34.88722],[134.13338,34.88973],[134.1289,34.88838],[134.12436,34.89056],[134.12487,34.89915],[134.12695,34.90287],[134.12543,34.90781],[134.12735,34.91358],[134.12016,34.91607],[134.1109,34.91088],[134.10244,34.92268],[134.09859,34.92339],[134.10045,34.91861],[134.09316,34.9063],[134.08763,34.90232],[134.08516,34.89661],[134.08905,34.89484],[134.09489,34.89743],[134.09756,34.89251],[134.09307,34.88543],[134.10407,34.88102],[134.0964,34.87554],[134.08853,34.87358],[134.08491,34.87646],[134.081,34.87452],[134.08058,34.86975],[134.0771,34.86329],[134.05987,34.85414],[134.05434,34.8575],[134.04346,34.85786],[134.04516,34.84903],[134.03924,34.84262],[134.04028,34.83528],[134.03869,34.83262],[134.04591,34.82786],[134.04871,34.83255],[134.05474,34.83254],[134.06078,34.8247],[134.06546,34.82819],[134.0766,34.82455],[134.07938,34.82593],[134.08773,34.82062],[134.08954,34.81241],[134.09381,34.80734],[134.10125,34.80271],[134.10854,34.80227],[134.11862,34.79367],[134.13427,34.79301],[134.14332,34.78655],[134.14975,34.78366],[134.1522,34.77244],[134.14652,34.76679],[134.1493,34.76168],[134.15511,34.75951],[134.17697,34.76045],[134.18192,34.76519],[134.18626,34.76305],[134.19216,34.76343],[134.20159,34.76721],[134.19742,34.77607],[134.19105,34.77885],[134.19703,34.78361],[134.19962,34.791],[134.19226,34.79469],[134.19057,34.80025],[134.1967,34.81082],[134.19716,34.81605],[134.20516,34.82172],[134.20987,34.83011],[134.21184,34.83698],[134.21577,34.83931],[134.20843,34.84391],[134.21082,34.84933],[134.20644,34.85593],[134.19034,34.85891],[134.18779,34.86137],[134.18013,34.85961],[134.18438,34.87289],[134.18816,34.87468],[134.19514,34.88251],[134.19692,34.89101]]]},"properties":{"pref":"岡山県","county":"和気郡","city":"和気町","code5":"33346","code6":"333468"}},
{"type":"Feature","geometry":{"type":"Polygon","coordinates":[[[133.83027,34.62788],[133.81817,34.62114],[133.81321,34.61663],[133.81394,34.61284],[133.80413,34.61142],[133.8018,34.60898],[133.80546,34.6005],[133.80915,34.59787],[133.81504,34.5989],[133.82441,34.59628],[133.82813,34.5916],[133.83829,34.59922],[133.83436,34.61154],[133.83604,34.61992],[133.83418,34.62524],[133.83027,34.62788]]]},"properties":{"pref":"岡山県","county":"都窪郡","city":"早島町","code5":"33423","code6":"334235"}},
{"type":"Feature","geometry":{"type":"Polygon","coordinates":[[[133.56039,34.49353],[133.56629,34.49505],[133.56782,34.49804],[133.56302,34.50562],[133.5691,34.51391],[133.5775,34.51728],[133.57518,34.52493],[133.58382,34.52778],[133.58101,34.53352],[133.57286,34.53013],[133.56848,34.53604],[133.5605,34.53791],[133.56063,34.53137],[133.55085,34.5306],[133.54953,34.52789],[133.54639,34.52278],[133.54684,34.51923],[133.54403,34.51148],[133.53804,34.5087],[133.52979,34.49677],[133.54586,34.49231],[133.56039,34.49353]]]},"properties":{"pref":"岡山県","county":"浅口郡","city":"里庄町","code5":"33445","code6":"334456"}},
{"type":"Feature","geometry":{"type":"Polygon","coordinates":[[[133.63208,34.64183],[133.62243,34.64909],[133.62346,34.65819],[133.61726,34.66271],[133.61487,34.68333],[133.62288,34.6856],[133.62762,34.69638],[133.62563,34.7022],[133.62047,34.70186],[133.61873,34.70609],[133.60855,34.70614],[133.59283,34.69826],[133.59406,34.68685],[133.58315,34.67961],[133.5764,34.68155],[133.57056,34.6794],[133.5715,34.67478],[133.56956,34.66989],[133.56117,34.65937],[133.56263,34.65206],[133.56103,34.64647],[133.5538,34.64324],[133.54944,34.64717],[133.54392,34.64853],[133.53075,34.64555],[133.53631,34.64104],[133.53515,34.63601],[133.53729,34.63247],[133.5336,34.62993],[133.5263,34.63245],[133.51883,34.62973],[133.5223,34.6245],[133.52723,34.62199],[133.53242,34.60792],[133.5277,34.60492],[133.52935,34.59968],[133.54488,34.60331],[133.55222,34.59969],[133.55522,34.5937],[133.56098,34.59226],[133.56378,34.58684],[133.57014,34.58504],[133.57803,34.59011],[133.58481,34.58977],[133.58329,34.58254],[133.59452,34.57661],[133.601,34.57698],[133.61012,34.57358],[133.61809,34.57965],[133.62328,34.58048],[133.6323,34.58371],[133.64293,34.59241],[133.64938,34.59625],[133.63876,34.60603],[133.637,34.61484],[133.6334,34.62348],[133.63388,34.63768],[133.63208,34.64183]]]},"properties":{"pref":"岡山県","county":"小田郡","city":"矢掛町","code5":"33461","code6":"334618"}},
{"type":"Feature","geometry":{"type":"Polygon","coordinates":[[[133.52611,35.18289],[133.52977,35.17732],[133.53475,35.1765],[133.5354,35.17055],[133.54118,35.1681],[133.54144,35.16337],[133.53579,35.15777],[133.53858,35.15143],[133.54806,35.15053],[133.5541,35.1516],[133.55673,35.14876],[133.568,35.14908],[133.57657,35.15049],[133.58645,35.1578],[133.58224,35.16383],[133.58204,35.17328],[133.58829,35.1758],[133.58887,35.18417],[133.60619,35.18535],[133.60811,35.19489],[133.6063,35.20571],[133.59718,35.21467],[133.59975,35.22479],[133.59249,35.23575],[133.59644,35.24093],[133.59344,35.24428],[133.58086,35.24722],[133.57577,35.25225],[133.56664,35.25559],[133.56222,35.25412],[133.56181,35.24888],[133.55491,35.24181],[133.54595,35.24368],[133.54149,35.24218],[133.53483,35.23672],[133.52836,35.23666],[133.52567,35.23945],[133.51723,35.24074],[133.51449,35.23549],[133.50809,35.23303],[133.50554,35.22817],[133.51131,35.22152],[133.51541,35.22053],[133.52151,35.21057],[133.52068,35.20602],[133.52682,35.19367],[133.52908,35.18694],[133.52611,35.18289]]]},"properties":{"pref":"岡山県","county":"真庭郡","city":"新庄村","code5":"33586","code6":"335860"}},
{"type":"Feature","geometry":{"type":"Polygon","coordinates":[[[134.01481,35.35039],[134.00965,35.34952],[133.99767,35.3529],[133.97978,35.34341],[133.96963,35.34783],[133.96477,35.34669],[133.95407,35.3407],[133.95389,35.33829],[133.94532,35.33262],[133.93713,35.33557],[133.93154,35.33321],[133.92782,35.3221],[133.93202,35.31792],[133.93127,35.31471],[133.92522,35.3069],[133.91756,35.30758],[133.90684,35.30664],[133.88138,35.29395],[133.86201,35.29236],[133.86082,35.28809],[133.86513,35.28586],[133.86346,35.2771],[133.86594,35.27226],[133.85556,35.26812],[133.85224,35.26237],[133.84373,35.25349],[133.83208,35.24883],[133.81815,35.25263],[133.82058,35.24217],[133.81432,35.23091],[133.81028,35.22916],[133.81657,35.219],[133.80811,35.21975],[133.80005,35.21445],[133.77856,35.22244],[133.78135,35.21274],[133.77676,35.20766],[133.77254,35.20586],[133.77318,35.20173],[133.77849,35.1973],[133.77975,35.18948],[133.77734,35.18062],[133.77925,35.17621],[133.77049,35.17112],[133.77152,35.16411],[133.76606,35.15958],[133.77003,35.15575],[133.77516,35.15579],[133.78096,35.15302],[133.782,35.14801],[133.7927,35.13758],[133.80257,35.1316],[133.80956,35.13092],[133.81685,35.13227],[133.82156,35.12725],[133.82662,35.12838],[133.83356,35.12625],[133.8347,35.12091],[133.84376,35.11669],[133.84463,35.1088],[133.84289,35.10613],[133.8456,35.10151],[133.85547,35.10517],[133.85954,35.10514],[133.86788,35.10181],[133.87233,35.09255],[133.87363,35.08551],[133.88029,35.08071],[133.88952,35.08107],[133.89592,35.07987],[133.90458,35.07473],[133.91282,35.0674],[133.92158,35.06312],[133.93748,35.06306],[133.93982,35.06876],[133.94397,35.07097],[133.94329,35.08501],[133.94858,35.08775],[133.95051,35.09489],[133.95626,35.09845],[133.95573,35.10276],[133.9634,35.10681],[133.96519,35.11109],[133.96281,35.11568],[133.96823,35.1236],[133.96888,35.1373],[133.97522,35.14303],[133.97426,35.15068],[133.9784,35.15907],[133.98414,35.16108],[133.98745,35.16574],[133.98832,35.17186],[133.99606,35.17828],[133.99822,35.20148],[133.99689,35.21812],[134.00141,35.22506],[134.01243,35.23104],[134.0041,35.24087],[134.00576,35.24514],[134.00134,35.24885],[134.00027,35.25566],[134.00505,35.25695],[134.01011,35.26418],[134.01689,35.2668],[134.02191,35.27395],[134.02061,35.28199],[134.01743,35.28403],[134.01867,35.2899],[134.02543,35.29631],[134.03014,35.30542],[134.02533,35.30749],[134.02169,35.30557],[134.00784,35.3084],[133.99947,35.31465],[134.00416,35.32528],[134.01199,35.32989],[134.01536,35.33386],[134.01082,35.3404],[134.01542,35.34529],[134.01481,35.35039]]]},"properties":{"pref":"岡山県","county":"苫田郡","city":"鏡野町","code5":"33606","code6":"336068"}},
{"type":"Feature","geometry":{"type":"Polygon","coordinates":[[[134.08436,35.01936],[134.08813,35.01166],[134.09601,35.01417],[134.10005,35.01724],[134.11098,35.01457],[134.12214,35.01915],[134.12499,35.0177],[134.1373,35.01913],[134.14011,35.02173],[134.13858,35.03782],[134.13576,35.04719],[134.137,35.04851],[134.1563,35.04733],[134.17228,35.04379],[134.17609,35.04523],[134.17908,35.05416],[134.17689,35.06246],[134.18477,35.06224],[134.18265,35.06802],[134.17722,35.06858],[134.17735,35.07271],[134.17007,35.0768],[134.17306,35.08166],[134.17355,35.0884],[134.1763,35.09229],[134.16587,35.0949],[134.15074,35.0954],[134.14565,35.10256],[134.13942,35.10359],[134.13646,35.0984],[134.13134,35.10309],[134.11884,35.09272],[134.11807,35.08998],[134.10901,35.08368],[134.10416,35.08361],[134.10104,35.07005],[134.10526,35.06721],[134.10531,35.06086],[134.10231,35.05058],[134.09814,35.0505],[134.09176,35.05437],[134.0828,35.05093],[134.08439,35.04798],[134.08428,35.03992],[134.08191,35.03562],[134.08224,35.02601],[134.08436,35.01936]]]},"properties":{"pref":"岡山県","county":"勝田郡","city":"勝央町","code5":"33622","code6":"336220"}},
{"type":"Feature","geometry":{"type":"Polygon","coordinates":[[[134.16753,35.17183],[134.16519,35.16951],[134.15033,35.16721],[134.14555,35.16273],[134.14104,35.16259],[134.143,35.15682],[134.14338,35.14123],[134.13882,35.1301],[134.1374,35.12306],[134.13381,35.11743],[134.13134,35.10309],[134.13646,35.0984],[134.13942,35.10359],[134.14565,35.10256],[134.15074,35.0954],[134.16587,35.0949],[134.1763,35.09229],[134.18315,35.08937],[134.19021,35.09326],[134.19034,35.09794],[134.19895,35.10017],[134.20657,35.10035],[134.20671,35.09673],[134.21498,35.10011],[134.2222,35.10689],[134.23077,35.11001],[134.23249,35.11331],[134.22571,35.11657],[134.22493,35.12259],[134.23045,35.12432],[134.23132,35.1305],[134.2236,35.13687],[134.22863,35.14888],[134.2286,35.15576],[134.22167,35.16516],[134.22202,35.17417],[134.22437,35.17721],[134.21953,35.18139],[134.21652,35.18949],[134.21264,35.19072],[134.20317,35.18879],[134.19841,35.19053],[134.19285,35.18856],[134.19368,35.18435],[134.18994,35.17587],[134.1776,35.16917],[134.16753,35.17183]]]},"properties":{"pref":"岡山県","county":"勝田郡","city":"奈義町","code5":"33623","code6":"336238"}},
{"type":"Feature","geometry":{"type":"Polygon","coordinates":[[[134.40281,35.24102],[134.40169,35.24582],[134.39366,35.25175],[134.38973,35.25212],[134.38138,35.24885],[134.37316,35.24588],[134.37467,35.23724],[134.3689,35.23172],[134.35466,35.22655],[134.3504,35.22282],[134.33655,35.21948],[134.33468,35.21289],[134.3227,35.20275],[134.31379,35.20059],[134.299,35.20186],[134.28232,35.19788],[134.28133,35.1967],[134.28029,35.19078],[134.2838,35.18761],[134.28292,35.18237],[134.28928,35.17737],[134.2873,35.17322],[134.29028,35.16356],[134.29374,35.15846],[134.30172,35.15731],[134.31101,35.15243],[134.31741,35.15186],[134.32037,35.14805],[134.33453,35.14507],[134.33929,35.14841],[134.34572,35.16146],[134.35481,35.16535],[134.36037,35.17361],[134.36913,35.17785],[134.37933,35.18691],[134.38299,35.19444],[134.38132,35.20635],[134.38115,35.21789],[134.38252,35.22172],[134.397,35.22762],[134.40281,35.24102]]]},"properties":{"pref":"岡山県","county":"英田郡","city":"西粟倉村","code5":"33643","code6":"336432"}},
{"type":"Feature","geometry":{"type":"Polygon","coordinates":[[[133.95535,34.87273],[133.96369,34.87426],[133.97625,34.88044],[133.97948,34.88632],[133.98782,34.88674],[133.99906,34.8906],[134.00439,34.89605],[134.00117,34.90222],[134.00337,34.91199],[134.00655,34.91209],[134.01162,34.92143],[134.01603,34.93835],[134.00804,34.9368],[134.00313,34.94229],[134.00434,34.94599],[134.00053,34.95375],[134.0028,34.95477],[134.004,34.96451],[133.98651,34.96321],[133.97818,34.96423],[133.97465,34.96205],[133.96737,34.96181],[133.96354,34.95985],[133.95033,34.96448],[133.94278,34.96951],[133.93863,34.97529],[133.93495,34.97376],[133.93358,34.96627],[133.9266,34.96354],[133.92619,34.95835],[133.9223,34.95119],[133.91013,34.94384],[133.90634,34.93818],[133.90961,34.93271],[133.90858,34.92658],[133.90054,34.92258],[133.90627,34.91822],[133.89417,34.90959],[133.89823,34.90749],[133.90257,34.90149],[133.90923,34.90666],[133.91295,34.90322],[133.92223,34.90083],[133.92065,34.89489],[133.92641,34.89342],[133.93056,34.88784],[133.9385,34.88394],[133.92784,34.87466],[133.93746,34.87097],[133.94686,34.87082],[133.95535,34.87273]]]},"properties":{"pref":"岡山県","county":"久米郡","city":"久米南町","code5":"33663","code6":"336637"}},
{"type":"Feature","geometry":{"type":"Polygon","coordinates":[[[133.91013,34.94384],[133.9223,34.95119],[133.92619,34.95835],[133.9266,34.96354],[133.93358,34.96627],[133.93495,34.97376],[133.93863,34.97529],[133.94278,34.96951],[133.95033,34.96448],[133.96354,34.95985],[133.96737,34.96181],[133.97465,34.96205],[133.97818,34.96423],[133.98651,34.96321],[134.004,34.96451],[134.0028,34.95477],[134.00053,34.95375],[134.00434,34.94599],[134.00313,34.94229],[134.00804,34.9368],[134.01603,34.93835],[134.01947,34.94144],[134.02509,34.95081],[134.0336,34.94413],[134.04106,34.94333],[134.05175,34.93707],[134.05895,34.93941],[134.06729,34.93682],[134.07265,34.94127],[134.0785,34.94085],[134.08616,34.94264],[134.09055,34.9408],[134.09134,34.93649],[134.088,34.92939],[134.09859,34.92339],[134.10244,34.92268],[134.1088,34.92548],[134.1084,34.92908],[134.1122,34.93261],[134.12058,34.93137],[134.12189,34.9345],[134.11367,34.93847],[134.10774,34.9431],[134.1012,34.95379],[134.09358,34.9555],[134.09164,34.96519],[134.09968,34.96633],[134.10478,34.97217],[134.10035,34.97508],[134.10159,34.98102],[134.09979,34.98843],[134.10561,34.98986],[134.09991,34.99644],[134.09469,34.99175],[134.09367,34.98693],[134.08702,34.98777],[134.08623,34.99466],[134.09032,34.99969],[134.08813,35.01166],[134.08436,35.01936],[134.07659,35.02526],[134.07086,35.02269],[134.06087,35.02086],[134.05779,35.02465],[134.04627,35.02618],[134.04165,35.02114],[134.03398,35.01585],[134.03288,35.01323],[134.04037,35.00232],[134.03169,35.00206],[134.02486,35.00585],[134.01702,35.00622],[134.01023,35.01508],[134.00465,35.01558],[133.99753,35.02331],[133.98843,35.02657],[133.977,35.02009],[133.97089,35.01144],[133.96268,35.01179],[133.95788,35.00915],[133.9515,35.00902],[133.94783,35.01812],[133.95017,35.02343],[133.94998,35.029],[133.95457,35.03537],[133.95687,35.04493],[133.95276,35.05124],[133.94832,35.05158],[133.94968,35.04391],[133.93533,35.04153],[133.93125,35.03841],[133.93704,35.03581],[133.9379,35.02974],[133.93474,35.02285],[133.92893,35.01731],[133.93036,35.01437],[133.92016,35.00957],[133.91928,35.00413],[133.91012,34.9986],[133.90941,34.99427],[133.89995,34.98809],[133.89575,34.98399],[133.88521,34.99354],[133.87776,34.99187],[133.8768,34.99896],[133.87206,35.00734],[133.87446,35.01167],[133.8796,35.01374],[133.87902,35.02226],[133.87703,35.02667],[133.87735,35.03655],[133.8745,35.04223],[133.86482,35.04202],[133.86127,35.03946],[133.85383,35.04045],[133.84282,35.03786],[133.83522,35.04743],[133.82609,35.04461],[133.81683,35.04231],[133.81934,35.03567],[133.8119,35.0296],[133.80511,35.02634],[133.80238,35.02226],[133.79302,35.02165],[133.78473,35.01959],[133.78958,35.00972],[133.78592,35.00308],[133.78746,34.989],[133.7941,34.98252],[133.80386,34.97814],[133.80517,34.96861],[133.80232,34.96577],[133.80762,34.95906],[133.80879,34.95148],[133.8006,34.95325],[133.7992,34.95925],[133.79115,34.95899],[133.78922,34.95569],[133.78099,34.9613],[133.77147,34.96028],[133.76189,34.95249],[133.7664,34.94131],[133.76649,34.93718],[133.77237,34.93645],[133.7751,34.93345],[133.79261,34.92892],[133.79808,34.93313],[133.79851,34.93938],[133.80686,34.9401],[133.81131,34.94628],[133.82235,34.95299],[133.83137,34.95156],[133.83557,34.94499],[133.84417,34.94497],[133.84742,34.93689],[133.85024,34.93438],[133.85401,34.94465],[133.86071,34.94371],[133.86389,34.93712],[133.87488,34.93982],[133.88294,34.94834],[133.8881,34.94404],[133.89614,34.94487],[133.90139,34.94298],[133.90549,34.94909],[133.91153,34.9475],[133.91013,34.94384]]]},"properties":{"pref":"岡山県","county":"久米郡","city":"美咲町","code5":"33666","code6":"336661"}},
{"type":"Feature","geometry":{"type":"Polygon","coordinates":[[[133.85024,34.93438],[133.84742,34.93689],[133.84417,34.94497],[133.83557,34.94499],[133.83137,34.95156],[133.82235,34.95299],[133.81131,34.94628],[133.80686,34.9401],[133.79851,34.93938],[133.79808,34.93313],[133.79261,34.92892],[133.7751,34.93345],[133.77237,34.93645],[133.76649,34.93718],[133.7664,34.94131],[133.76189,34.95249],[133.75541,34.95206],[133.75011,34.94559],[133.74222,34.94564],[133.73376,34.95026],[133.72385,34.94875],[133.71693,34.95536],[133.71408,34.95252],[133.71891,34.94554],[133.72034,34.93349],[133.71393,34.92463],[133.71201,34.91987],[133.71752,34.90872],[133.71157,34.90511],[133.70706,34.89897],[133.7047,34.89281],[133.69374,34.89141],[133.68672,34.88686],[133.68136,34.88154],[133.68234,34.87817],[133.67309,34.87836],[133.66331,34.87416],[133.6626,34.86866],[133.66457,34.86469],[133.65447,34.85096],[133.64779,34.8475],[133.6445,34.83986],[133.6405,34.8363],[133.64139,34.82945],[133.64596,34.82807],[133.64849,34.82366],[133.64774,34.81435],[133.65651,34.80463],[133.66061,34.79622],[133.65907,34.79353],[133.66235,34.78672],[133.66132,34.7816],[133.66646,34.77339],[133.67439,34.76628],[133.6793,34.75558],[133.67988,34.75141],[133.689,34.74527],[133.69163,34.75569],[133.70485,34.76205],[133.71265,34.76321],[133.7124,34.76641],[133.71903,34.7697],[133.71984,34.77531],[133.72917,34.77411],[133.72837,34.77148],[133.74001,34.76813],[133.74917,34.78239],[133.7528,34.78589],[133.77292,34.7864],[133.77413,34.79712],[133.78099,34.80892],[133.78905,34.81356],[133.79935,34.81472],[133.80681,34.81209],[133.80765,34.80828],[133.81486,34.80544],[133.81889,34.80663],[133.81762,34.82394],[133.81616,34.82933],[133.81761,34.83453],[133.82837,34.8417],[133.83742,34.84213],[133.84348,34.84467],[133.84375,34.84993],[133.84799,34.85363],[133.84489,34.85984],[133.84699,34.86398],[133.84324,34.86923],[133.85022,34.87948],[133.84807,34.8837],[133.85158,34.89044],[133.8566,34.89523],[133.86494,34.89645],[133.86596,34.90006],[133.87188,34.90016],[133.8784,34.90311],[133.87425,34.90701],[133.86732,34.90531],[133.86281,34.90702],[133.85873,34.91241],[133.85031,34.91598],[133.84725,34.92213],[133.85177,34.92657],[133.85024,34.93438]]]},"properties":{"pref":"岡山県","county":"加賀郡","city":"吉備中央町","code5":"33681","code6":"336815"}},
{"type":"Feature","geometry":{"type":"MultiPolygon","coordinates":[[[[133.83027,34.62788],[133.83418,34.62524],[133.83604,34.61992],[133.83436,34.61154],[133.83829,34.59922],[133.8436,34.59003],[133.84289,34.57965],[133.83306,34.56847],[133.82604,34.56641],[133.83172,34.56089],[133.83317,34.55486],[133.82744,34.55189],[133.81928,34.55067],[133.82828,34.53453],[133.83841,34.53546],[133.84293,34.53075],[133.84995,34.52697],[133.85399,34.5199],[133.86649,34.51852],[133.87468,34.52198],[133.87524,34.52412],[133.88658,34.52479],[133.88477,34.5379],[133.8933,34.54289],[133.89715,34.54276],[133.90222,34.53695],[133.91971,34.54494],[133.93125,34.56276],[133.93875,34.57644],[133.95132,34.57042],[133.95618,34.57043],[133.96172,34.56626],[133.96608,34.55858],[133.97101,34.5576],[133.97711,34.55981],[133.98252,34.56699],[133.98224,34.57214],[133.98719,34.57757],[133.99562,34.57753],[134.01016,34.57496],[134.01437,34.57771],[134.02307,34.57527],[134.02889,34.57844],[134.0342,34.57376],[134.04522,34.57842],[134.04076,34.58066],[134.04072,34.58748],[134.03721,34.59191],[134.02879,34.59757],[134.02272,34.59892],[134.00454,34.5949],[133.97385,34.59447],[133.96797,34.59257],[133.96044,34.58758],[133.95872,34.58406],[133.94809,34.59364],[133.94605,34.59899],[133.95235,34.60247],[133.95719,34.59697],[133.96834,34.59951],[133.97089,34.6018],[133.97738,34.60034],[133.98459,34.60285],[133.9828,34.60754],[133.98316,34.60772],[133.9958,34.61354],[133.99619,34.61346],[134.01402,34.61068],[134.01403,34.61071],[134.01936,34.60947],[134.0235,34.60776],[134.02359,34.60772],[134.03177,34.6055],[134.03248,34.60911],[134.04215,34.60833],[134.0479,34.59758],[134.04847,34.60296],[134.0484,34.60307],[134.05364,34.60378],[134.05804,34.60777],[134.06401,34.60754],[134.06157,34.60271],[134.05646,34.60193],[134.05321,34.59603],[134.05438,34.58643],[134.06009,34.58462],[134.07076,34.58465],[134.07975,34.58647],[134.08449,34.58108],[134.09135,34.5809],[134.09668,34.58282],[134.10352,34.58958],[134.10814,34.58962],[134.11219,34.58847],[134.11287,34.60079],[134.10965,34.60563],[134.10929,34.61679],[134.11201,34.61594],[134.11634,34.62744],[134.10732,34.63316],[134.10129,34.63951],[134.08631,34.63252],[134.08,34.63247],[134.07307,34.63786],[134.07731,34.6501],[134.06684,34.6477],[134.05821,34.65179],[134.05193,34.65921],[134.0602,34.67014],[134.07254,34.67662],[134.07773,34.68198],[134.08416,34.69898],[134.08339,34.70612],[134.09299,34.71434],[134.10054,34.72296],[134.1023,34.72668],[134.1062,34.74207],[134.11128,34.74597],[134.11973,34.74761],[134.12252,34.75291],[134.11934,34.75721],[134.11465,34.75747],[134.10907,34.76084],[134.10685,34.75648],[134.10087,34.76093],[134.09022,34.76264],[134.09291,34.77014],[134.08786,34.77614],[134.08705,34.78196],[134.08104,34.78288],[134.06455,34.77984],[134.06092,34.77636],[134.05825,34.76781],[134.05245,34.77007],[134.04888,34.76655],[134.05122,34.76147],[134.0469,34.75655],[134.04531,34.74921],[134.03547,34.74432],[134.0287,34.73782],[134.0096,34.72924],[134.00916,34.72623],[134.00049,34.72623],[133.99359,34.71964],[133.99396,34.72654],[133.98653,34.73348],[133.98409,34.7395],[133.97961,34.74153],[133.97142,34.74943],[133.97257,34.75387],[133.97998,34.75554],[133.98585,34.76133],[133.97662,34.76927],[133.98068,34.77864],[133.97029,34.78422],[133.9617,34.78601],[133.97367,34.80257],[133.98555,34.807],[133.98709,34.81826],[133.98511,34.81995],[133.9912,34.82708],[133.9884,34.82974],[133.98774,34.83576],[133.99282,34.84129],[133.99399,34.85007],[133.98707,34.85442],[133.98193,34.85504],[133.97757,34.84713],[133.96276,34.8509],[133.96829,34.85315],[133.96111,34.86801],[133.95535,34.87273],[133.94686,34.87082],[133.93746,34.87097],[133.92784,34.87466],[133.9385,34.88394],[133.93056,34.88784],[133.92641,34.89342],[133.92065,34.89489],[133.92223,34.90083],[133.91295,34.90322],[133.90923,34.90666],[133.90257,34.90149],[133.89823,34.90749],[133.89417,34.90959],[133.90627,34.91822],[133.90054,34.92258],[133.90858,34.92658],[133.90961,34.93271],[133.90634,34.93818],[133.91013,34.94384],[133.91153,34.9475],[133.90549,34.94909],[133.90139,34.94298],[133.89614,34.94487],[133.8881,34.94404],[133.88294,34.94834],[133.87488,34.93982],[133.86389,34.93712],[133.86071,34.94371],[133.85401,34.94465],[133.85024,34.93438],[133.85177,34.92657],[133.84725,34.92213],[133.85031,34.91598],[133.85873,34.91241],[133.86281,34.90702],[133.86732,34.90531],[133.87425,34.90701],[133.8784,34.90311],[133.87188,34.90016],[133.86596,34.90006],[133.86494,34.89645],[133.8566,34.89523],[133.85158,34.89044],[133.84807,34.8837],[133.85022,34.87948],[133.84324,34.86923],[133.84699,34.86398],[133.84489,34.85984],[133.84799,34.85363],[133.84375,34.84993],[133.84348,34.84467],[133.83742,34.84213],[133.82837,34.8417],[133.81761,34.83453],[133.81616,34.82933],[133.81762,34.82394],[133.81889,34.80663],[133.81486,34.80544],[133.80765,34.80828],[133.80681,34.81209],[133.79935,34.81472],[133.78905,34.81356],[133.78099,34.80892],[133.77413,34.79712],[133.77292,34.7864],[133.7528,34.78589],[133.74917,34.78239],[133.74001,34.76813],[133.73983,34.76152],[133.7494,34.74787],[133.75623,34.74942],[133.76206,34.74861],[133.7623,34.7453],[133.7682,34.74167],[133.77261,34.74215],[133.78139,34.73613],[133.79077,34.73132],[133.79617,34.72326],[133.79975,34.71103],[133.79832,34.7059],[133.78369,34.69921],[133.78713,34.69581],[133.79167,34.69852],[133.79863,34.69045],[133.80247,34.68927],[133.80416,34.68466],[133.80123,34.67913],[133.79564,34.67688],[133.79717,34.66663],[133.80128,34.6626],[133.81316,34.66776],[133.82493,34.66935],[133.82609,34.66643],[133.83503,34.66181],[133.83767,34.65502],[133.83182,34.65124],[133.83753,34.63541],[133.83533,34.63018],[133.83027,34.62788]]],[[[133.98398,34.6072],[133.98487,34.60792],[133.98451,34.60777],[133.98403,34.60748],[133.98398,34.6072]]],[[[133.98398,34.6072],[133.98395,34.6072],[133.98397,34.60718],[133.98398,34.6072]]],[[[134.10394,34.56617],[134.10024,34.56694],[134.09518,34.56216],[134.10324,34.56026],[134.10701,34.56343],[134.10507,34.56715],[134.104,34.56599],[134.10394,34.56617]]]]},"properties":{"pref":"岡山県","city":"岡山市","code5":"33100","code6":"331007"}}
]}