{"type":"FeatureCollection", "features": [
{"type":"Feature","geometry":{"type":"MultiPolygon","coordinates":[[[[132.53644,34.31475],[132.53089,34.31347],[132.53016,34.30464],[132.51919,34.29712],[132.51255,34.29958],[132.50777,34.29674],[132.50904,34.29276],[132.51904,34.28201],[132.51614,34.27612],[132.51436,34.26772],[132.51666,34.26198],[132.51435,34.25743],[132.51794,34.25555],[132.52493,34.25868],[132.53035,34.25188],[132.52914,34.24433],[132.53549,34.24376],[132.5451,34.24023],[132.5517,34.24247],[132.55852,34.23824],[132.54839,34.22853],[132.53811,34.22863],[132.53156,34.22217],[132.54392,34.20964],[132.54359,34.20623],[132.53826,34.19581],[132.5404,34.19444],[132.55348,34.19444],[132.555,34.19675],[132.56911,34.20066],[132.57572,34.20422],[132.57974,34.20869],[132.58767,34.21364],[132.59352,34.21252],[132.59606,34.21678],[132.58996,34.21981],[132.59618,34.22914],[132.60575,34.22652],[132.60275,34.22015],[132.6091,34.21853],[132.61198,34.22369],[132.61621,34.22061],[132.6159,34.21455],[132.62615,34.21114],[132.6267,34.20632],[132.6318,34.2064],[132.63815,34.20321],[132.65082,34.20466],[132.65328,34.20712],[132.66145,34.20897],[132.65751,34.21413],[132.66024,34.21751],[132.66749,34.2191],[132.68025,34.21086],[132.68642,34.21423],[132.68507,34.22245],[132.68932,34.22368],[132.70008,34.23553],[132.72029,34.24111],[132.72825,34.23957],[132.7331,34.24266],[132.73967,34.24319],[132.74968,34.24165],[132.75385,34.23869],[132.76035,34.24089],[132.75836,34.24658],[132.76811,34.24965],[132.77242,34.25308],[132.77202,34.25885],[132.76481,34.2626],[132.7582,34.26022],[132.75977,34.26789],[132.75369,34.27573],[132.75606,34.27994],[132.7617,34.28263],[132.77007,34.27916],[132.7852,34.27699],[132.78088,34.28134],[132.78102,34.28609],[132.77505,34.2882],[132.77063,34.28683],[132.75931,34.29608],[132.76181,34.29958],[132.7558,34.30776],[132.75617,34.32],[132.75394,34.32372],[132.7547,34.32931],[132.75209,34.3332],[132.7426,34.33061],[132.73991,34.32678],[132.73338,34.32333],[132.72682,34.32211],[132.71447,34.30804],[132.70384,34.31322],[132.69068,34.3028],[132.68673,34.30258],[132.67784,34.29838],[132.66404,34.28839],[132.66011,34.29314],[132.64965,34.31131],[132.64502,34.3099],[132.6395,34.31505],[132.6296,34.31138],[132.62664,34.31375],[132.62151,34.31259],[132.60683,34.31671],[132.59741,34.30492],[132.59291,34.30726],[132.58698,34.31548],[132.58058,34.31569],[132.57139,34.31996],[132.56799,34.31932],[132.56469,34.32545],[132.55666,34.32286],[132.55446,34.31285],[132.53644,34.31475]]],[[[132.55276,34.18097],[132.55271,34.18665],[132.54744,34.18955],[132.54278,34.18762],[132.53555,34.18754],[132.53324,34.19155],[132.53701,34.19498],[132.53509,34.20001],[132.52702,34.20022],[132.51835,34.19241],[132.50751,34.18866],[132.50295,34.18533],[132.49547,34.16964],[132.49321,34.1625],[132.49306,34.15397],[132.49725,34.14715],[132.50437,34.14753],[132.5081,34.14416],[132.50612,34.13578],[132.5037,34.1331],[132.49553,34.13255],[132.48839,34.13019],[132.48568,34.12712],[132.4713,34.12027],[132.466,34.11673],[132.45477,34.11319],[132.44892,34.108],[132.44773,34.09426],[132.45418,34.09383],[132.45751,34.08482],[132.4623,34.08236],[132.47233,34.08801],[132.48534,34.09129],[132.49852,34.09096],[132.50199,34.10318],[132.50702,34.10389],[132.5138,34.09896],[132.51184,34.09551],[132.525,34.09525],[132.52856,34.10075],[132.53474,34.10312],[132.53526,34.09591],[132.54551,34.09779],[132.54302,34.09188],[132.5477,34.09006],[132.55196,34.07939],[132.56235,34.08968],[132.56255,34.09256],[132.56773,34.09721],[132.56833,34.10879],[132.57059,34.1158],[132.57587,34.11579],[132.58233,34.10663],[132.58618,34.11062],[132.58063,34.11807],[132.58284,34.12272],[132.57942,34.12662],[132.57401,34.12706],[132.56804,34.12372],[132.56041,34.1169],[132.55252,34.11626],[132.54746,34.1121],[132.53903,34.10775],[132.54052,34.1146],[132.5377,34.12117],[132.54384,34.12346],[132.54675,34.12887],[132.54681,34.13464],[132.55497,34.14767],[132.54825,34.15153],[132.53758,34.1493],[132.53279,34.14695],[132.52724,34.15024],[132.53002,34.15309],[132.52172,34.15747],[132.53124,34.16542],[132.53428,34.16171],[132.54002,34.16438],[132.54123,34.17332],[132.54955,34.17689],[132.55643,34.17468],[132.55642,34.18022],[132.55278,34.18095],[132.55276,34.18097]]],[[[132.712,34.20381],[132.6989,34.20402],[132.69315,34.20144],[132.68713,34.19443],[132.68836,34.19048],[132.68554,34.18273],[132.69448,34.18234],[132.7042,34.17924],[132.71234,34.181],[132.71619,34.17445],[132.72305,34.16936],[132.72518,34.1724],[132.73906,34.17305],[132.74317,34.16839],[132.74387,34.16398],[132.7543,34.16409],[132.75967,34.16806],[132.76014,34.17206],[132.76534,34.17692],[132.76455,34.1818],[132.75434,34.18272],[132.75887,34.18834],[132.75941,34.19202],[132.75335,34.19436],[132.74423,34.19322],[132.7403,34.19614],[132.7286,34.198],[132.7253,34.20003],[132.72095,34.19707],[132.712,34.20381]]],[[[132.805,34.16701],[132.80605,34.1617],[132.80077,34.15851],[132.80337,34.15441],[132.81007,34.15439],[132.81987,34.15101],[132.824,34.15399],[132.82993,34.15443],[132.83901,34.15832],[132.84605,34.15981],[132.85884,34.16787],[132.8622,34.17167],[132.86781,34.17401],[132.86844,34.17974],[132.86309,34.18117],[132.84919,34.19072],[132.84618,34.19579],[132.84174,34.19166],[132.83423,34.18988],[132.83135,34.18568],[132.82355,34.18718],[132.8185,34.18311],[132.80731,34.17743],[132.80335,34.17259],[132.805,34.16701]]],[[[132.67296,34.20332],[132.66296,34.19687],[132.65662,34.19628],[132.64856,34.18632],[132.64896,34.18096],[132.64444,34.17266],[132.65057,34.17074],[132.65657,34.17628],[132.66809,34.17081],[132.67623,34.17505],[132.68067,34.18414],[132.68446,34.18771],[132.68234,34.19316],[132.67474,34.19602],[132.67739,34.20213],[132.67296,34.20332]]],[[[132.79796,34.17221],[132.79937,34.17609],[132.79194,34.18473],[132.78655,34.18882],[132.78134,34.18752],[132.77816,34.18204],[132.77137,34.1764],[132.77072,34.17039],[132.77256,34.16132],[132.78211,34.16086],[132.79276,34.16536],[132.79796,34.17221]]],[[[132.53329,34.07423],[132.53129,34.07339],[132.5267,34.0581],[132.51955,34.05157],[132.52951,34.04646],[132.53401,34.04702],[132.53757,34.06093],[132.5386,34.06841],[132.53329,34.07423]]],[[[132.54956,34.07942],[132.54403,34.07464],[132.54161,34.06877],[132.55045,34.07164],[132.54757,34.07658],[132.54956,34.07942]]],[[[132.81949,34.19705],[132.81192,34.19527],[132.809,34.18866],[132.82134,34.19239],[132.81949,34.19705]]],[[[132.57801,34.16825],[132.57351,34.16571],[132.57008,34.16053],[132.57231,34.15515],[132.57921,34.15901],[132.57801,34.16825]]],[[[132.79065,34.12196],[132.78824,34.11809],[132.79354,34.11472],[132.79756,34.11636],[132.79065,34.12196]]],[[[132.7733,34.15779],[132.76957,34.15536],[132.75841,34.15221],[132.76008,34.14832],[132.76924,34.15131],[132.7751,34.15546],[132.7733,34.15779]]],[[[132.67129,34.15974],[132.66573,34.15507],[132.66864,34.15115],[132.67386,34.15244],[132.67129,34.15974]]],[[[132.69699,34.22346],[132.69274,34.2226],[132.69463,34.21742],[132.70115,34.21943],[132.69699,34.22346]]],[[[132.65864,34.15799],[132.65155,34.15575],[132.65532,34.15187],[132.65864,34.15799]]],[[[132.78326,34.26125],[132.78086,34.25767],[132.78724,34.25565],[132.78788,34.26054],[132.78326,34.26125]]]]},"properties":{"pref":"広島県","city":"呉市","code5":"34202","code6":"342025"}},
{"type":"Feature","geometry":{"type":"MultiPolygon","coordinates":[[[[133.01064,34.32914],[133.00864,34.33377],[133.01145,34.33953],[133.00983,34.34412],[133.00245,34.34947],[132.99399,34.34921],[132.98995,34.35185],[132.98538,34.34677],[132.97948,34.34805],[132.97563,34.34606],[132.97248,34.35116],[132.96079,34.35675],[132.95579,34.35326],[132.95027,34.35201],[132.9462,34.35644],[132.94022,34.35742],[132.94049,34.37358],[132.93542,34.37681],[132.93197,34.38195],[132.92713,34.38195],[132.92263,34.38677],[132.91691,34.3849],[132.9113,34.38669],[132.91306,34.39181],[132.90482,34.39878],[132.90393,34.40202],[132.90825,34.40547],[132.90747,34.41584],[132.90404,34.42933],[132.89703,34.42822],[132.8978,34.42502],[132.89375,34.42168],[132.8909,34.41588],[132.89412,34.41228],[132.88213,34.4063],[132.87654,34.40599],[132.86835,34.41087],[132.86088,34.41341],[132.85178,34.41452],[132.84997,34.41906],[132.83682,34.41918],[132.83511,34.42257],[132.8222,34.41849],[132.81289,34.42447],[132.80581,34.42046],[132.79431,34.42014],[132.78846,34.4235],[132.78244,34.42053],[132.78828,34.40947],[132.79631,34.40693],[132.80397,34.40615],[132.80658,34.40835],[132.81135,34.40324],[132.81605,34.39212],[132.80316,34.39249],[132.79618,34.38886],[132.79561,34.38559],[132.78839,34.38161],[132.78495,34.37565],[132.78785,34.37127],[132.79474,34.36982],[132.80927,34.37414],[132.81278,34.36903],[132.81674,34.36919],[132.83601,34.36178],[132.84722,34.35841],[132.8496,34.3548],[132.85447,34.35559],[132.85643,34.34764],[132.85667,34.33253],[132.85325,34.32732],[132.85111,34.31517],[132.8513,34.30793],[132.85457,34.3023],[132.85458,34.29655],[132.85601,34.29999],[132.86218,34.29771],[132.86826,34.30511],[132.8738,34.30216],[132.87505,34.3075],[132.86888,34.31177],[132.87418,34.31478],[132.88396,34.31563],[132.88761,34.31847],[132.88715,34.32235],[132.89361,34.32652],[132.9,34.32593],[132.91123,34.32783],[132.91446,34.33138],[132.91956,34.32563],[132.93076,34.32634],[132.94479,34.33618],[132.95336,34.33695],[132.96273,34.33473],[132.96464,34.33697],[132.98311,34.3312],[132.98991,34.33277],[132.99408,34.33751],[133.00263,34.33398],[133.00582,34.33012],[133.01064,34.32914]]],[[[132.9891,34.31591],[132.99192,34.30334],[132.99825,34.30546],[132.99499,34.31293],[132.9891,34.31591]]],[[[132.93715,34.32453],[132.94859,34.31096],[132.94285,34.32368],[132.93715,34.32453]]]]},"properties":{"pref":"広島県","city":"竹原市","code5":"34203","code6":"342033"}},
{"type":"Feature","geometry":{"type":"MultiPolygon","coordinates":[[[[133.01064,34.32914],[133.03042,34.33275],[133.04024,34.33167],[133.04521,34.33409],[133.05169,34.34229],[133.05982,34.34515],[133.07348,34.34315],[133.07894,34.34538],[133.08358,34.35582],[133.08373,34.36554],[133.09304,34.38896],[133.08488,34.39345],[133.08488,34.39565],[133.09864,34.3902],[133.10692,34.38923],[133.11733,34.38312],[133.12752,34.38257],[133.13935,34.389],[133.15386,34.39468],[133.15717,34.39932],[133.16249,34.40277],[133.15656,34.40624],[133.14887,34.40138],[133.144,34.40302],[133.14562,34.41031],[133.13783,34.41326],[133.14131,34.41619],[133.14279,34.42157],[133.1531,34.42798],[133.15007,34.432],[133.15617,34.43721],[133.15043,34.44515],[133.13425,34.4476],[133.13362,34.45567],[133.12577,34.45857],[133.12095,34.47063],[133.11445,34.47085],[133.11382,34.48045],[133.11668,34.48581],[133.10733,34.49532],[133.09891,34.49712],[133.09573,34.48998],[133.08251,34.485],[133.07469,34.48628],[133.07085,34.49441],[133.06503,34.49424],[133.06036,34.49085],[133.05455,34.49399],[133.05121,34.49984],[133.05268,34.50707],[133.06257,34.51595],[133.06419,34.52072],[133.06864,34.52321],[133.06825,34.52848],[133.08003,34.52902],[133.08004,34.53514],[133.08613,34.53924],[133.08223,34.54338],[133.07996,34.55007],[133.06142,34.5542],[133.05679,34.55922],[133.04631,34.56139],[133.04145,34.56432],[133.03317,34.56013],[133.0326,34.55665],[133.02336,34.55193],[133.02004,34.55394],[133.01132,34.55391],[132.99986,34.55059],[132.99709,34.54782],[132.99111,34.55188],[132.98879,34.55655],[132.97912,34.56129],[132.97256,34.56654],[132.97107,34.57018],[132.9612,34.56775],[132.95835,34.57661],[132.94835,34.58],[132.94455,34.57859],[132.93456,34.58542],[132.92326,34.5847],[132.92448,34.59042],[132.91345,34.59114],[132.90272,34.58747],[132.90202,34.58108],[132.89601,34.5831],[132.88644,34.57504],[132.87909,34.57463],[132.88071,34.56525],[132.8843,34.55904],[132.87922,34.55385],[132.87244,34.55078],[132.86459,34.55016],[132.85981,34.54691],[132.85343,34.55002],[132.85117,34.54484],[132.85641,34.52433],[132.86771,34.52008],[132.88609,34.51843],[132.89444,34.50703],[132.89403,34.5023],[132.89839,34.49854],[132.89774,34.49553],[132.90561,34.48344],[132.91154,34.48513],[132.91209,34.47496],[132.91926,34.47087],[132.92087,34.4674],[132.91593,34.45779],[132.91245,34.46005],[132.90471,34.45976],[132.89876,34.46534],[132.88969,34.46264],[132.8929,34.45771],[132.90214,34.44804],[132.90287,34.44304],[132.89566,34.4385],[132.89376,34.43465],[132.89703,34.42822],[132.90404,34.42933],[132.90747,34.41584],[132.90825,34.40547],[132.90393,34.40202],[132.90482,34.39878],[132.91306,34.39181],[132.9113,34.38669],[132.91691,34.3849],[132.92263,34.38677],[132.92713,34.38195],[132.93197,34.38195],[132.93542,34.37681],[132.94049,34.37358],[132.94022,34.35742],[132.9462,34.35644],[132.95027,34.35201],[132.95579,34.35326],[132.96079,34.35675],[132.97248,34.35116],[132.97563,34.34606],[132.97948,34.34805],[132.98538,34.34677],[132.98995,34.35185],[132.99399,34.34921],[133.00245,34.34947],[133.00983,34.34412],[133.01145,34.33953],[133.00864,34.33377],[133.01064,34.32914]]],[[[133.11221,34.36017],[133.10456,34.35724],[133.10449,34.34722],[133.09895,34.33865],[133.09922,34.32805],[133.09601,34.32364],[133.10399,34.32229],[133.11008,34.3172],[133.11582,34.31934],[133.12482,34.33095],[133.12655,34.33765],[133.12248,34.35325],[133.11221,34.36017]]],[[[133.10715,34.36821],[133.09897,34.36278],[133.10444,34.36042],[133.10715,34.36821]]]]},"properties":{"pref":"広島県","city":"三原市","code5":"34204","code6":"342041"}},
{"type":"Feature","geometry":{"type":"MultiPolygon","coordinates":[[[[133.15386,34.39468],[133.16958,34.39623],[133.18792,34.40103],[133.20948,34.41038],[133.20955,34.41044],[133.21423,34.41117],[133.22087,34.40901],[133.23223,34.41149],[133.23741,34.41681],[133.23985,34.42224],[133.24458,34.42341],[133.23983,34.43588],[133.23903,34.44085],[133.23519,34.44371],[133.22885,34.44342],[133.22642,34.44771],[133.23719,34.4471],[133.24006,34.455],[133.23525,34.45949],[133.22933,34.45544],[133.21642,34.4632],[133.21068,34.47042],[133.21764,34.47569],[133.22059,34.47374],[133.22823,34.47668],[133.2274,34.48344],[133.2313,34.48987],[133.23532,34.49234],[133.23293,34.49723],[133.23908,34.50499],[133.23943,34.5108],[133.23507,34.51413],[133.22798,34.51438],[133.21895,34.50863],[133.21398,34.50888],[133.21146,34.51854],[133.21904,34.52439],[133.22132,34.53167],[133.21915,34.53627],[133.20816,34.53633],[133.19986,34.53985],[133.1958,34.53738],[133.19665,34.53168],[133.18977,34.53304],[133.18817,34.53927],[133.18218,34.53795],[133.1771,34.54065],[133.17592,34.54712],[133.17173,34.5472],[133.16561,34.5514],[133.16116,34.56159],[133.16083,34.56619],[133.154,34.56493],[133.15018,34.56939],[133.142,34.5731],[133.13975,34.56569],[133.1345,34.56446],[133.13323,34.55796],[133.12581,34.54716],[133.12136,34.54832],[133.11036,34.5448],[133.10166,34.53931],[133.09272,34.53742],[133.08613,34.53924],[133.08004,34.53514],[133.08003,34.52902],[133.06825,34.52848],[133.06864,34.52321],[133.06419,34.52072],[133.06257,34.51595],[133.05268,34.50707],[133.05121,34.49984],[133.05455,34.49399],[133.06036,34.49085],[133.06503,34.49424],[133.07085,34.49441],[133.07469,34.48628],[133.08251,34.485],[133.09573,34.48998],[133.09891,34.49712],[133.10733,34.49532],[133.11668,34.48581],[133.11382,34.48045],[133.11445,34.47085],[133.12095,34.47063],[133.12577,34.45857],[133.13362,34.45567],[133.13425,34.4476],[133.15043,34.44515],[133.15617,34.43721],[133.15007,34.432],[133.1531,34.42798],[133.14279,34.42157],[133.14131,34.41619],[133.13783,34.41326],[133.14562,34.41031],[133.144,34.40302],[133.14887,34.40138],[133.15656,34.40624],[133.16249,34.40277],[133.15717,34.39932],[133.15386,34.39468]]],[[[133.16132,34.35829],[133.15594,34.35677],[133.1476,34.35801],[133.14943,34.35249],[133.14677,34.34698],[133.13766,34.34621],[133.14115,34.34125],[133.13444,34.33553],[133.13452,34.32887],[133.14128,34.32625],[133.14897,34.31463],[133.15196,34.30567],[133.15595,34.2991],[133.1739,34.29246],[133.17616,34.28657],[133.18058,34.28068],[133.19151,34.27494],[133.19603,34.27543],[133.19931,34.27952],[133.19625,34.286],[133.20487,34.29151],[133.20345,34.29592],[133.19457,34.29755],[133.19337,34.29985],[133.1984,34.30757],[133.20627,34.31039],[133.21086,34.31391],[133.2105,34.31865],[133.20353,34.31919],[133.20381,34.32259],[133.19571,34.33568],[133.19729,34.338],[133.18891,34.33572],[133.17685,34.3434],[133.1754,34.34667],[133.17742,34.35342],[133.17339,34.3579],[133.16155,34.35876],[133.16129,34.35832],[133.16132,34.35829]]],[[[133.14309,34.31039],[133.14086,34.31466],[133.12803,34.31521],[133.11809,34.31051],[133.10823,34.31054],[133.10191,34.30743],[133.096,34.30703],[133.09333,34.31404],[133.08906,34.31293],[133.08408,34.30821],[133.0818,34.29852],[133.07817,34.29489],[133.07136,34.28034],[133.0673,34.2675],[133.07273,34.2599],[133.08245,34.25596],[133.0852,34.25674],[133.09573,34.26004],[133.10184,34.26066],[133.10587,34.26471],[133.11225,34.26622],[133.11385,34.27212],[133.12507,34.27868],[133.13406,34.28009],[133.13492,34.28258],[133.14362,34.28492],[133.14609,34.28734],[133.14942,34.2977],[133.14681,34.30443],[133.14309,34.31039]]],[[[133.19583,34.35917],[133.2073,34.36161],[133.21401,34.36052],[133.2177,34.37029],[133.21873,34.38033],[133.22786,34.38552],[133.23133,34.3928],[133.23689,34.39142],[133.23705,34.40004],[133.23525,34.40659],[133.21881,34.40729],[133.21509,34.40933],[133.20601,34.40525],[133.19938,34.40429],[133.18991,34.39675],[133.18671,34.3957],[133.17849,34.39584],[133.17712,34.39491],[133.17227,34.39276],[133.17012,34.38744],[133.17413,34.38069],[133.17393,34.37514],[133.17656,34.37116],[133.17619,34.36534],[133.1826,34.36292],[133.18371,34.35902],[133.1898,34.35728],[133.19583,34.35917]]],[[[133.28534,34.38797],[133.29409,34.3949],[133.29657,34.39848],[133.28916,34.41191],[133.27295,34.41354],[133.27203,34.40661],[133.26697,34.40368],[133.26008,34.40376],[133.25935,34.39709],[133.25328,34.40147],[133.25022,34.40035],[133.24583,34.39819],[133.24425,34.39125],[133.2523,34.38819],[133.25657,34.38944],[133.26224,34.3947],[133.27102,34.39198],[133.27623,34.39459],[133.28394,34.39281],[133.28534,34.38797]]],[[[133.08652,34.31422],[133.08297,34.32179],[133.08083,34.33235],[133.07619,34.33374],[133.06624,34.32586],[133.0619,34.31462],[133.06279,34.30786],[133.06919,34.30258],[133.07808,34.30163],[133.08233,34.30407],[133.08277,34.30979],[133.08652,34.31422]]],[[[133.27275,34.37911],[133.26018,34.38411],[133.25734,34.37976],[133.26031,34.37192],[133.25897,34.36583],[133.26405,34.36533],[133.27005,34.36083],[133.27332,34.36791],[133.27816,34.37255],[133.27939,34.38035],[133.27275,34.37911]]],[[[133.15878,34.38731],[133.15361,34.38622],[133.15605,34.37434],[133.16316,34.37591],[133.17256,34.37399],[133.17265,34.37946],[133.16764,34.38718],[133.1611,34.39116],[133.15878,34.38731]]],[[[133.14648,34.37064],[133.13771,34.36735],[133.13874,34.36265],[133.14495,34.36323],[133.14648,34.37064]]],[[[133.24193,34.37961],[133.23822,34.37497],[133.24432,34.37093],[133.2465,34.37493],[133.24193,34.37961]]]]},"properties":{"pref":"広島県","city":"尾道市","code5":"34205","code6":"342050"}},
{"type":"Feature","geometry":{"type":"MultiPolygon","coordinates":[[[[133.44944,34.54276],[133.44636,34.55111],[133.44603,34.55643],[133.44035,34.55934],[133.43508,34.56577],[133.42673,34.56914],[133.42755,34.57169],[133.42313,34.57866],[133.42317,34.58554],[133.42069,34.58724],[133.41272,34.58692],[133.40578,34.58928],[133.39701,34.59488],[133.39811,34.59781],[133.39586,34.60535],[133.39063,34.61204],[133.38477,34.61676],[133.38498,34.62537],[133.39192,34.63113],[133.38719,34.63638],[133.38848,34.64343],[133.39177,34.64929],[133.39649,34.65208],[133.39643,34.65587],[133.40279,34.66707],[133.40141,34.67405],[133.38549,34.67754],[133.38641,34.68538],[133.38276,34.69013],[133.37417,34.69536],[133.37308,34.70799],[133.37059,34.71182],[133.36029,34.70823],[133.3667,34.70026],[133.36874,34.69539],[133.3679,34.69032],[133.36395,34.68876],[133.35673,34.6897],[133.35244,34.68409],[133.3464,34.68177],[133.34562,34.67822],[133.33841,34.67961],[133.33634,34.6763],[133.33975,34.66937],[133.33365,34.66171],[133.32878,34.66039],[133.31953,34.65258],[133.31715,34.64528],[133.31846,34.64014],[133.31379,34.6365],[133.30915,34.63793],[133.3046,34.64429],[133.29893,34.64663],[133.29541,34.64405],[133.28955,34.64797],[133.29184,34.65695],[133.28916,34.66754],[133.28564,34.66348],[133.27602,34.66604],[133.26984,34.666],[133.26502,34.66327],[133.26441,34.65804],[133.25936,34.64881],[133.25485,34.65207],[133.2514,34.6464],[133.24657,34.64723],[133.24041,34.64105],[133.23588,34.64153],[133.23581,34.63661],[133.2297,34.63143],[133.23594,34.62422],[133.23559,34.6181],[133.23238,34.61431],[133.23655,34.60803],[133.23911,34.5994],[133.24704,34.59487],[133.25592,34.58423],[133.26626,34.57601],[133.26658,34.56986],[133.26276,34.56721],[133.26992,34.55601],[133.26319,34.54808],[133.25093,34.54578],[133.24637,34.53844],[133.23974,34.53622],[133.23493,34.52907],[133.22724,34.52718],[133.22132,34.53167],[133.21904,34.52439],[133.21146,34.51854],[133.21398,34.50888],[133.21895,34.50863],[133.22798,34.51438],[133.23507,34.51413],[133.23943,34.5108],[133.23908,34.50499],[133.23293,34.49723],[133.23532,34.49234],[133.2313,34.48987],[133.2274,34.48344],[133.22823,34.47668],[133.22059,34.47374],[133.21764,34.47569],[133.21068,34.47042],[133.21642,34.4632],[133.22933,34.45544],[133.23525,34.45949],[133.24006,34.455],[133.23719,34.4471],[133.22642,34.44771],[133.22885,34.44342],[133.23519,34.44371],[133.23903,34.44085],[133.23983,34.43588],[133.24458,34.42341],[133.24212,34.43589],[133.2472,34.43629],[133.24821,34.42955],[133.25144,34.42269],[133.25559,34.42692],[133.25164,34.4411],[133.25584,34.44112],[133.25743,34.43597],[133.27036,34.43271],[133.26955,34.42543],[133.27386,34.419],[133.27295,34.41354],[133.28916,34.41191],[133.29657,34.39848],[133.29409,34.3949],[133.28534,34.38797],[133.29248,34.38273],[133.30572,34.38754],[133.31579,34.38138],[133.32422,34.37951],[133.33488,34.38102],[133.34706,34.37583],[133.34838,34.37125],[133.34592,34.36663],[133.35228,34.36615],[133.35845,34.3694],[133.36681,34.36899],[133.37104,34.37429],[133.37787,34.37749],[133.3781,34.382],[133.38457,34.38422],[133.38049,34.39168],[133.38206,34.4078],[133.38544,34.42046],[133.39134,34.42193],[133.3964,34.42698],[133.40731,34.42822],[133.40464,34.43543],[133.41304,34.43628],[133.4313,34.4241],[133.44051,34.43626],[133.43296,34.43984],[133.43514,34.44298],[133.4213,34.44958],[133.40819,34.45725],[133.4065,34.46037],[133.41137,34.4705],[133.40854,34.47846],[133.41475,34.47684],[133.41449,34.45927],[133.41794,34.45695],[133.44271,34.44515],[133.44514,34.44653],[133.44586,34.47198],[133.44691,34.48027],[133.44587,34.48306],[133.4488,34.48855],[133.45544,34.4949],[133.45639,34.5001],[133.45337,34.50673],[133.44494,34.50589],[133.44521,34.50972],[133.44916,34.5132],[133.44727,34.5194],[133.45037,34.52674],[133.45393,34.53017],[133.45334,34.53497],[133.44871,34.53972],[133.44944,34.54276]]],[[[133.31869,34.37275],[133.30162,34.36793],[133.29638,34.36445],[133.28882,34.35599],[133.29238,34.35328],[133.29636,34.34466],[133.30132,34.34248],[133.31526,34.34878],[133.32122,34.35367],[133.32962,34.35552],[133.33497,34.35515],[133.3425,34.36967],[133.33355,34.36853],[133.32374,34.3614],[133.3199,34.36751],[133.31869,34.37275]]],[[[133.26259,34.33261],[133.27202,34.33536],[133.27906,34.33517],[133.28511,34.33788],[133.28737,34.35664],[133.28261,34.35719],[133.2723,34.35272],[133.26366,34.34756],[133.26691,34.33804],[133.26259,34.33261]]],[[[133.43167,34.33932],[133.44637,34.33584],[133.44973,34.33992],[133.43696,34.35127],[133.43072,34.34917],[133.42771,34.34453],[133.43167,34.33932]]],[[[133.39922,34.38855],[133.391,34.38781],[133.39049,34.38456],[133.3981,34.37774],[133.40343,34.3816],[133.39922,34.38855]]],[[[133.46968,34.31335],[133.46818,34.31097],[133.46939,34.31018],[133.46968,34.31335]]]]},"properties":{"pref":"広島県","city":"福山市","code5":"34207","code6":"342076"}},
{"type":"Feature","geometry":{"type":"Polygon","coordinates":[[[133.22132,34.53167],[133.22724,34.52718],[133.23493,34.52907],[133.23974,34.53622],[133.24637,34.53844],[133.25093,34.54578],[133.26319,34.54808],[133.26992,34.55601],[133.26276,34.56721],[133.26658,34.56986],[133.26626,34.57601],[133.25592,34.58423],[133.24704,34.59487],[133.23911,34.5994],[133.23655,34.60803],[133.23238,34.61431],[133.23559,34.6181],[133.23594,34.62422],[133.2297,34.63143],[133.23581,34.63661],[133.23588,34.64153],[133.23017,34.6481],[133.22525,34.64907],[133.22155,34.64601],[133.21302,34.64816],[133.20602,34.65473],[133.198,34.659],[133.18794,34.66214],[133.19199,34.67177],[133.18295,34.67299],[133.1825,34.67754],[133.18739,34.68491],[133.19315,34.68676],[133.20097,34.6945],[133.19274,34.70617],[133.186,34.7103],[133.18288,34.70906],[133.17773,34.71375],[133.17238,34.71401],[133.16427,34.72049],[133.16594,34.72312],[133.16015,34.72876],[133.15973,34.73245],[133.16419,34.73537],[133.16614,34.74057],[133.16454,34.74827],[133.16578,34.75476],[133.15988,34.75744],[133.14939,34.75407],[133.13567,34.75566],[133.12598,34.74692],[133.12722,34.74498],[133.11977,34.74041],[133.11794,34.73498],[133.10516,34.73479],[133.10005,34.72895],[133.09815,34.71942],[133.10201,34.71103],[133.09677,34.70355],[133.09804,34.69762],[133.10161,34.69324],[133.09664,34.68999],[133.09136,34.68258],[133.09177,34.67865],[133.08599,34.67614],[133.08353,34.66818],[133.08585,34.66267],[133.10467,34.65697],[133.11528,34.64759],[133.12302,34.64522],[133.12392,34.63861],[133.1404,34.63694],[133.14227,34.63902],[133.1565,34.63193],[133.15865,34.62867],[133.1599,34.61861],[133.15942,34.61235],[133.15522,34.6115],[133.1584,34.6052],[133.1522,34.59611],[133.14595,34.59275],[133.14663,34.58855],[133.13509,34.58468],[133.13457,34.58183],[133.14272,34.5783],[133.142,34.5731],[133.15018,34.56939],[133.154,34.56493],[133.16083,34.56619],[133.16116,34.56159],[133.16561,34.5514],[133.17173,34.5472],[133.17592,34.54712],[133.1771,34.54065],[133.18218,34.53795],[133.18817,34.53927],[133.18977,34.53304],[133.19665,34.53168],[133.1958,34.53738],[133.19986,34.53985],[133.20816,34.53633],[133.21915,34.53627],[133.22132,34.53167]]]},"properties":{"pref":"広島県","city":"府中市","code5":"34208","code6":"342084"}},
{"type":"Feature","geometry":{"type":"Polygon","coordinates":[[[132.68509,34.95056],[132.67593,34.93277],[132.66704,34.9308],[132.66081,34.92326],[132.65602,34.92323],[132.65116,34.91986],[132.64711,34.91044],[132.64284,34.90901],[132.64125,34.90377],[132.63403,34.9048],[132.63738,34.89858],[132.65125,34.9007],[132.65788,34.89724],[132.65933,34.89222],[132.66403,34.88975],[132.67456,34.89443],[132.67873,34.89071],[132.68152,34.88435],[132.68772,34.88465],[132.69983,34.88223],[132.70209,34.87987],[132.70635,34.86228],[132.71014,34.85828],[132.7106,34.84986],[132.71432,34.84505],[132.72135,34.84236],[132.72324,34.83369],[132.72104,34.83008],[132.7127,34.82788],[132.70643,34.82865],[132.69972,34.82739],[132.6953,34.8185],[132.70376,34.81483],[132.71276,34.8178],[132.72853,34.81386],[132.74817,34.81116],[132.76189,34.80779],[132.76745,34.80856],[132.78149,34.80597],[132.778,34.79322],[132.77956,34.79035],[132.77874,34.7826],[132.77619,34.77689],[132.7779,34.77354],[132.77128,34.76974],[132.77008,34.76511],[132.76617,34.76159],[132.77066,34.75815],[132.76489,34.75537],[132.76818,34.74901],[132.77844,34.7505],[132.78841,34.74261],[132.7848,34.73994],[132.78284,34.72885],[132.77335,34.72137],[132.77295,34.71512],[132.76911,34.70873],[132.76976,34.7016],[132.77633,34.69884],[132.78748,34.69819],[132.80705,34.69204],[132.80561,34.68321],[132.79927,34.67819],[132.80311,34.67188],[132.79743,34.66988],[132.78894,34.65696],[132.78179,34.65272],[132.78106,34.64762],[132.78264,34.64072],[132.79065,34.63308],[132.79711,34.62973],[132.79809,34.6216],[132.80919,34.62258],[132.81541,34.61728],[132.82156,34.61601],[132.8277,34.61005],[132.83598,34.60932],[132.835,34.6063],[132.84544,34.6063],[132.84529,34.61064],[132.85168,34.61027],[132.85883,34.61363],[132.86368,34.61057],[132.87064,34.6139],[132.8763,34.61405],[132.871,34.62033],[132.87728,34.63387],[132.87209,34.6371],[132.87252,34.64655],[132.87912,34.64985],[132.87825,34.66408],[132.88382,34.66753],[132.88948,34.67489],[132.89073,34.68354],[132.89633,34.68426],[132.90348,34.68092],[132.90686,34.68136],[132.92356,34.67771],[132.9343,34.68214],[132.9384,34.68239],[132.94038,34.67259],[132.94335,34.66948],[132.94054,34.66412],[132.94751,34.66034],[132.94507,34.65724],[132.95354,34.65497],[132.95899,34.65937],[132.96689,34.65728],[132.97081,34.66091],[132.96947,34.66492],[132.97666,34.6694],[132.98247,34.6691],[132.9852,34.67712],[132.99638,34.67547],[132.99981,34.67763],[133.01842,34.67863],[133.02071,34.67326],[133.03161,34.66975],[133.04635,34.66097],[133.04847,34.65754],[133.06021,34.65898],[133.06215,34.65214],[133.07286,34.65767],[133.07769,34.65714],[133.08585,34.66267],[133.08353,34.66818],[133.08599,34.67614],[133.09177,34.67865],[133.09136,34.68258],[133.09664,34.68999],[133.10161,34.69324],[133.09804,34.69762],[133.09677,34.70355],[133.10201,34.71103],[133.09815,34.71942],[133.10005,34.72895],[133.10516,34.73479],[133.10379,34.74164],[133.10921,34.74858],[133.10612,34.75691],[133.10722,34.76465],[133.10304,34.76464],[133.09444,34.76833],[133.08808,34.76744],[133.08019,34.77299],[133.07888,34.76806],[133.06778,34.76837],[133.06082,34.77358],[133.05545,34.77106],[133.0599,34.76302],[133.0568,34.75594],[133.05136,34.75511],[133.0369,34.75059],[133.03352,34.75279],[133.03238,34.75915],[133.01677,34.76174],[133.01651,34.76748],[133.02303,34.76964],[133.02342,34.77349],[133.02822,34.77563],[133.02586,34.78718],[133.0199,34.78866],[133.01403,34.7867],[133.01335,34.79149],[133.00747,34.79434],[133.00388,34.79917],[132.99774,34.80304],[132.99539,34.8071],[132.99018,34.80954],[132.98488,34.80934],[132.97914,34.81613],[132.97714,34.82231],[132.96794,34.81233],[132.96869,34.80852],[132.96021,34.80251],[132.95874,34.79938],[132.94881,34.79584],[132.95013,34.80333],[132.94226,34.8104],[132.93994,34.8084],[132.93414,34.81277],[132.93127,34.81928],[132.91918,34.82626],[132.91331,34.83324],[132.90189,34.84237],[132.89453,34.84656],[132.89136,34.85139],[132.88393,34.85582],[132.88596,34.86188],[132.88184,34.87184],[132.89007,34.87817],[132.89166,34.89006],[132.87671,34.89162],[132.87678,34.90282],[132.87357,34.91204],[132.86409,34.92075],[132.85702,34.92289],[132.8503,34.92127],[132.84453,34.92837],[132.85046,34.9321],[132.85215,34.93997],[132.85084,34.94383],[132.84388,34.9419],[132.83995,34.94407],[132.8383,34.94947],[132.83399,34.9499],[132.8369,34.95841],[132.8324,34.96158],[132.83044,34.97038],[132.83045,34.97773],[132.83773,34.98021],[132.84074,34.98787],[132.83875,34.99338],[132.8427,34.99492],[132.84066,35.00397],[132.83283,35.0046],[132.82588,34.9987],[132.81612,34.99322],[132.81217,34.98749],[132.80148,34.9894],[132.79495,34.98842],[132.79119,34.99332],[132.78384,34.9953],[132.77133,34.99032],[132.76699,34.9912],[132.7687,34.98395],[132.75594,34.97728],[132.75323,34.97887],[132.74513,34.97683],[132.75135,34.96982],[132.74972,34.96026],[132.7406,34.95674],[132.74054,34.96104],[132.72768,34.95644],[132.72744,34.95335],[132.72039,34.94799],[132.71442,34.95338],[132.70646,34.95487],[132.70198,34.95146],[132.69837,34.95364],[132.68509,34.95056]]]},"properties":{"pref":"広島県","city":"三次市","code5":"34209","code6":"342092"}},
{"type":"Feature","geometry":{"type":"Polygon","coordinates":[[[133.13642,35.07426],[133.12657,35.07688],[133.12217,35.08399],[133.11131,35.08558],[133.10678,35.08236],[133.10013,35.08295],[133.0962,35.08539],[133.08539,35.07818],[133.08134,35.0806],[133.07149,35.08224],[133.05998,35.0811],[133.05236,35.07023],[133.04342,35.0676],[133.03311,35.06824],[133.03138,35.07287],[133.02391,35.07776],[133.01641,35.07841],[133.01462,35.08765],[133.00326,35.09296],[133.00011,35.09719],[132.99231,35.09836],[132.9907,35.1013],[132.9824,35.09756],[132.97496,35.08318],[132.96581,35.07974],[132.95518,35.07824],[132.94759,35.07576],[132.93359,35.08392],[132.92661,35.08111],[132.9204,35.08385],[132.90948,35.08622],[132.90283,35.09658],[132.89274,35.10508],[132.88351,35.1049],[132.87749,35.10156],[132.8613,35.09576],[132.85975,35.09237],[132.85837,35.08894],[132.84591,35.08077],[132.84483,35.07694],[132.83926,35.07054],[132.83149,35.06597],[132.82785,35.06122],[132.83794,35.05093],[132.83677,35.0471],[132.82743,35.04709],[132.81372,35.04055],[132.81332,35.03594],[132.80883,35.02856],[132.79903,35.02137],[132.79313,35.01974],[132.78703,35.0133],[132.78785,35.0049],[132.78132,35.00318],[132.77732,34.99886],[132.7698,34.99758],[132.76343,34.99287],[132.76699,34.9912],[132.77133,34.99032],[132.78384,34.9953],[132.79119,34.99332],[132.79495,34.98842],[132.80148,34.9894],[132.81217,34.98749],[132.81612,34.99322],[132.82588,34.9987],[132.83283,35.0046],[132.84066,35.00397],[132.8427,34.99492],[132.83875,34.99338],[132.84074,34.98787],[132.83773,34.98021],[132.83045,34.97773],[132.83044,34.97038],[132.8324,34.96158],[132.8369,34.95841],[132.83399,34.9499],[132.8383,34.94947],[132.83995,34.94407],[132.84388,34.9419],[132.85084,34.94383],[132.85215,34.93997],[132.85046,34.9321],[132.84453,34.92837],[132.8503,34.92127],[132.85702,34.92289],[132.86409,34.92075],[132.87357,34.91204],[132.87678,34.90282],[132.87671,34.89162],[132.89166,34.89006],[132.89007,34.87817],[132.88184,34.87184],[132.88596,34.86188],[132.88393,34.85582],[132.89136,34.85139],[132.89453,34.84656],[132.90189,34.84237],[132.91331,34.83324],[132.91918,34.82626],[132.93127,34.81928],[132.93414,34.81277],[132.93994,34.8084],[132.94226,34.8104],[132.95013,34.80333],[132.94881,34.79584],[132.95874,34.79938],[132.96021,34.80251],[132.96869,34.80852],[132.96794,34.81233],[132.97714,34.82231],[132.97914,34.81613],[132.98488,34.80934],[132.99018,34.80954],[132.99539,34.8071],[132.99774,34.80304],[133.00388,34.79917],[133.00747,34.79434],[133.01335,34.79149],[133.01403,34.7867],[133.0199,34.78866],[133.02586,34.78718],[133.02822,34.77563],[133.02342,34.77349],[133.02303,34.76964],[133.01651,34.76748],[133.01677,34.76174],[133.03238,34.75915],[133.03352,34.75279],[133.0369,34.75059],[133.05136,34.75511],[133.0568,34.75594],[133.0599,34.76302],[133.05545,34.77106],[133.06082,34.77358],[133.06778,34.76837],[133.07888,34.76806],[133.08019,34.77299],[133.08808,34.76744],[133.09444,34.76833],[133.10304,34.76464],[133.10722,34.76465],[133.10612,34.75691],[133.10921,34.74858],[133.10379,34.74164],[133.10516,34.73479],[133.11794,34.73498],[133.11977,34.74041],[133.12722,34.74498],[133.12598,34.74692],[133.13567,34.75566],[133.14939,34.75407],[133.15988,34.75744],[133.16578,34.75476],[133.16801,34.7661],[133.16055,34.77432],[133.14832,34.7828],[133.13803,34.78644],[133.13837,34.79222],[133.14134,34.804],[133.14501,34.8099],[133.13955,34.81469],[133.13496,34.82395],[133.14227,34.82935],[133.14233,34.83906],[133.14894,34.84069],[133.15696,34.84529],[133.1627,34.8537],[133.16677,34.85376],[133.17609,34.84887],[133.18646,34.85197],[133.19882,34.85234],[133.21026,34.86113],[133.21585,34.8614],[133.2165,34.85771],[133.22494,34.84726],[133.22969,34.83654],[133.2346,34.83346],[133.23539,34.82764],[133.23047,34.82438],[133.24347,34.81385],[133.24593,34.81963],[133.25359,34.82215],[133.25378,34.82504],[133.26312,34.82749],[133.27013,34.83083],[133.27425,34.83532],[133.27275,34.83842],[133.27731,34.84724],[133.27309,34.85134],[133.27779,34.85391],[133.28429,34.85177],[133.28911,34.85377],[133.29963,34.84783],[133.31419,34.84767],[133.32004,34.85277],[133.32886,34.85305],[133.33066,34.85593],[133.32311,34.85927],[133.32403,34.86436],[133.31681,34.86718],[133.31432,34.87282],[133.30941,34.87404],[133.3057,34.88206],[133.3011,34.88445],[133.29801,34.88934],[133.29579,34.90401],[133.29755,34.90947],[133.30297,34.91308],[133.30463,34.92172],[133.30187,34.92891],[133.30945,34.93705],[133.30803,34.94109],[133.29811,34.95298],[133.29726,34.956],[133.30489,34.96496],[133.30308,34.97204],[133.31084,34.97464],[133.31328,34.98007],[133.3195,34.98318],[133.32173,34.98793],[133.31922,34.99831],[133.32121,35.00363],[133.31962,35.00863],[133.3157,35.01243],[133.305,35.01519],[133.303,35.02065],[133.29688,35.02473],[133.29584,35.02949],[133.291,35.03596],[133.28524,35.04066],[133.27447,35.04498],[133.27342,35.04781],[133.26693,35.05243],[133.26914,35.05768],[133.26081,35.06344],[133.25379,35.07522],[133.24878,35.07869],[133.23993,35.07904],[133.23319,35.07512],[133.2316,35.06944],[133.22723,35.06819],[133.2149,35.07387],[133.19939,35.07254],[133.19424,35.07049],[133.18645,35.06992],[133.17953,35.0673],[133.17345,35.06919],[133.16846,35.06744],[133.16126,35.07414],[133.15827,35.07165],[133.14201,35.06475],[133.13628,35.06957],[133.13642,35.07426]]]},"properties":{"pref":"広島県","city":"庄原市","code5":"34210","code6":"342106"}},
{"type":"Feature","geometry":{"type":"MultiPolygon","coordinates":[[[[132.23887,34.26136],[132.23295,34.27096],[132.2334,34.27573],[132.22898,34.28002],[132.21941,34.28416],[132.21702,34.29104],[132.20908,34.28902],[132.19689,34.28833],[132.19345,34.28062],[132.18786,34.27956],[132.18413,34.28213],[132.16776,34.28712],[132.16297,34.29368],[132.16677,34.29975],[132.16746,34.30427],[132.17153,34.30678],[132.16748,34.31205],[132.17007,34.31704],[132.17012,34.324],[132.16481,34.32647],[132.16507,34.32994],[132.14837,34.3293],[132.14944,34.32417],[132.14788,34.31696],[132.14181,34.31157],[132.13736,34.31739],[132.12743,34.31288],[132.12536,34.30578],[132.12843,34.29568],[132.13818,34.28789],[132.13971,34.28194],[132.13551,34.27796],[132.13357,34.27236],[132.13533,34.26711],[132.14117,34.25996],[132.14635,34.25678],[132.14736,34.2504],[132.14475,34.23642],[132.14997,34.23724],[132.15654,34.22935],[132.16183,34.23387],[132.1701,34.23376],[132.17115,34.22534],[132.18033,34.22988],[132.1842,34.22761],[132.1935,34.22648],[132.20219,34.22303],[132.19333,34.20701],[132.19764,34.20468],[132.20132,34.20776],[132.20657,34.20362],[132.21431,34.20356],[132.22227,34.20839],[132.2456,34.21067],[132.24749,34.21501],[132.23889,34.22714],[132.23564,34.22666],[132.22066,34.23276],[132.22738,34.23543],[132.22916,34.24869],[132.23426,34.25882],[132.23887,34.26136]]],[[[132.29647,34.19933],[132.29324,34.1944],[132.29243,34.18905],[132.30165,34.18643],[132.31537,34.18708],[132.31955,34.18988],[132.31375,34.19441],[132.31177,34.19842],[132.30125,34.19659],[132.29647,34.19933]]],[[[132.31934,34.11893],[132.31875,34.12334],[132.31337,34.12221],[132.31934,34.11893]]]]},"properties":{"pref":"広島県","city":"大竹市","code5":"34211","code6":"342114"}},
{"type":"Feature","geometry":{"type":"MultiPolygon","coordinates":[[[[132.6961,34.53583],[132.69313,34.52938],[132.68422,34.52681],[132.67369,34.53043],[132.66538,34.53155],[132.66294,34.52654],[132.65596,34.52337],[132.64809,34.51623],[132.64913,34.51461],[132.64439,34.50529],[132.63343,34.50704],[132.6283,34.4983],[132.61866,34.49078],[132.60916,34.49029],[132.60303,34.48717],[132.60104,34.48345],[132.60685,34.48105],[132.606,34.47175],[132.60252,34.46806],[132.60052,34.45728],[132.60792,34.45655],[132.61396,34.45125],[132.61544,34.44652],[132.62402,34.44627],[132.63325,34.45002],[132.63573,34.44336],[132.64151,34.44197],[132.6475,34.4376],[132.65462,34.44348],[132.66351,34.43747],[132.66607,34.42762],[132.65978,34.42328],[132.65216,34.42234],[132.64434,34.4131],[132.64037,34.39906],[132.64646,34.39593],[132.64431,34.38876],[132.64933,34.38359],[132.65011,34.37652],[132.65362,34.36874],[132.65104,34.36471],[132.6442,34.36172],[132.64278,34.35329],[132.62751,34.35316],[132.62397,34.35419],[132.60823,34.34214],[132.61319,34.32891],[132.61233,34.32508],[132.6056,34.32203],[132.60683,34.31671],[132.62151,34.31259],[132.62664,34.31375],[132.6296,34.31138],[132.6395,34.31505],[132.64502,34.3099],[132.64965,34.31131],[132.66011,34.29314],[132.66404,34.28839],[132.67784,34.29838],[132.68673,34.30258],[132.69068,34.3028],[132.70384,34.31322],[132.71447,34.30804],[132.72682,34.32211],[132.73338,34.32333],[132.73991,34.32678],[132.7426,34.33061],[132.75209,34.3332],[132.7547,34.32931],[132.75394,34.32372],[132.75617,34.32],[132.7558,34.30776],[132.76181,34.29958],[132.75931,34.29608],[132.77063,34.28683],[132.77505,34.2882],[132.78102,34.28609],[132.78088,34.28134],[132.7852,34.27699],[132.78865,34.27948],[132.78726,34.28617],[132.79053,34.29235],[132.79518,34.29602],[132.79675,34.30442],[132.80193,34.30891],[132.81261,34.31241],[132.81995,34.31695],[132.82763,34.31628],[132.83358,34.31195],[132.83448,34.3067],[132.8427,34.29838],[132.84656,34.29279],[132.85073,34.29219],[132.85458,34.29655],[132.85457,34.3023],[132.8513,34.30793],[132.85111,34.31517],[132.85325,34.32732],[132.85667,34.33253],[132.85643,34.34764],[132.85447,34.35559],[132.8496,34.3548],[132.84722,34.35841],[132.83601,34.36178],[132.81674,34.36919],[132.81278,34.36903],[132.80927,34.37414],[132.79474,34.36982],[132.78785,34.37127],[132.78495,34.37565],[132.78839,34.38161],[132.79561,34.38559],[132.79618,34.38886],[132.80316,34.39249],[132.81605,34.39212],[132.81135,34.40324],[132.80658,34.40835],[132.80397,34.40615],[132.79631,34.40693],[132.78828,34.40947],[132.78244,34.42053],[132.78846,34.4235],[132.79431,34.42014],[132.80581,34.42046],[132.81289,34.42447],[132.8222,34.41849],[132.83511,34.42257],[132.83682,34.41918],[132.84997,34.41906],[132.85178,34.41452],[132.86088,34.41341],[132.86835,34.41087],[132.87654,34.40599],[132.88213,34.4063],[132.89412,34.41228],[132.8909,34.41588],[132.89375,34.42168],[132.8978,34.42502],[132.89703,34.42822],[132.89376,34.43465],[132.89566,34.4385],[132.90287,34.44304],[132.90214,34.44804],[132.8929,34.45771],[132.88969,34.46264],[132.89876,34.46534],[132.90471,34.45976],[132.91245,34.46005],[132.91593,34.45779],[132.92087,34.4674],[132.91926,34.47087],[132.91209,34.47496],[132.91154,34.48513],[132.90561,34.48344],[132.89774,34.49553],[132.89839,34.49854],[132.89403,34.5023],[132.89444,34.50703],[132.88609,34.51843],[132.86771,34.52008],[132.85641,34.52433],[132.85117,34.54484],[132.85343,34.55002],[132.85981,34.54691],[132.86459,34.55016],[132.87244,34.55078],[132.87922,34.55385],[132.8843,34.55904],[132.88071,34.56525],[132.87909,34.57463],[132.88644,34.57504],[132.89601,34.5831],[132.89363,34.59515],[132.88709,34.598],[132.88527,34.60268],[132.88125,34.60565],[132.88487,34.61079],[132.8763,34.61405],[132.87064,34.6139],[132.86368,34.61057],[132.85883,34.61363],[132.85168,34.61027],[132.84529,34.61064],[132.84544,34.6063],[132.835,34.6063],[132.83598,34.60932],[132.8277,34.61005],[132.82156,34.61601],[132.81541,34.61728],[132.80919,34.62258],[132.79809,34.6216],[132.79316,34.61539],[132.79242,34.60685],[132.78426,34.59721],[132.78378,34.58896],[132.78508,34.58331],[132.772,34.57582],[132.76303,34.57611],[132.75446,34.57459],[132.74745,34.57102],[132.74601,34.56586],[132.73588,34.5575],[132.72653,34.55823],[132.72419,34.55456],[132.71542,34.55313],[132.71096,34.55472],[132.70465,34.54759],[132.70505,34.54345],[132.70023,34.53634],[132.6961,34.53583]]],[[[132.80609,34.28147],[132.7925,34.27659],[132.79158,34.27167],[132.80325,34.26856],[132.81122,34.27578],[132.81048,34.27982],[132.80609,34.28147]]]]},"properties":{"pref":"広島県","city":"東広島市","code5":"34212","code6":"342122"}},
{"type":"Feature","geometry":{"type":"MultiPolygon","coordinates":[[[[132.06858,34.46767],[132.07146,34.45826],[132.07542,34.45392],[132.08099,34.44354],[132.07698,34.43769],[132.07352,34.41953],[132.06889,34.41626],[132.07032,34.40994],[132.07335,34.40743],[132.07457,34.40196],[132.06997,34.39201],[132.07739,34.38924],[132.07681,34.3838],[132.07256,34.37726],[132.0751,34.37468],[132.07043,34.37096],[132.0719,34.36711],[132.07134,34.3554],[132.08526,34.35788],[132.08595,34.35404],[132.09287,34.3514],[132.10128,34.34531],[132.10125,34.33623],[132.10552,34.32962],[132.11932,34.33058],[132.12507,34.33381],[132.12948,34.32701],[132.12875,34.32195],[132.12388,34.31876],[132.12274,34.31164],[132.12536,34.30578],[132.12743,34.31288],[132.13736,34.31739],[132.14181,34.31157],[132.14788,34.31696],[132.14944,34.32417],[132.14837,34.3293],[132.16507,34.32994],[132.16481,34.32647],[132.17012,34.324],[132.17007,34.31704],[132.16748,34.31205],[132.17153,34.30678],[132.16746,34.30427],[132.16677,34.29975],[132.16297,34.29368],[132.16776,34.28712],[132.18413,34.28213],[132.18786,34.27956],[132.19345,34.28062],[132.19689,34.28833],[132.20908,34.28902],[132.21702,34.29104],[132.21941,34.28416],[132.22898,34.28002],[132.2334,34.27573],[132.23295,34.27096],[132.23887,34.26136],[132.24953,34.26471],[132.25291,34.26937],[132.25959,34.27385],[132.26432,34.27255],[132.27399,34.27888],[132.27311,34.28174],[132.27418,34.28144],[132.2821,34.286],[132.28112,34.28861],[132.2876,34.29512],[132.28735,34.29745],[132.29706,34.30354],[132.30546,34.31409],[132.3127,34.31744],[132.31783,34.32436],[132.3209,34.3325],[132.32086,34.33254],[132.32001,34.33923],[132.32403,34.3398],[132.32678,34.34412],[132.33331,34.34414],[132.33676,34.33768],[132.34774,34.34144],[132.34376,34.34381],[132.34375,34.34383],[132.34689,34.34936],[132.35501,34.34884],[132.35011,34.35345],[132.34701,34.35654],[132.34234,34.36634],[132.33544,34.36765],[132.33465,34.37225],[132.3236,34.37961],[132.317,34.38126],[132.32091,34.38804],[132.32074,34.39728],[132.32428,34.40584],[132.31669,34.40613],[132.31296,34.41008],[132.31439,34.41591],[132.31139,34.41926],[132.30519,34.41445],[132.29956,34.4073],[132.30038,34.39913],[132.30346,34.3926],[132.30008,34.38426],[132.29319,34.38532],[132.28439,34.38972],[132.28311,34.40015],[132.28478,34.40246],[132.28133,34.40956],[132.2743,34.41064],[132.26908,34.41371],[132.26534,34.41242],[132.25475,34.41405],[132.25433,34.41783],[132.24945,34.42361],[132.24511,34.42326],[132.23801,34.42779],[132.23566,34.43114],[132.22897,34.43114],[132.21889,34.4199],[132.2182,34.41633],[132.1956,34.41586],[132.19095,34.42432],[132.19361,34.43136],[132.19138,34.43516],[132.17855,34.44265],[132.18454,34.44547],[132.18672,34.4508],[132.19042,34.44943],[132.19614,34.45316],[132.19361,34.45739],[132.19349,34.46794],[132.19669,34.47762],[132.20328,34.48473],[132.2,34.49093],[132.1889,34.49826],[132.18635,34.50288],[132.17871,34.51016],[132.17868,34.51293],[132.17041,34.51761],[132.16678,34.5246],[132.18449,34.53849],[132.17945,34.54149],[132.16732,34.54115],[132.15616,34.5492],[132.1566,34.55396],[132.14919,34.56491],[132.14252,34.5635],[132.13748,34.57264],[132.12841,34.57928],[132.12553,34.58315],[132.11788,34.5783],[132.11903,34.57263],[132.11374,34.56261],[132.1071,34.55733],[132.10019,34.5551],[132.09507,34.54793],[132.08877,34.54408],[132.08395,34.53753],[132.07609,34.53693],[132.0588,34.53108],[132.05271,34.53027],[132.04784,34.52149],[132.04712,34.51247],[132.03645,34.50126],[132.03936,34.49949],[132.04753,34.50039],[132.0522,34.49892],[132.05974,34.49227],[132.05745,34.48662],[132.05807,34.48032],[132.06149,34.47938],[132.06718,34.47201],[132.06858,34.46767]]],[[[132.33364,34.31127],[132.33029,34.30744],[132.32161,34.30203],[132.32114,34.29924],[132.31537,34.29575],[132.30984,34.2964],[132.30183,34.29387],[132.29892,34.29026],[132.2902,34.28747],[132.28346,34.27803],[132.28346,34.27224],[132.27703,34.2628],[132.2624,34.25163],[132.2671,34.25034],[132.27057,34.24555],[132.26907,34.24287],[132.2727,34.23376],[132.27656,34.23278],[132.28473,34.2351],[132.30409,34.24475],[132.31145,34.25221],[132.31414,34.25773],[132.33037,34.26733],[132.33543,34.27248],[132.34104,34.27505],[132.3481,34.28248],[132.3486,34.29184],[132.33979,34.29804],[132.34115,34.30237],[132.33461,34.30503],[132.33364,34.31127]]]]},"properties":{"pref":"広島県","city":"廿日市市","code5":"34213","code6":"342131"}},
{"type":"Feature","geometry":{"type":"Polygon","coordinates":[[[132.53806,34.79499],[132.54104,34.79065],[132.55042,34.78496],[132.5499,34.7799],[132.55523,34.77704],[132.55924,34.7713],[132.56947,34.76436],[132.57084,34.75984],[132.56758,34.75215],[132.56859,34.7449],[132.57917,34.74217],[132.58685,34.73369],[132.58753,34.73037],[132.58168,34.7281],[132.57718,34.71816],[132.58014,34.70726],[132.57589,34.7034],[132.57496,34.69724],[132.57727,34.6949],[132.58473,34.69348],[132.58764,34.68449],[132.59398,34.68946],[132.60105,34.68928],[132.60386,34.68512],[132.5977,34.68055],[132.59794,34.67513],[132.59233,34.67532],[132.58347,34.66517],[132.59173,34.65453],[132.58832,34.64598],[132.58442,34.64469],[132.58286,34.63794],[132.57747,34.63437],[132.57274,34.62387],[132.57552,34.61975],[132.56963,34.6126],[132.57095,34.60487],[132.5742,34.6022],[132.57196,34.59791],[132.56537,34.5915],[132.5606,34.59195],[132.55404,34.58764],[132.54401,34.58365],[132.55073,34.57829],[132.56055,34.57686],[132.56566,34.57212],[132.56919,34.57256],[132.57319,34.56319],[132.57814,34.56402],[132.59081,34.57523],[132.59026,34.58158],[132.59619,34.58534],[132.6082,34.58604],[132.61037,34.59228],[132.60864,34.59629],[132.61359,34.60119],[132.61958,34.59875],[132.6245,34.60005],[132.63248,34.59716],[132.64572,34.60203],[132.65396,34.59953],[132.66483,34.60691],[132.67157,34.60675],[132.67911,34.60398],[132.69292,34.58985],[132.69409,34.5839],[132.68864,34.57474],[132.68561,34.57211],[132.68329,34.56552],[132.68988,34.56183],[132.6876,34.55667],[132.69208,34.54626],[132.68688,34.54136],[132.6961,34.53583],[132.70023,34.53634],[132.70505,34.54345],[132.70465,34.54759],[132.71096,34.55472],[132.71542,34.55313],[132.72419,34.55456],[132.72653,34.55823],[132.73588,34.5575],[132.74601,34.56586],[132.74745,34.57102],[132.75446,34.57459],[132.76303,34.57611],[132.772,34.57582],[132.78508,34.58331],[132.78378,34.58896],[132.78426,34.59721],[132.79242,34.60685],[132.79316,34.61539],[132.79809,34.6216],[132.79711,34.62973],[132.79065,34.63308],[132.78264,34.64072],[132.78106,34.64762],[132.78179,34.65272],[132.78894,34.65696],[132.79743,34.66988],[132.80311,34.67188],[132.79927,34.67819],[132.80561,34.68321],[132.80705,34.69204],[132.78748,34.69819],[132.77633,34.69884],[132.76976,34.7016],[132.76911,34.70873],[132.77295,34.71512],[132.77335,34.72137],[132.78284,34.72885],[132.7848,34.73994],[132.78841,34.74261],[132.77844,34.7505],[132.76818,34.74901],[132.76489,34.75537],[132.77066,34.75815],[132.76617,34.76159],[132.77008,34.76511],[132.77128,34.76974],[132.7779,34.77354],[132.77619,34.77689],[132.77874,34.7826],[132.77956,34.79035],[132.778,34.79322],[132.78149,34.80597],[132.76745,34.80856],[132.76189,34.80779],[132.74817,34.81116],[132.72853,34.81386],[132.71276,34.8178],[132.70376,34.81483],[132.6953,34.8185],[132.69972,34.82739],[132.70643,34.82865],[132.7127,34.82788],[132.72104,34.83008],[132.72324,34.83369],[132.72135,34.84236],[132.71432,34.84505],[132.7106,34.84986],[132.70251,34.8473],[132.69866,34.84295],[132.69396,34.84354],[132.68962,34.85029],[132.68386,34.85135],[132.67516,34.84759],[132.67112,34.84214],[132.66744,34.83228],[132.65976,34.83234],[132.64751,34.84007],[132.64304,34.83765],[132.63313,34.83987],[132.63118,34.84313],[132.61964,34.8435],[132.61095,34.83781],[132.61249,34.83346],[132.60544,34.8307],[132.60028,34.83186],[132.59212,34.82704],[132.59027,34.82133],[132.58585,34.82301],[132.58018,34.81588],[132.56845,34.81074],[132.568,34.80654],[132.55408,34.80828],[132.54653,34.80264],[132.54365,34.79655],[132.53806,34.79499]]]},"properties":{"pref":"広島県","city":"安芸高田市","code5":"34214","code6":"342149"}},
{"type":"Feature","geometry":{"type":"MultiPolygon","coordinates":[[[[132.49293,34.25087],[132.49554,34.25251],[132.4959,34.2619],[132.49852,34.26848],[132.4937,34.27737],[132.48233,34.2879],[132.47377,34.28364],[132.47181,34.28667],[132.46026,34.28776],[132.44597,34.28551],[132.44217,34.28871],[132.43531,34.28482],[132.43418,34.2793],[132.43685,34.27439],[132.44525,34.26908],[132.44302,34.26123],[132.43266,34.25374],[132.43551,34.24744],[132.44462,34.24561],[132.45124,34.24822],[132.45176,34.25505],[132.45609,34.25674],[132.45978,34.25182],[132.46881,34.24655],[132.47922,34.23249],[132.47937,34.22697],[132.47657,34.22062],[132.47442,34.20863],[132.47055,34.20896],[132.46985,34.21381],[132.46232,34.22003],[132.45866,34.22862],[132.445,34.22289],[132.43843,34.2258],[132.43707,34.23437],[132.4289,34.24564],[132.42546,34.25446],[132.41981,34.25799],[132.41331,34.25949],[132.3897,34.26087],[132.38383,34.25709],[132.37742,34.26071],[132.37208,34.2583],[132.38499,34.24846],[132.38852,34.24149],[132.3893,34.23119],[132.38441,34.22681],[132.39618,34.21482],[132.4083,34.20417],[132.4209,34.19694],[132.42297,34.19243],[132.42216,34.1808],[132.4324,34.17707],[132.43647,34.19517],[132.44252,34.19544],[132.44308,34.19081],[132.44755,34.1843],[132.45419,34.18188],[132.45512,34.1784],[132.44576,34.17886],[132.44357,34.16961],[132.44915,34.16872],[132.44313,34.15705],[132.44422,34.15125],[132.43724,34.14279],[132.43743,34.13912],[132.4311,34.13194],[132.43801,34.13232],[132.44169,34.13587],[132.45225,34.13567],[132.4604,34.13395],[132.46894,34.13948],[132.47521,34.14073],[132.48203,34.14468],[132.48557,34.14184],[132.49018,34.15465],[132.48786,34.16061],[132.48146,34.16876],[132.47984,34.1746],[132.4719,34.18276],[132.47406,34.19537],[132.48015,34.19583],[132.48224,34.19933],[132.48965,34.20221],[132.4898,34.2199],[132.49167,34.2287],[132.49569,34.23198],[132.49377,34.23768],[132.49653,34.23935],[132.49241,34.24605],[132.49243,34.24608],[132.49293,34.25087]]],[[[132.38548,34.1775],[132.3817,34.17138],[132.38393,34.16631],[132.38349,34.15664],[132.38838,34.14993],[132.40532,34.14781],[132.4137,34.15066],[132.41709,34.15864],[132.41176,34.16669],[132.39787,34.17067],[132.39171,34.17569],[132.38548,34.1775]]],[[[132.43952,34.16051],[132.42758,34.15092],[132.43126,34.14783],[132.442,34.15194],[132.43952,34.16051]]],[[[132.3706,34.27984],[132.37058,34.27551],[132.37723,34.27355],[132.37764,34.27808],[132.3706,34.27984]]]]},"properties":{"pref":"広島県","city":"江田島市","code5":"34215","code6":"342157"}},
{"type":"Feature","geometry":{"type":"Polygon","coordinates":[[[132.49972,34.38931],[132.49922,34.3857],[132.5014,34.37603],[132.51622,34.37503],[132.5149,34.37802],[132.52352,34.38682],[132.52775,34.38841],[132.52834,34.39349],[132.53304,34.40263],[132.53556,34.41049],[132.53883,34.41209],[132.54072,34.41767],[132.53118,34.42149],[132.51723,34.41353],[132.51434,34.40668],[132.5069,34.40319],[132.50414,34.40435],[132.49584,34.39532],[132.49972,34.38931]]]},"properties":{"pref":"広島県","county":"安芸郡","city":"府中町","code5":"34302","code6":"343021"}},
{"type":"Feature","geometry":{"type":"Polygon","coordinates":[[[132.57874,34.37449],[132.56606,34.37607],[132.56691,34.38166],[132.558,34.38515],[132.54617,34.38605],[132.53105,34.37605],[132.5274,34.36849],[132.51816,34.36221],[132.51824,34.36174],[132.51831,34.36139],[132.51839,34.36093],[132.51896,34.35782],[132.51917,34.35656],[132.52813,34.36013],[132.53803,34.35813],[132.53915,34.36151],[132.54892,34.35681],[132.55435,34.34413],[132.56141,34.3436],[132.56867,34.35182],[132.57569,34.35788],[132.57518,34.36175],[132.57874,34.37449]]]},"properties":{"pref":"広島県","county":"安芸郡","city":"海田町","code5":"34304","code6":"343048"}},
{"type":"Feature","geometry":{"type":"Polygon","coordinates":[[[132.57874,34.37449],[132.57518,34.36175],[132.57569,34.35788],[132.56867,34.35182],[132.56141,34.3436],[132.55435,34.34413],[132.55138,34.3398],[132.55173,34.33157],[132.55666,34.32286],[132.56469,34.32545],[132.56799,34.31932],[132.57139,34.31996],[132.58058,34.31569],[132.58698,34.31548],[132.59291,34.30726],[132.59741,34.30492],[132.60683,34.31671],[132.6056,34.32203],[132.61233,34.32508],[132.61319,34.32891],[132.60823,34.34214],[132.62397,34.35419],[132.62751,34.35316],[132.6314,34.36159],[132.62289,34.37313],[132.61449,34.3749],[132.60131,34.38026],[132.59826,34.37846],[132.59152,34.38045],[132.58119,34.38076],[132.57874,34.37449]]]},"properties":{"pref":"広島県","county":"安芸郡","city":"熊野町","code5":"34307","code6":"343072"}},
{"type":"Feature","geometry":{"type":"Polygon","coordinates":[[[132.51917,34.35656],[132.51031,34.35353],[132.51622,34.3437],[132.51147,34.34379],[132.50767,34.34887],[132.49635,34.34815],[132.49189,34.33618],[132.49645,34.33387],[132.49897,34.33781],[132.50408,34.33666],[132.50406,34.32853],[132.49432,34.31624],[132.49647,34.3104],[132.50481,34.30294],[132.50777,34.29674],[132.51255,34.29958],[132.51919,34.29712],[132.53016,34.30464],[132.53089,34.31347],[132.53644,34.31475],[132.53361,34.31644],[132.53009,34.33368],[132.5279,34.33415],[132.52292,34.34185],[132.51917,34.35656]]]},"properties":{"pref":"広島県","county":"安芸郡","city":"坂町","code5":"34309","code6":"343099"}},
{"type":"Feature","geometry":{"type":"Polygon","coordinates":[[[132.12553,34.58315],[132.12841,34.57928],[132.13748,34.57264],[132.14252,34.5635],[132.14919,34.56491],[132.1566,34.55396],[132.15616,34.5492],[132.16732,34.54115],[132.17945,34.54149],[132.18449,34.53849],[132.16678,34.5246],[132.17041,34.51761],[132.17868,34.51293],[132.17871,34.51016],[132.18635,34.50288],[132.1889,34.49826],[132.19609,34.49639],[132.20394,34.4994],[132.20379,34.50616],[132.20569,34.50977],[132.21503,34.51421],[132.22987,34.50936],[132.23322,34.51106],[132.23898,34.50748],[132.2424,34.51043],[132.23955,34.51696],[132.24921,34.52966],[132.25564,34.53129],[132.26556,34.53587],[132.26952,34.53537],[132.27288,34.53926],[132.27895,34.54227],[132.29152,34.54468],[132.29222,34.54745],[132.30497,34.55072],[132.33103,34.55524],[132.34047,34.55518],[132.34277,34.55187],[132.35258,34.55453],[132.3607,34.55064],[132.36354,34.54746],[132.35992,34.53815],[132.367,34.54007],[132.36767,34.54497],[132.37476,34.54803],[132.38145,34.5537],[132.38668,34.55425],[132.38578,34.55858],[132.38977,34.56219],[132.39068,34.57107],[132.38814,34.57327],[132.38729,34.58311],[132.39178,34.58538],[132.39014,34.59163],[132.39466,34.59913],[132.40005,34.60389],[132.40468,34.60235],[132.40149,34.61126],[132.39407,34.61227],[132.3915,34.60912],[132.37806,34.61134],[132.37267,34.60727],[132.3675,34.61397],[132.35911,34.61432],[132.35669,34.61896],[132.35998,34.6215],[132.35867,34.62542],[132.35975,34.63402],[132.35042,34.64242],[132.35396,34.64678],[132.34746,34.65156],[132.34494,34.65625],[132.35495,34.66412],[132.35458,34.66721],[132.35883,34.67452],[132.35509,34.6782],[132.35193,34.68978],[132.35627,34.69381],[132.35352,34.69717],[132.34498,34.70145],[132.34048,34.70885],[132.33249,34.71483],[132.32747,34.71508],[132.32487,34.71122],[132.31867,34.70872],[132.31664,34.70185],[132.3108,34.69464],[132.30765,34.68268],[132.30395,34.67861],[132.29623,34.68061],[132.29049,34.68431],[132.28424,34.67919],[132.27975,34.67904],[132.27665,34.67355],[132.26413,34.66339],[132.2496,34.67178],[132.25063,34.67648],[132.24676,34.67889],[132.23754,34.67843],[132.23447,34.6805],[132.22552,34.68025],[132.2193,34.67222],[132.21549,34.66396],[132.20578,34.66269],[132.2008,34.66679],[132.19803,34.6731],[132.18878,34.67374],[132.18549,34.66211],[132.18165,34.65651],[132.17788,34.65547],[132.17551,34.64584],[132.16134,34.64183],[132.15556,34.64335],[132.14943,34.64061],[132.14487,34.64585],[132.14029,34.65422],[132.1335,34.648],[132.13444,34.64514],[132.12676,34.63925],[132.13087,34.63365],[132.13081,34.62917],[132.12669,34.62736],[132.12192,34.62165],[132.12239,34.61903],[132.11707,34.61153],[132.11655,34.60672],[132.12064,34.60064],[132.12968,34.59548],[132.12428,34.58784],[132.12553,34.58315]]]},"properties":{"pref":"広島県","county":"山県郡","city":"安芸太田町","code5":"34368","code6":"343684"}},
{"type":"Feature","geometry":{"type":"Polygon","coordinates":[[[132.13077,34.70803],[132.13204,34.70233],[132.12959,34.70003],[132.13631,34.69656],[132.14222,34.69159],[132.14455,34.69396],[132.15751,34.69272],[132.16108,34.68812],[132.15543,34.67699],[132.14779,34.66755],[132.14608,34.66209],[132.14029,34.65422],[132.14487,34.64585],[132.14943,34.64061],[132.15556,34.64335],[132.16134,34.64183],[132.17551,34.64584],[132.17788,34.65547],[132.18165,34.65651],[132.18549,34.66211],[132.18878,34.67374],[132.19803,34.6731],[132.2008,34.66679],[132.20578,34.66269],[132.21549,34.66396],[132.2193,34.67222],[132.22552,34.68025],[132.23447,34.6805],[132.23754,34.67843],[132.24676,34.67889],[132.25063,34.67648],[132.2496,34.67178],[132.26413,34.66339],[132.27665,34.67355],[132.27975,34.67904],[132.28424,34.67919],[132.29049,34.68431],[132.29623,34.68061],[132.30395,34.67861],[132.30765,34.68268],[132.3108,34.69464],[132.31664,34.70185],[132.31867,34.70872],[132.32487,34.71122],[132.32747,34.71508],[132.33249,34.71483],[132.34048,34.70885],[132.34498,34.70145],[132.35352,34.69717],[132.35627,34.69381],[132.35193,34.68978],[132.35509,34.6782],[132.35883,34.67452],[132.35458,34.66721],[132.35495,34.66412],[132.34494,34.65625],[132.34746,34.65156],[132.35396,34.64678],[132.35042,34.64242],[132.35975,34.63402],[132.35867,34.62542],[132.35998,34.6215],[132.35669,34.61896],[132.35911,34.61432],[132.3675,34.61397],[132.37267,34.60727],[132.37806,34.61134],[132.3915,34.60912],[132.39407,34.61227],[132.40149,34.61126],[132.40468,34.60235],[132.41529,34.59913],[132.42072,34.60312],[132.42585,34.60318],[132.43067,34.59728],[132.43894,34.592],[132.44971,34.59976],[132.45665,34.60324],[132.46442,34.61384],[132.47242,34.61477],[132.48035,34.61175],[132.48126,34.60611],[132.48759,34.60597],[132.48959,34.60333],[132.49818,34.59896],[132.49935,34.5937],[132.51182,34.59643],[132.51938,34.60698],[132.52484,34.60638],[132.53265,34.5909],[132.53074,34.58818],[132.53852,34.58322],[132.54401,34.58365],[132.55404,34.58764],[132.5606,34.59195],[132.56537,34.5915],[132.57196,34.59791],[132.5742,34.6022],[132.57095,34.60487],[132.56963,34.6126],[132.57552,34.61975],[132.57274,34.62387],[132.57747,34.63437],[132.58286,34.63794],[132.58442,34.64469],[132.58832,34.64598],[132.59173,34.65453],[132.58347,34.66517],[132.59233,34.67532],[132.59794,34.67513],[132.5977,34.68055],[132.60386,34.68512],[132.60105,34.68928],[132.59398,34.68946],[132.58764,34.68449],[132.58473,34.69348],[132.57727,34.6949],[132.57496,34.69724],[132.57589,34.7034],[132.58014,34.70726],[132.57718,34.71816],[132.58168,34.7281],[132.58753,34.73037],[132.58685,34.73369],[132.57917,34.74217],[132.56859,34.7449],[132.56758,34.75215],[132.57084,34.75984],[132.56947,34.76436],[132.55924,34.7713],[132.55523,34.77704],[132.5499,34.7799],[132.55042,34.78496],[132.54104,34.79065],[132.53806,34.79499],[132.52724,34.79887],[132.5205,34.80365],[132.50515,34.79602],[132.50108,34.79953],[132.49502,34.80143],[132.48354,34.79715],[132.48005,34.79998],[132.47199,34.80225],[132.46579,34.80166],[132.45669,34.80434],[132.45668,34.80741],[132.44518,34.81332],[132.44599,34.8152],[132.43662,34.82095],[132.42992,34.81422],[132.42116,34.81178],[132.42441,34.8069],[132.42471,34.79908],[132.41449,34.79717],[132.40689,34.79169],[132.40676,34.78955],[132.39862,34.78334],[132.38744,34.78274],[132.3814,34.78584],[132.38305,34.7948],[132.37308,34.80123],[132.36032,34.79987],[132.35686,34.79695],[132.35235,34.79807],[132.34679,34.79344],[132.3338,34.79004],[132.3249,34.79256],[132.31582,34.80142],[132.31296,34.797],[132.30588,34.79335],[132.30672,34.78999],[132.3022,34.78528],[132.29865,34.77701],[132.28956,34.77839],[132.27956,34.78438],[132.27925,34.78998],[132.27471,34.7916],[132.27857,34.79752],[132.26791,34.80176],[132.25963,34.80682],[132.24279,34.80669],[132.23838,34.80186],[132.24305,34.79801],[132.24124,34.78754],[132.24286,34.78373],[132.23278,34.77311],[132.22519,34.76998],[132.22678,34.7646],[132.22217,34.76028],[132.22456,34.75775],[132.2225,34.74972],[132.21498,34.74565],[132.20989,34.74488],[132.20336,34.74883],[132.19569,34.74445],[132.19653,34.73857],[132.18467,34.7338],[132.17785,34.73663],[132.17125,34.72971],[132.15578,34.72313],[132.15416,34.71999],[132.14309,34.71605],[132.1415,34.71005],[132.13541,34.70745],[132.13077,34.70803]]]},"properties":{"pref":"広島県","county":"山県郡","city":"北広島町","code5":"34369","code6":"343692"}},
{"type":"Feature","geometry":{"type":"MultiPolygon","coordinates":[[[[132.93094,34.2846],[132.92604,34.28202],[132.91927,34.27474],[132.90799,34.26467],[132.90637,34.25702],[132.9031,34.25392],[132.90367,34.25004],[132.89873,34.248],[132.8918,34.25472],[132.89129,34.26169],[132.88672,34.26162],[132.87729,34.25166],[132.87223,34.24789],[132.8649,34.24831],[132.85732,34.24011],[132.84728,34.24426],[132.84049,34.24019],[132.84644,34.23492],[132.84639,34.23005],[132.84051,34.22805],[132.84197,34.22328],[132.84897,34.21437],[132.85597,34.20816],[132.85993,34.20935],[132.86417,34.20641],[132.87998,34.20603],[132.89321,34.2124],[132.90657,34.21426],[132.91407,34.21151],[132.91803,34.2169],[132.9164,34.22404],[132.91791,34.22758],[132.91672,34.23394],[132.92925,34.24728],[132.93271,34.25429],[132.93844,34.27278],[132.93872,34.28031],[132.93094,34.2846]]],[[[132.91567,34.30019],[132.91067,34.29507],[132.90743,34.29472],[132.90729,34.28758],[132.91375,34.28448],[132.91515,34.28019],[132.92511,34.28545],[132.92628,34.29462],[132.91784,34.29053],[132.91414,34.29428],[132.91567,34.30019]]],[[[132.86959,34.27141],[132.86779,34.26366],[132.87353,34.26139],[132.87393,34.26641],[132.86959,34.27141]]]]},"properties":{"pref":"広島県","county":"豊田郡","city":"大崎上島町","code5":"34431","code6":"344311"}},
{"type":"Feature","geometry":{"type":"Polygon","coordinates":[[[133.08613,34.53924],[133.09272,34.53742],[133.10166,34.53931],[133.11036,34.5448],[133.12136,34.54832],[133.12581,34.54716],[133.13323,34.55796],[133.1345,34.56446],[133.13975,34.56569],[133.142,34.5731],[133.14272,34.5783],[133.13457,34.58183],[133.13509,34.58468],[133.14663,34.58855],[133.14595,34.59275],[133.1522,34.59611],[133.1584,34.6052],[133.15522,34.6115],[133.15942,34.61235],[133.1599,34.61861],[133.15865,34.62867],[133.1565,34.63193],[133.14227,34.63902],[133.1404,34.63694],[133.12392,34.63861],[133.12302,34.64522],[133.11528,34.64759],[133.10467,34.65697],[133.08585,34.66267],[133.07769,34.65714],[133.07286,34.65767],[133.06215,34.65214],[133.06021,34.65898],[133.04847,34.65754],[133.04635,34.66097],[133.03161,34.66975],[133.02071,34.67326],[133.01842,34.67863],[132.99981,34.67763],[132.99638,34.67547],[132.9852,34.67712],[132.98247,34.6691],[132.97666,34.6694],[132.96947,34.66492],[132.97081,34.66091],[132.96689,34.65728],[132.95899,34.65937],[132.95354,34.65497],[132.94507,34.65724],[132.94751,34.66034],[132.94054,34.66412],[132.94335,34.66948],[132.94038,34.67259],[132.9384,34.68239],[132.9343,34.68214],[132.92356,34.67771],[132.90686,34.68136],[132.90348,34.68092],[132.89633,34.68426],[132.89073,34.68354],[132.88948,34.67489],[132.88382,34.66753],[132.87825,34.66408],[132.87912,34.64985],[132.87252,34.64655],[132.87209,34.6371],[132.87728,34.63387],[132.871,34.62033],[132.8763,34.61405],[132.88487,34.61079],[132.88125,34.60565],[132.88527,34.60268],[132.88709,34.598],[132.89363,34.59515],[132.89601,34.5831],[132.90202,34.58108],[132.90272,34.58747],[132.91345,34.59114],[132.92448,34.59042],[132.92326,34.5847],[132.93456,34.58542],[132.94455,34.57859],[132.94835,34.58],[132.95835,34.57661],[132.9612,34.56775],[132.97107,34.57018],[132.97256,34.56654],[132.97912,34.56129],[132.98879,34.55655],[132.99111,34.55188],[132.99709,34.54782],[132.99986,34.55059],[133.01132,34.55391],[133.02004,34.55394],[133.02336,34.55193],[133.0326,34.55665],[133.03317,34.56013],[133.04145,34.56432],[133.04631,34.56139],[133.05679,34.55922],[133.06142,34.5542],[133.07996,34.55007],[133.08223,34.54338],[133.08613,34.53924]]]},"properties":{"pref":"広島県","county":"世羅郡","city":"世羅町","code5":"34462","code6":"344621"}},
{"type":"Feature","geometry":{"type":"Polygon","coordinates":[[[133.36965,34.74459],[133.36598,34.75455],[133.36185,34.7556],[133.36718,34.7612],[133.36466,34.76711],[133.36737,34.77433],[133.37238,34.78002],[133.3698,34.78977],[133.37759,34.79708],[133.37809,34.80836],[133.37451,34.81391],[133.36856,34.81488],[133.3679,34.81901],[133.35888,34.81964],[133.35647,34.82648],[133.35299,34.83064],[133.34223,34.83028],[133.33609,34.83475],[133.33259,34.84074],[133.33542,34.84452],[133.32886,34.85305],[133.32004,34.85277],[133.31419,34.84767],[133.29963,34.84783],[133.28911,34.85377],[133.28429,34.85177],[133.27779,34.85391],[133.27309,34.85134],[133.27731,34.84724],[133.27275,34.83842],[133.27425,34.83532],[133.27013,34.83083],[133.26312,34.82749],[133.25378,34.82504],[133.25359,34.82215],[133.24593,34.81963],[133.24347,34.81385],[133.23047,34.82438],[133.23539,34.82764],[133.2346,34.83346],[133.22969,34.83654],[133.22494,34.84726],[133.2165,34.85771],[133.21585,34.8614],[133.21026,34.86113],[133.19882,34.85234],[133.18646,34.85197],[133.17609,34.84887],[133.16677,34.85376],[133.1627,34.8537],[133.15696,34.84529],[133.14894,34.84069],[133.14233,34.83906],[133.14227,34.82935],[133.13496,34.82395],[133.13955,34.81469],[133.14501,34.8099],[133.14134,34.804],[133.13837,34.79222],[133.13803,34.78644],[133.14832,34.7828],[133.16055,34.77432],[133.16801,34.7661],[133.16578,34.75476],[133.16454,34.74827],[133.16614,34.74057],[133.16419,34.73537],[133.15973,34.73245],[133.16015,34.72876],[133.16594,34.72312],[133.16427,34.72049],[133.17238,34.71401],[133.17773,34.71375],[133.18288,34.70906],[133.186,34.7103],[133.19274,34.70617],[133.20097,34.6945],[133.19315,34.68676],[133.18739,34.68491],[133.1825,34.67754],[133.18295,34.67299],[133.19199,34.67177],[133.18794,34.66214],[133.198,34.659],[133.20602,34.65473],[133.21302,34.64816],[133.22155,34.64601],[133.22525,34.64907],[133.23017,34.6481],[133.23588,34.64153],[133.24041,34.64105],[133.24657,34.64723],[133.2514,34.6464],[133.25485,34.65207],[133.25936,34.64881],[133.26441,34.65804],[133.26502,34.66327],[133.26984,34.666],[133.27602,34.66604],[133.28564,34.66348],[133.28916,34.66754],[133.29184,34.65695],[133.28955,34.64797],[133.29541,34.64405],[133.29893,34.64663],[133.3046,34.64429],[133.30915,34.63793],[133.31379,34.6365],[133.31846,34.64014],[133.31715,34.64528],[133.31953,34.65258],[133.32878,34.66039],[133.33365,34.66171],[133.33975,34.66937],[133.33634,34.6763],[133.33841,34.67961],[133.34562,34.67822],[133.3464,34.68177],[133.35244,34.68409],[133.35673,34.6897],[133.36395,34.68876],[133.3679,34.69032],[133.36874,34.69539],[133.3667,34.70026],[133.36029,34.70823],[133.37059,34.71182],[133.36913,34.72355],[133.36146,34.72713],[133.36087,34.73453],[133.36464,34.74052],[133.36965,34.74459]]]},"properties":{"pref":"広島県","county":"神石郡","city":"神石高原町","code5":"34545","code6":"345458"}},
{"type":"Feature","geometry":{"type":"MultiPolygon","coordinates":[[[[132.34701,34.35654],[132.36032,34.35572],[132.36473,34.34747],[132.36915,34.35046],[132.37685,34.35237],[132.37513,34.35946],[132.37819,34.36089],[132.3975,34.36302],[132.39926,34.36536],[132.41321,34.3572],[132.42048,34.35925],[132.43318,34.35348],[132.43668,34.35308],[132.43992,34.35236],[132.43796,34.34562],[132.44188,34.34483],[132.44399,34.34054],[132.44982,34.34084],[132.44991,34.3511],[132.46017,34.35305],[132.46021,34.35304],[132.46913,34.35291],[132.47851,34.35672],[132.48263,34.3536],[132.49197,34.35348],[132.49642,34.35702],[132.50616,34.35573],[132.51759,34.3651],[132.51785,34.3638],[132.51796,34.36206],[132.51824,34.36174],[132.51816,34.36221],[132.5274,34.36849],[132.53105,34.37605],[132.54617,34.38605],[132.558,34.38515],[132.56691,34.38166],[132.56606,34.37607],[132.57874,34.37449],[132.58119,34.38076],[132.59152,34.38045],[132.59826,34.37846],[132.60131,34.38026],[132.61449,34.3749],[132.62289,34.37313],[132.6314,34.36159],[132.62751,34.35316],[132.64278,34.35329],[132.6442,34.36172],[132.65104,34.36471],[132.65362,34.36874],[132.65011,34.37652],[132.64933,34.38359],[132.64431,34.38876],[132.64646,34.39593],[132.64037,34.39906],[132.64434,34.4131],[132.65216,34.42234],[132.65978,34.42328],[132.66607,34.42762],[132.66351,34.43747],[132.65462,34.44348],[132.6475,34.4376],[132.64151,34.44197],[132.63573,34.44336],[132.63325,34.45002],[132.62402,34.44627],[132.61544,34.44652],[132.61396,34.45125],[132.60792,34.45655],[132.60052,34.45728],[132.60252,34.46806],[132.606,34.47175],[132.60685,34.48105],[132.60104,34.48345],[132.60303,34.48717],[132.60916,34.49029],[132.61866,34.49078],[132.6283,34.4983],[132.63343,34.50704],[132.64439,34.50529],[132.64913,34.51461],[132.64809,34.51623],[132.65596,34.52337],[132.66294,34.52654],[132.66538,34.53155],[132.67369,34.53043],[132.68422,34.52681],[132.69313,34.52938],[132.6961,34.53583],[132.68688,34.54136],[132.69208,34.54626],[132.6876,34.55667],[132.68988,34.56183],[132.68329,34.56552],[132.68561,34.57211],[132.68864,34.57474],[132.69409,34.5839],[132.69292,34.58985],[132.67911,34.60398],[132.67157,34.60675],[132.66483,34.60691],[132.65396,34.59953],[132.64572,34.60203],[132.63248,34.59716],[132.6245,34.60005],[132.61958,34.59875],[132.61359,34.60119],[132.60864,34.59629],[132.61037,34.59228],[132.6082,34.58604],[132.59619,34.58534],[132.59026,34.58158],[132.59081,34.57523],[132.57814,34.56402],[132.57319,34.56319],[132.56919,34.57256],[132.56566,34.57212],[132.56055,34.57686],[132.55073,34.57829],[132.54401,34.58365],[132.53852,34.58322],[132.53074,34.58818],[132.53265,34.5909],[132.52484,34.60638],[132.51938,34.60698],[132.51182,34.59643],[132.49935,34.5937],[132.49818,34.59896],[132.48959,34.60333],[132.48759,34.60597],[132.48126,34.60611],[132.48035,34.61175],[132.47242,34.61477],[132.46442,34.61384],[132.45665,34.60324],[132.44971,34.59976],[132.43894,34.592],[132.43067,34.59728],[132.42585,34.60318],[132.42072,34.60312],[132.41529,34.59913],[132.40468,34.60235],[132.40005,34.60389],[132.39466,34.59913],[132.39014,34.59163],[132.39178,34.58538],[132.38729,34.58311],[132.38814,34.57327],[132.39068,34.57107],[132.38977,34.56219],[132.38578,34.55858],[132.38668,34.55425],[132.38145,34.5537],[132.37476,34.54803],[132.36767,34.54497],[132.367,34.54007],[132.35992,34.53815],[132.36354,34.54746],[132.3607,34.55064],[132.35258,34.55453],[132.34277,34.55187],[132.34047,34.55518],[132.33103,34.55524],[132.30497,34.55072],[132.29222,34.54745],[132.29152,34.54468],[132.27895,34.54227],[132.27288,34.53926],[132.26952,34.53537],[132.26556,34.53587],[132.25564,34.53129],[132.24921,34.52966],[132.23955,34.51696],[132.2424,34.51043],[132.23898,34.50748],[132.23322,34.51106],[132.22987,34.50936],[132.21503,34.51421],[132.20569,34.50977],[132.20379,34.50616],[132.20394,34.4994],[132.19609,34.49639],[132.1889,34.49826],[132.2,34.49093],[132.20328,34.48473],[132.19669,34.47762],[132.19349,34.46794],[132.19361,34.45739],[132.19614,34.45316],[132.19042,34.44943],[132.18672,34.4508],[132.18454,34.44547],[132.17855,34.44265],[132.19138,34.43516],[132.19361,34.43136],[132.19095,34.42432],[132.1956,34.41586],[132.2182,34.41633],[132.21889,34.4199],[132.22897,34.43114],[132.23566,34.43114],[132.23801,34.42779],[132.24511,34.42326],[132.24945,34.42361],[132.25433,34.41783],[132.25475,34.41405],[132.26534,34.41242],[132.26908,34.41371],[132.2743,34.41064],[132.28133,34.40956],[132.28478,34.40246],[132.28311,34.40015],[132.28439,34.38972],[132.29319,34.38532],[132.30008,34.38426],[132.30346,34.3926],[132.30038,34.39913],[132.29956,34.4073],[132.30519,34.41445],[132.31139,34.41926],[132.31439,34.41591],[132.31296,34.41008],[132.31669,34.40613],[132.32428,34.40584],[132.32074,34.39728],[132.32091,34.38804],[132.317,34.38126],[132.3236,34.37961],[132.33465,34.37225],[132.33544,34.36765],[132.34234,34.36634],[132.34701,34.35654]],[[132.49972,34.38931],[132.49584,34.39532],[132.50414,34.40435],[132.5069,34.40319],[132.51434,34.40668],[132.51723,34.41353],[132.53118,34.42149],[132.54072,34.41767],[132.53883,34.41209],[132.53556,34.41049],[132.53304,34.40263],[132.52834,34.39349],[132.52775,34.38841],[132.52352,34.38682],[132.5149,34.37802],[132.51622,34.37503],[132.5014,34.37603],[132.49922,34.3857],[132.49972,34.38931]]],[[[132.43669,34.32249],[132.43254,34.3201],[132.43368,34.31472],[132.42862,34.30816],[132.42403,34.30609],[132.42522,34.30251],[132.43184,34.29806],[132.44223,34.30236],[132.43831,34.306],[132.44424,34.30782],[132.44554,34.31781],[132.44415,34.32524],[132.43669,34.32249]]],[[[132.48146,34.34697],[132.4768,34.34586],[132.48068,34.33126],[132.4866,34.33597],[132.48556,34.34413],[132.48146,34.34697]]],[[[132.46002,34.35172],[132.4586,34.34364],[132.46491,34.34244],[132.46298,34.35045],[132.46002,34.35172]]],[[[132.51917,34.35656],[132.52292,34.34185],[132.5279,34.33415],[132.53009,34.33368],[132.53361,34.31644],[132.53644,34.31475],[132.55446,34.31285],[132.55666,34.32286],[132.55173,34.33157],[132.55138,34.3398],[132.55435,34.34413],[132.54892,34.35681],[132.53915,34.36151],[132.53803,34.35813],[132.52813,34.36013],[132.51917,34.35656]]],[[[132.51917,34.35656],[132.51896,34.35782],[132.51031,34.35353],[132.51917,34.35656]]]]},"properties":{"pref":"広島県","city":"広島市","code5":"34100","code6":"341002"}}
]}