{"type":"FeatureCollection", "features": [
{"type":"Feature","geometry":{"type":"MultiPolygon","coordinates":[[[[130.98043,34.36347],[130.96699,34.35757],[130.96365,34.35836],[130.9493,34.35259],[130.94023,34.35118],[130.93481,34.35184],[130.93153,34.34734],[130.93112,34.34266],[130.92517,34.34233],[130.92612,34.34768],[130.91887,34.35351],[130.91162,34.3543],[130.90583,34.3624],[130.8998,34.36071],[130.89921,34.35092],[130.88967,34.3443],[130.89168,34.33822],[130.89019,34.33435],[130.89238,34.32983],[130.8914,34.31248],[130.88668,34.31159],[130.88358,34.30585],[130.88471,34.29883],[130.88119,34.29498],[130.87381,34.2957],[130.87045,34.29381],[130.86686,34.28783],[130.88109,34.2759],[130.88955,34.27259],[130.89109,34.26841],[130.89599,34.26629],[130.90044,34.25452],[130.92165,34.23945],[130.92293,34.23281],[130.92202,34.22467],[130.91625,34.21512],[130.92005,34.21304],[130.92877,34.21281],[130.93064,34.20972],[130.9311,34.19994],[130.93354,34.18908],[130.93126,34.18307],[130.92631,34.18103],[130.92874,34.17684],[130.92565,34.16971],[130.91566,34.15957],[130.90917,34.15893],[130.90025,34.1483],[130.90456,34.14741],[130.90268,34.14058],[130.89171,34.13455],[130.88448,34.13667],[130.88063,34.14177],[130.87755,34.13617],[130.87108,34.13855],[130.8671,34.13696],[130.86532,34.11634],[130.86084,34.11047],[130.86189,34.10408],[130.86859,34.10217],[130.87283,34.09866],[130.87258,34.09061],[130.88142,34.08476],[130.88206,34.07451],[130.88809,34.07206],[130.8871,34.06813],[130.89144,34.06462],[130.89557,34.07073],[130.90528,34.06374],[130.91089,34.06174],[130.91486,34.04593],[130.90364,34.02516],[130.91146,34.02446],[130.91632,34.01972],[130.91613,34.01085],[130.91276,34.00283],[130.90975,34.0009],[130.91016,33.99184],[130.90979,33.98805],[130.91013,33.98789],[130.91008,33.98785],[130.91018,33.98787],[130.91556,33.98285],[130.91686,33.97849],[130.91293,33.97077],[130.91369,33.96344],[130.90806,33.95802],[130.92052,33.95096],[130.91428,33.94083],[130.91718,33.93829],[130.92837,33.93842],[130.92358,33.9426],[130.92462,33.94741],[130.93416,33.9477],[130.95389,33.96152],[130.95833,33.96659],[130.96645,33.97],[130.97747,33.9769],[130.98151,33.9814],[130.99502,33.98904],[130.99878,33.99975],[131.0035,33.99911],[131.00627,34.00308],[131.00048,34.00886],[131.00442,34.01446],[131.01171,34.00963],[131.02126,34.02012],[131.01469,34.02666],[131.02136,34.03472],[131.03035,34.03911],[131.03176,34.04283],[131.02841,34.04567],[131.03288,34.0496],[131.03685,34.05708],[131.04178,34.05629],[131.04786,34.05028],[131.04761,34.04223],[131.06778,34.03894],[131.0718,34.05664],[131.08391,34.06373],[131.07391,34.07033],[131.08127,34.07359],[131.09018,34.07512],[131.09623,34.0711],[131.1018,34.07119],[131.11183,34.07523],[131.10752,34.08346],[131.10699,34.09255],[131.11295,34.0962],[131.11004,34.09909],[131.11345,34.10768],[131.10872,34.11341],[131.10002,34.1184],[131.09784,34.12474],[131.09269,34.12486],[131.08429,34.13096],[131.08328,34.13514],[131.08526,34.14133],[131.08306,34.14297],[131.08565,34.14943],[131.09026,34.15349],[131.08903,34.15981],[131.09009,34.16591],[131.09671,34.1666],[131.10239,34.16288],[131.1033,34.1586],[131.11104,34.15717],[131.11751,34.1607],[131.11259,34.17119],[131.1083,34.17384],[131.10802,34.17795],[131.09924,34.18575],[131.0995,34.19006],[131.10908,34.19796],[131.1071,34.20539],[131.11413,34.21017],[131.12164,34.21294],[131.12642,34.21939],[131.13663,34.22242],[131.13854,34.2251],[131.14474,34.22533],[131.14626,34.23046],[131.15298,34.23309],[131.16002,34.23103],[131.16074,34.24178],[131.1655,34.24507],[131.16664,34.24976],[131.17215,34.25613],[131.17247,34.26407],[131.16582,34.26207],[131.16151,34.26297],[131.15908,34.26871],[131.15484,34.27114],[131.14459,34.26976],[131.14242,34.27184],[131.13443,34.2701],[131.12241,34.26529],[131.11312,34.26385],[131.10467,34.26481],[131.09771,34.26304],[131.09405,34.26662],[131.08712,34.26737],[131.08422,34.27356],[131.08561,34.27854],[131.08358,34.28416],[131.07438,34.29327],[131.06739,34.29189],[131.0584,34.3003],[131.05849,34.30363],[131.0498,34.30616],[131.04298,34.31091],[131.03552,34.31156],[131.03265,34.32177],[131.02035,34.32542],[131.01986,34.33126],[131.01486,34.33581],[131.01352,34.34011],[131.0028,34.34551],[131.00104,34.3526],[130.99745,34.3525],[130.99064,34.35827],[130.98043,34.36347]]],[[[130.9122,33.95421],[130.90835,33.95047],[130.90178,33.94982],[130.901,33.94563],[130.8953,33.94421],[130.88399,33.95274],[130.87744,33.94449],[130.88827,33.9381],[130.89616,33.93597],[130.89342,33.93241],[130.89948,33.92813],[130.8992,33.92182],[130.90968,33.92485],[130.90808,33.92079],[130.90099,33.91763],[130.90255,33.91471],[130.91345,33.91146],[130.92345,33.91434],[130.92835,33.92636],[130.9224,33.93724],[130.91469,33.93834],[130.91287,33.94272],[130.91683,33.94825],[130.9122,33.95421]]],[[[130.86733,34.37371],[130.8704,34.36604],[130.86577,34.3594],[130.85683,34.35461],[130.84423,34.35367],[130.8382,34.35105],[130.84054,34.34526],[130.84762,34.34135],[130.85216,34.3447],[130.8575,34.35254],[130.86578,34.35204],[130.87232,34.35548],[130.87761,34.35346],[130.88051,34.36363],[130.87685,34.36781],[130.87111,34.36881],[130.86733,34.37371]]],[[[130.7788,34.11524],[130.77529,34.11334],[130.77591,34.10466],[130.78122,34.10179],[130.78268,34.09751],[130.78952,34.10075],[130.79259,34.09955],[130.79451,34.09366],[130.80013,34.10002],[130.79442,34.10571],[130.783,34.10699],[130.78268,34.11283],[130.7788,34.11524]]],[[[130.86451,33.98091],[130.86138,33.9796],[130.85973,33.9723],[130.86617,33.97014],[130.86875,33.97787],[130.86451,33.98091]]],[[[130.89787,33.99096],[130.89448,33.99373],[130.8896,33.98647],[130.89831,33.98494],[130.89787,33.99096]]],[[[130.9013,34.17657],[130.89969,34.17012],[130.90594,34.17255],[130.9013,34.17657]]],[[[130.90936,33.99004],[130.90946,33.99007],[130.90943,33.9901],[130.90936,33.99007],[130.90936,33.99004]]]]},"properties":{"pref":"山口県","city":"下関市","code5":"35201","code6":"352012"}},
{"type":"Feature","geometry":{"type":"Polygon","coordinates":[[[131.36959,34.13771],[131.36272,34.14053],[131.35948,34.13823],[131.35262,34.13972],[131.34751,34.13724],[131.34182,34.13977],[131.34025,34.14431],[131.32909,34.15042],[131.32207,34.15196],[131.32172,34.15589],[131.32524,34.16073],[131.31821,34.16617],[131.31077,34.16115],[131.30355,34.16559],[131.29373,34.1667],[131.28494,34.16118],[131.27742,34.15014],[131.27804,34.14557],[131.2737,34.14127],[131.2629,34.14003],[131.25602,34.14484],[131.24144,34.14119],[131.2376,34.13665],[131.23688,34.13045],[131.23062,34.12331],[131.22277,34.12248],[131.22004,34.11964],[131.21482,34.12005],[131.21027,34.11327],[131.21793,34.10866],[131.2149,34.09934],[131.21661,34.09383],[131.21088,34.08255],[131.21519,34.07389],[131.20578,34.07089],[131.19161,34.06134],[131.18979,34.05736],[131.18353,34.05226],[131.18701,34.05022],[131.1914,34.04392],[131.19557,34.04286],[131.19915,34.03741],[131.20679,34.03899],[131.21362,34.03614],[131.21938,34.0312],[131.2239,34.03028],[131.22218,34.01913],[131.21719,34.01323],[131.20394,34.00765],[131.20085,34.00181],[131.19199,33.99673],[131.19208,33.99231],[131.18606,33.98887],[131.18907,33.97827],[131.18718,33.96154],[131.19297,33.9579],[131.19931,33.94286],[131.21049,33.94453],[131.21137,33.95531],[131.21906,33.95757],[131.2177,33.94982],[131.22402,33.9491],[131.22719,33.94477],[131.21666,33.93992],[131.21533,33.93672],[131.22252,33.9338],[131.23119,33.93782],[131.23478,33.94338],[131.23424,33.94752],[131.23901,33.95143],[131.24426,33.94436],[131.24317,33.93861],[131.23402,33.93644],[131.23026,33.93036],[131.23255,33.92708],[131.24665,33.93138],[131.24207,33.91977],[131.24868,33.92058],[131.25345,33.92513],[131.26215,33.92569],[131.26652,33.92289],[131.29263,33.93434],[131.29004,33.93725],[131.29536,33.94175],[131.3001,33.94072],[131.30649,33.94947],[131.3129,33.9506],[131.31701,33.95459],[131.32746,33.95219],[131.32747,33.9522],[131.32752,33.95218],[131.32764,33.95211],[131.32765,33.95211],[131.3277,33.95207],[131.32773,33.95208],[131.33445,33.95373],[131.34955,33.96643],[131.35152,33.97681],[131.34774,33.98033],[131.352,33.98636],[131.35478,33.98629],[131.36046,33.99081],[131.36317,33.997],[131.35716,33.99723],[131.34792,34.00137],[131.34015,34.00086],[131.33361,33.99766],[131.32499,33.99995],[131.31978,33.99613],[131.31348,33.99441],[131.30101,33.99665],[131.29663,33.99607],[131.29202,34.00108],[131.29553,34.00769],[131.29468,34.01011],[131.30488,34.01497],[131.30146,34.01875],[131.30236,34.02406],[131.30734,34.02546],[131.30666,34.03185],[131.31077,34.03308],[131.31688,34.03983],[131.31857,34.04677],[131.32357,34.04583],[131.32954,34.04821],[131.33596,34.05451],[131.33924,34.06746],[131.34697,34.07031],[131.34976,34.0771],[131.3459,34.08292],[131.35336,34.08755],[131.35187,34.09868],[131.34757,34.10119],[131.34513,34.1073],[131.35228,34.10949],[131.36048,34.10514],[131.36374,34.10777],[131.36998,34.10775],[131.36828,34.11209],[131.37587,34.11489],[131.37931,34.12116],[131.37536,34.12608],[131.3763,34.1319],[131.36959,34.13771]]]},"properties":{"pref":"山口県","city":"宇部市","code5":"35202","code6":"352021"}},
{"type":"Feature","geometry":{"type":"Polygon","coordinates":[[[131.66797,34.5041],[131.66553,34.50237],[131.65751,34.50451],[131.65377,34.50003],[131.64628,34.499],[131.65063,34.49057],[131.64594,34.48694],[131.65288,34.47952],[131.64936,34.4764],[131.64996,34.46987],[131.64624,34.46628],[131.63915,34.46522],[131.64049,34.45976],[131.63441,34.45525],[131.63364,34.44435],[131.62753,34.44345],[131.62072,34.43188],[131.61728,34.4321],[131.61326,34.42502],[131.60594,34.41611],[131.60668,34.40983],[131.60203,34.40767],[131.59201,34.41026],[131.58706,34.40725],[131.57638,34.40781],[131.56933,34.41338],[131.56252,34.41242],[131.55137,34.40849],[131.54658,34.4099],[131.53735,34.4096],[131.53834,34.40039],[131.54032,34.39705],[131.54649,34.39415],[131.54676,34.38742],[131.54154,34.38567],[131.53328,34.37769],[131.53404,34.36902],[131.53899,34.36547],[131.55059,34.36161],[131.55346,34.36184],[131.56035,34.34634],[131.56124,34.34111],[131.55811,34.33561],[131.5665,34.32601],[131.56011,34.31758],[131.55789,34.30806],[131.55235,34.30608],[131.54943,34.29898],[131.54076,34.30463],[131.53801,34.30055],[131.53298,34.29923],[131.53361,34.29544],[131.5215,34.28781],[131.52642,34.28178],[131.51387,34.27782],[131.51627,34.27359],[131.51066,34.26903],[131.51062,34.26623],[131.50398,34.25849],[131.50699,34.25104],[131.50047,34.24792],[131.50239,34.24329],[131.49918,34.24041],[131.4929,34.24169],[131.48838,34.24018],[131.48151,34.24482],[131.47524,34.24158],[131.4638,34.23793],[131.46132,34.23118],[131.45598,34.23149],[131.44643,34.22227],[131.4329,34.22228],[131.42707,34.21763],[131.42106,34.21758],[131.41559,34.21046],[131.40962,34.21103],[131.40509,34.20885],[131.40502,34.20306],[131.40118,34.20035],[131.40548,34.19712],[131.39825,34.18891],[131.39747,34.18228],[131.39056,34.17909],[131.39049,34.17495],[131.37872,34.16648],[131.37882,34.15729],[131.37487,34.14928],[131.37396,34.14331],[131.36959,34.13771],[131.3763,34.1319],[131.37536,34.12608],[131.37931,34.12116],[131.37587,34.11489],[131.36828,34.11209],[131.36998,34.10775],[131.36374,34.10777],[131.36048,34.10514],[131.35228,34.10949],[131.34513,34.1073],[131.34757,34.10119],[131.35187,34.09868],[131.35336,34.08755],[131.3459,34.08292],[131.34976,34.0771],[131.34697,34.07031],[131.33924,34.06746],[131.33596,34.05451],[131.32954,34.04821],[131.32357,34.04583],[131.31857,34.04677],[131.31688,34.03983],[131.31077,34.03308],[131.30666,34.03185],[131.30734,34.02546],[131.30236,34.02406],[131.30146,34.01875],[131.30488,34.01497],[131.29468,34.01011],[131.29553,34.00769],[131.29202,34.00108],[131.29663,33.99607],[131.30101,33.99665],[131.31348,33.99441],[131.31978,33.99613],[131.32499,33.99995],[131.33361,33.99766],[131.34015,34.00086],[131.34792,34.00137],[131.35716,33.99723],[131.36317,33.997],[131.37069,34.0002],[131.37817,34.00833],[131.38339,34.02189],[131.37236,34.02571],[131.3718,34.0285],[131.38098,34.03148],[131.38627,34.04676],[131.38464,34.05],[131.39438,34.0509],[131.39871,34.04929],[131.39872,34.04287],[131.39458,34.03533],[131.39436,34.02619],[131.4023,34.02597],[131.41237,34.02033],[131.40674,34.01386],[131.40137,33.99828],[131.40576,33.9973],[131.40924,34.0052],[131.41862,34.01108],[131.41912,34.01542],[131.42727,34.01435],[131.43179,34.00668],[131.42794,33.9966],[131.42376,33.99131],[131.43601,33.98792],[131.43651,33.98307],[131.44166,33.98289],[131.44205,33.99157],[131.44949,33.99542],[131.45462,33.9946],[131.45505,33.98834],[131.46115,33.988],[131.4636,33.99335],[131.45456,34.00234],[131.45695,34.00524],[131.46222,34.00368],[131.47142,34.00967],[131.47949,34.01333],[131.47836,34.01742],[131.47226,34.01998],[131.46556,34.02752],[131.46897,34.03084],[131.46688,34.03312],[131.4757,34.03755],[131.47003,34.04411],[131.4609,34.04447],[131.45718,34.0502],[131.45524,34.06196],[131.46189,34.06573],[131.46639,34.07043],[131.48069,34.07496],[131.48641,34.08809],[131.49075,34.09383],[131.5001,34.09902],[131.50815,34.09887],[131.51887,34.08621],[131.52439,34.08934],[131.53205,34.08989],[131.53278,34.09321],[131.5485,34.09573],[131.55133,34.09705],[131.55359,34.10387],[131.55846,34.10691],[131.55733,34.11419],[131.56412,34.12231],[131.5699,34.12032],[131.57317,34.12537],[131.57321,34.13512],[131.57901,34.136],[131.58419,34.14284],[131.58078,34.15026],[131.58231,34.15187],[131.59101,34.15033],[131.59888,34.14651],[131.60748,34.14742],[131.61288,34.14333],[131.61897,34.14315],[131.61915,34.13862],[131.62686,34.14265],[131.62824,34.14952],[131.63331,34.1497],[131.63096,34.1551],[131.63581,34.15975],[131.65588,34.15773],[131.66036,34.15193],[131.65744,34.14242],[131.65356,34.1368],[131.66058,34.13669],[131.66661,34.13421],[131.67439,34.13509],[131.68112,34.13214],[131.68612,34.1326],[131.69255,34.14213],[131.69851,34.14195],[131.70697,34.1357],[131.7134,34.13291],[131.71489,34.1364],[131.71989,34.13653],[131.72541,34.14115],[131.72594,34.14994],[131.72274,34.15832],[131.7278,34.16407],[131.73665,34.16676],[131.73948,34.17235],[131.73801,34.17601],[131.73307,34.17607],[131.73212,34.18155],[131.73833,34.19131],[131.75358,34.18872],[131.75892,34.18969],[131.76401,34.1947],[131.75983,34.20384],[131.75125,34.21333],[131.7511,34.22452],[131.74721,34.22822],[131.74724,34.23361],[131.73919,34.24779],[131.74123,34.25572],[131.74559,34.26064],[131.75337,34.26298],[131.75422,34.2713],[131.75763,34.27479],[131.75286,34.28186],[131.74369,34.28924],[131.74205,34.29293],[131.74425,34.29694],[131.75007,34.30111],[131.74945,34.30573],[131.74383,34.31402],[131.74607,34.3181],[131.74561,34.32808],[131.75667,34.33144],[131.75429,34.33624],[131.75667,34.34035],[131.75597,34.3462],[131.76061,34.35038],[131.77095,34.35619],[131.76616,34.36487],[131.76722,34.37486],[131.76346,34.38094],[131.76948,34.38663],[131.77268,34.38728],[131.77471,34.39479],[131.77878,34.39858],[131.78478,34.39986],[131.78692,34.41239],[131.79322,34.42234],[131.79494,34.43289],[131.79382,34.43621],[131.78658,34.43445],[131.78004,34.4357],[131.77286,34.43502],[131.77078,34.43709],[131.76139,34.43367],[131.75195,34.43901],[131.74545,34.43528],[131.74122,34.42911],[131.73783,34.4286],[131.72961,34.4327],[131.72112,34.42868],[131.71287,34.42849],[131.71007,34.4318],[131.70199,34.43601],[131.69743,34.43531],[131.6939,34.44357],[131.6991,34.45146],[131.69554,34.45461],[131.69647,34.45805],[131.69391,34.46572],[131.69888,34.47012],[131.70001,34.47471],[131.6961,34.48086],[131.68345,34.47849],[131.68067,34.48538],[131.68237,34.48807],[131.67551,34.50096],[131.66797,34.5041]]]},"properties":{"pref":"山口県","city":"山口市","code5":"35203","code6":"352039"}},
{"type":"Feature","geometry":{"type":"MultiPolygon","coordinates":[[[[131.69062,34.68105],[131.68471,34.67479],[131.67946,34.67506],[131.66818,34.67156],[131.67156,34.66411],[131.67025,34.65969],[131.66493,34.65655],[131.65856,34.65633],[131.65439,34.65349],[131.64866,34.65339],[131.64428,34.64923],[131.6496,34.64713],[131.64764,34.64249],[131.63826,34.64682],[131.64334,34.65622],[131.63964,34.66155],[131.63073,34.66317],[131.62897,34.66536],[131.62069,34.66341],[131.61226,34.66608],[131.6104,34.66366],[131.60199,34.66027],[131.59715,34.65276],[131.59115,34.62913],[131.6012,34.63116],[131.60249,34.62779],[131.5982,34.62159],[131.591,34.62152],[131.57947,34.62559],[131.58003,34.62028],[131.57218,34.62227],[131.5615,34.61844],[131.55483,34.60749],[131.55778,34.60322],[131.56414,34.6066],[131.58162,34.60273],[131.58481,34.59227],[131.59754,34.58755],[131.60064,34.58289],[131.59849,34.57482],[131.59524,34.5726],[131.59579,34.56707],[131.59128,34.56313],[131.59075,34.55706],[131.59571,34.55707],[131.60056,34.55065],[131.61316,34.54444],[131.61473,34.53982],[131.61994,34.53663],[131.61934,34.53103],[131.62579,34.52878],[131.63384,34.53182],[131.63613,34.52579],[131.64238,34.52203],[131.64355,34.51658],[131.64783,34.51366],[131.63185,34.50696],[131.62832,34.50308],[131.62243,34.5026],[131.62085,34.49967],[131.61423,34.4963],[131.6085,34.50011],[131.60263,34.49805],[131.59829,34.49401],[131.59492,34.48612],[131.58417,34.48191],[131.57417,34.48042],[131.56661,34.48107],[131.5618,34.48963],[131.55804,34.49103],[131.55502,34.49649],[131.55008,34.49675],[131.55019,34.50193],[131.54563,34.50668],[131.5468,34.51412],[131.53864,34.51605],[131.52967,34.50495],[131.52297,34.50536],[131.5109,34.49663],[131.51444,34.49117],[131.50608,34.4893],[131.50254,34.48307],[131.49374,34.48424],[131.48981,34.48839],[131.48262,34.48816],[131.47769,34.49228],[131.46942,34.48788],[131.46188,34.48585],[131.45339,34.48019],[131.44773,34.48494],[131.44063,34.48316],[131.44625,34.4765],[131.44168,34.47124],[131.43479,34.46862],[131.43479,34.466],[131.42863,34.4609],[131.42424,34.4539],[131.41757,34.45221],[131.41503,34.44876],[131.4071,34.45261],[131.40108,34.45956],[131.39743,34.45881],[131.39439,34.4535],[131.39627,34.44844],[131.40376,34.44494],[131.40896,34.4475],[131.41425,34.44626],[131.42159,34.43929],[131.41429,34.43406],[131.40928,34.433],[131.41206,34.4265],[131.40351,34.42875],[131.39919,34.4229],[131.39135,34.41728],[131.38701,34.41671],[131.38417,34.42224],[131.37912,34.42205],[131.376,34.41539],[131.36866,34.41435],[131.36164,34.4111],[131.35262,34.41119],[131.34841,34.41712],[131.34395,34.41522],[131.33681,34.41629],[131.33172,34.41311],[131.32782,34.40596],[131.32921,34.40075],[131.32523,34.39265],[131.31712,34.39116],[131.31191,34.38677],[131.30733,34.38722],[131.3047,34.38241],[131.29874,34.38245],[131.29313,34.3803],[131.2969,34.36513],[131.30367,34.36226],[131.30569,34.36489],[131.31452,34.36759],[131.31657,34.36991],[131.32815,34.36007],[131.34123,34.35961],[131.3473,34.35401],[131.34549,34.34317],[131.34368,34.34121],[131.34583,34.32977],[131.34326,34.32611],[131.342,34.31848],[131.33613,34.30939],[131.3438,34.3059],[131.34811,34.30195],[131.35653,34.30261],[131.36144,34.30685],[131.37219,34.3094],[131.37378,34.3041],[131.37988,34.29823],[131.38153,34.29297],[131.38034,34.28707],[131.38129,34.28046],[131.38605,34.27816],[131.38928,34.26905],[131.39422,34.26585],[131.40158,34.26858],[131.40528,34.25837],[131.40005,34.25194],[131.40358,34.24085],[131.39978,34.23537],[131.40067,34.22511],[131.39717,34.2176],[131.40962,34.21103],[131.41559,34.21046],[131.42106,34.21758],[131.42707,34.21763],[131.4329,34.22228],[131.44643,34.22227],[131.45598,34.23149],[131.46132,34.23118],[131.4638,34.23793],[131.47524,34.24158],[131.48151,34.24482],[131.48838,34.24018],[131.4929,34.24169],[131.49918,34.24041],[131.50239,34.24329],[131.50047,34.24792],[131.50699,34.25104],[131.50398,34.25849],[131.51062,34.26623],[131.51066,34.26903],[131.51627,34.27359],[131.51387,34.27782],[131.52642,34.28178],[131.5215,34.28781],[131.53361,34.29544],[131.53298,34.29923],[131.53801,34.30055],[131.54076,34.30463],[131.54943,34.29898],[131.55235,34.30608],[131.55789,34.30806],[131.56011,34.31758],[131.5665,34.32601],[131.55811,34.33561],[131.56124,34.34111],[131.56035,34.34634],[131.55346,34.36184],[131.55059,34.36161],[131.53899,34.36547],[131.53404,34.36902],[131.53328,34.37769],[131.54154,34.38567],[131.54676,34.38742],[131.54649,34.39415],[131.54032,34.39705],[131.53834,34.40039],[131.53735,34.4096],[131.54658,34.4099],[131.55137,34.40849],[131.56252,34.41242],[131.56933,34.41338],[131.57638,34.40781],[131.58706,34.40725],[131.59201,34.41026],[131.60203,34.40767],[131.60668,34.40983],[131.60594,34.41611],[131.61326,34.42502],[131.61728,34.4321],[131.62072,34.43188],[131.62753,34.44345],[131.63364,34.44435],[131.63441,34.45525],[131.64049,34.45976],[131.63915,34.46522],[131.64624,34.46628],[131.64996,34.46987],[131.64936,34.4764],[131.65288,34.47952],[131.64594,34.48694],[131.65063,34.49057],[131.64628,34.499],[131.65377,34.50003],[131.65751,34.50451],[131.66553,34.50237],[131.66797,34.5041],[131.66927,34.51065],[131.67258,34.51065],[131.67848,34.51684],[131.6953,34.52379],[131.70141,34.53061],[131.70674,34.53308],[131.70121,34.53873],[131.70511,34.54205],[131.70314,34.55047],[131.70092,34.55101],[131.70602,34.56339],[131.7132,34.56281],[131.72,34.57239],[131.72442,34.57199],[131.72734,34.57615],[131.72517,34.5805],[131.72084,34.58202],[131.71899,34.59682],[131.71984,34.60068],[131.71692,34.60599],[131.71841,34.6134],[131.70665,34.6129],[131.69993,34.61623],[131.69482,34.62068],[131.69423,34.62773],[131.69827,34.63178],[131.69707,34.64189],[131.69886,34.64886],[131.69524,34.65597],[131.68876,34.65681],[131.68988,34.66309],[131.68444,34.66716],[131.68884,34.67335],[131.69062,34.68105]]],[[[131.1307,34.79865],[131.12859,34.79444],[131.12812,34.78633],[131.13022,34.7829],[131.13086,34.76913],[131.13762,34.75812],[131.14845,34.75831],[131.15389,34.76341],[131.16091,34.76365],[131.16238,34.77195],[131.15811,34.77501],[131.14676,34.77972],[131.1461,34.78826],[131.14187,34.78836],[131.13453,34.79304],[131.1307,34.79865]]],[[[131.41248,34.51304],[131.40843,34.51256],[131.40321,34.50645],[131.40157,34.49538],[131.40757,34.48928],[131.41902,34.49431],[131.41248,34.51304]]],[[[131.2784,34.51738],[131.27561,34.51577],[131.2716,34.5049],[131.2776,34.49707],[131.28041,34.50209],[131.29175,34.50504],[131.29393,34.51132],[131.28274,34.51214],[131.2784,34.51738]]],[[[131.38945,34.52371],[131.38414,34.52098],[131.38406,34.51583],[131.39009,34.51332],[131.39234,34.52209],[131.38945,34.52371]]]]},"properties":{"pref":"山口県","city":"萩市","code5":"35204","code6":"352047"}},
{"type":"Feature","geometry":{"type":"MultiPolygon","coordinates":[[[[131.4757,34.03755],[131.48418,34.02819],[131.48756,34.03066],[131.49231,34.02658],[131.50187,34.02343],[131.50874,34.02293],[131.51556,34.01416],[131.50863,34.0108],[131.50956,34.00359],[131.51686,34.00319],[131.52182,34.00777],[131.52606,34.00509],[131.52676,33.99936],[131.53435,33.99932],[131.5402,33.99759],[131.54518,33.99903],[131.55372,34.00445],[131.56177,34.00703],[131.56272,34.01267],[131.57535,34.01776],[131.58543,34.02544],[131.58785,34.03206],[131.59942,34.03861],[131.60187,34.0338],[131.60216,34.0277],[131.61138,34.02352],[131.61801,34.02812],[131.62331,34.03969],[131.63479,34.04679],[131.64353,34.04676],[131.65204,34.0391],[131.66153,34.04116],[131.6689,34.04509],[131.67359,34.044],[131.6687,34.05208],[131.66025,34.05321],[131.66426,34.0577],[131.66205,34.0614],[131.66269,34.07236],[131.65518,34.07515],[131.64432,34.07422],[131.64004,34.07785],[131.63578,34.07733],[131.63465,34.08709],[131.64239,34.08943],[131.64305,34.09476],[131.63884,34.1054],[131.64341,34.10684],[131.6464,34.11382],[131.64253,34.12156],[131.64548,34.13425],[131.65356,34.1368],[131.65744,34.14242],[131.66036,34.15193],[131.65588,34.15773],[131.63581,34.15975],[131.63096,34.1551],[131.63331,34.1497],[131.62824,34.14952],[131.62686,34.14265],[131.61915,34.13862],[131.61897,34.14315],[131.61288,34.14333],[131.60748,34.14742],[131.59888,34.14651],[131.59101,34.15033],[131.58231,34.15187],[131.58078,34.15026],[131.58419,34.14284],[131.57901,34.136],[131.57321,34.13512],[131.57317,34.12537],[131.5699,34.12032],[131.56412,34.12231],[131.55733,34.11419],[131.55846,34.10691],[131.55359,34.10387],[131.55133,34.09705],[131.5485,34.09573],[131.53278,34.09321],[131.53205,34.08989],[131.52439,34.08934],[131.51887,34.08621],[131.50815,34.09887],[131.5001,34.09902],[131.49075,34.09383],[131.48641,34.08809],[131.48069,34.07496],[131.46639,34.07043],[131.46189,34.06573],[131.45524,34.06196],[131.45718,34.0502],[131.4609,34.04447],[131.47003,34.04411],[131.4757,34.03755]]],[[[131.56825,33.98823],[131.57707,33.99195],[131.59084,33.99926],[131.59508,34.007],[131.5957,34.01121],[131.60136,34.01449],[131.58366,34.02404],[131.5816,34.01954],[131.56888,34.01342],[131.56634,34.00837],[131.56818,34.00361],[131.562,33.99898],[131.56188,33.99897],[131.56167,33.99895],[131.56155,33.99894],[131.56135,33.99891],[131.56123,33.99891],[131.56103,33.99888],[131.56091,33.99888],[131.5607,33.99885],[131.56059,33.99884],[131.55569,33.99519],[131.56503,33.99337],[131.56771,33.98656],[131.56761,33.98687],[131.56777,33.98767],[131.56802,33.98791],[131.56823,33.98816],[131.56825,33.98823]]],[[[131.69687,33.94984],[131.69447,33.94307],[131.68971,33.94095],[131.69547,33.93566],[131.70028,33.93855],[131.69687,33.94984]]]]},"properties":{"pref":"山口県","city":"防府市","code5":"35206","code6":"352063"}},
{"type":"Feature","geometry":{"type":"MultiPolygon","coordinates":[[[[131.93445,34.00871],[131.93474,34.0197],[131.93246,34.02587],[131.92765,34.02986],[131.93147,34.03796],[131.93287,34.04651],[131.92826,34.05423],[131.93461,34.05707],[131.93573,34.06349],[131.92648,34.06448],[131.92806,34.0697],[131.91342,34.08187],[131.91949,34.0866],[131.91137,34.08904],[131.90559,34.08786],[131.90333,34.09036],[131.89659,34.08919],[131.8901,34.09016],[131.88779,34.09761],[131.89291,34.09926],[131.89297,34.10546],[131.89779,34.11241],[131.88778,34.1111],[131.88222,34.1132],[131.87809,34.1078],[131.8663,34.10262],[131.86209,34.10272],[131.85564,34.09741],[131.85059,34.08901],[131.86398,34.08434],[131.86708,34.07865],[131.86664,34.07329],[131.87141,34.06822],[131.87223,34.05393],[131.86239,34.04482],[131.86317,34.04012],[131.85641,34.03653],[131.85148,34.03635],[131.84718,34.02963],[131.84007,34.02797],[131.84218,34.02067],[131.83772,34.00943],[131.85126,34.0091],[131.8594,34.00665],[131.8646,33.99997],[131.86866,33.99831],[131.86816,33.99235],[131.87515,33.98821],[131.88265,33.98109],[131.89159,33.97844],[131.89942,33.98506],[131.89922,33.99111],[131.90451,33.99141],[131.90827,33.99634],[131.92266,33.99872],[131.93337,34.00558],[131.93445,34.00871]]],[[[131.82943,33.93279],[131.83583,33.93377],[131.83719,33.93712],[131.84634,33.9457],[131.85511,33.94845],[131.85974,33.95521],[131.86047,33.96024],[131.85821,33.96367],[131.86313,33.96783],[131.86925,33.96939],[131.87334,33.9745],[131.86999,33.97898],[131.86288,33.98],[131.85909,33.98434],[131.85374,33.97954],[131.85499,33.97578],[131.84901,33.96751],[131.85054,33.95531],[131.84667,33.9518],[131.84069,33.95674],[131.83151,33.95197],[131.82414,33.94506],[131.82115,33.94957],[131.8119,33.95472],[131.80766,33.95197],[131.80558,33.94645],[131.8068,33.939],[131.81097,33.93801],[131.81202,33.93761],[131.81868,33.93587],[131.82025,33.93207],[131.82566,33.93119],[131.82569,33.93123],[131.82943,33.93279]]]]},"properties":{"pref":"山口県","city":"下松市","code5":"35207","code6":"352071"}},
{"type":"Feature","geometry":{"type":"MultiPolygon","coordinates":[[[[132.05519,34.4678],[132.04984,34.46639],[132.04594,34.46949],[132.03905,34.46889],[132.03482,34.46341],[132.02328,34.46115],[132.01542,34.45204],[132.01732,34.44027],[132.01623,34.43747],[131.99746,34.42779],[131.98988,34.41395],[131.99752,34.40709],[132.00026,34.39728],[132.00704,34.39085],[132.00746,34.38595],[132.01352,34.38203],[132.01176,34.37503],[132.01211,34.3674],[132.00722,34.36478],[132.001,34.36623],[131.99454,34.3616],[131.99422,34.35806],[131.9896,34.35238],[131.98364,34.35096],[131.97978,34.34278],[131.97402,34.34113],[131.97547,34.33744],[131.97417,34.32895],[131.97042,34.32372],[131.96244,34.32297],[131.96076,34.32079],[131.96351,34.3136],[131.95868,34.30634],[131.95012,34.31462],[131.94217,34.32532],[131.93487,34.32794],[131.92765,34.33464],[131.91505,34.33546],[131.91328,34.33029],[131.9087,34.32548],[131.89983,34.31907],[131.89053,34.32433],[131.88401,34.32129],[131.88642,34.31357],[131.88129,34.30862],[131.87913,34.30119],[131.88179,34.29982],[131.88148,34.28792],[131.88238,34.27931],[131.88048,34.27483],[131.88119,34.26963],[131.89417,34.25143],[131.88886,34.24671],[131.88799,34.24138],[131.89155,34.23504],[131.90842,34.22982],[131.91418,34.22898],[131.91893,34.22295],[131.92711,34.22527],[131.93415,34.23118],[131.94211,34.22494],[131.93892,34.21649],[131.94224,34.21502],[131.94002,34.2076],[131.94491,34.20376],[131.94481,34.20064],[131.95605,34.19827],[131.95906,34.19911],[131.96092,34.19193],[131.95665,34.18909],[131.9583,34.18132],[131.9637,34.18093],[131.96581,34.17634],[131.95714,34.16923],[131.95992,34.15911],[131.95636,34.15096],[131.95264,34.14775],[131.95728,34.14163],[131.95849,34.13336],[131.9534,34.13033],[131.95849,34.12497],[131.95968,34.1158],[131.96465,34.10685],[131.96492,34.09544],[131.96908,34.09495],[131.96703,34.0893],[131.98212,34.08811],[131.9911,34.08305],[131.99566,34.0784],[131.99537,34.07082],[131.99742,34.06445],[132.00603,34.0676],[132.01265,34.06609],[132.02369,34.06965],[132.02833,34.06321],[132.02722,34.05836],[132.03063,34.04727],[132.02636,34.03189],[132.02228,34.02551],[132.02434,34.02376],[132.02709,34.01445],[132.03759,34.01089],[132.04177,34.0136],[132.05369,34.01204],[132.05904,34.01417],[132.06015,34.01866],[132.06723,34.02129],[132.07228,34.02529],[132.07711,34.02529],[132.08948,34.04329],[132.10407,34.05255],[132.10822,34.05291],[132.11329,34.0498],[132.12069,34.0518],[132.12617,34.0454],[132.1308,34.0427],[132.13492,34.04443],[132.13906,34.04238],[132.14281,34.0319],[132.15251,34.02882],[132.16166,34.01827],[132.16797,34.01695],[132.18721,34.01935],[132.19667,34.01085],[132.19454,34.00694],[132.19412,33.99174],[132.19671,33.98846],[132.19449,33.98273],[132.19905,33.98084],[132.20048,33.98829],[132.20515,33.99323],[132.2128,34.00208],[132.21611,34.01215],[132.21914,34.039],[132.21691,34.04783],[132.2095,34.0593],[132.20926,34.06778],[132.21158,34.07157],[132.20977,34.08146],[132.21089,34.08337],[132.20358,34.09929],[132.20169,34.10532],[132.20035,34.11576],[132.20438,34.11619],[132.20327,34.12531],[132.21992,34.12704],[132.22252,34.13105],[132.23154,34.12703],[132.23595,34.13183],[132.24993,34.13002],[132.24764,34.13343],[132.25238,34.15811],[132.24691,34.17474],[132.24286,34.17654],[132.23897,34.1817],[132.23197,34.18732],[132.2327,34.19571],[132.23764,34.1962],[132.23694,34.20215],[132.22967,34.20357],[132.2223,34.19925],[132.22602,34.19078],[132.21863,34.18159],[132.21596,34.18231],[132.20039,34.17956],[132.1963,34.18043],[132.18738,34.18891],[132.18882,34.19201],[132.1835,34.19729],[132.1926,34.20268],[132.19333,34.20701],[132.20219,34.22303],[132.1935,34.22648],[132.1842,34.22761],[132.18033,34.22988],[132.17115,34.22534],[132.1701,34.23376],[132.16183,34.23387],[132.15654,34.22935],[132.14997,34.23724],[132.14475,34.23642],[132.14736,34.2504],[132.14635,34.25678],[132.14117,34.25996],[132.13533,34.26711],[132.13357,34.27236],[132.13551,34.27796],[132.13971,34.28194],[132.13818,34.28789],[132.12843,34.29568],[132.12536,34.30578],[132.12274,34.31164],[132.12388,34.31876],[132.12875,34.32195],[132.12948,34.32701],[132.12507,34.33381],[132.11932,34.33058],[132.10552,34.32962],[132.10125,34.33623],[132.10128,34.34531],[132.09287,34.3514],[132.08595,34.35404],[132.08526,34.35788],[132.07134,34.3554],[132.0719,34.36711],[132.07043,34.37096],[132.0751,34.37468],[132.07256,34.37726],[132.07681,34.3838],[132.07739,34.38924],[132.06997,34.39201],[132.07457,34.40196],[132.07335,34.40743],[132.07032,34.40994],[132.06889,34.41626],[132.07352,34.41953],[132.07698,34.43769],[132.08099,34.44354],[132.07542,34.45392],[132.07146,34.45826],[132.06858,34.46767],[132.06418,34.46888],[132.05519,34.4678]]],[[[132.41497,34.03035],[132.40285,34.02731],[132.40183,34.02358],[132.4045,34.01638],[132.41131,34.01312],[132.42045,34.01106],[132.4278,34.01562],[132.42184,34.02067],[132.41497,34.03035]]],[[[132.39167,34.04271],[132.38743,34.03914],[132.38111,34.03814],[132.38326,34.02756],[132.39167,34.04271]]],[[[132.33107,34.00363],[132.33,33.99387],[132.33561,33.99443],[132.33107,34.00363]]]]},"properties":{"pref":"山口県","city":"岩国市","code5":"35208","code6":"352080"}},
{"type":"Feature","geometry":{"type":"MultiPolygon","coordinates":[[[[131.89159,33.97844],[131.89796,33.97717],[131.90476,33.97286],[131.91106,33.97149],[131.91859,33.96682],[131.92741,33.95723],[131.92894,33.95153],[131.93637,33.94722],[131.9446,33.94688],[131.94806,33.95],[131.957,33.94956],[131.96222,33.94558],[131.96681,33.93862],[131.96869,33.92885],[131.96357,33.92861],[131.96306,33.9208],[131.96593,33.91849],[131.97291,33.92717],[131.98019,33.92985],[131.98729,33.9257],[131.99954,33.91537],[132.00283,33.91528],[132.00774,33.91047],[132.01943,33.90662],[132.02513,33.90174],[132.02723,33.91282],[132.016,33.91462],[132.01184,33.92181],[132.00255,33.92599],[132.003,33.92924],[131.98403,33.94079],[131.98003,33.95128],[131.98377,33.95811],[131.99413,33.95964],[131.99772,33.96436],[131.99693,33.96817],[132.0046,33.97114],[132.01204,33.97632],[132.00836,33.97785],[132.01257,33.98294],[132.02198,33.98782],[132.03243,33.98606],[132.0357,33.98348],[132.05051,33.98519],[132.05549,33.98971],[132.06309,33.9899],[132.06415,33.9968],[132.05328,34.00188],[132.05369,34.01204],[132.04177,34.0136],[132.03759,34.01089],[132.02709,34.01445],[132.02434,34.02376],[132.02228,34.02551],[132.00841,34.02827],[131.99727,34.0275],[131.98271,34.02454],[131.98091,34.02697],[131.97167,34.032],[131.96408,34.03172],[131.96072,34.02673],[131.96515,34.02232],[131.96092,34.01559],[131.95056,34.01134],[131.93684,34.00772],[131.93445,34.00871],[131.93337,34.00558],[131.92266,33.99872],[131.90827,33.99634],[131.90451,33.99141],[131.89922,33.99111],[131.89942,33.98506],[131.89159,33.97844]]],[[[132.01715,33.87139],[132.01434,33.86917],[132.01704,33.86365],[132.0124,33.85832],[132.00275,33.86069],[131.9976,33.85743],[132.00656,33.85278],[132.02253,33.85451],[132.02099,33.86224],[132.01803,33.86535],[132.01715,33.87139]]]]},"properties":{"pref":"山口県","city":"光市","code5":"35210","code6":"352101"}},
{"type":"Feature","geometry":{"type":"MultiPolygon","coordinates":[[[[131.17247,34.26407],[131.17617,34.26649],[131.18239,34.28091],[131.20421,34.2854],[131.21049,34.28084],[131.21682,34.28338],[131.22656,34.2853],[131.23228,34.29429],[131.24357,34.30058],[131.24454,34.30787],[131.2513,34.31634],[131.25674,34.31552],[131.25825,34.31982],[131.26319,34.32424],[131.27492,34.33086],[131.27712,34.33515],[131.28344,34.33673],[131.29303,34.32887],[131.29581,34.32181],[131.30279,34.31212],[131.30683,34.31058],[131.31146,34.31342],[131.31219,34.31881],[131.3154,34.32306],[131.32242,34.32225],[131.3271,34.32465],[131.33041,34.32137],[131.342,34.31848],[131.34326,34.32611],[131.34583,34.32977],[131.34368,34.34121],[131.34549,34.34317],[131.3473,34.35401],[131.34123,34.35961],[131.32815,34.36007],[131.31657,34.36991],[131.31452,34.36759],[131.30569,34.36489],[131.30367,34.36226],[131.2969,34.36513],[131.29313,34.3803],[131.29113,34.38442],[131.28541,34.38604],[131.28056,34.38358],[131.27882,34.38933],[131.27193,34.3901],[131.262,34.38416],[131.25651,34.38433],[131.2482,34.38154],[131.24659,34.38408],[131.23378,34.39091],[131.2301,34.38857],[131.22474,34.39214],[131.22246,34.3854],[131.2237,34.37894],[131.21533,34.37083],[131.20512,34.37487],[131.20756,34.38248],[131.20347,34.38604],[131.19975,34.39754],[131.19705,34.39629],[131.19461,34.38897],[131.18801,34.3806],[131.16907,34.3729],[131.15371,34.3731],[131.14832,34.38062],[131.14291,34.38437],[131.13723,34.39273],[131.13963,34.39928],[131.13569,34.40699],[131.1289,34.41263],[131.11183,34.40948],[131.1088,34.41367],[131.09291,34.42072],[131.09087,34.41925],[131.07796,34.42205],[131.07438,34.42458],[131.06438,34.42083],[131.05775,34.41545],[131.05125,34.41458],[131.04333,34.4103],[131.03785,34.41225],[131.0332,34.41025],[131.01999,34.41099],[131.00498,34.41498],[131.00306,34.42185],[131.00328,34.42782],[130.9865,34.43478],[130.98039,34.43545],[130.97426,34.44005],[130.97332,34.43204],[130.97019,34.42832],[130.96113,34.42764],[130.95714,34.42003],[130.95946,34.41405],[130.95406,34.40747],[130.94612,34.40325],[130.93957,34.40436],[130.93639,34.39457],[130.94019,34.3894],[130.94726,34.38734],[130.95522,34.38906],[130.95656,34.39686],[130.95039,34.40036],[130.95187,34.40533],[130.95855,34.40793],[130.96587,34.40536],[130.97226,34.40534],[130.97999,34.39948],[131.00184,34.39863],[131.01071,34.40183],[131.01229,34.40468],[131.01972,34.39697],[131.02101,34.3911],[131.02903,34.38939],[131.03654,34.37887],[131.03382,34.37038],[131.02504,34.37203],[131.02112,34.3748],[131.01223,34.3734],[131.00555,34.37048],[131.00086,34.37404],[130.99475,34.37198],[130.99253,34.36816],[130.98691,34.36795],[130.98043,34.36347],[130.99064,34.35827],[130.99745,34.3525],[131.00104,34.3526],[131.0028,34.34551],[131.01352,34.34011],[131.01486,34.33581],[131.01986,34.33126],[131.02035,34.32542],[131.03265,34.32177],[131.03552,34.31156],[131.04298,34.31091],[131.0498,34.30616],[131.05849,34.30363],[131.0584,34.3003],[131.06739,34.29189],[131.07438,34.29327],[131.08358,34.28416],[131.08561,34.27854],[131.08422,34.27356],[131.08712,34.26737],[131.09405,34.26662],[131.09771,34.26304],[131.10467,34.26481],[131.11312,34.26385],[131.12241,34.26529],[131.13443,34.2701],[131.14242,34.27184],[131.14459,34.26976],[131.15484,34.27114],[131.15908,34.26871],[131.16151,34.26297],[131.16582,34.26207],[131.17247,34.26407]]],[[[131.19575,34.40012],[131.19645,34.39805],[131.20671,34.40076],[131.21309,34.40371],[131.20733,34.4108],[131.21181,34.41584],[131.22235,34.42405],[131.22375,34.41793],[131.227,34.4174],[131.23316,34.42328],[131.24266,34.42211],[131.24708,34.42549],[131.25509,34.42168],[131.26133,34.42643],[131.26024,34.43065],[131.25496,34.43224],[131.25432,34.43655],[131.24618,34.43832],[131.23974,34.43665],[131.23513,34.43217],[131.2289,34.43163],[131.22083,34.42876],[131.2174,34.42565],[131.20016,34.4256],[131.19554,34.42858],[131.19289,34.42421],[131.18604,34.42341],[131.18077,34.42782],[131.17517,34.42689],[131.17232,34.4229],[131.17281,34.40838],[131.18725,34.40155],[131.18859,34.39868],[131.19575,34.40012]]]]},"properties":{"pref":"山口県","city":"長門市","code5":"35211","code6":"352110"}},
{"type":"Feature","geometry":{"type":"MultiPolygon","coordinates":[[[[132.06723,34.02129],[132.07355,34.01691],[132.07088,34.01372],[132.06415,33.9968],[132.06309,33.9899],[132.06082,33.98697],[132.06151,33.97856],[132.06408,33.96517],[132.05744,33.96128],[132.06,33.95478],[132.07675,33.95546],[132.07985,33.95748],[132.09397,33.95876],[132.09656,33.95492],[132.10641,33.95126],[132.10513,33.94744],[132.1066,33.94005],[132.10762,33.92265],[132.10348,33.91673],[132.09465,33.91285],[132.09652,33.90857],[132.10328,33.90574],[132.10739,33.89977],[132.10984,33.89163],[132.12152,33.88327],[132.12377,33.87983],[132.13341,33.87452],[132.13461,33.86631],[132.13335,33.86193],[132.13779,33.85345],[132.14937,33.8473],[132.1526,33.84317],[132.15745,33.84471],[132.15944,33.85067],[132.15827,33.85972],[132.1494,33.8638],[132.14631,33.86714],[132.14826,33.87461],[132.13672,33.87906],[132.12851,33.88815],[132.13158,33.89467],[132.12679,33.8995],[132.13165,33.90458],[132.13191,33.91006],[132.12797,33.91513],[132.12506,33.92598],[132.12561,33.93493],[132.12662,33.94078],[132.12234,33.94242],[132.12956,33.95305],[132.1278,33.95716],[132.15272,33.9562],[132.16017,33.95719],[132.16787,33.96031],[132.17901,33.96318],[132.18751,33.96324],[132.19905,33.98084],[132.19449,33.98273],[132.19671,33.98846],[132.19412,33.99174],[132.19454,34.00694],[132.19667,34.01085],[132.18721,34.01935],[132.16797,34.01695],[132.16166,34.01827],[132.15251,34.02882],[132.14281,34.0319],[132.13906,34.04238],[132.13492,34.04443],[132.1308,34.0427],[132.12617,34.0454],[132.12069,34.0518],[132.11329,34.0498],[132.10822,34.05291],[132.10407,34.05255],[132.08948,34.04329],[132.07711,34.02529],[132.07228,34.02529],[132.06723,34.02129]]],[[[132.2094,33.81729],[132.20095,33.81438],[132.18786,33.80768],[132.18561,33.81084],[132.17748,33.80801],[132.1722,33.80387],[132.17245,33.79801],[132.17663,33.79656],[132.18584,33.80063],[132.19017,33.8041],[132.19691,33.80425],[132.20166,33.79992],[132.20189,33.79321],[132.213,33.7873],[132.21566,33.78194],[132.2231,33.78306],[132.22953,33.78138],[132.23314,33.78369],[132.24157,33.78166],[132.24997,33.77393],[132.25664,33.77104],[132.26606,33.7738],[132.26968,33.77778],[132.25955,33.77964],[132.25651,33.78292],[132.2554,33.78903],[132.24751,33.79653],[132.23572,33.79807],[132.22976,33.80793],[132.22308,33.80868],[132.22343,33.81329],[132.2111,33.81548],[132.2094,33.81729]]],[[[132.25887,33.81625],[132.25595,33.81736],[132.24937,33.81417],[132.24937,33.81074],[132.25378,33.80656],[132.25887,33.81625]]]]},"properties":{"pref":"山口県","city":"柳井市","code5":"35212","code6":"352128"}},
{"type":"Feature","geometry":{"type":"Polygon","coordinates":[[[131.11295,34.0962],[131.11896,34.09311],[131.11848,34.08815],[131.12723,34.08203],[131.13061,34.08556],[131.14111,34.08848],[131.14629,34.08735],[131.14759,34.09136],[131.15641,34.08947],[131.16012,34.09316],[131.16752,34.09544],[131.17354,34.11135],[131.17893,34.11426],[131.18099,34.11823],[131.18802,34.11961],[131.19053,34.11737],[131.20834,34.11578],[131.21027,34.11327],[131.21482,34.12005],[131.22004,34.11964],[131.22277,34.12248],[131.23062,34.12331],[131.23688,34.13045],[131.2376,34.13665],[131.24144,34.14119],[131.25602,34.14484],[131.2629,34.14003],[131.2737,34.14127],[131.27804,34.14557],[131.27742,34.15014],[131.28494,34.16118],[131.29373,34.1667],[131.30355,34.16559],[131.31077,34.16115],[131.31821,34.16617],[131.32524,34.16073],[131.32172,34.15589],[131.32207,34.15196],[131.32909,34.15042],[131.34025,34.14431],[131.34182,34.13977],[131.34751,34.13724],[131.35262,34.13972],[131.35948,34.13823],[131.36272,34.14053],[131.36959,34.13771],[131.37396,34.14331],[131.37487,34.14928],[131.37882,34.15729],[131.37872,34.16648],[131.39049,34.17495],[131.39056,34.17909],[131.39747,34.18228],[131.39825,34.18891],[131.40548,34.19712],[131.40118,34.20035],[131.40502,34.20306],[131.40509,34.20885],[131.40962,34.21103],[131.39717,34.2176],[131.40067,34.22511],[131.39978,34.23537],[131.40358,34.24085],[131.40005,34.25194],[131.40528,34.25837],[131.40158,34.26858],[131.39422,34.26585],[131.38928,34.26905],[131.38605,34.27816],[131.38129,34.28046],[131.38034,34.28707],[131.38153,34.29297],[131.37988,34.29823],[131.37378,34.3041],[131.37219,34.3094],[131.36144,34.30685],[131.35653,34.30261],[131.34811,34.30195],[131.3438,34.3059],[131.33613,34.30939],[131.342,34.31848],[131.33041,34.32137],[131.3271,34.32465],[131.32242,34.32225],[131.3154,34.32306],[131.31219,34.31881],[131.31146,34.31342],[131.30683,34.31058],[131.30279,34.31212],[131.29581,34.32181],[131.29303,34.32887],[131.28344,34.33673],[131.27712,34.33515],[131.27492,34.33086],[131.26319,34.32424],[131.25825,34.31982],[131.25674,34.31552],[131.2513,34.31634],[131.24454,34.30787],[131.24357,34.30058],[131.23228,34.29429],[131.22656,34.2853],[131.21682,34.28338],[131.21049,34.28084],[131.20421,34.2854],[131.18239,34.28091],[131.17617,34.26649],[131.17247,34.26407],[131.17215,34.25613],[131.16664,34.24976],[131.1655,34.24507],[131.16074,34.24178],[131.16002,34.23103],[131.15298,34.23309],[131.14626,34.23046],[131.14474,34.22533],[131.13854,34.2251],[131.13663,34.22242],[131.12642,34.21939],[131.12164,34.21294],[131.11413,34.21017],[131.1071,34.20539],[131.10908,34.19796],[131.0995,34.19006],[131.09924,34.18575],[131.10802,34.17795],[131.1083,34.17384],[131.11259,34.17119],[131.11751,34.1607],[131.11104,34.15717],[131.1033,34.1586],[131.10239,34.16288],[131.09671,34.1666],[131.09009,34.16591],[131.08903,34.15981],[131.09026,34.15349],[131.08565,34.14943],[131.08306,34.14297],[131.08526,34.14133],[131.08328,34.13514],[131.08429,34.13096],[131.09269,34.12486],[131.09784,34.12474],[131.10002,34.1184],[131.10872,34.11341],[131.11345,34.10768],[131.11004,34.09909],[131.11295,34.0962]]]},"properties":{"pref":"山口県","city":"美祢市","code5":"35213","code6":"352136"}},
{"type":"Feature","geometry":{"type":"MultiPolygon","coordinates":[[[[131.77095,34.35619],[131.76061,34.35038],[131.75597,34.3462],[131.75667,34.34035],[131.75429,34.33624],[131.75667,34.33144],[131.74561,34.32808],[131.74607,34.3181],[131.74383,34.31402],[131.74945,34.30573],[131.75007,34.30111],[131.74425,34.29694],[131.74205,34.29293],[131.74369,34.28924],[131.75286,34.28186],[131.75763,34.27479],[131.75422,34.2713],[131.75337,34.26298],[131.74559,34.26064],[131.74123,34.25572],[131.73919,34.24779],[131.74724,34.23361],[131.74721,34.22822],[131.7511,34.22452],[131.75125,34.21333],[131.75983,34.20384],[131.76401,34.1947],[131.75892,34.18969],[131.75358,34.18872],[131.73833,34.19131],[131.73212,34.18155],[131.73307,34.17607],[131.73801,34.17601],[131.73948,34.17235],[131.73665,34.16676],[131.7278,34.16407],[131.72274,34.15832],[131.72594,34.14994],[131.72541,34.14115],[131.71989,34.13653],[131.71489,34.1364],[131.7134,34.13291],[131.70697,34.1357],[131.69851,34.14195],[131.69255,34.14213],[131.68612,34.1326],[131.68112,34.13214],[131.67439,34.13509],[131.66661,34.13421],[131.66058,34.13669],[131.65356,34.1368],[131.64548,34.13425],[131.64253,34.12156],[131.6464,34.11382],[131.64341,34.10684],[131.63884,34.1054],[131.64305,34.09476],[131.64239,34.08943],[131.63465,34.08709],[131.63578,34.07733],[131.64004,34.07785],[131.64432,34.07422],[131.65518,34.07515],[131.66269,34.07236],[131.66205,34.0614],[131.66426,34.0577],[131.66025,34.05321],[131.6687,34.05208],[131.67359,34.044],[131.67633,34.04289],[131.67862,34.05445],[131.68292,34.05195],[131.6884,34.05254],[131.68908,34.04752],[131.69799,34.04671],[131.70027,34.05556],[131.7051,34.05616],[131.70968,34.06046],[131.71535,34.05991],[131.72015,34.05734],[131.72923,34.06216],[131.73876,34.06146],[131.74127,34.06569],[131.75156,34.06552],[131.73887,34.05526],[131.73364,34.04888],[131.73723,34.04569],[131.74469,34.0498],[131.75002,34.04707],[131.75804,34.0486],[131.75958,34.05644],[131.76513,34.05749],[131.76722,34.05337],[131.76724,34.05337],[131.77392,34.05336],[131.77407,34.05336],[131.77494,34.05336],[131.78215,34.05477],[131.79172,34.05389],[131.7936,34.0494],[131.79849,34.05162],[131.80081,34.04847],[131.79393,34.0467],[131.78936,34.04243],[131.78614,34.03444],[131.7811,34.02751],[131.78788,34.02844],[131.796,34.03632],[131.79642,34.03985],[131.80442,34.04296],[131.81846,34.03538],[131.82144,34.02773],[131.826,34.02822],[131.82676,34.02354],[131.81475,34.02273],[131.81607,34.01905],[131.81191,34.01588],[131.80442,34.01613],[131.79963,34.00966],[131.79437,34.00626],[131.7889,33.99959],[131.78274,33.99524],[131.78738,33.98767],[131.77761,33.98547],[131.77047,33.98074],[131.77182,33.97804],[131.77523,33.97783],[131.78092,33.97548],[131.78094,33.97549],[131.78938,33.97363],[131.79335,33.97666],[131.80145,33.97586],[131.80443,33.97109],[131.8103,33.96777],[131.81671,33.96957],[131.8161,33.98225],[131.80793,33.98423],[131.80444,33.98086],[131.79779,33.98327],[131.79731,33.98392],[131.7973,33.98391],[131.79468,33.98773],[131.80385,33.98842],[131.81846,33.9931],[131.82624,34.00202],[131.83772,34.00943],[131.84218,34.02067],[131.84007,34.02797],[131.84718,34.02963],[131.85148,34.03635],[131.85641,34.03653],[131.86317,34.04012],[131.86239,34.04482],[131.87223,34.05393],[131.87141,34.06822],[131.86664,34.07329],[131.86708,34.07865],[131.86398,34.08434],[131.85059,34.08901],[131.85564,34.09741],[131.86209,34.10272],[131.8663,34.10262],[131.87809,34.1078],[131.88222,34.1132],[131.88778,34.1111],[131.89779,34.11241],[131.89297,34.10546],[131.89291,34.09926],[131.88779,34.09761],[131.8901,34.09016],[131.89659,34.08919],[131.90333,34.09036],[131.90559,34.08786],[131.91137,34.08904],[131.91949,34.0866],[131.91342,34.08187],[131.92806,34.0697],[131.92648,34.06448],[131.93573,34.06349],[131.93461,34.05707],[131.92826,34.05423],[131.93287,34.04651],[131.93147,34.03796],[131.92765,34.02986],[131.93246,34.02587],[131.93474,34.0197],[131.93445,34.00871],[131.93684,34.00772],[131.95056,34.01134],[131.96092,34.01559],[131.96515,34.02232],[131.96072,34.02673],[131.96408,34.03172],[131.97167,34.032],[131.98091,34.02697],[131.98271,34.02454],[131.99727,34.0275],[132.00841,34.02827],[132.02228,34.02551],[132.02636,34.03189],[132.03063,34.04727],[132.02722,34.05836],[132.02833,34.06321],[132.02369,34.06965],[132.01265,34.06609],[132.00603,34.0676],[131.99742,34.06445],[131.99537,34.07082],[131.99566,34.0784],[131.9911,34.08305],[131.98212,34.08811],[131.96703,34.0893],[131.96908,34.09495],[131.96492,34.09544],[131.96465,34.10685],[131.95968,34.1158],[131.95849,34.12497],[131.9534,34.13033],[131.95849,34.13336],[131.95728,34.14163],[131.95264,34.14775],[131.95636,34.15096],[131.95992,34.15911],[131.95714,34.16923],[131.96581,34.17634],[131.9637,34.18093],[131.9583,34.18132],[131.95665,34.18909],[131.96092,34.19193],[131.95906,34.19911],[131.95605,34.19827],[131.94481,34.20064],[131.94491,34.20376],[131.94002,34.2076],[131.94224,34.21502],[131.93892,34.21649],[131.94211,34.22494],[131.93415,34.23118],[131.92711,34.22527],[131.91893,34.22295],[131.91418,34.22898],[131.90842,34.22982],[131.89155,34.23504],[131.88799,34.24138],[131.88886,34.24671],[131.89417,34.25143],[131.88119,34.26963],[131.88048,34.27483],[131.88238,34.27931],[131.88148,34.28792],[131.88179,34.29982],[131.87913,34.30119],[131.88129,34.30862],[131.87286,34.30847],[131.86958,34.30497],[131.86034,34.30462],[131.85072,34.30661],[131.84519,34.31098],[131.84131,34.30838],[131.83406,34.31116],[131.83144,34.30262],[131.82346,34.30529],[131.81946,34.30297],[131.81654,34.31024],[131.8131,34.31238],[131.80632,34.31238],[131.80245,34.31699],[131.79647,34.31888],[131.79614,34.32656],[131.78807,34.32876],[131.77461,34.33752],[131.77949,34.34456],[131.77796,34.35342],[131.77095,34.35619]]],[[[131.77298,34.05032],[131.7685,34.04659],[131.76274,34.04808],[131.75708,34.04063],[131.75283,34.03273],[131.74905,34.0366],[131.73319,34.03755],[131.72764,34.03371],[131.72635,34.02839],[131.72871,34.02264],[131.73826,34.02044],[131.74557,34.02306],[131.76009,34.03385],[131.76297,34.03812],[131.78022,34.04853],[131.77298,34.05032]]],[[[131.71428,34.02913],[131.71476,34.03207],[131.70726,34.03353],[131.70439,34.02731],[131.70381,34.01831],[131.70501,34.00803],[131.69708,34.00944],[131.69175,34.00769],[131.69507,34.00393],[131.70187,34.00352],[131.70409,34.00017],[131.7059,33.99812],[131.71042,33.9946],[131.71401,33.98988],[131.71968,33.98926],[131.71872,33.9815],[131.72203,33.97995],[131.72512,33.98119],[131.72668,33.98088],[131.72672,33.98085],[131.72661,33.98074],[131.73283,33.98263],[131.72912,33.98748],[131.71992,33.99041],[131.71734,33.99566],[131.71088,34.00036],[131.71092,34.00826],[131.71334,34.01335],[131.7105,34.01568],[131.71335,34.02035],[131.70941,34.0254],[131.71428,34.02913]]],[[[131.75992,33.9835],[131.75876,33.98088],[131.76279,33.97467],[131.76892,33.98003],[131.75992,33.9835]]]]},"properties":{"pref":"山口県","city":"周南市","code5":"35215","code6":"352152"}},
{"type":"Feature","geometry":{"type":"Polygon","coordinates":[[[131.06778,34.03894],[131.08324,34.03375],[131.08452,34.03789],[131.09602,34.03553],[131.10287,34.0308],[131.11037,34.01794],[131.11528,34.01432],[131.1214,34.00353],[131.13225,33.99652],[131.13442,34.00334],[131.15064,34.0035],[131.14622,33.99545],[131.1555,33.98924],[131.16199,33.99388],[131.16944,33.99653],[131.16977,33.99245],[131.16261,33.98948],[131.16063,33.98627],[131.16506,33.98096],[131.16154,33.97785],[131.16294,33.97053],[131.16028,33.96752],[131.15765,33.95535],[131.16376,33.94966],[131.16516,33.9457],[131.17129,33.94209],[131.1726,33.93829],[131.17845,33.93141],[131.1855,33.93161],[131.18477,33.93898],[131.19931,33.94286],[131.19297,33.9579],[131.18718,33.96154],[131.18907,33.97827],[131.18606,33.98887],[131.19208,33.99231],[131.19199,33.99673],[131.20085,34.00181],[131.20394,34.00765],[131.21719,34.01323],[131.22218,34.01913],[131.2239,34.03028],[131.21938,34.0312],[131.21362,34.03614],[131.20679,34.03899],[131.19915,34.03741],[131.19557,34.04286],[131.1914,34.04392],[131.18701,34.05022],[131.18353,34.05226],[131.18979,34.05736],[131.19161,34.06134],[131.20578,34.07089],[131.21519,34.07389],[131.21088,34.08255],[131.21661,34.09383],[131.2149,34.09934],[131.21793,34.10866],[131.21027,34.11327],[131.20834,34.11578],[131.19053,34.11737],[131.18802,34.11961],[131.18099,34.11823],[131.17893,34.11426],[131.17354,34.11135],[131.16752,34.09544],[131.16012,34.09316],[131.15641,34.08947],[131.14759,34.09136],[131.14629,34.08735],[131.14111,34.08848],[131.13061,34.08556],[131.12723,34.08203],[131.11848,34.08815],[131.11896,34.09311],[131.11295,34.0962],[131.10699,34.09255],[131.10752,34.08346],[131.11183,34.07523],[131.1018,34.07119],[131.09623,34.0711],[131.09018,34.07512],[131.08127,34.07359],[131.07391,34.07033],[131.08391,34.06373],[131.0718,34.05664],[131.06778,34.03894]]]},"properties":{"pref":"山口県","city":"山陽小野田市","code5":"35216","code6":"352161"}},
{"type":"Feature","geometry":{"type":"MultiPolygon","coordinates":[[[[132.23399,33.96763],[132.22935,33.95958],[132.22414,33.95908],[132.21728,33.96088],[132.21106,33.96038],[132.2119,33.95224],[132.20279,33.94906],[132.19152,33.95527],[132.18456,33.95373],[132.18337,33.95053],[132.18822,33.94173],[132.188,33.93471],[132.18144,33.92885],[132.17639,33.93051],[132.17316,33.92392],[132.17676,33.91971],[132.17728,33.91102],[132.17524,33.90272],[132.17989,33.89633],[132.18706,33.89328],[132.19019,33.88576],[132.19478,33.88495],[132.20419,33.87868],[132.2043,33.87217],[132.19958,33.87116],[132.20937,33.85941],[132.21617,33.86653],[132.21449,33.87022],[132.2227,33.87397],[132.23771,33.87747],[132.24222,33.87431],[132.24876,33.8769],[132.2586,33.87762],[132.26812,33.87021],[132.26897,33.89021],[132.28396,33.90033],[132.28856,33.90214],[132.29602,33.89659],[132.3085,33.89461],[132.31356,33.89166],[132.31967,33.89328],[132.33315,33.88616],[132.33837,33.88066],[132.33768,33.87806],[132.32946,33.87269],[132.32493,33.86432],[132.32739,33.85756],[132.33371,33.86127],[132.34431,33.86545],[132.34506,33.86926],[132.35518,33.86702],[132.36111,33.86064],[132.36843,33.8673],[132.36929,33.87675],[132.36442,33.87935],[132.36313,33.88473],[132.36674,33.89199],[132.36267,33.89806],[132.36654,33.90273],[132.37182,33.90402],[132.3712,33.90942],[132.37579,33.91405],[132.38634,33.91477],[132.39385,33.91777],[132.40509,33.91561],[132.41829,33.91809],[132.42285,33.92576],[132.43273,33.92675],[132.43427,33.93182],[132.44317,33.93118],[132.45061,33.93233],[132.45391,33.93493],[132.45771,33.94364],[132.44446,33.94212],[132.43912,33.94377],[132.43865,33.95156],[132.43223,33.95006],[132.42392,33.95406],[132.41653,33.95292],[132.40896,33.944],[132.40183,33.94087],[132.40577,33.933],[132.40127,33.92824],[132.39506,33.92585],[132.38671,33.92683],[132.37857,33.92474],[132.36977,33.92839],[132.36485,33.92156],[132.36019,33.91782],[132.35241,33.91592],[132.35782,33.91094],[132.35399,33.90714],[132.34612,33.90424],[132.34153,33.90508],[132.3351,33.90152],[132.32852,33.90461],[132.31673,33.90602],[132.32353,33.91718],[132.32058,33.91896],[132.31285,33.91494],[132.30725,33.91535],[132.30126,33.92009],[132.30168,33.93],[132.29795,33.93445],[132.28733,33.9419],[132.28584,33.95542],[132.28324,33.95609],[132.27381,33.94985],[132.26791,33.94814],[132.25899,33.94982],[132.24885,33.95412],[132.24461,33.96273],[132.23399,33.96763]]],[[[132.34773,33.95933],[132.33752,33.95487],[132.3374,33.9467],[132.34855,33.9462],[132.35265,33.93934],[132.35553,33.95251],[132.34985,33.96041],[132.34773,33.95933]]],[[[132.26371,34.0098],[132.2584,34.00387],[132.26943,34.00062],[132.27007,34.00499],[132.26371,34.0098]]],[[[132.4708,33.96657],[132.4654,33.96255],[132.47808,33.95445],[132.47933,33.95883],[132.4708,33.96657]]],[[[132.35934,33.85862],[132.35736,33.8537],[132.36562,33.84686],[132.37273,33.84811],[132.35934,33.85862]]],[[[132.16646,33.94733],[132.15672,33.94588],[132.15445,33.9396],[132.15668,33.9376],[132.1633,33.93933],[132.16884,33.94523],[132.16646,33.94733]]],[[[132.401,33.81459],[132.39605,33.81233],[132.39167,33.80705],[132.39447,33.80182],[132.39952,33.80392],[132.39792,33.81101],[132.401,33.81459]]],[[[132.45471,33.92702],[132.45549,33.91996],[132.46079,33.91963],[132.46128,33.92403],[132.45471,33.92702]]],[[[132.34873,33.97379],[132.34811,33.97001],[132.35101,33.96137],[132.35554,33.96704],[132.34873,33.97379]]],[[[132.18093,33.8497],[132.18019,33.8497],[132.17983,33.84963],[132.17942,33.84949],[132.17934,33.84946],[132.17924,33.84942],[132.17921,33.8494],[132.17908,33.84931],[132.17879,33.84911],[132.17871,33.84905],[132.17863,33.84895],[132.17861,33.84893],[132.17842,33.84891],[132.17841,33.84889],[132.17841,33.84884],[132.17842,33.84881],[132.17846,33.84876],[132.17846,33.84869],[132.17845,33.84866],[132.17841,33.8486],[132.17839,33.84857],[132.17838,33.84853],[132.17837,33.8485],[132.17835,33.84847],[132.17834,33.84844],[132.17833,33.84841],[132.17832,33.84837],[132.1783,33.84834],[132.17829,33.84831],[132.17829,33.84828],[132.17827,33.8482],[132.17825,33.84817],[132.17824,33.84814],[132.17823,33.84811],[132.17822,33.84808],[132.17822,33.84805],[132.17821,33.84801],[132.1782,33.84798],[132.17819,33.84795],[132.17819,33.84791],[132.17818,33.84788],[132.17818,33.84783],[132.17819,33.8478],[132.17819,33.84778],[132.17818,33.84774],[132.17814,33.84757],[132.17814,33.84732],[132.17815,33.84701],[132.17815,33.84698],[132.17816,33.84686],[132.17815,33.84683],[132.17815,33.84671],[132.17816,33.84668],[132.17817,33.84664],[132.17817,33.84661],[132.17825,33.84639],[132.17826,33.84636],[132.18362,33.84398],[132.1839,33.84405],[132.18247,33.84952],[132.18239,33.84953],[132.18231,33.84954],[132.18211,33.84958],[132.18175,33.84959],[132.18167,33.8496],[132.1814,33.84962],[132.18132,33.84963],[132.18124,33.84964],[132.18116,33.84965],[132.18093,33.8497]]],[[[132.20255,33.84715],[132.19842,33.84856],[132.19842,33.84852],[132.19843,33.84849],[132.19844,33.84846],[132.19845,33.84842],[132.19845,33.84839],[132.19846,33.84836],[132.19848,33.84833],[132.19849,33.8483],[132.1985,33.84827],[132.19851,33.84823],[132.19852,33.84819],[132.19853,33.84816],[132.19854,33.84813],[132.19855,33.8481],[132.19856,33.84807],[132.19857,33.84804],[132.19859,33.84801],[132.1986,33.848],[132.19862,33.84797],[132.2004,33.84659],[132.20047,33.84656],[132.20054,33.84653],[132.20061,33.84649],[132.2012,33.84662],[132.20134,33.84667],[132.20182,33.84668],[132.20215,33.84682],[132.20248,33.84707],[132.20251,33.84709],[132.20253,33.84712],[132.20255,33.84715]]]]},"properties":{"pref":"山口県","county":"大島郡","city":"周防大島町","code5":"35305","code6":"353051"}},
{"type":"Feature","geometry":{"type":"Polygon","coordinates":[[[132.19333,34.20701],[132.1926,34.20268],[132.1835,34.19729],[132.18882,34.19201],[132.18738,34.18891],[132.1963,34.18043],[132.20039,34.17956],[132.21596,34.18231],[132.21863,34.18159],[132.22602,34.19078],[132.2223,34.19925],[132.22967,34.20357],[132.23694,34.20215],[132.23764,34.1962],[132.24194,34.19735],[132.24679,34.20486],[132.2456,34.21067],[132.22227,34.20839],[132.21431,34.20356],[132.20657,34.20362],[132.20132,34.20776],[132.19764,34.20468],[132.19333,34.20701]]]},"properties":{"pref":"山口県","county":"玖珂郡","city":"和木町","code5":"35321","code6":"353213"}},
{"type":"Feature","geometry":{"type":"MultiPolygon","coordinates":[[[[132.07141,33.85841],[132.06763,33.8485],[132.07003,33.84311],[132.07615,33.84057],[132.08111,33.83615],[132.07816,33.83379],[132.07838,33.82736],[132.07045,33.8226],[132.06695,33.81884],[132.06142,33.81969],[132.05847,33.8144],[132.05957,33.80669],[132.0552,33.79908],[132.04963,33.79899],[132.04523,33.796],[132.03939,33.79624],[132.03373,33.79225],[132.03673,33.7868],[132.04319,33.78988],[132.0493,33.78453],[132.05771,33.78897],[132.05581,33.79566],[132.06053,33.80247],[132.06638,33.80442],[132.07266,33.80312],[132.0755,33.8138],[132.08568,33.8173],[132.08508,33.82095],[132.08853,33.82583],[132.09767,33.82654],[132.10419,33.82473],[132.11137,33.83167],[132.10859,33.83723],[132.10421,33.83663],[132.1024,33.8437],[132.09263,33.84537],[132.08358,33.84479],[132.07766,33.8489],[132.07818,33.85223],[132.07141,33.85841]]],[[[132.13335,33.86193],[132.12574,33.86203],[132.12252,33.85921],[132.11572,33.85921],[132.11826,33.84692],[132.11546,33.83367],[132.1183,33.83203],[132.12464,33.83513],[132.13994,33.8318],[132.1526,33.84317],[132.14937,33.8473],[132.13779,33.85345],[132.13335,33.86193]]],[[[131.97065,33.79799],[131.96264,33.79491],[131.96107,33.79086],[131.9627,33.78468],[131.95888,33.78079],[131.95167,33.78228],[131.94711,33.78075],[131.95041,33.77261],[131.9641,33.76855],[131.97444,33.77413],[131.97974,33.77447],[131.99353,33.77974],[131.99141,33.78608],[131.98675,33.78801],[131.97702,33.79634],[131.97065,33.79799]]],[[[132.15091,33.76389],[132.14273,33.74939],[132.14002,33.74719],[132.14039,33.73866],[132.14531,33.73685],[132.145,33.73081],[132.13287,33.72656],[132.12662,33.71941],[132.13354,33.71292],[132.14207,33.71862],[132.14927,33.72089],[132.15301,33.72745],[132.14901,33.73215],[132.14608,33.74022],[132.14924,33.75045],[132.14631,33.75444],[132.15152,33.76139],[132.15091,33.76389]]],[[[131.9342,33.79498],[131.93088,33.79398],[131.93169,33.78858],[131.93795,33.78699],[131.93936,33.79222],[131.9342,33.79498]]]]},"properties":{"pref":"山口県","county":"熊毛郡","city":"上関町","code5":"35341","code6":"353418"}},
{"type":"Feature","geometry":{"type":"MultiPolygon","coordinates":[[[[132.02513,33.90174],[132.03022,33.90691],[132.05295,33.91584],[132.05615,33.92081],[132.06304,33.9299],[132.06171,33.94232],[132.05842,33.9504],[132.06,33.95478],[132.05744,33.96128],[132.06408,33.96517],[132.06151,33.97856],[132.06082,33.98697],[132.06309,33.9899],[132.05549,33.98971],[132.05051,33.98519],[132.0357,33.98348],[132.03243,33.98606],[132.02198,33.98782],[132.01257,33.98294],[132.00836,33.97785],[132.01204,33.97632],[132.0046,33.97114],[131.99693,33.96817],[131.99772,33.96436],[131.99413,33.95964],[131.98377,33.95811],[131.98003,33.95128],[131.98403,33.94079],[132.003,33.92924],[132.00255,33.92599],[132.01184,33.92181],[132.016,33.91462],[132.02723,33.91282],[132.02513,33.90174]]],[[[132.05369,34.01204],[132.05328,34.00188],[132.06415,33.9968],[132.07088,34.01372],[132.07355,34.01691],[132.06723,34.02129],[132.06015,34.01866],[132.05904,34.01417],[132.05369,34.01204]]],[[[132.0439,33.90087],[132.04158,33.89581],[132.04701,33.89369],[132.04944,33.88708],[132.05409,33.88964],[132.04891,33.89895],[132.0439,33.90087]]]]},"properties":{"pref":"山口県","county":"熊毛郡","city":"田布施町","code5":"35343","code6":"353434"}},
{"type":"Feature","geometry":{"type":"MultiPolygon","coordinates":[[[[132.06,33.95478],[132.05842,33.9504],[132.06171,33.94232],[132.06304,33.9299],[132.05615,33.92081],[132.05676,33.92005],[132.05644,33.91585],[132.05497,33.91264],[132.04466,33.90957],[132.04816,33.90835],[132.05768,33.91015],[132.06045,33.90915],[132.07405,33.90544],[132.07721,33.90078],[132.07751,33.89306],[132.08768,33.89046],[132.0986,33.88282],[132.11,33.88073],[132.12001,33.87541],[132.12079,33.87095],[132.11572,33.85921],[132.12252,33.85921],[132.12574,33.86203],[132.13335,33.86193],[132.13461,33.86631],[132.13341,33.87452],[132.12377,33.87983],[132.12152,33.88327],[132.10984,33.89163],[132.10739,33.89977],[132.10328,33.90574],[132.09652,33.90857],[132.09465,33.91285],[132.10348,33.91673],[132.10762,33.92265],[132.1066,33.94005],[132.10513,33.94744],[132.10641,33.95126],[132.09656,33.95492],[132.09397,33.95876],[132.07985,33.95748],[132.07675,33.95546],[132.06,33.95478]]],[[[132.06254,33.88436],[132.05675,33.87679],[132.06119,33.87328],[132.06149,33.86696],[132.06768,33.86783],[132.06994,33.8708],[132.06625,33.87552],[132.06254,33.88436]]]]},"properties":{"pref":"山口県","county":"熊毛郡","city":"平生町","code5":"35344","code6":"353442"}},
{"type":"Feature","geometry":{"type":"Polygon","coordinates":[[[131.55778,34.60322],[131.55726,34.59946],[131.55095,34.59297],[131.55599,34.58827],[131.55478,34.57986],[131.54938,34.57314],[131.54134,34.56918],[131.539,34.56301],[131.53339,34.55942],[131.52987,34.56005],[131.52035,34.554],[131.51549,34.55262],[131.51451,34.54851],[131.50705,34.54149],[131.50405,34.53393],[131.49271,34.53136],[131.4891,34.53348],[131.48085,34.53157],[131.47773,34.5339],[131.46458,34.53217],[131.45791,34.52608],[131.45584,34.52042],[131.45172,34.51614],[131.45808,34.50743],[131.45844,34.50256],[131.46601,34.50061],[131.46727,34.49758],[131.46188,34.48585],[131.46942,34.48788],[131.47769,34.49228],[131.48262,34.48816],[131.48981,34.48839],[131.49374,34.48424],[131.50254,34.48307],[131.50608,34.4893],[131.51444,34.49117],[131.5109,34.49663],[131.52297,34.50536],[131.52967,34.50495],[131.53864,34.51605],[131.5468,34.51412],[131.54563,34.50668],[131.55019,34.50193],[131.55008,34.49675],[131.55502,34.49649],[131.55804,34.49103],[131.5618,34.48963],[131.56661,34.48107],[131.57417,34.48042],[131.58417,34.48191],[131.59492,34.48612],[131.59829,34.49401],[131.60263,34.49805],[131.6085,34.50011],[131.61423,34.4963],[131.62085,34.49967],[131.62243,34.5026],[131.62832,34.50308],[131.63185,34.50696],[131.64783,34.51366],[131.64355,34.51658],[131.64238,34.52203],[131.63613,34.52579],[131.63384,34.53182],[131.62579,34.52878],[131.61934,34.53103],[131.61994,34.53663],[131.61473,34.53982],[131.61316,34.54444],[131.60056,34.55065],[131.59571,34.55707],[131.59075,34.55706],[131.59128,34.56313],[131.59579,34.56707],[131.59524,34.5726],[131.59849,34.57482],[131.60064,34.58289],[131.59754,34.58755],[131.58481,34.59227],[131.58162,34.60273],[131.56414,34.6066],[131.55778,34.60322]]]},"properties":{"pref":"山口県","county":"阿武郡","city":"阿武町","code5":"35502","code6":"355020"}}
]}