{"type":"FeatureCollection", "features": [
{"type":"Feature","geometry":{"type":"MultiPolygon","coordinates":[[[[134.60743,34.10092],[134.60151,34.10265],[134.59622,34.11486],[134.59039,34.12304],[134.58571,34.12715],[134.57469,34.13036],[134.56548,34.12471],[134.55774,34.12197],[134.55583,34.11512],[134.5585,34.11341],[134.55653,34.10828],[134.55241,34.11026],[134.53972,34.11281],[134.53598,34.11805],[134.5336,34.12526],[134.5294,34.12467],[134.51832,34.12328],[134.50642,34.1184],[134.50506,34.10899],[134.48799,34.10663],[134.46988,34.11348],[134.45868,34.11095],[134.45926,34.1014],[134.45429,34.09915],[134.45263,34.09207],[134.45468,34.08867],[134.46245,34.08673],[134.46342,34.07801],[134.46732,34.07143],[134.46914,34.06208],[134.46113,34.06002],[134.45004,34.05481],[134.44418,34.05329],[134.43779,34.05433],[134.42637,34.05302],[134.42256,34.04815],[134.42929,34.03978],[134.42901,34.03138],[134.4268,34.02744],[134.43504,34.02071],[134.4419,34.01762],[134.44437,34.02093],[134.45028,34.02083],[134.45332,34.01448],[134.44958,34.00845],[134.46119,34.00635],[134.46637,34.00985],[134.46748,34.01568],[134.47235,34.01648],[134.47585,34.02081],[134.48222,34.02238],[134.48948,34.0203],[134.49478,34.01375],[134.49716,33.99517],[134.48686,33.98918],[134.48184,33.98286],[134.48216,33.97767],[134.4854,33.97555],[134.48657,33.96795],[134.49513,33.96989],[134.50025,33.96955],[134.5103,33.96207],[134.51866,33.96316],[134.52397,33.96016],[134.5326,33.95971],[134.53788,33.95531],[134.55287,33.96137],[134.55532,33.9596],[134.56695,33.96224],[134.5702,33.96413],[134.57225,33.97287],[134.56856,33.97485],[134.57233,33.97904],[134.56376,33.99183],[134.55665,33.99051],[134.55087,33.98709],[134.54696,33.98749],[134.54996,34.00246],[134.55722,34.00964],[134.55805,34.01306],[134.55583,34.02038],[134.56356,34.02311],[134.5649,34.02071],[134.57634,34.02129],[134.58092,34.02304],[134.58849,34.02284],[134.59559,34.01751],[134.60053,34.01872],[134.5985,34.02267],[134.58882,34.02798],[134.59002,34.03453],[134.5869,34.0352],[134.59099,34.04455],[134.58976,34.05054],[134.58562,34.05232],[134.59691,34.068],[134.59737,34.07274],[134.60299,34.08371],[134.60743,34.10092]]],[[[134.6,34.06831],[134.5971,34.06687],[134.59113,34.05569],[134.59761,34.05343],[134.60324,34.05577],[134.6066,34.06204],[134.6,34.06831]]]]},"properties":{"pref":"徳島県","city":"徳島市","code5":"36201","code6":"362018"}},
{"type":"Feature","geometry":{"type":"MultiPolygon","coordinates":[[[[134.61881,34.14118],[134.61624,34.14443],[134.62976,34.15976],[134.63776,34.17086],[134.64191,34.18],[134.63778,34.18155],[134.62877,34.18065],[134.62437,34.18075],[134.61113,34.19082],[134.59545,34.1953],[134.58645,34.20133],[134.58236,34.21035],[134.58452,34.21333],[134.58453,34.21333],[134.59048,34.2242],[134.58621,34.23237],[134.5889,34.23707],[134.5861,34.23985],[134.57076,34.23736],[134.56602,34.23269],[134.5685,34.22788],[134.57283,34.22691],[134.57227,34.22263],[134.56398,34.22468],[134.55941,34.22159],[134.54705,34.22369],[134.54142,34.22636],[134.53012,34.22655],[134.52617,34.22536],[134.51773,34.22626],[134.49654,34.2244],[134.48381,34.21879],[134.47531,34.21014],[134.46571,34.20791],[134.45322,34.20555],[134.44021,34.20785],[134.4407,34.19981],[134.43791,34.19391],[134.43889,34.19083],[134.45469,34.19252],[134.45479,34.1872],[134.4625,34.17738],[134.47852,34.17862],[134.48056,34.16986],[134.48431,34.16358],[134.48413,34.15588],[134.48675,34.14795],[134.49157,34.14806],[134.49905,34.143],[134.51037,34.14294],[134.5213,34.13491],[134.53,34.13095],[134.53783,34.13529],[134.54087,34.1399],[134.5525,34.14133],[134.5597,34.14378],[134.56425,34.15116],[134.57685,34.15538],[134.58394,34.15223],[134.58513,34.14888],[134.591,34.14639],[134.60083,34.14855],[134.61881,34.14118]]],[[[134.64366,34.23954],[134.63929,34.23802],[134.63643,34.23365],[134.62958,34.23123],[134.61768,34.23015],[134.61374,34.22465],[134.61463,34.21958],[134.6213,34.21757],[134.62226,34.21151],[134.61523,34.21435],[134.60806,34.21528],[134.60082,34.21095],[134.58894,34.21087],[134.58772,34.20731],[134.59108,34.20141],[134.61041,34.1946],[134.61514,34.19437],[134.62581,34.18728],[134.62735,34.20785],[134.63105,34.21708],[134.63786,34.22474],[134.63734,34.22934],[134.64318,34.23591],[134.64366,34.23954]]],[[[134.6084,34.23266],[134.61105,34.22954],[134.6174,34.23422],[134.61498,34.2411],[134.61793,34.24395],[134.61371,34.25052],[134.60503,34.25153],[134.60053,34.2463],[134.59331,34.2422],[134.59171,34.2365],[134.58783,34.23072],[134.5932,34.22586],[134.59026,34.21703],[134.59821,34.22133],[134.60445,34.22936],[134.60815,34.23246],[134.6084,34.23266]]]]},"properties":{"pref":"徳島県","city":"鳴門市","code5":"36202","code6":"362026"}},
{"type":"Feature","geometry":{"type":"Polygon","coordinates":[[[134.56695,33.96224],[134.57004,33.95279],[134.56976,33.94493],[134.5606,33.93966],[134.56584,33.93863],[134.5751,33.94422],[134.59824,33.94946],[134.60866,33.94938],[134.61187,33.95062],[134.61133,33.95683],[134.61544,33.9635],[134.6253,33.96862],[134.63524,33.96368],[134.64454,33.98223],[134.65208,33.98582],[134.65077,33.99074],[134.64542,34.00044],[134.64089,34.00634],[134.63265,34.01068],[134.62611,34.009],[134.6258,34.0035],[134.63131,33.99972],[134.62622,33.99212],[134.6259,33.99275],[134.62593,33.99275],[134.62238,33.99515],[134.61697,33.99175],[134.60937,33.99288],[134.60672,33.99609],[134.59992,33.99895],[134.59929,34.0037],[134.59175,34.00795],[134.5918,34.01602],[134.59836,34.01631],[134.60053,34.01872],[134.59559,34.01751],[134.58849,34.02284],[134.58092,34.02304],[134.57634,34.02129],[134.5649,34.02071],[134.56356,34.02311],[134.55583,34.02038],[134.55805,34.01306],[134.55722,34.00964],[134.54996,34.00246],[134.54696,33.98749],[134.55087,33.98709],[134.55665,33.99051],[134.56376,33.99183],[134.57233,33.97904],[134.56856,33.97485],[134.57225,33.97287],[134.5702,33.96413],[134.56695,33.96224]]]},"properties":{"pref":"徳島県","city":"小松島市","code5":"36203","code6":"362034"}},
{"type":"Feature","geometry":{"type":"MultiPolygon","coordinates":[[[[134.5606,33.93966],[134.55786,33.93346],[134.54331,33.93115],[134.53627,33.92823],[134.5317,33.92394],[134.53083,33.91798],[134.51473,33.91397],[134.504,33.90793],[134.49855,33.91086],[134.49255,33.91087],[134.48416,33.90619],[134.48023,33.90218],[134.47521,33.90124],[134.47406,33.89697],[134.46857,33.89243],[134.469,33.88581],[134.47353,33.88157],[134.46726,33.87147],[134.46787,33.86986],[134.47864,33.87096],[134.48885,33.86871],[134.49237,33.87205],[134.49711,33.8714],[134.4973,33.86567],[134.52112,33.8742],[134.5406,33.87323],[134.54312,33.8701],[134.54887,33.86847],[134.5545,33.86934],[134.55654,33.86382],[134.55628,33.85443],[134.54611,33.85228],[134.53954,33.85238],[134.53067,33.84713],[134.52505,33.84228],[134.52362,33.83412],[134.51907,33.82964],[134.51497,33.82893],[134.51008,33.82294],[134.51095,33.81945],[134.50782,33.81299],[134.51179,33.80648],[134.52225,33.80795],[134.52815,33.80408],[134.53144,33.80301],[134.54874,33.80605],[134.56197,33.79354],[134.57077,33.79315],[134.57738,33.7863],[134.58819,33.78588],[134.59643,33.7896],[134.60559,33.78828],[134.61017,33.78925],[134.6151,33.79514],[134.62303,33.79977],[134.62683,33.7992],[134.64472,33.80498],[134.65086,33.8054],[134.65481,33.80833],[134.66225,33.80949],[134.66461,33.8136],[134.67477,33.8164],[134.67995,33.8067],[134.67894,33.80448],[134.68897,33.80551],[134.69536,33.8125],[134.71915,33.82024],[134.72169,33.82385],[134.72892,33.82359],[134.73723,33.8294],[134.74763,33.83203],[134.74197,33.84212],[134.73026,33.83855],[134.72115,33.83226],[134.70082,33.83619],[134.69816,33.83332],[134.68729,33.83246],[134.67975,33.83049],[134.67939,33.83436],[134.68802,33.83895],[134.69765,33.84202],[134.70016,33.84129],[134.71488,33.84432],[134.71857,33.84755],[134.7078,33.85057],[134.69249,33.8482],[134.69034,33.85164],[134.67945,33.84984],[134.67052,33.84513],[134.66717,33.84825],[134.65778,33.84873],[134.65368,33.84463],[134.64285,33.84302],[134.63932,33.8455],[134.64616,33.85016],[134.64407,33.85735],[134.64496,33.86535],[134.64111,33.86456],[134.63866,33.85921],[134.63119,33.85673],[134.62972,33.8608],[134.63574,33.86874],[134.64274,33.87047],[134.64535,33.87463],[134.65004,33.87073],[134.6562,33.8724],[134.66077,33.87584],[134.65306,33.88117],[134.66123,33.88152],[134.66737,33.87926],[134.66894,33.88476],[134.6756,33.88594],[134.6841,33.89215],[134.68847,33.90103],[134.69589,33.90355],[134.70067,33.91323],[134.69957,33.91808],[134.70563,33.92594],[134.69598,33.95172],[134.69313,33.9517],[134.68615,33.95729],[134.68117,33.95936],[134.67073,33.96108],[134.66494,33.96508],[134.65768,33.97538],[134.65208,33.98582],[134.64454,33.98223],[134.63524,33.96368],[134.6253,33.96862],[134.61544,33.9635],[134.61133,33.95683],[134.61187,33.95062],[134.60866,33.94938],[134.59824,33.94946],[134.5751,33.94422],[134.56584,33.93863],[134.5606,33.93966]]],[[[134.65673,33.86751],[134.64819,33.86388],[134.64575,33.85879],[134.64937,33.85403],[134.65447,33.85368],[134.66153,33.86316],[134.65673,33.86751]]],[[[134.81969,33.85771],[134.80861,33.84763],[134.80615,33.843],[134.81182,33.84037],[134.8198,33.85032],[134.81969,33.85771]]],[[[134.67976,33.86968],[134.67243,33.86258],[134.67728,33.86161],[134.67976,33.86968]]],[[[134.74154,33.85178],[134.73835,33.85158],[134.7342,33.85033],[134.72896,33.8481],[134.73687,33.84835],[134.74154,33.85178]]]]},"properties":{"pref":"徳島県","city":"阿南市","code5":"36204","code6":"362042"}},
{"type":"Feature","geometry":{"type":"Polygon","coordinates":[[[134.39738,34.08723],[134.39585,34.09246],[134.38182,34.088],[134.37626,34.08713],[134.33376,34.08417],[134.33189,34.07915],[134.33409,34.07423],[134.32276,34.06939],[134.313,34.06832],[134.31063,34.0709],[134.2952,34.06863],[134.28758,34.06982],[134.23739,34.06933],[134.22541,34.06626],[134.1939,34.06486],[134.18632,34.06355],[134.1913,34.05842],[134.1899,34.05219],[134.19842,34.03999],[134.19784,34.02973],[134.18277,34.01616],[134.18933,34.01271],[134.18677,34.00664],[134.1978,33.99933],[134.19935,33.98847],[134.20416,33.98267],[134.22489,33.97882],[134.2291,33.98027],[134.23806,33.97971],[134.25142,33.98052],[134.25635,33.98618],[134.26913,33.98907],[134.2748,33.99284],[134.28268,33.99129],[134.28671,33.99421],[134.28864,34.00029],[134.29559,34.00247],[134.29893,34.00648],[134.30876,34.00538],[134.31725,34.0064],[134.32326,34.0087],[134.33001,34.0134],[134.33072,34.01817],[134.33422,34.02052],[134.33492,34.03005],[134.34293,34.0314],[134.35452,34.0395],[134.36086,34.03261],[134.36679,34.02909],[134.37231,34.03472],[134.3725,34.03915],[134.38513,34.04469],[134.39435,34.05289],[134.40327,34.05],[134.40404,34.05235],[134.40274,34.06596],[134.39738,34.08723]]]},"properties":{"pref":"徳島県","city":"吉野川市","code5":"36205","code6":"362051"}},
{"type":"Feature","geometry":{"type":"Polygon","coordinates":[[[134.39585,34.09246],[134.39415,34.10416],[134.39813,34.1037],[134.40161,34.10897],[134.39892,34.11629],[134.38634,34.1138],[134.38458,34.11831],[134.37952,34.12364],[134.37788,34.12995],[134.38313,34.13853],[134.3753,34.14817],[134.36915,34.15146],[134.36786,34.15562],[134.3705,34.16445],[134.37566,34.17179],[134.36869,34.17826],[134.35799,34.18465],[134.34806,34.18387],[134.34419,34.17238],[134.33407,34.17554],[134.32831,34.17317],[134.31445,34.17722],[134.30807,34.17076],[134.30024,34.17028],[134.29609,34.17276],[134.29223,34.17914],[134.28716,34.18007],[134.27715,34.17648],[134.27344,34.18113],[134.26026,34.18356],[134.25658,34.18095],[134.24743,34.17873],[134.23703,34.18045],[134.22065,34.17986],[134.21601,34.17638],[134.20873,34.17473],[134.22079,34.16396],[134.22139,34.15488],[134.21718,34.15163],[134.21746,34.14038],[134.21112,34.13333],[134.2092,34.1154],[134.20237,34.10832],[134.19807,34.10606],[134.1963,34.09939],[134.19125,34.09377],[134.18296,34.09011],[134.17879,34.08218],[134.18193,34.07177],[134.18483,34.06961],[134.18632,34.06355],[134.1939,34.06486],[134.22541,34.06626],[134.23739,34.06933],[134.28758,34.06982],[134.2952,34.06863],[134.31063,34.0709],[134.313,34.06832],[134.32276,34.06939],[134.33409,34.07423],[134.33189,34.07915],[134.33376,34.08417],[134.37626,34.08713],[134.38182,34.088],[134.39585,34.09246]]]},"properties":{"pref":"徳島県","city":"阿波市","code5":"36206","code6":"362069"}},
{"type":"Feature","geometry":{"type":"Polygon","coordinates":[[[134.18632,34.06355],[134.18483,34.06961],[134.18193,34.07177],[134.17879,34.08218],[134.18296,34.09011],[134.19125,34.09377],[134.1963,34.09939],[134.19807,34.10606],[134.20237,34.10832],[134.2092,34.1154],[134.21112,34.13333],[134.21746,34.14038],[134.21718,34.15163],[134.22139,34.15488],[134.22079,34.16396],[134.20873,34.17473],[134.2043,34.17269],[134.19829,34.17535],[134.19506,34.17187],[134.18531,34.17426],[134.1731,34.17579],[134.16851,34.17447],[134.16324,34.16978],[134.15544,34.16675],[134.14574,34.16453],[134.1438,34.15865],[134.13526,34.15154],[134.13751,34.14728],[134.13771,34.13803],[134.13931,34.13408],[134.13268,34.12956],[134.13117,34.12537],[134.12233,34.11879],[134.10597,34.11713],[134.10298,34.11501],[134.09448,34.11459],[134.08157,34.12129],[134.07193,34.11548],[134.07092,34.11271],[134.06135,34.11103],[134.05833,34.1152],[134.04988,34.11742],[134.04223,34.11032],[134.04004,34.10086],[134.03125,34.09739],[134.02561,34.09189],[134.02779,34.08743],[134.02178,34.08447],[134.01043,34.08677],[134.00219,34.08087],[133.99963,34.07479],[133.99854,34.06846],[134.00064,34.06515],[134.00103,34.05815],[133.99892,34.04501],[134.00006,34.03732],[134.00868,34.03753],[134.01555,34.03922],[134.02132,34.0442],[134.02884,34.04467],[134.04315,34.04296],[134.07098,34.04725],[134.0743,34.052],[134.08812,34.05803],[134.08629,34.05348],[134.09299,34.05374],[134.09531,34.0511],[134.09309,34.04507],[134.09896,34.03769],[134.10712,34.03199],[134.11203,34.03053],[134.11443,34.01859],[134.11889,34.01689],[134.1164,34.00365],[134.10929,33.99734],[134.10864,33.99245],[134.11195,33.98702],[134.10795,33.97967],[134.10832,33.96636],[134.10153,33.96107],[134.09807,33.95635],[134.09889,33.9494],[134.10504,33.94244],[134.10484,33.93648],[134.10058,33.9287],[134.10018,33.92384],[134.10766,33.92096],[134.12559,33.9207],[134.12707,33.91339],[134.12407,33.91108],[134.12563,33.90045],[134.1217,33.8895],[134.11631,33.88684],[134.11018,33.8867],[134.09907,33.87837],[134.09426,33.87997],[134.08896,33.87826],[134.08993,33.87423],[134.09071,33.86548],[134.09598,33.85498],[134.11052,33.85275],[134.11201,33.85549],[134.12519,33.85748],[134.1352,33.86555],[134.13986,33.86566],[134.14809,33.8694],[134.15504,33.8658],[134.16474,33.86567],[134.17276,33.87002],[134.17723,33.87764],[134.19046,33.88539],[134.19781,33.885],[134.20622,33.88085],[134.2114,33.88525],[134.22177,33.88906],[134.23146,33.88871],[134.23904,33.89169],[134.23677,33.90179],[134.23144,33.90794],[134.22793,33.90679],[134.22126,33.90932],[134.22064,33.91808],[134.22476,33.92738],[134.23059,33.93339],[134.22697,33.94972],[134.23415,33.95515],[134.24461,33.95785],[134.24702,33.96727],[134.25644,33.97512],[134.25142,33.98052],[134.23806,33.97971],[134.2291,33.98027],[134.22489,33.97882],[134.20416,33.98267],[134.19935,33.98847],[134.1978,33.99933],[134.18677,34.00664],[134.18933,34.01271],[134.18277,34.01616],[134.19784,34.02973],[134.19842,34.03999],[134.1899,34.05219],[134.1913,34.05842],[134.18632,34.06355]]]},"properties":{"pref":"徳島県","city":"美馬市","code5":"36207","code6":"362077"}},
{"type":"Feature","geometry":{"type":"MultiPolygon","coordinates":[[[[134.08993,33.87423],[134.07678,33.87123],[134.06534,33.87191],[134.0626,33.86989],[134.05334,33.87221],[134.04823,33.87529],[134.04381,33.88105],[134.04157,33.8871],[134.04745,33.89506],[134.03416,33.90068],[134.02688,33.89838],[134.01598,33.90076],[134.0103,33.90543],[134.00281,33.90649],[134.00149,33.9143],[134.00382,33.91755],[133.99271,33.92325],[133.98225,33.92351],[133.97496,33.9252],[133.96952,33.93133],[133.96644,33.93901],[133.97705,33.94592],[133.97223,33.96024],[133.9664,33.96165],[133.95906,33.96098],[133.95445,33.96389],[133.95526,33.97092],[133.95027,33.97413],[133.93401,33.97513],[133.92889,33.97372],[133.92122,33.97464],[133.91807,33.97692],[133.91742,33.99308],[133.91205,34.00027],[133.90622,34.00506],[133.90608,34.01018],[133.90195,34.01412],[133.90035,34.01926],[133.89629,34.02255],[133.8952,34.02946],[133.89177,34.03541],[133.88145,34.03148],[133.87376,34.03426],[133.86642,34.0342],[133.85728,34.03635],[133.85384,34.03522],[133.85391,34.0452],[133.85085,34.0485],[133.84508,34.04919],[133.84339,34.05589],[133.83277,34.06136],[133.83235,34.06417],[133.82606,34.07151],[133.82015,34.07402],[133.81033,34.07259],[133.80005,34.06955],[133.79585,34.07036],[133.7853,34.07981],[133.77796,34.07893],[133.77504,34.07426],[133.7634,34.06984],[133.76338,34.06681],[133.75648,34.05929],[133.7495,34.05427],[133.74045,34.05019],[133.73299,34.0449],[133.72899,34.04416],[133.72307,34.03646],[133.72132,34.02229],[133.70876,34.01535],[133.70027,34.0178],[133.68851,34.01238],[133.67955,34.01252],[133.68574,34.00366],[133.67648,33.99249],[133.67509,33.98368],[133.68063,33.98417],[133.68413,33.97639],[133.68032,33.97022],[133.69236,33.96246],[133.68713,33.95533],[133.69263,33.94784],[133.69257,33.94399],[133.68644,33.93898],[133.68176,33.93808],[133.67648,33.93294],[133.67568,33.92638],[133.68563,33.92572],[133.68851,33.92163],[133.68795,33.91626],[133.68214,33.91044],[133.67758,33.90955],[133.67451,33.90319],[133.67747,33.89879],[133.67795,33.89308],[133.66192,33.88578],[133.66075,33.88181],[133.66291,33.87035],[133.66641,33.86601],[133.67177,33.86499],[133.67769,33.85854],[133.68081,33.85951],[133.6873,33.85653],[133.69486,33.85628],[133.70174,33.84979],[133.7076,33.85168],[133.71947,33.84928],[133.72895,33.85108],[133.74018,33.84778],[133.74082,33.84287],[133.74824,33.83677],[133.75623,33.83643],[133.76684,33.84028],[133.77328,33.83988],[133.77577,33.8423],[133.78671,33.84084],[133.78858,33.83624],[133.80902,33.83803],[133.81777,33.83732],[133.82849,33.84475],[133.83869,33.84517],[133.84391,33.83813],[133.85352,33.8346],[133.85687,33.82791],[133.86637,33.81922],[133.8725,33.81016],[133.87351,33.80592],[133.88267,33.80535],[133.88494,33.80341],[133.89597,33.80238],[133.90106,33.79438],[133.908,33.79523],[133.91278,33.7914],[133.9193,33.79763],[133.92488,33.80061],[133.94126,33.79916],[133.94747,33.80374],[133.95273,33.81549],[133.95307,33.82366],[133.9511,33.82869],[133.95978,33.83466],[133.97909,33.83749],[133.98312,33.8408],[133.98715,33.83667],[133.98995,33.82858],[133.99593,33.82193],[134.01233,33.82179],[134.02341,33.82469],[134.02671,33.82744],[134.03283,33.8284],[134.03977,33.83503],[134.04949,33.83428],[134.05418,33.837],[134.06122,33.83803],[134.06504,33.84097],[134.07848,33.84598],[134.08537,33.84397],[134.08859,33.84878],[134.09598,33.85498],[134.09071,33.86548],[134.08993,33.87423]]],[[[133.99963,34.07479],[133.99393,34.07262],[133.98875,34.07487],[133.97694,34.07576],[133.97305,34.07302],[133.96905,34.08125],[133.95912,34.08249],[133.95648,34.0881],[133.94389,34.0945],[133.94443,34.10175],[133.93764,34.10818],[133.93977,34.11489],[133.93197,34.11601],[133.9223,34.11441],[133.91156,34.10441],[133.90309,34.10007],[133.8989,34.09665],[133.90337,34.08664],[133.91221,34.07955],[133.91268,34.07674],[133.92132,34.06832],[133.92396,34.06292],[133.92497,34.05341],[133.92362,34.05004],[133.93505,34.04874],[133.94845,34.0431],[133.95951,34.04112],[133.96913,34.03735],[133.97945,34.04118],[133.987,34.04029],[133.99596,34.03643],[133.9994,34.03718],[134.00006,34.03732],[133.99892,34.04501],[134.00103,34.05815],[134.00064,34.06515],[133.99854,34.06846],[133.99963,34.07479]]]]},"properties":{"pref":"徳島県","city":"三好市","code5":"36208","code6":"362085"}},
{"type":"Feature","geometry":{"type":"Polygon","coordinates":[[[134.48657,33.96795],[134.4821,33.96474],[134.47704,33.96591],[134.46808,33.95211],[134.46436,33.95128],[134.45225,33.9531],[134.4464,33.9556],[134.43769,33.95381],[134.43159,33.95726],[134.43011,33.94632],[134.43219,33.94085],[134.42949,33.9348],[134.43667,33.92831],[134.45527,33.92592],[134.45215,33.91999],[134.45341,33.90908],[134.45162,33.90477],[134.4524,33.89887],[134.44403,33.88977],[134.44838,33.88123],[134.44264,33.87553],[134.43564,33.87247],[134.43502,33.86464],[134.42913,33.85883],[134.43209,33.85583],[134.43789,33.85975],[134.45064,33.86233],[134.46261,33.86617],[134.46787,33.86986],[134.46726,33.87147],[134.47353,33.88157],[134.469,33.88581],[134.46857,33.89243],[134.47406,33.89697],[134.47521,33.90124],[134.48023,33.90218],[134.48416,33.90619],[134.49255,33.91087],[134.49855,33.91086],[134.504,33.90793],[134.51473,33.91397],[134.53083,33.91798],[134.5317,33.92394],[134.53627,33.92823],[134.54331,33.93115],[134.55786,33.93346],[134.5606,33.93966],[134.56976,33.94493],[134.57004,33.95279],[134.56695,33.96224],[134.55532,33.9596],[134.55287,33.96137],[134.53788,33.95531],[134.5326,33.95971],[134.52397,33.96016],[134.51866,33.96316],[134.5103,33.96207],[134.50025,33.96955],[134.49513,33.96989],[134.48657,33.96795]]]},"properties":{"pref":"徳島県","county":"勝浦郡","city":"勝浦町","code5":"36301","code6":"363014"}},
{"type":"Feature","geometry":{"type":"Polygon","coordinates":[[[134.43159,33.95726],[134.40085,33.9513],[134.40106,33.94545],[134.38916,33.94081],[134.3835,33.94235],[134.37787,33.9405],[134.37362,33.93643],[134.36821,33.93692],[134.36555,33.93344],[134.35271,33.93243],[134.34069,33.92498],[134.32649,33.93446],[134.31413,33.92611],[134.30659,33.92809],[134.30364,33.92597],[134.29848,33.91299],[134.29873,33.91038],[134.30803,33.9064],[134.31255,33.89945],[134.32527,33.88674],[134.32599,33.88265],[134.32208,33.87779],[134.3262,33.87453],[134.32701,33.86381],[134.33577,33.86469],[134.34183,33.85953],[134.35231,33.85673],[134.35087,33.85175],[134.36061,33.84857],[134.37349,33.85528],[134.37797,33.85612],[134.38079,33.85269],[134.38706,33.8512],[134.39307,33.85422],[134.40173,33.85603],[134.40673,33.85521],[134.4147,33.86001],[134.42101,33.85763],[134.42913,33.85883],[134.43502,33.86464],[134.43564,33.87247],[134.44264,33.87553],[134.44838,33.88123],[134.44403,33.88977],[134.4524,33.89887],[134.45162,33.90477],[134.45341,33.90908],[134.45215,33.91999],[134.45527,33.92592],[134.43667,33.92831],[134.42949,33.9348],[134.43219,33.94085],[134.43011,33.94632],[134.43159,33.95726]]]},"properties":{"pref":"徳島県","county":"勝浦郡","city":"上勝町","code5":"36302","code6":"363022"}},
{"type":"Feature","geometry":{"type":"Polygon","coordinates":[[[134.44958,34.00845],[134.44227,34.00992],[134.43717,34.00714],[134.43748,33.99817],[134.43027,33.99437],[134.42703,33.99651],[134.41805,33.99065],[134.41701,33.9869],[134.41134,33.98509],[134.41122,33.97658],[134.40623,33.97354],[134.40491,33.9617],[134.40057,33.95999],[134.39917,33.95508],[134.40085,33.9513],[134.43159,33.95726],[134.43769,33.95381],[134.4464,33.9556],[134.45225,33.9531],[134.46436,33.95128],[134.46808,33.95211],[134.47704,33.96591],[134.4821,33.96474],[134.48657,33.96795],[134.4854,33.97555],[134.48216,33.97767],[134.48184,33.98286],[134.48686,33.98918],[134.49716,33.99517],[134.49478,34.01375],[134.48948,34.0203],[134.48222,34.02238],[134.47585,34.02081],[134.47235,34.01648],[134.46748,34.01568],[134.46637,34.00985],[134.46119,34.00635],[134.44958,34.00845]]]},"properties":{"pref":"徳島県","county":"名東郡","city":"佐那河内村","code5":"36321","code6":"363219"}},
{"type":"Feature","geometry":{"type":"Polygon","coordinates":[[[134.45868,34.11095],[134.45846,34.11243],[134.44965,34.10415],[134.4466,34.10559],[134.42399,34.10225],[134.41127,34.09454],[134.39738,34.08723],[134.40274,34.06596],[134.40404,34.05235],[134.41082,34.05689],[134.42199,34.0563],[134.42637,34.05302],[134.43779,34.05433],[134.44418,34.05329],[134.45004,34.05481],[134.46113,34.06002],[134.46914,34.06208],[134.46732,34.07143],[134.46342,34.07801],[134.46245,34.08673],[134.45468,34.08867],[134.45263,34.09207],[134.45429,34.09915],[134.45926,34.1014],[134.45868,34.11095]]]},"properties":{"pref":"徳島県","county":"名西郡","city":"石井町","code5":"36341","code6":"363413"}},
{"type":"Feature","geometry":{"type":"Polygon","coordinates":[[[134.42637,34.05302],[134.42199,34.0563],[134.41082,34.05689],[134.40404,34.05235],[134.40327,34.05],[134.39435,34.05289],[134.38513,34.04469],[134.3725,34.03915],[134.37231,34.03472],[134.36679,34.02909],[134.36086,34.03261],[134.35452,34.0395],[134.34293,34.0314],[134.33492,34.03005],[134.33422,34.02052],[134.33072,34.01817],[134.33001,34.0134],[134.32326,34.0087],[134.31725,34.0064],[134.30876,34.00538],[134.29893,34.00648],[134.29559,34.00247],[134.28864,34.00029],[134.28671,33.99421],[134.28268,33.99129],[134.2748,33.99284],[134.26913,33.98907],[134.25635,33.98618],[134.25142,33.98052],[134.25644,33.97512],[134.24702,33.96727],[134.24461,33.95785],[134.23415,33.95515],[134.22697,33.94972],[134.23059,33.93339],[134.22476,33.92738],[134.22064,33.91808],[134.22126,33.90932],[134.22793,33.90679],[134.23144,33.90794],[134.24896,33.91535],[134.26213,33.91766],[134.27257,33.91723],[134.27798,33.91504],[134.2863,33.91516],[134.29039,33.90679],[134.29435,33.90666],[134.29873,33.91038],[134.29848,33.91299],[134.30364,33.92597],[134.30659,33.92809],[134.31413,33.92611],[134.32649,33.93446],[134.34069,33.92498],[134.35271,33.93243],[134.36555,33.93344],[134.36821,33.93692],[134.37362,33.93643],[134.37787,33.9405],[134.3835,33.94235],[134.38916,33.94081],[134.40106,33.94545],[134.40085,33.9513],[134.39917,33.95508],[134.40057,33.95999],[134.40491,33.9617],[134.40623,33.97354],[134.41122,33.97658],[134.41134,33.98509],[134.41701,33.9869],[134.41805,33.99065],[134.42703,33.99651],[134.43027,33.99437],[134.43748,33.99817],[134.43717,34.00714],[134.44227,34.00992],[134.44958,34.00845],[134.45332,34.01448],[134.45028,34.02083],[134.44437,34.02093],[134.4419,34.01762],[134.43504,34.02071],[134.4268,34.02744],[134.42901,34.03138],[134.42929,34.03978],[134.42256,34.04815],[134.42637,34.05302]]]},"properties":{"pref":"徳島県","county":"名西郡","city":"神山町","code5":"36342","code6":"363421"}},
{"type":"Feature","geometry":{"type":"Polygon","coordinates":[[[134.46787,33.86986],[134.46261,33.86617],[134.45064,33.86233],[134.43789,33.85975],[134.43209,33.85583],[134.42913,33.85883],[134.42101,33.85763],[134.4147,33.86001],[134.40673,33.85521],[134.40173,33.85603],[134.39307,33.85422],[134.38706,33.8512],[134.38079,33.85269],[134.37797,33.85612],[134.37349,33.85528],[134.36061,33.84857],[134.35087,33.85175],[134.35231,33.85673],[134.34183,33.85953],[134.33577,33.86469],[134.32701,33.86381],[134.3262,33.87453],[134.32208,33.87779],[134.32599,33.88265],[134.32527,33.88674],[134.31255,33.89945],[134.30803,33.9064],[134.29873,33.91038],[134.29435,33.90666],[134.29039,33.90679],[134.2863,33.91516],[134.27798,33.91504],[134.27257,33.91723],[134.26213,33.91766],[134.24896,33.91535],[134.23144,33.90794],[134.23677,33.90179],[134.23904,33.89169],[134.23146,33.88871],[134.22177,33.88906],[134.2114,33.88525],[134.20622,33.88085],[134.19781,33.885],[134.19046,33.88539],[134.17723,33.87764],[134.17276,33.87002],[134.16474,33.86567],[134.15504,33.8658],[134.14809,33.8694],[134.13986,33.86566],[134.1352,33.86555],[134.12519,33.85748],[134.11201,33.85549],[134.11052,33.85275],[134.09598,33.85498],[134.08859,33.84878],[134.08537,33.84397],[134.07848,33.84598],[134.06504,33.84097],[134.06122,33.83803],[134.05418,33.837],[134.04949,33.83428],[134.03977,33.83503],[134.03283,33.8284],[134.03688,33.82034],[134.03698,33.81498],[134.03331,33.80928],[134.04074,33.80189],[134.04658,33.79907],[134.04587,33.79],[134.05027,33.78564],[134.05532,33.78469],[134.05879,33.77667],[134.05895,33.761],[134.0561,33.75195],[134.06149,33.74044],[134.06178,33.73522],[134.06619,33.73407],[134.06842,33.72835],[134.06504,33.71945],[134.0701,33.7112],[134.06642,33.70951],[134.06352,33.70014],[134.0566,33.69391],[134.05806,33.69103],[134.06633,33.68862],[134.0814,33.69047],[134.0999,33.69462],[134.10602,33.69359],[134.11199,33.69566],[134.12626,33.69589],[134.13338,33.69396],[134.13578,33.69093],[134.14855,33.68571],[134.16097,33.68684],[134.16385,33.68812],[134.16274,33.69663],[134.17067,33.69933],[134.17379,33.70341],[134.19028,33.71081],[134.19762,33.71263],[134.20165,33.71631],[134.2089,33.71823],[134.21106,33.7217],[134.23016,33.72145],[134.23349,33.71931],[134.24707,33.724],[134.25314,33.71898],[134.26361,33.7207],[134.27122,33.7276],[134.28226,33.73102],[134.28838,33.7275],[134.2946,33.73051],[134.3054,33.73224],[134.31025,33.7308],[134.32034,33.73251],[134.32954,33.7277],[134.33654,33.73043],[134.34136,33.72754],[134.35564,33.7284],[134.3624,33.73093],[134.36842,33.7264],[134.39458,33.72437],[134.39988,33.72909],[134.40194,33.73983],[134.41305,33.74162],[134.42246,33.75275],[134.42096,33.75714],[134.42728,33.76194],[134.43294,33.76363],[134.43794,33.76241],[134.44973,33.76629],[134.4464,33.7724],[134.45317,33.77509],[134.45982,33.77529],[134.46563,33.77945],[134.47516,33.77787],[134.48059,33.78211],[134.48031,33.7866],[134.49077,33.79419],[134.4993,33.79236],[134.52665,33.80092],[134.52815,33.80408],[134.52225,33.80795],[134.51179,33.80648],[134.50782,33.81299],[134.51095,33.81945],[134.51008,33.82294],[134.51497,33.82893],[134.51907,33.82964],[134.52362,33.83412],[134.52505,33.84228],[134.53067,33.84713],[134.53954,33.85238],[134.54611,33.85228],[134.55628,33.85443],[134.55654,33.86382],[134.5545,33.86934],[134.54887,33.86847],[134.54312,33.8701],[134.5406,33.87323],[134.52112,33.8742],[134.4973,33.86567],[134.49711,33.8714],[134.49237,33.87205],[134.48885,33.86871],[134.47864,33.87096],[134.46787,33.86986]]]},"properties":{"pref":"徳島県","county":"那賀郡","city":"那賀町","code5":"36368","code6":"363685"}},
{"type":"Feature","geometry":{"type":"MultiPolygon","coordinates":[[[[134.4724,33.6818],[134.47545,33.68538],[134.47446,33.69433],[134.46478,33.69416],[134.46005,33.69811],[134.45641,33.70489],[134.45749,33.71022],[134.45483,33.7132],[134.45516,33.7188],[134.44865,33.72345],[134.44291,33.72067],[134.43468,33.71937],[134.4272,33.71532],[134.42114,33.71861],[134.41233,33.71971],[134.40225,33.71799],[134.39272,33.71837],[134.3937,33.71331],[134.38577,33.71208],[134.36524,33.70429],[134.36495,33.6989],[134.36056,33.69599],[134.36216,33.68942],[134.36573,33.68258],[134.36234,33.67815],[134.366,33.67475],[134.37312,33.67228],[134.36953,33.66895],[134.37442,33.66557],[134.37995,33.65778],[134.38723,33.65393],[134.38986,33.65062],[134.38987,33.65061],[134.38991,33.65056],[134.38994,33.65056],[134.39002,33.65058],[134.39005,33.6506],[134.39005,33.65065],[134.39144,33.65021],[134.39154,33.6502],[134.3919,33.65031],[134.3919,33.6505],[134.39191,33.65051],[134.3935,33.65051],[134.3934,33.65045],[134.39455,33.65078],[134.39495,33.65063],[134.39497,33.65062],[134.39508,33.65048],[134.39523,33.65032],[134.39523,33.65031],[134.39525,33.65029],[134.39528,33.65021],[134.39537,33.65012],[134.39541,33.65012],[134.39542,33.65012],[134.39548,33.65016],[134.39566,33.65022],[134.39616,33.65036],[134.3962,33.6504],[134.3964,33.65042],[134.39641,33.65041],[134.39653,33.65033],[134.39668,33.65035],[134.39663,33.65065],[134.3967,33.65079],[134.39669,33.65082],[134.39665,33.65082],[134.39689,33.65114],[134.39687,33.65116],[134.39667,33.65116],[134.39701,33.65134],[134.39677,33.65141],[134.39676,33.65142],[134.39684,33.65146],[134.39645,33.65155],[134.39661,33.6522],[134.39661,33.65227],[134.39662,33.65227],[134.39671,33.65233],[134.39687,33.65264],[134.39684,33.65266],[134.39679,33.65321],[134.39679,33.65323],[134.39678,33.65325],[134.39652,33.65327],[134.39647,33.65331],[134.39646,33.65332],[134.39646,33.65334],[134.39645,33.65333],[134.39644,33.65335],[134.39637,33.6534],[134.396,33.65352],[134.39536,33.65407],[134.3953,33.65413],[134.39615,33.65612],[134.39628,33.65627],[134.39667,33.65641],[134.39682,33.65644],[134.39695,33.65649],[134.39703,33.65681],[134.39794,33.65709],[134.39809,33.65711],[134.39848,33.65682],[134.39854,33.65682],[134.39855,33.65681],[134.39873,33.65674],[134.39874,33.65674],[134.39878,33.65674],[134.3991,33.65621],[134.39914,33.65611],[134.39914,33.65607],[134.39928,33.65605],[134.39929,33.65604],[134.39946,33.65592],[134.39945,33.65591],[134.39942,33.65589],[134.39952,33.65584],[134.39955,33.65582],[134.39973,33.65569],[134.39964,33.65546],[134.39953,33.65526],[134.39964,33.65524],[134.39962,33.65522],[134.39985,33.65529],[134.40031,33.65562],[134.40044,33.65567],[134.40044,33.65569],[134.40044,33.65573],[134.40036,33.65571],[134.40035,33.6557],[134.4002,33.65567],[134.40019,33.65567],[134.40018,33.65567],[134.40005,33.65572],[134.40004,33.65573],[134.4,33.65572],[134.39999,33.65573],[134.40009,33.65577],[134.40008,33.65578],[134.4002,33.65581],[134.40019,33.65582],[134.40011,33.65582],[134.40012,33.65584],[134.40013,33.65583],[134.40023,33.65585],[134.40022,33.65587],[134.40019,33.65589],[134.4002,33.6559],[134.40002,33.6559],[134.40011,33.65594],[134.4001,33.65596],[134.40021,33.65604],[134.40029,33.65607],[134.40017,33.65606],[134.40027,33.65618],[134.40025,33.65619],[134.40027,33.65623],[134.40026,33.65624],[134.40055,33.65653],[134.40056,33.65654],[134.40053,33.65656],[134.40052,33.65655],[134.40051,33.65656],[134.40046,33.65659],[134.40056,33.65671],[134.4005,33.65716],[134.40051,33.65717],[134.40051,33.6572],[134.4005,33.65721],[134.40046,33.65726],[134.40045,33.65746],[134.40045,33.65747],[134.40051,33.65756],[134.40136,33.65832],[134.4016,33.65838],[134.40166,33.65858],[134.40173,33.65867],[134.40177,33.65871],[134.40202,33.65883],[134.40186,33.65899],[134.40564,33.65853],[134.40567,33.65851],[134.40565,33.6585],[134.40567,33.65849],[134.40568,33.65847],[134.40563,33.6584],[134.40563,33.65807],[134.4056,33.65806],[134.40705,33.65746],[134.40791,33.65602],[134.41188,33.65407],[134.41701,33.65628],[134.41703,33.65628],[134.41719,33.65637],[134.41737,33.6563],[134.41762,33.65798],[134.41745,33.66054],[134.4179,33.66073],[134.41802,33.6609],[134.41803,33.66091],[134.41801,33.66195],[134.4248,33.66175],[134.42506,33.66119],[134.42505,33.66105],[134.42506,33.66104],[134.42677,33.66125],[134.43104,33.66394],[134.4383,33.66318],[134.43842,33.66315],[134.43862,33.66334],[134.43873,33.66329],[134.43876,33.66316],[134.43884,33.66329],[134.43927,33.66368],[134.43961,33.66448],[134.4395,33.66448],[134.43949,33.6645],[134.43959,33.66459],[134.44431,33.66752],[134.44436,33.66754],[134.44442,33.66761],[134.44445,33.66765],[134.44589,33.66932],[134.44592,33.66928],[134.44599,33.66926],[134.44616,33.66933],[134.44629,33.6694],[134.44632,33.66941],[134.44633,33.66942],[134.44658,33.66973],[134.44661,33.66976],[134.44676,33.66984],[134.44674,33.66986],[134.44694,33.67058],[134.44973,33.67059],[134.44976,33.67063],[134.44977,33.67065],[134.44982,33.67067],[134.44981,33.67069],[134.45133,33.67164],[134.45134,33.67163],[134.45149,33.67136],[134.45168,33.67118],[134.45173,33.6712],[134.45181,33.67119],[134.45183,33.67119],[134.45182,33.67118],[134.45201,33.67115],[134.45205,33.67115],[134.45245,33.67135],[134.45224,33.67142],[134.45224,33.67144],[134.45295,33.67278],[134.45499,33.67341],[134.4551,33.67329],[134.4551,33.67327],[134.45538,33.67337],[134.45553,33.67344],[134.45552,33.67346],[134.45553,33.67347],[134.45567,33.67354],[134.45559,33.67356],[134.4557,33.67395],[134.45566,33.67399],[134.45576,33.67405],[134.45593,33.67427],[134.45917,33.67536],[134.459,33.67528],[134.45915,33.67529],[134.4591,33.67525],[134.45936,33.67534],[134.45944,33.67538],[134.45953,33.67535],[134.45979,33.67532],[134.46008,33.67543],[134.46009,33.67542],[134.46038,33.67558],[134.46052,33.67568],[134.46056,33.67574],[134.46054,33.67577],[134.46066,33.67594],[134.46067,33.67593],[134.46217,33.67728],[134.46372,33.67759],[134.4639,33.67768],[134.46535,33.67958],[134.46742,33.68036],[134.46743,33.68035],[134.46737,33.68029],[134.46751,33.68028],[134.46783,33.68029],[134.46783,33.68033],[134.47124,33.68138],[134.47128,33.68138],[134.47129,33.68138],[134.47222,33.68178],[134.47223,33.68178],[134.47229,33.68181],[134.4724,33.6818]]],[[[134.4591,33.67525],[134.45909,33.67525],[134.45897,33.67519],[134.4591,33.67525]]],[[[134.48587,33.64537],[134.48391,33.64006],[134.49024,33.63211],[134.49723,33.63141],[134.50134,33.63651],[134.48587,33.64537]]],[[[134.42611,33.63005],[134.42662,33.63544],[134.42082,33.63418],[134.4224,33.62991],[134.42241,33.6299],[134.42252,33.62976],[134.42459,33.62886],[134.42462,33.62888],[134.42481,33.62901],[134.42553,33.62913],[134.42563,33.6291],[134.42584,33.62947],[134.42608,33.6299],[134.42609,33.62989],[134.42611,33.63005]]],[[[134.39394,33.65033],[134.39377,33.65035],[134.39377,33.65032],[134.39376,33.6503],[134.39356,33.65027],[134.39358,33.65025],[134.39371,33.65021],[134.39372,33.65022],[134.39402,33.65023],[134.39394,33.65033]]],[[[134.39717,33.65632],[134.39702,33.65636],[134.39701,33.65636],[134.397,33.65634],[134.39697,33.65632],[134.39656,33.65629],[134.39717,33.65631],[134.39717,33.65632]]],[[[134.40117,33.65654],[134.40097,33.65654],[134.40099,33.65651],[134.40095,33.65648],[134.40093,33.65646],[134.40093,33.65645],[134.40099,33.65641],[134.40106,33.65643],[134.40117,33.65645],[134.40117,33.65654]]],[[[134.40699,33.65486],[134.407,33.65485],[134.40703,33.65487],[134.40699,33.65486]]],[[[134.39371,33.65008],[134.39387,33.65005],[134.39404,33.65012],[134.39396,33.65013],[134.39385,33.65014],[134.39371,33.65008]]],[[[134.41737,33.6563],[134.41743,33.6563],[134.41744,33.65633],[134.41737,33.6563]]],[[[134.40085,33.65653],[134.40079,33.65652],[134.40078,33.65652],[134.40078,33.65651],[134.40069,33.65649],[134.40086,33.65651],[134.40085,33.65653]]],[[[134.39017,33.65035],[134.39016,33.65033],[134.39006,33.65028],[134.39012,33.65028],[134.39012,33.65023],[134.39014,33.65021],[134.3902,33.65022],[134.39023,33.65027],[134.39025,33.65029],[134.39019,33.65034],[134.39018,33.65034],[134.39017,33.65035]]],[[[134.39366,33.65017],[134.39365,33.65017],[134.39357,33.65013],[134.39363,33.65013],[134.39368,33.65016],[134.39369,33.65016],[134.39369,33.65017],[134.39366,33.65017]]],[[[134.39017,33.65035],[134.39017,33.65044],[134.39005,33.65037],[134.39006,33.65034],[134.39017,33.65035]]],[[[134.46049,33.67526],[134.46041,33.67522],[134.46036,33.67518],[134.46042,33.67518],[134.46041,33.67519],[134.46047,33.6752],[134.46047,33.67516],[134.46053,33.67515],[134.4606,33.6752],[134.46049,33.67526]]],[[[134.39195,33.65025],[134.39193,33.65025],[134.39181,33.65014],[134.39195,33.65025]]],[[[134.3963,33.65606],[134.39629,33.65607],[134.39628,33.65607],[134.39628,33.65608],[134.39627,33.65608],[134.39618,33.65607],[134.3962,33.65606],[134.3963,33.65606]]],[[[134.3963,33.65606],[134.39643,33.65606],[134.39642,33.65607],[134.39635,33.65607],[134.39632,33.65607],[134.3963,33.65606]]],[[[134.44996,33.67013],[134.4499,33.67009],[134.44992,33.67006],[134.44998,33.67013],[134.44996,33.67013]]],[[[134.39641,33.65575],[134.39634,33.6557],[134.39636,33.65569],[134.39638,33.65571],[134.3964,33.65572],[134.39642,33.65574],[134.39641,33.65575]]],[[[134.39903,33.65603],[134.39904,33.65604],[134.39899,33.65607],[134.39891,33.65605],[134.39891,33.65604],[134.39899,33.65603],[134.399,33.65604],[134.39903,33.65603]]],[[[134.3997,33.65516],[134.39965,33.65515],[134.39962,33.65512],[134.39973,33.65515],[134.3997,33.65516]]],[[[134.44645,33.66919],[134.44641,33.66915],[134.44646,33.66918],[134.44645,33.66919]]],[[[134.40035,33.65583],[134.40026,33.65583],[134.40025,33.65583],[134.40025,33.65581],[134.40026,33.65582],[134.40035,33.65583]]],[[[134.39892,33.65641],[134.39887,33.65641],[134.39888,33.6564],[134.39892,33.65641]]],[[[134.44999,33.67055],[134.44998,33.67053],[134.45,33.67054],[134.44999,33.67055]]],[[[134.42309,33.6281],[134.42308,33.62812],[134.42307,33.62812],[134.42306,33.62813],[134.42306,33.62811],[134.42309,33.6281]]],[[[134.46055,33.67566],[134.46052,33.67566],[134.46053,33.67565],[134.46055,33.67566]]],[[[134.39709,33.65258],[134.3971,33.65257],[134.39711,33.65259],[134.39709,33.65258]]],[[[134.39707,33.65222],[134.39705,33.65222],[134.39705,33.65221],[134.39707,33.65221],[134.39707,33.65222]]],[[[134.39668,33.65225],[134.39668,33.65224],[134.39671,33.65223],[134.39669,33.65225],[134.39668,33.65225]]],[[[134.39894,33.65622],[134.39895,33.65622],[134.39895,33.65623],[134.39893,33.65623],[134.39894,33.65622]]]]},"properties":{"pref":"徳島県","county":"海部郡","city":"牟岐町","code5":"36383","code6":"363839"}},
{"type":"Feature","geometry":{"type":"MultiPolygon","coordinates":[[[[134.52815,33.80408],[134.52665,33.80092],[134.4993,33.79236],[134.49077,33.79419],[134.48031,33.7866],[134.48059,33.78211],[134.47516,33.77787],[134.46563,33.77945],[134.45982,33.77529],[134.45317,33.77509],[134.4464,33.7724],[134.44973,33.76629],[134.43794,33.76241],[134.43294,33.76363],[134.42728,33.76194],[134.42096,33.75714],[134.42246,33.75275],[134.41305,33.74162],[134.40194,33.73983],[134.39988,33.72909],[134.39458,33.72437],[134.39272,33.71837],[134.40225,33.71799],[134.41233,33.71971],[134.42114,33.71861],[134.4272,33.71532],[134.43468,33.71937],[134.44291,33.72067],[134.44865,33.72345],[134.45516,33.7188],[134.45483,33.7132],[134.45749,33.71022],[134.45641,33.70489],[134.46005,33.69811],[134.46478,33.69416],[134.47446,33.69433],[134.47545,33.68538],[134.4724,33.6818],[134.47243,33.6818],[134.47244,33.68179],[134.47243,33.68176],[134.47253,33.68173],[134.47254,33.68173],[134.47261,33.68174],[134.47268,33.68184],[134.47269,33.68185],[134.47289,33.6819],[134.47289,33.68191],[134.47309,33.68202],[134.47313,33.68205],[134.47433,33.68216],[134.47444,33.68249],[134.47538,33.68279],[134.4758,33.68304],[134.47609,33.68327],[134.4761,33.68328],[134.47615,33.68331],[134.47615,33.68332],[134.47698,33.68351],[134.47764,33.68403],[134.47765,33.68404],[134.47773,33.68411],[134.47774,33.6842],[134.47778,33.68421],[134.47778,33.68422],[134.47799,33.68471],[134.47811,33.68484],[134.47814,33.68484],[134.47924,33.68549],[134.47944,33.68539],[134.47969,33.68551],[134.48008,33.68579],[134.48008,33.6858],[134.48121,33.68624],[134.48137,33.6863],[134.48487,33.68622],[134.48818,33.69132],[134.50108,33.69411],[134.5047,33.69926],[134.51012,33.69843],[134.51748,33.70599],[134.51965,33.70488],[134.5201,33.70499],[134.52116,33.70674],[134.52605,33.70797],[134.54154,33.71806],[134.54357,33.72111],[134.54064,33.7275],[134.54293,33.73626],[134.55168,33.73737],[134.55607,33.74017],[134.55696,33.73852],[134.55777,33.73396],[134.55999,33.73402],[134.56059,33.73415],[134.5606,33.73416],[134.56517,33.7322],[134.56604,33.73345],[134.56604,33.73346],[134.56645,33.73877],[134.57105,33.74362],[134.57236,33.75091],[134.57485,33.75335],[134.56994,33.76173],[134.57279,33.7657],[134.57764,33.76148],[134.5815,33.76333],[134.58039,33.77008],[134.58702,33.76901],[134.59373,33.77025],[134.59589,33.76477],[134.60228,33.76432],[134.60088,33.76935],[134.60531,33.77289],[134.60895,33.77967],[134.61651,33.78131],[134.62023,33.78666],[134.63572,33.7866],[134.64227,33.78938],[134.64809,33.78909],[134.66969,33.80201],[134.67584,33.80212],[134.67894,33.80448],[134.67995,33.8067],[134.67477,33.8164],[134.66461,33.8136],[134.66225,33.80949],[134.65481,33.80833],[134.65086,33.8054],[134.64472,33.80498],[134.62683,33.7992],[134.62303,33.79977],[134.6151,33.79514],[134.61017,33.78925],[134.60559,33.78828],[134.59643,33.7896],[134.58819,33.78588],[134.57738,33.7863],[134.57077,33.79315],[134.56197,33.79354],[134.54874,33.80605],[134.53144,33.80301],[134.52815,33.80408]]],[[[134.47524,33.68271],[134.47536,33.6827],[134.47542,33.68274],[134.47541,33.68277],[134.4754,33.68276],[134.47538,33.68275],[134.47524,33.68272],[134.47524,33.68271]]],[[[134.47746,33.68368],[134.47737,33.68368],[134.47747,33.68366],[134.47746,33.68368]]],[[[134.47543,33.68269],[134.47542,33.6827],[134.47542,33.68268],[134.47543,33.68269]]],[[[134.47765,33.68373],[134.47758,33.68374],[134.47758,33.68372],[134.47765,33.68373]]]]},"properties":{"pref":"徳島県","county":"海部郡","city":"美波町","code5":"36387","code6":"363871"}},
{"type":"Feature","geometry":{"type":"MultiPolygon","coordinates":[[[[134.16385,33.68812],[134.17478,33.68399],[134.17546,33.67593],[134.16896,33.67077],[134.17535,33.66159],[134.17133,33.65769],[134.18417,33.64902],[134.17055,33.64196],[134.16399,33.63545],[134.15022,33.63055],[134.14925,33.62714],[134.15489,33.62299],[134.15214,33.61818],[134.15614,33.6117],[134.16061,33.61281],[134.16479,33.61049],[134.17252,33.6096],[134.17596,33.6071],[134.17024,33.60211],[134.17058,33.59697],[134.17878,33.59415],[134.18472,33.58869],[134.18854,33.58106],[134.18777,33.57577],[134.19247,33.57398],[134.19536,33.56873],[134.19317,33.56163],[134.19579,33.56082],[134.20227,33.56248],[134.2117,33.56696],[134.21871,33.56754],[134.22872,33.56101],[134.23223,33.55565],[134.23851,33.55292],[134.24335,33.55592],[134.24918,33.5529],[134.25821,33.55327],[134.2629,33.55642],[134.27001,33.55486],[134.27375,33.56062],[134.28724,33.5598],[134.29568,33.55773],[134.297,33.55342],[134.30369,33.55391],[134.30586,33.54844],[134.31404,33.54561],[134.31694,33.55773],[134.30865,33.56372],[134.30881,33.57186],[134.31141,33.57665],[134.31598,33.57646],[134.31784,33.58183],[134.32374,33.58063],[134.32937,33.58213],[134.33883,33.57814],[134.35519,33.57847],[134.35422,33.58348],[134.36425,33.5909],[134.36165,33.59609],[134.3643,33.60201],[134.37147,33.60959],[134.37765,33.61337],[134.38291,33.61427],[134.38322,33.61882],[134.38835,33.61955],[134.38808,33.62442],[134.3796,33.62533],[134.37595,33.62389],[134.36457,33.6243],[134.37051,33.63467],[134.3759,33.63489],[134.37864,33.63921],[134.38483,33.64144],[134.38986,33.65062],[134.38723,33.65393],[134.37995,33.65778],[134.37442,33.66557],[134.36953,33.66895],[134.37312,33.67228],[134.366,33.67475],[134.36234,33.67815],[134.36573,33.68258],[134.36216,33.68942],[134.36056,33.69599],[134.36495,33.6989],[134.36524,33.70429],[134.38577,33.71208],[134.3937,33.71331],[134.39272,33.71837],[134.39458,33.72437],[134.36842,33.7264],[134.3624,33.73093],[134.35564,33.7284],[134.34136,33.72754],[134.33654,33.73043],[134.32954,33.7277],[134.32034,33.73251],[134.31025,33.7308],[134.3054,33.73224],[134.2946,33.73051],[134.28838,33.7275],[134.28226,33.73102],[134.27122,33.7276],[134.26361,33.7207],[134.25314,33.71898],[134.24707,33.724],[134.23349,33.71931],[134.23016,33.72145],[134.21106,33.7217],[134.2089,33.71823],[134.20165,33.71631],[134.19762,33.71263],[134.19028,33.71081],[134.17379,33.70341],[134.17067,33.69933],[134.16274,33.69663],[134.16385,33.68812]]],[[[134.31443,33.54005],[134.31443,33.54042],[134.31418,33.5403],[134.31443,33.54005]]]]},"properties":{"pref":"徳島県","county":"海部郡","city":"海陽町","code5":"36388","code6":"363880"}},
{"type":"Feature","geometry":{"type":"Polygon","coordinates":[[[134.60743,34.10092],[134.60153,34.10719],[134.60456,34.11827],[134.60905,34.12472],[134.62328,34.12819],[134.62554,34.13651],[134.61941,34.13764],[134.61881,34.14118],[134.60083,34.14855],[134.591,34.14639],[134.58513,34.14888],[134.58394,34.15223],[134.57685,34.15538],[134.56425,34.15116],[134.5597,34.14378],[134.56873,34.14015],[134.56484,34.1338],[134.56852,34.13091],[134.57469,34.13036],[134.58571,34.12715],[134.59039,34.12304],[134.59622,34.11486],[134.60151,34.10265],[134.60743,34.10092]]]},"properties":{"pref":"徳島県","county":"板野郡","city":"松茂町","code5":"36401","code6":"364011"}},
{"type":"Feature","geometry":{"type":"Polygon","coordinates":[[[134.57469,34.13036],[134.56852,34.13091],[134.56484,34.1338],[134.56873,34.14015],[134.5597,34.14378],[134.5525,34.14133],[134.54087,34.1399],[134.53783,34.13529],[134.53,34.13095],[134.5294,34.12467],[134.5336,34.12526],[134.53598,34.11805],[134.53972,34.11281],[134.55241,34.11026],[134.55653,34.10828],[134.5585,34.11341],[134.55583,34.11512],[134.55774,34.12197],[134.56548,34.12471],[134.57469,34.13036]]]},"properties":{"pref":"徳島県","county":"板野郡","city":"北島町","code5":"36402","code6":"364029"}},
{"type":"Feature","geometry":{"type":"Polygon","coordinates":[[[134.5294,34.12467],[134.53,34.13095],[134.5213,34.13491],[134.51037,34.14294],[134.49905,34.143],[134.49157,34.14806],[134.48675,34.14795],[134.47753,34.1399],[134.47705,34.13065],[134.47031,34.12943],[134.47101,34.11886],[134.45783,34.11651],[134.45846,34.11243],[134.45868,34.11095],[134.46988,34.11348],[134.48799,34.10663],[134.50506,34.10899],[134.50642,34.1184],[134.51832,34.12328],[134.5294,34.12467]]]},"properties":{"pref":"徳島県","county":"板野郡","city":"藍住町","code5":"36403","code6":"364037"}},
{"type":"Feature","geometry":{"type":"Polygon","coordinates":[[[134.43889,34.19083],[134.42926,34.18335],[134.43364,34.17878],[134.43387,34.16951],[134.42519,34.16571],[134.4196,34.15794],[134.41293,34.15688],[134.41604,34.1546],[134.42042,34.14684],[134.42688,34.1435],[134.42579,34.13863],[134.42804,34.13583],[134.4298,34.12691],[134.44051,34.11975],[134.44167,34.11431],[134.45783,34.11651],[134.47101,34.11886],[134.47031,34.12943],[134.47705,34.13065],[134.47753,34.1399],[134.48675,34.14795],[134.48413,34.15588],[134.48431,34.16358],[134.48056,34.16986],[134.47852,34.17862],[134.4625,34.17738],[134.45479,34.1872],[134.45469,34.19252],[134.43889,34.19083]]]},"properties":{"pref":"徳島県","county":"板野郡","city":"板野町","code5":"36404","code6":"364045"}},
{"type":"Feature","geometry":{"type":"Polygon","coordinates":[[[134.39738,34.08723],[134.41127,34.09454],[134.42399,34.10225],[134.4466,34.10559],[134.44965,34.10415],[134.45846,34.11243],[134.45783,34.11651],[134.44167,34.11431],[134.44051,34.11975],[134.4298,34.12691],[134.42804,34.13583],[134.42579,34.13863],[134.42688,34.1435],[134.42042,34.14684],[134.41604,34.1546],[134.41293,34.15688],[134.41144,34.1615],[134.40742,34.16255],[134.40418,34.16705],[134.40005,34.16776],[134.39365,34.16355],[134.38549,34.1651],[134.38311,34.17214],[134.37566,34.17179],[134.3705,34.16445],[134.36786,34.15562],[134.36915,34.15146],[134.3753,34.14817],[134.38313,34.13853],[134.37788,34.12995],[134.37952,34.12364],[134.38458,34.11831],[134.38634,34.1138],[134.39892,34.11629],[134.40161,34.10897],[134.39813,34.1037],[134.39415,34.10416],[134.39585,34.09246],[134.39738,34.08723]]]},"properties":{"pref":"徳島県","county":"板野郡","city":"上板町","code5":"36405","code6":"364053"}},
{"type":"Feature","geometry":{"type":"Polygon","coordinates":[[[134.00006,34.03732],[133.9994,34.03718],[134.00389,34.02611],[134.00075,34.0114],[133.9981,34.00463],[134.00194,34.00133],[134.00169,33.99049],[133.99866,33.98791],[133.99565,33.97862],[133.98873,33.97355],[133.98425,33.97312],[133.97599,33.96267],[133.97223,33.96024],[133.97705,33.94592],[133.96644,33.93901],[133.96952,33.93133],[133.97496,33.9252],[133.98225,33.92351],[133.99271,33.92325],[134.00382,33.91755],[134.00149,33.9143],[134.00281,33.90649],[134.0103,33.90543],[134.01598,33.90076],[134.02688,33.89838],[134.03416,33.90068],[134.04745,33.89506],[134.04157,33.8871],[134.04381,33.88105],[134.04823,33.87529],[134.05334,33.87221],[134.0626,33.86989],[134.06534,33.87191],[134.07678,33.87123],[134.08993,33.87423],[134.08896,33.87826],[134.09426,33.87997],[134.09907,33.87837],[134.11018,33.8867],[134.11631,33.88684],[134.1217,33.8895],[134.12563,33.90045],[134.12407,33.91108],[134.12707,33.91339],[134.12559,33.9207],[134.10766,33.92096],[134.10018,33.92384],[134.10058,33.9287],[134.10484,33.93648],[134.10504,33.94244],[134.09889,33.9494],[134.09807,33.95635],[134.10153,33.96107],[134.10832,33.96636],[134.10795,33.97967],[134.11195,33.98702],[134.10864,33.99245],[134.10929,33.99734],[134.1164,34.00365],[134.11889,34.01689],[134.11443,34.01859],[134.11203,34.03053],[134.10712,34.03199],[134.09896,34.03769],[134.09309,34.04507],[134.09531,34.0511],[134.09299,34.05374],[134.08629,34.05348],[134.08812,34.05803],[134.0743,34.052],[134.07098,34.04725],[134.04315,34.04296],[134.02884,34.04467],[134.02132,34.0442],[134.01555,34.03922],[134.00868,34.03753],[134.00006,34.03732]]]},"properties":{"pref":"徳島県","county":"美馬郡","city":"つるぎ町","code5":"36468","code6":"364681"}},
{"type":"Feature","geometry":{"type":"Polygon","coordinates":[[[133.97223,33.96024],[133.97599,33.96267],[133.98425,33.97312],[133.98873,33.97355],[133.99565,33.97862],[133.99866,33.98791],[134.00169,33.99049],[134.00194,34.00133],[133.9981,34.00463],[134.00075,34.0114],[134.00389,34.02611],[133.9994,34.03718],[133.99596,34.03643],[133.987,34.04029],[133.97945,34.04118],[133.96913,34.03735],[133.95951,34.04112],[133.94845,34.0431],[133.93505,34.04874],[133.92362,34.05004],[133.92497,34.05341],[133.92396,34.06292],[133.92132,34.06832],[133.91268,34.07674],[133.91221,34.07955],[133.90337,34.08664],[133.8989,34.09665],[133.90309,34.10007],[133.89285,34.1082],[133.87392,34.10114],[133.86708,34.10015],[133.86302,34.10534],[133.85484,34.10416],[133.84949,34.09915],[133.84215,34.09497],[133.83413,34.09774],[133.82223,34.09219],[133.82299,34.08481],[133.81853,34.0797],[133.82015,34.07402],[133.82606,34.07151],[133.83235,34.06417],[133.83277,34.06136],[133.84339,34.05589],[133.84508,34.04919],[133.85085,34.0485],[133.85391,34.0452],[133.85384,34.03522],[133.85728,34.03635],[133.86642,34.0342],[133.87376,34.03426],[133.88145,34.03148],[133.89177,34.03541],[133.8952,34.02946],[133.89629,34.02255],[133.90035,34.01926],[133.90195,34.01412],[133.90608,34.01018],[133.90622,34.00506],[133.91205,34.00027],[133.91742,33.99308],[133.91807,33.97692],[133.92122,33.97464],[133.92889,33.97372],[133.93401,33.97513],[133.95027,33.97413],[133.95526,33.97092],[133.95445,33.96389],[133.95906,33.96098],[133.9664,33.96165],[133.97223,33.96024]]]},"properties":{"pref":"徳島県","county":"三好郡","city":"東みよし町","code5":"36489","code6":"364894"}}
]}