{"type":"FeatureCollection", "features": [
{"type":"Feature","geometry":{"type":"MultiPolygon","coordinates":[[[[134.13526,34.15154],[134.12821,34.15269],[134.12233,34.16745],[134.11815,34.17321],[134.11235,34.17814],[134.10969,34.18338],[134.11042,34.19303],[134.10932,34.19827],[134.10523,34.20164],[134.10561,34.2146],[134.11208,34.22175],[134.11438,34.22649],[134.11113,34.23183],[134.11462,34.23825],[134.11044,34.24472],[134.11246,34.26227],[134.11921,34.28764],[134.12223,34.29184],[134.12197,34.29745],[134.12548,34.29862],[134.12652,34.30399],[134.12499,34.30997],[134.13021,34.31731],[134.13353,34.31434],[134.14933,34.31349],[134.15543,34.31062],[134.16479,34.32226],[134.16572,34.32606],[134.16005,34.33066],[134.15469,34.33895],[134.15784,34.35068],[134.15992,34.35437],[134.15716,34.36387],[134.16344,34.37784],[134.16367,34.38258],[134.15955,34.38908],[134.15182,34.39195],[134.14293,34.39762],[134.13657,34.40023],[134.1281,34.39629],[134.11974,34.39482],[134.1224,34.38953],[134.1261,34.39178],[134.12881,34.38606],[134.12494,34.38503],[134.12295,34.37909],[134.11722,34.37761],[134.11643,34.37231],[134.12057,34.35947],[134.11529,34.3589],[134.10782,34.37203],[134.10075,34.379],[134.09228,34.38408],[134.09134,34.37704],[134.09213,34.36903],[134.09072,34.36265],[134.08529,34.35309],[134.07867,34.35],[134.07956,34.35925],[134.075,34.36178],[134.07466,34.35126],[134.06951,34.35204],[134.07073,34.36451],[134.06449,34.36492],[134.06032,34.35086],[134.04984,34.35246],[134.04729,34.35551],[134.04082,34.3522],[134.02504,34.35498],[134.01918,34.35293],[133.99276,34.35661],[133.99094,34.36074],[133.9805,34.36694],[133.97804,34.3724],[133.96361,34.36497],[133.96317,34.37027],[133.95919,34.37764],[133.94745,34.38089],[133.9432,34.37554],[133.93846,34.37568],[133.93883,34.38068],[133.93198,34.38819],[133.92761,34.38965],[133.92972,34.38591],[133.92883,34.37736],[133.93238,34.37666],[133.93553,34.37051],[133.93667,34.36095],[133.9349,34.35533],[133.93778,34.35324],[133.93749,34.34824],[133.94339,34.34641],[133.94642,34.33838],[133.95233,34.33519],[133.95357,34.33204],[133.94929,34.32473],[133.94224,34.3251],[133.94148,34.32224],[133.93053,34.32071],[133.92536,34.3158],[133.93203,34.30639],[133.93861,34.30067],[133.93858,34.29466],[133.94278,34.28798],[133.94095,34.28269],[133.94398,34.27849],[133.94395,34.27198],[133.96578,34.26574],[133.97046,34.26323],[133.97893,34.26399],[133.98386,34.26613],[133.98773,34.26197],[133.99344,34.26025],[133.98836,34.253],[133.98515,34.24203],[133.98914,34.23583],[133.993,34.23546],[133.99396,34.23019],[134.00437,34.21856],[134.00889,34.21685],[134.01294,34.21159],[134.01709,34.18986],[134.02539,34.18778],[134.02331,34.18025],[134.02416,34.17439],[134.02773,34.17189],[134.02563,34.16106],[134.02088,34.15812],[134.02458,34.13966],[134.02962,34.13982],[134.0343,34.13475],[134.03607,34.12895],[134.04988,34.11742],[134.05833,34.1152],[134.06135,34.11103],[134.07092,34.11271],[134.07193,34.11548],[134.08157,34.12129],[134.09448,34.11459],[134.10298,34.11501],[134.10597,34.11713],[134.12233,34.11879],[134.13117,34.12537],[134.13268,34.12956],[134.13931,34.13408],[134.13771,34.13803],[134.13751,34.14728],[134.13526,34.15154]]],[[[134.05383,34.40922],[134.04409,34.39607],[134.03563,34.38321],[134.03817,34.37934],[134.04247,34.38109],[134.04875,34.38955],[134.05417,34.39043],[134.05695,34.39747],[134.05383,34.40922]]],[[[134.0626,34.43322],[134.05766,34.43177],[134.05424,34.42416],[134.05516,34.41716],[134.06473,34.42227],[134.06577,34.42919],[134.0626,34.43322]]],[[[134.10507,34.40752],[134.10095,34.40055],[134.10778,34.40133],[134.11169,34.40461],[134.10507,34.40752]]],[[[133.99991,34.35833],[133.99451,34.36322],[133.993,34.35807],[133.99991,34.35833]]],[[[133.9221,34.39264],[133.92108,34.39485],[133.92107,34.39484],[133.9221,34.39264]]]]},"properties":{"pref":"香川県","city":"高松市","code5":"37201","code6":"372013"}},
{"type":"Feature","geometry":{"type":"MultiPolygon","coordinates":[[[[133.8063,34.31063],[133.79697,34.306],[133.79668,34.30171],[133.78974,34.29867],[133.78274,34.31066],[133.77214,34.30598],[133.77873,34.30026],[133.77534,34.2965],[133.76838,34.3038],[133.76188,34.29992],[133.76705,34.29208],[133.7681,34.28778],[133.76423,34.28439],[133.77265,34.2722],[133.77246,34.26741],[133.77595,34.26313],[133.77578,34.25666],[133.78126,34.25905],[133.7862,34.25444],[133.79549,34.25885],[133.80816,34.2397],[133.8166,34.24126],[133.81918,34.23715],[133.81813,34.23321],[133.8218,34.2257],[133.8257,34.22052],[133.83248,34.22045],[133.84208,34.21583],[133.85104,34.20723],[133.85026,34.20475],[133.86866,34.20263],[133.88275,34.20447],[133.89323,34.2082],[133.90068,34.20904],[133.89553,34.21353],[133.89874,34.22163],[133.89753,34.23714],[133.90062,34.2405],[133.89442,34.2486],[133.89785,34.24956],[133.90288,34.25729],[133.90367,34.26406],[133.90382,34.27163],[133.89494,34.27387],[133.88987,34.2898],[133.88102,34.2879],[133.87065,34.2828],[133.86456,34.28288],[133.85446,34.28035],[133.84446,34.27491],[133.84076,34.28434],[133.83639,34.28793],[133.82351,34.29689],[133.82223,34.30095],[133.81566,34.30471],[133.81053,34.30086],[133.8074,34.30392],[133.8063,34.31063]]],[[[133.7105,34.3991],[133.70842,34.39375],[133.70914,34.38726],[133.70553,34.38539],[133.69949,34.38675],[133.69734,34.37866],[133.69044,34.37773],[133.68821,34.36954],[133.68877,34.36575],[133.68452,34.36125],[133.69885,34.35201],[133.70886,34.35325],[133.70875,34.35737],[133.71193,34.36335],[133.71562,34.36442],[133.7226,34.36246],[133.73051,34.37029],[133.73041,34.3742],[133.7249,34.38442],[133.71783,34.39243],[133.71889,34.3964],[133.7105,34.3991]]],[[[133.77766,34.401],[133.76768,34.39226],[133.75842,34.39114],[133.75291,34.38801],[133.75688,34.38491],[133.76019,34.37902],[133.75723,34.37511],[133.75763,34.3698],[133.76321,34.36872],[133.76995,34.37221],[133.772,34.37722],[133.7775,34.38067],[133.78195,34.3807],[133.78839,34.38673],[133.79055,34.3953],[133.78269,34.39742],[133.77766,34.401]]],[[[133.67175,34.41082],[133.65884,34.40647],[133.6569,34.4035],[133.66201,34.39779],[133.66127,34.39114],[133.66804,34.38668],[133.67695,34.39283],[133.67756,34.39897],[133.67176,34.40083],[133.67542,34.40715],[133.67175,34.41082]]],[[[133.77967,34.3655],[133.77506,34.36196],[133.77579,34.35651],[133.78007,34.35621],[133.787,34.35992],[133.78542,34.36408],[133.77967,34.3655]]],[[[133.64946,34.38328],[133.64692,34.37734],[133.65283,34.37588],[133.64946,34.38328]]]]},"properties":{"pref":"香川県","city":"丸亀市","code5":"37202","code6":"372021"}},
{"type":"Feature","geometry":{"type":"MultiPolygon","coordinates":[[[[133.92761,34.38965],[133.92653,34.3879],[133.92654,34.38785],[133.9209,34.37773],[133.91641,34.37708],[133.91089,34.38121],[133.90743,34.37832],[133.90046,34.37767],[133.89872,34.38139],[133.89395,34.38242],[133.88805,34.37516],[133.8902,34.36848],[133.89271,34.36447],[133.89099,34.35892],[133.89495,34.35459],[133.8821,34.34411],[133.87842,34.34474],[133.86199,34.33189],[133.86215,34.32879],[133.8578,34.32667],[133.84643,34.328],[133.83427,34.32484],[133.83044,34.33331],[133.83905,34.3346],[133.83845,34.33865],[133.84778,34.33891],[133.85762,34.3458],[133.85898,34.3531],[133.85781,34.35731],[133.84955,34.35995],[133.84864,34.35622],[133.83621,34.34579],[133.82892,34.34215],[133.82939,34.34764],[133.84069,34.35604],[133.84054,34.36067],[133.82072,34.35129],[133.82217,34.34596],[133.82094,34.33794],[133.82585,34.33751],[133.82768,34.32613],[133.82929,34.32347],[133.83706,34.31566],[133.8434,34.30659],[133.8393,34.29978],[133.84132,34.29338],[133.83639,34.28793],[133.84076,34.28434],[133.84446,34.27491],[133.85446,34.28035],[133.86456,34.28288],[133.87065,34.2828],[133.88102,34.2879],[133.88987,34.2898],[133.89494,34.27387],[133.90382,34.27163],[133.90367,34.26406],[133.91348,34.26564],[133.92327,34.26548],[133.93047,34.26985],[133.93283,34.26648],[133.93783,34.26892],[133.94398,34.27849],[133.94095,34.28269],[133.94278,34.28798],[133.93858,34.29466],[133.93861,34.30067],[133.93203,34.30639],[133.92536,34.3158],[133.93053,34.32071],[133.94148,34.32224],[133.94224,34.3251],[133.94929,34.32473],[133.95357,34.33204],[133.95233,34.33519],[133.94642,34.33838],[133.94339,34.34641],[133.93749,34.34824],[133.93778,34.35324],[133.9349,34.35533],[133.93667,34.36095],[133.93553,34.37051],[133.93238,34.37666],[133.92883,34.37736],[133.92972,34.38591],[133.92761,34.38965]]],[[[133.82048,34.39537],[133.81228,34.39178],[133.815,34.38455],[133.82237,34.38284],[133.82456,34.39019],[133.82048,34.39537]]],[[[133.8046,34.42737],[133.79561,34.42527],[133.80015,34.42183],[133.79999,34.41787],[133.80442,34.41508],[133.80914,34.42082],[133.8046,34.42737]]]]},"properties":{"pref":"香川県","city":"坂出市","code5":"37203","code6":"372030"}},
{"type":"Feature","geometry":{"type":"Polygon","coordinates":[[[133.77578,34.25666],[133.77654,34.24918],[133.76891,34.24691],[133.76452,34.2507],[133.75349,34.24611],[133.75533,34.24048],[133.75041,34.23747],[133.74703,34.24248],[133.74089,34.24363],[133.73543,34.23514],[133.72861,34.23281],[133.72706,34.22649],[133.73754,34.21393],[133.75002,34.21144],[133.75594,34.19813],[133.77303,34.19908],[133.77788,34.1962],[133.78493,34.1985],[133.78872,34.19636],[133.79602,34.18887],[133.80013,34.18799],[133.81474,34.19753],[133.80757,34.21162],[133.80522,34.21989],[133.81406,34.22269],[133.81757,34.22622],[133.8218,34.2257],[133.81813,34.23321],[133.81918,34.23715],[133.8166,34.24126],[133.80816,34.2397],[133.79549,34.25885],[133.7862,34.25444],[133.78126,34.25905],[133.77578,34.25666]]]},"properties":{"pref":"香川県","city":"善通寺市","code5":"37204","code6":"372048"}},
{"type":"Feature","geometry":{"type":"MultiPolygon","coordinates":[[[[133.74045,34.05019],[133.73844,34.05764],[133.73434,34.06157],[133.73374,34.07493],[133.72679,34.08813],[133.71578,34.09324],[133.71518,34.09909],[133.70982,34.11619],[133.7126,34.12111],[133.70866,34.1295],[133.70123,34.1346],[133.69244,34.13764],[133.68771,34.13584],[133.66909,34.14344],[133.66571,34.15524],[133.66733,34.16041],[133.66184,34.16551],[133.65596,34.16191],[133.64601,34.16434],[133.64542,34.15891],[133.64004,34.15408],[133.64267,34.14892],[133.63916,34.12479],[133.62988,34.1152],[133.63693,34.11388],[133.63576,34.09502],[133.63806,34.09233],[133.6352,34.0841],[133.63161,34.08019],[133.6315,34.07225],[133.63378,34.0702],[133.6312,34.06015],[133.6277,34.05318],[133.62275,34.04939],[133.61129,34.04468],[133.5985,34.04363],[133.60417,34.0359],[133.61331,34.03232],[133.62688,34.03777],[133.63946,34.02593],[133.65599,34.02908],[133.66543,34.02711],[133.67189,34.02075],[133.67823,34.01819],[133.67955,34.01252],[133.68851,34.01238],[133.70027,34.0178],[133.70876,34.01535],[133.72132,34.02229],[133.72307,34.03646],[133.72899,34.04416],[133.73299,34.0449],[133.74045,34.05019]]],[[[133.52717,34.13661],[133.53314,34.12597],[133.53846,34.12583],[133.54191,34.12886],[133.52717,34.13661]]]]},"properties":{"pref":"香川県","city":"観音寺市","code5":"37205","code6":"372056"}},
{"type":"Feature","geometry":{"type":"Polygon","coordinates":[[[134.20873,34.17473],[134.21315,34.17795],[134.21241,34.18494],[134.21603,34.19082],[134.21061,34.19401],[134.20694,34.19987],[134.20875,34.20303],[134.21698,34.20365],[134.21716,34.20927],[134.23022,34.20954],[134.24073,34.21585],[134.24641,34.21676],[134.25312,34.22136],[134.25943,34.21947],[134.26406,34.22062],[134.27197,34.21562],[134.27458,34.21992],[134.27514,34.22847],[134.27346,34.23803],[134.28099,34.24317],[134.27494,34.25201],[134.27439,34.25657],[134.27712,34.26113],[134.28296,34.26505],[134.2881,34.2753],[134.27984,34.27941],[134.276,34.28659],[134.27607,34.2866],[134.27173,34.28915],[134.26236,34.28283],[134.25572,34.28707],[134.25046,34.29522],[134.24657,34.30753],[134.25132,34.31138],[134.2592,34.31427],[134.26007,34.31809],[134.26537,34.31903],[134.2628,34.32758],[134.26279,34.32757],[134.26196,34.3298],[134.26657,34.33296],[134.2661,34.33648],[134.25847,34.33661],[134.25743,34.3453],[134.25012,34.35159],[134.24262,34.34456],[134.24075,34.34037],[134.2325,34.33922],[134.22621,34.34202],[134.22431,34.3467],[134.21818,34.34998],[134.21865,34.35287],[134.21514,34.36518],[134.21132,34.36913],[134.20433,34.36681],[134.2064,34.36036],[134.20982,34.35797],[134.21336,34.34988],[134.20471,34.34323],[134.19749,34.34548],[134.19129,34.34429],[134.19007,34.34973],[134.18397,34.35135],[134.18315,34.34706],[134.18729,34.34534],[134.18498,34.33357],[134.17823,34.33224],[134.17864,34.32671],[134.174,34.32425],[134.16572,34.32606],[134.16479,34.32226],[134.15543,34.31062],[134.16075,34.30322],[134.15472,34.29393],[134.15664,34.2838],[134.16224,34.27862],[134.16893,34.27872],[134.16274,34.26379],[134.16703,34.25533],[134.16313,34.24857],[134.16788,34.24474],[134.16959,34.2377],[134.16508,34.23281],[134.16896,34.22779],[134.16708,34.21957],[134.16384,34.21612],[134.16282,34.20371],[134.16602,34.1983],[134.16414,34.19483],[134.16437,34.18328],[134.15612,34.17186],[134.15544,34.16675],[134.16324,34.16978],[134.16851,34.17447],[134.1731,34.17579],[134.18531,34.17426],[134.19506,34.17187],[134.19829,34.17535],[134.2043,34.17269],[134.20873,34.17473]]]},"properties":{"pref":"香川県","city":"さぬき市","code5":"37206","code6":"372064"}},
{"type":"Feature","geometry":{"type":"Polygon","coordinates":[[[134.44021,34.20785],[134.43778,34.20704],[134.42829,34.21117],[134.41528,34.21941],[134.40642,34.22642],[134.40682,34.23112],[134.41212,34.23496],[134.39858,34.2415],[134.39374,34.2511],[134.39005,34.25484],[134.37751,34.26055],[134.37689,34.25374],[134.3684,34.2498],[134.36222,34.24994],[134.35681,34.25355],[134.34683,34.2525],[134.34053,34.25505],[134.32349,34.26556],[134.31301,34.27468],[134.30592,34.27849],[134.29607,34.27402],[134.2881,34.2753],[134.28296,34.26505],[134.27712,34.26113],[134.27439,34.25657],[134.27494,34.25201],[134.28099,34.24317],[134.27346,34.23803],[134.27514,34.22847],[134.27458,34.21992],[134.27197,34.21562],[134.26406,34.22062],[134.25943,34.21947],[134.25312,34.22136],[134.24641,34.21676],[134.24073,34.21585],[134.23022,34.20954],[134.21716,34.20927],[134.21698,34.20365],[134.20875,34.20303],[134.20694,34.19987],[134.21061,34.19401],[134.21603,34.19082],[134.21241,34.18494],[134.21315,34.17795],[134.20873,34.17473],[134.21601,34.17638],[134.22065,34.17986],[134.23703,34.18045],[134.24743,34.17873],[134.25658,34.18095],[134.26026,34.18356],[134.27344,34.18113],[134.27715,34.17648],[134.28716,34.18007],[134.29223,34.17914],[134.29609,34.17276],[134.30024,34.17028],[134.30807,34.17076],[134.31445,34.17722],[134.32831,34.17317],[134.33407,34.17554],[134.34419,34.17238],[134.34806,34.18387],[134.35799,34.18465],[134.36869,34.17826],[134.37566,34.17179],[134.38311,34.17214],[134.38549,34.1651],[134.39365,34.16355],[134.40005,34.16776],[134.40418,34.16705],[134.40742,34.16255],[134.41144,34.1615],[134.41293,34.15688],[134.4196,34.15794],[134.42519,34.16571],[134.43387,34.16951],[134.43364,34.17878],[134.42926,34.18335],[134.43889,34.19083],[134.43791,34.19391],[134.4407,34.19981],[134.44021,34.20785]]]},"properties":{"pref":"香川県","city":"東かがわ市","code5":"37207","code6":"372072"}},
{"type":"Feature","geometry":{"type":"MultiPolygon","coordinates":[[[[133.82015,34.07402],[133.81853,34.0797],[133.82299,34.08481],[133.82223,34.09219],[133.81837,34.10284],[133.82013,34.10904],[133.81718,34.11463],[133.81574,34.12221],[133.81831,34.12827],[133.81605,34.14453],[133.8085,34.15724],[133.80254,34.15293],[133.80072,34.15618],[133.80387,34.16331],[133.80279,34.16996],[133.80623,34.17524],[133.80705,34.18225],[133.80013,34.18799],[133.79602,34.18887],[133.78872,34.19636],[133.78493,34.1985],[133.77788,34.1962],[133.77303,34.19908],[133.75594,34.19813],[133.75002,34.21144],[133.73754,34.21393],[133.72706,34.22649],[133.72861,34.23281],[133.71977,34.22997],[133.70889,34.24087],[133.7042,34.23921],[133.69822,34.23431],[133.69465,34.23702],[133.68812,34.23712],[133.68802,34.23334],[133.67963,34.23259],[133.67731,34.22464],[133.67431,34.22227],[133.67428,34.22224],[133.67849,34.23631],[133.67524,34.23688],[133.67237,34.22695],[133.66814,34.23298],[133.67029,34.24057],[133.67431,34.24266],[133.67163,34.24655],[133.66738,34.24098],[133.65779,34.23881],[133.6557,34.23535],[133.6483,34.23284],[133.6339,34.23888],[133.62618,34.23813],[133.6229,34.23558],[133.61634,34.24005],[133.61721,34.24422],[133.60904,34.25236],[133.59142,34.25531],[133.58765,34.26133],[133.58059,34.26072],[133.56838,34.26502],[133.55796,34.26143],[133.55798,34.26142],[133.5581,34.26137],[133.56071,34.26016],[133.56667,34.26035],[133.57113,34.25827],[133.57566,34.25651],[133.57367,34.252],[133.57932,34.25071],[133.5783,34.24708],[133.58779,34.24076],[133.5878,34.24074],[133.59065,34.23806],[133.6084,34.23058],[133.60943,34.2237],[133.61715,34.22099],[133.62626,34.21385],[133.63114,34.2115],[133.63111,34.21155],[133.63491,34.20993],[133.63739,34.20073],[133.64352,34.19149],[133.64816,34.19175],[133.649,34.18565],[133.64511,34.18061],[133.6472,34.17841],[133.64757,34.17098],[133.64601,34.16434],[133.65596,34.16191],[133.66184,34.16551],[133.66733,34.16041],[133.66571,34.15524],[133.66909,34.14344],[133.68771,34.13584],[133.69244,34.13764],[133.70123,34.1346],[133.70866,34.1295],[133.7126,34.12111],[133.70982,34.11619],[133.71518,34.09909],[133.71578,34.09324],[133.72679,34.08813],[133.73374,34.07493],[133.73434,34.06157],[133.73844,34.05764],[133.74045,34.05019],[133.7495,34.05427],[133.75648,34.05929],[133.76338,34.06681],[133.7634,34.06984],[133.77504,34.07426],[133.77796,34.07893],[133.7853,34.07981],[133.79585,34.07036],[133.80005,34.06955],[133.81033,34.07259],[133.82015,34.07402]]],[[[133.61733,34.25892],[133.62284,34.25614],[133.62468,34.26071],[133.62859,34.26129],[133.63233,34.2688],[133.64209,34.27168],[133.65075,34.26788],[133.65499,34.27066],[133.65242,34.27481],[133.65633,34.28123],[133.64432,34.27749],[133.63922,34.27231],[133.63248,34.27411],[133.62876,34.27793],[133.63195,34.282],[133.63093,34.28562],[133.62355,34.28663],[133.62145,34.28093],[133.62759,34.27799],[133.62693,34.27141],[133.62334,34.26974],[133.61775,34.2655],[133.61733,34.25892]]],[[[133.67465,34.27455],[133.67019,34.27217],[133.68094,34.26734],[133.68174,34.27289],[133.67465,34.27455]]]]},"properties":{"pref":"香川県","city":"三豊市","code5":"37208","code6":"372081"}},
{"type":"Feature","geometry":{"type":"MultiPolygon","coordinates":[[[[134.33246,34.5632],[134.32909,34.56393],[134.31477,34.55909],[134.3084,34.55457],[134.30471,34.54917],[134.29522,34.54672],[134.27135,34.54772],[134.26437,34.55327],[134.26181,34.54875],[134.25699,34.548],[134.25643,34.54318],[134.24868,34.53974],[134.24198,34.53513],[134.23961,34.53008],[134.22995,34.52699],[134.22408,34.52947],[134.21377,34.52294],[134.20299,34.52004],[134.19184,34.52068],[134.18546,34.51576],[134.17865,34.51766],[134.17048,34.52629],[134.16514,34.51879],[134.16449,34.51169],[134.16085,34.50985],[134.16655,34.50539],[134.16546,34.50001],[134.17136,34.49441],[134.18223,34.48691],[134.18469,34.48794],[134.19144,34.48406],[134.1998,34.48271],[134.20166,34.48835],[134.22348,34.49488],[134.23129,34.50365],[134.2328,34.50812],[134.24067,34.51169],[134.24525,34.50887],[134.25917,34.51265],[134.26609,34.51192],[134.27471,34.51547],[134.27926,34.51945],[134.2873,34.51773],[134.30246,34.51809],[134.30569,34.52301],[134.31188,34.52284],[134.31751,34.53873],[134.31994,34.5429],[134.31932,34.54779],[134.32286,34.55316],[134.32889,34.55599],[134.33246,34.5632]]],[[[134.08554,34.49944],[134.07693,34.49682],[134.06947,34.49702],[134.05879,34.48809],[134.05232,34.48735],[134.04185,34.48839],[134.0413,34.48327],[134.04369,34.47866],[134.05179,34.47226],[134.06556,34.47053],[134.07574,34.46218],[134.08132,34.45917],[134.08933,34.46575],[134.09355,34.47295],[134.1027,34.47909],[134.1026,34.48974],[134.09353,34.49045],[134.08706,34.49472],[134.08554,34.49944]]],[[[134.1667,34.49376],[134.15644,34.49204],[134.14469,34.4788],[134.14371,34.47281],[134.15173,34.4613],[134.1594,34.46357],[134.16281,34.46234],[134.16827,34.46475],[134.17106,34.47361],[134.17578,34.47663],[134.18147,34.47561],[134.18478,34.4794],[134.1922,34.48139],[134.19006,34.48462],[134.17285,34.48903],[134.1667,34.49376]]],[[[134.12707,34.48222],[134.11044,34.47956],[134.10813,34.47506],[134.11781,34.47296],[134.12549,34.47614],[134.12707,34.48222]]]]},"properties":{"pref":"香川県","county":"小豆郡","city":"土庄町","code5":"37322","code6":"373222"}},
{"type":"Feature","geometry":{"type":"Polygon","coordinates":[[[134.1998,34.48271],[134.20732,34.48318],[134.21208,34.48152],[134.21812,34.47428],[134.22182,34.47862],[134.22839,34.48065],[134.23346,34.47645],[134.22948,34.47242],[134.23507,34.46974],[134.23505,34.47013],[134.23512,34.47021],[134.23532,34.47045],[134.23841,34.46371],[134.24296,34.45862],[134.23813,34.45615],[134.2389,34.45061],[134.23449,34.44396],[134.22774,34.44263],[134.22685,34.43659],[134.23619,34.43836],[134.23865,34.43253],[134.23287,34.42826],[134.22456,34.42505],[134.22898,34.42109],[134.23107,34.4156],[134.23929,34.41545],[134.24566,34.41878],[134.25127,34.42441],[134.24746,34.42922],[134.25131,34.43901],[134.25551,34.44172],[134.26264,34.44969],[134.25955,34.45444],[134.265,34.46036],[134.26763,34.46788],[134.27604,34.46899],[134.29267,34.47583],[134.29634,34.47975],[134.30097,34.4766],[134.31024,34.47752],[134.316,34.47101],[134.31666,34.45964],[134.30736,34.46295],[134.30077,34.45978],[134.28987,34.46239],[134.28296,34.45912],[134.28461,34.45236],[134.29226,34.4468],[134.3044,34.45778],[134.31204,34.45556],[134.31963,34.45801],[134.32996,34.44585],[134.32977,34.4407],[134.33327,34.43507],[134.33779,34.4329],[134.34038,34.43782],[134.33538,34.44729],[134.34015,34.45099],[134.34942,34.46121],[134.35275,34.47013],[134.3536,34.47766],[134.34792,34.47912],[134.34302,34.4845],[134.3428,34.48793],[134.35126,34.49273],[134.3506,34.49825],[134.3473,34.50039],[134.35001,34.5061],[134.35639,34.51108],[134.35539,34.52413],[134.36005,34.52902],[134.35499,34.53877],[134.3452,34.54084],[134.34791,34.55106],[134.35398,34.55747],[134.34609,34.55775],[134.34476,34.56457],[134.33683,34.56237],[134.33246,34.5632],[134.32889,34.55599],[134.32286,34.55316],[134.31932,34.54779],[134.31994,34.5429],[134.31751,34.53873],[134.31188,34.52284],[134.30569,34.52301],[134.30246,34.51809],[134.2873,34.51773],[134.27926,34.51945],[134.27471,34.51547],[134.26609,34.51192],[134.25917,34.51265],[134.24525,34.50887],[134.24067,34.51169],[134.2328,34.50812],[134.23129,34.50365],[134.22348,34.49488],[134.20166,34.48835],[134.1998,34.48271]]]},"properties":{"pref":"香川県","county":"小豆郡","city":"小豆島町","code5":"37324","code6":"373249"}},
{"type":"Feature","geometry":{"type":"Polygon","coordinates":[[[134.15544,34.16675],[134.15612,34.17186],[134.16437,34.18328],[134.16414,34.19483],[134.16602,34.1983],[134.16282,34.20371],[134.16384,34.21612],[134.16708,34.21957],[134.16896,34.22779],[134.16508,34.23281],[134.16959,34.2377],[134.16788,34.24474],[134.16313,34.24857],[134.16703,34.25533],[134.16274,34.26379],[134.16893,34.27872],[134.16224,34.27862],[134.15664,34.2838],[134.15472,34.29393],[134.16075,34.30322],[134.15543,34.31062],[134.14933,34.31349],[134.13353,34.31434],[134.13021,34.31731],[134.12499,34.30997],[134.12652,34.30399],[134.12548,34.29862],[134.12197,34.29745],[134.12223,34.29184],[134.11921,34.28764],[134.11246,34.26227],[134.11044,34.24472],[134.11462,34.23825],[134.11113,34.23183],[134.11438,34.22649],[134.11208,34.22175],[134.10561,34.2146],[134.10523,34.20164],[134.10932,34.19827],[134.11042,34.19303],[134.10969,34.18338],[134.11235,34.17814],[134.11815,34.17321],[134.12233,34.16745],[134.12821,34.15269],[134.13526,34.15154],[134.1438,34.15865],[134.14574,34.16453],[134.15544,34.16675]]]},"properties":{"pref":"香川県","county":"木田郡","city":"三木町","code5":"37341","code6":"373419"}},
{"type":"Feature","geometry":{"type":"MultiPolygon","coordinates":[[[[133.96981,34.47799],[133.96577,34.47701],[133.9669,34.46648],[133.96992,34.46036],[133.97454,34.45739],[133.97329,34.4531],[133.97628,34.44902],[133.9843,34.44628],[134.00255,34.44518],[134.00896,34.44757],[134.01174,34.45423],[134.00568,34.45306],[133.99974,34.45489],[133.99926,34.46098],[133.98313,34.47197],[133.98233,34.47562],[133.97192,34.47312],[133.96981,34.47799]]],[[[134.00756,34.49804],[134.01055,34.49418],[134.01106,34.48716],[134.01537,34.48128],[134.01911,34.48008],[134.02028,34.48922],[134.02416,34.50423],[134.02388,34.50684],[134.01944,34.50337],[134.01899,34.49821],[134.01196,34.49617],[134.00756,34.49804]]],[[[134.00435,34.47318],[133.99877,34.47007],[133.99985,34.46247],[134.00436,34.46203],[134.00874,34.47129],[134.00435,34.47318]]],[[[134.01363,34.44229],[134.00377,34.44014],[134.00712,34.43556],[134.01427,34.4399],[134.01363,34.44229]]],[[[133.97363,34.51252],[133.97063,34.50574],[133.9756,34.50527],[133.97363,34.51252]]]]},"properties":{"pref":"香川県","county":"香川郡","city":"直島町","code5":"37364","code6":"373648"}},
{"type":"Feature","geometry":{"type":"MultiPolygon","coordinates":[[[[133.83639,34.28793],[133.84132,34.29338],[133.8393,34.29978],[133.8434,34.30659],[133.83706,34.31566],[133.82929,34.32347],[133.81926,34.32102],[133.81525,34.31732],[133.80729,34.31344],[133.8063,34.31063],[133.8074,34.30392],[133.81053,34.30086],[133.81566,34.30471],[133.82223,34.30095],[133.82351,34.29689],[133.83639,34.28793]]],[[[133.82094,34.33794],[133.8227,34.32557],[133.82768,34.32613],[133.82585,34.33751],[133.82094,34.33794]]]]},"properties":{"pref":"香川県","county":"綾歌郡","city":"宇多津町","code5":"37386","code6":"373869"}},
{"type":"Feature","geometry":{"type":"Polygon","coordinates":[[[133.94398,34.27849],[133.93783,34.26892],[133.93283,34.26648],[133.93047,34.26985],[133.92327,34.26548],[133.91348,34.26564],[133.90367,34.26406],[133.90288,34.25729],[133.89785,34.24956],[133.89442,34.2486],[133.90062,34.2405],[133.89753,34.23714],[133.89874,34.22163],[133.89553,34.21353],[133.90068,34.20904],[133.90233,34.20445],[133.91801,34.19681],[133.92858,34.19274],[133.92711,34.19019],[133.93333,34.18628],[133.934,34.18123],[133.93895,34.17974],[133.94694,34.17057],[133.9475,34.16179],[133.95315,34.1585],[133.96171,34.15878],[133.96796,34.15695],[133.97557,34.15693],[133.98229,34.15488],[133.98831,34.14789],[133.99377,34.14453],[133.99833,34.14654],[134.01007,34.14375],[134.01114,34.14063],[134.01659,34.13821],[134.02458,34.13966],[134.02088,34.15812],[134.02563,34.16106],[134.02773,34.17189],[134.02416,34.17439],[134.02331,34.18025],[134.02539,34.18778],[134.01709,34.18986],[134.01294,34.21159],[134.00889,34.21685],[134.00437,34.21856],[133.99396,34.23019],[133.993,34.23546],[133.98914,34.23583],[133.98515,34.24203],[133.98836,34.253],[133.99344,34.26025],[133.98773,34.26197],[133.98386,34.26613],[133.97893,34.26399],[133.97046,34.26323],[133.96578,34.26574],[133.94395,34.27198],[133.94398,34.27849]]]},"properties":{"pref":"香川県","county":"綾歌郡","city":"綾川町","code5":"37387","code6":"373877"}},
{"type":"Feature","geometry":{"type":"Polygon","coordinates":[[[133.80013,34.18799],[133.80705,34.18225],[133.80941,34.17846],[133.81532,34.17534],[133.82226,34.17516],[133.82717,34.18212],[133.83078,34.18131],[133.83604,34.1856],[133.82863,34.20032],[133.82754,34.20595],[133.82006,34.20775],[133.82011,34.21362],[133.81406,34.22269],[133.80522,34.21989],[133.80757,34.21162],[133.81474,34.19753],[133.80013,34.18799]]]},"properties":{"pref":"香川県","county":"仲多度郡","city":"琴平町","code5":"37403","code6":"374032"}},
{"type":"Feature","geometry":{"type":"MultiPolygon","coordinates":[[[[133.76423,34.28439],[133.75175,34.27875],[133.74677,34.28537],[133.73133,34.27869],[133.73086,34.27155],[133.73699,34.2652],[133.73562,34.26144],[133.72008,34.25317],[133.71336,34.24735],[133.70889,34.24087],[133.71977,34.22997],[133.72861,34.23281],[133.73543,34.23514],[133.74089,34.24363],[133.74703,34.24248],[133.75041,34.23747],[133.75533,34.24048],[133.75349,34.24611],[133.76452,34.2507],[133.76891,34.24691],[133.77654,34.24918],[133.77578,34.25666],[133.77595,34.26313],[133.77246,34.26741],[133.77265,34.2722],[133.76423,34.28439]]],[[[133.66433,34.32554],[133.66167,34.32403],[133.66445,34.31676],[133.67052,34.30792],[133.68013,34.30582],[133.68267,34.31023],[133.68013,34.31711],[133.66433,34.32554]]],[[[133.62132,34.35439],[133.61737,34.35109],[133.62077,34.342],[133.61996,34.33354],[133.62741,34.33137],[133.63172,34.33898],[133.62328,34.34966],[133.62132,34.35439]]]]},"properties":{"pref":"香川県","county":"仲多度郡","city":"多度津町","code5":"37404","code6":"374041"}},
{"type":"Feature","geometry":{"type":"Polygon","coordinates":[[[134.04988,34.11742],[134.03607,34.12895],[134.0343,34.13475],[134.02962,34.13982],[134.02458,34.13966],[134.01659,34.13821],[134.01114,34.14063],[134.01007,34.14375],[133.99833,34.14654],[133.99377,34.14453],[133.98831,34.14789],[133.98229,34.15488],[133.97557,34.15693],[133.96796,34.15695],[133.96171,34.15878],[133.95315,34.1585],[133.9475,34.16179],[133.94694,34.17057],[133.93895,34.17974],[133.934,34.18123],[133.93333,34.18628],[133.92711,34.19019],[133.92858,34.19274],[133.91801,34.19681],[133.90233,34.20445],[133.90068,34.20904],[133.89323,34.2082],[133.88275,34.20447],[133.86866,34.20263],[133.85026,34.20475],[133.85104,34.20723],[133.84208,34.21583],[133.83248,34.22045],[133.8257,34.22052],[133.8218,34.2257],[133.81757,34.22622],[133.81406,34.22269],[133.82011,34.21362],[133.82006,34.20775],[133.82754,34.20595],[133.82863,34.20032],[133.83604,34.1856],[133.83078,34.18131],[133.82717,34.18212],[133.82226,34.17516],[133.81532,34.17534],[133.80941,34.17846],[133.80705,34.18225],[133.80623,34.17524],[133.80279,34.16996],[133.80387,34.16331],[133.80072,34.15618],[133.80254,34.15293],[133.8085,34.15724],[133.81605,34.14453],[133.81831,34.12827],[133.81574,34.12221],[133.81718,34.11463],[133.82013,34.10904],[133.81837,34.10284],[133.82223,34.09219],[133.83413,34.09774],[133.84215,34.09497],[133.84949,34.09915],[133.85484,34.10416],[133.86302,34.10534],[133.86708,34.10015],[133.87392,34.10114],[133.89285,34.1082],[133.90309,34.10007],[133.91156,34.10441],[133.9223,34.11441],[133.93197,34.11601],[133.93977,34.11489],[133.93764,34.10818],[133.94443,34.10175],[133.94389,34.0945],[133.95648,34.0881],[133.95912,34.08249],[133.96905,34.08125],[133.97305,34.07302],[133.97694,34.07576],[133.98875,34.07487],[133.99393,34.07262],[133.99963,34.07479],[134.00219,34.08087],[134.01043,34.08677],[134.02178,34.08447],[134.02779,34.08743],[134.02561,34.09189],[134.03125,34.09739],[134.04004,34.10086],[134.04223,34.11032],[134.04988,34.11742]]]},"properties":{"pref":"香川県","county":"仲多度郡","city":"まんのう町","code5":"37406","code6":"374067"}}
]}