{"type":"FeatureCollection", "features": [
{"type":"Feature","geometry":{"type":"MultiPolygon","coordinates":[[[[132.92559,33.90554],[132.92395,33.9082],[132.9268,33.91398],[132.92503,33.91997],[132.9244,33.93004],[132.91628,33.93703],[132.88727,33.95091],[132.88502,33.96111],[132.8883,33.97662],[132.88737,33.98021],[132.88982,33.9884],[132.88067,33.99606],[132.86534,33.99449],[132.85811,33.99569],[132.85077,33.99895],[132.84189,34.00472],[132.83414,33.99858],[132.82241,34.0032],[132.81773,34.01176],[132.80849,34.01862],[132.80264,34.01192],[132.79417,34.00954],[132.78605,34.009],[132.77719,34.00364],[132.77063,33.9966],[132.77431,33.99232],[132.77401,33.98652],[132.77094,33.98244],[132.76975,33.97618],[132.77163,33.96475],[132.76933,33.95758],[132.76834,33.94833],[132.76215,33.9367],[132.76119,33.93011],[132.75668,33.92386],[132.75771,33.91768],[132.75523,33.91132],[132.74724,33.90568],[132.73199,33.90284],[132.71072,33.90668],[132.70954,33.89992],[132.70476,33.88909],[132.70059,33.88595],[132.69924,33.8775],[132.70751,33.8745],[132.71253,33.85881],[132.71039,33.85408],[132.69616,33.85201],[132.69549,33.84836],[132.69991,33.84608],[132.70079,33.83881],[132.69474,33.83973],[132.68733,33.83412],[132.69209,33.82978],[132.69289,33.8242],[132.68904,33.81795],[132.69297,33.81688],[132.68965,33.80916],[132.68578,33.80499],[132.70569,33.80552],[132.71115,33.80757],[132.71945,33.80828],[132.72754,33.80528],[132.74913,33.80545],[132.75991,33.80189],[132.77065,33.79568],[132.79006,33.78651],[132.79912,33.78604],[132.8027,33.7821],[132.79657,33.77818],[132.79699,33.7697],[132.79455,33.76489],[132.79741,33.76242],[132.79878,33.75568],[132.80499,33.75332],[132.80718,33.74874],[132.80674,33.74208],[132.81745,33.73256],[132.81833,33.72511],[132.82306,33.72242],[132.82561,33.71547],[132.82141,33.70783],[132.82447,33.7036],[132.82392,33.69471],[132.83195,33.68736],[132.83639,33.68879],[132.8487,33.68875],[132.85329,33.6917],[132.85245,33.69821],[132.8564,33.70409],[132.86154,33.70659],[132.86508,33.71121],[132.8715,33.71311],[132.87093,33.71732],[132.87305,33.72633],[132.87508,33.72795],[132.8736,33.73258],[132.86544,33.73927],[132.86107,33.74902],[132.85549,33.75048],[132.853,33.7564],[132.84721,33.758],[132.84835,33.76321],[132.84299,33.77143],[132.8373,33.77517],[132.83642,33.77854],[132.84045,33.78258],[132.82478,33.78516],[132.82479,33.78905],[132.82999,33.79184],[132.83245,33.79619],[132.84122,33.79673],[132.86005,33.80546],[132.86511,33.80653],[132.86634,33.81338],[132.86985,33.81901],[132.86852,33.82391],[132.87276,33.82586],[132.87508,33.83398],[132.88447,33.84735],[132.88197,33.85444],[132.87594,33.86369],[132.88029,33.87506],[132.88513,33.88128],[132.90102,33.89001],[132.9063,33.88916],[132.9209,33.8974],[132.92003,33.9001],[132.92559,33.90554]]],[[[132.64565,34.01828],[132.64516,34.01034],[132.63295,34.00588],[132.63321,34.00331],[132.62257,33.99321],[132.61523,33.99197],[132.61024,33.99333],[132.60474,33.98401],[132.59626,33.97822],[132.58727,33.9698],[132.57794,33.96842],[132.58649,33.96248],[132.5923,33.95554],[132.59038,33.95228],[132.60066,33.94275],[132.60374,33.94392],[132.60493,33.95067],[132.61688,33.95763],[132.62449,33.9577],[132.63298,33.95383],[132.63607,33.95677],[132.64166,33.95657],[132.64246,33.96293],[132.64076,33.97046],[132.63443,33.97069],[132.62999,33.97361],[132.63136,33.97703],[132.64244,33.97889],[132.64479,33.98165],[132.64064,33.99328],[132.64083,34.00312],[132.65193,34.01328],[132.64565,34.01828]]],[[[132.66959,33.87342],[132.67443,33.87535],[132.68261,33.87404],[132.68846,33.87753],[132.68195,33.87983],[132.67256,33.89282],[132.67404,33.90092],[132.6781,33.90313],[132.68336,33.90236],[132.69361,33.90553],[132.69057,33.91328],[132.69512,33.91758],[132.6955,33.92528],[132.69118,33.92653],[132.68778,33.92143],[132.6795,33.92106],[132.68048,33.91366],[132.67377,33.90924],[132.65985,33.91031],[132.65849,33.90535],[132.66601,33.90092],[132.66888,33.89627],[132.66559,33.89083],[132.66682,33.88821],[132.66246,33.87397],[132.66959,33.87342]]],[[[132.56173,33.99419],[132.55356,33.99356],[132.55079,33.98994],[132.54465,33.99187],[132.53416,33.98659],[132.53717,33.98324],[132.54064,33.97395],[132.53357,33.96886],[132.54122,33.96098],[132.54411,33.96869],[132.55564,33.97855],[132.55673,33.98546],[132.56302,33.99006],[132.56173,33.99419]]],[[[132.66179,33.97383],[132.6584,33.96938],[132.65228,33.96744],[132.64858,33.96098],[132.6495,33.95734],[132.65668,33.95083],[132.66183,33.95223],[132.66386,33.95602],[132.67313,33.95801],[132.6725,33.97009],[132.66179,33.97383]]],[[[132.51252,33.99037],[132.50766,33.98736],[132.50364,33.98822],[132.49606,33.97933],[132.50062,33.975],[132.49781,33.96996],[132.50526,33.97062],[132.50551,33.97407],[132.51323,33.97559],[132.513,33.98143],[132.52015,33.9827],[132.52295,33.98944],[132.51696,33.98861],[132.51252,33.99037]]],[[[132.54978,33.9382],[132.54768,33.93564],[132.53808,33.93335],[132.52592,33.93414],[132.5233,33.93676],[132.51769,33.93259],[132.52681,33.92626],[132.53572,33.92685],[132.54309,33.93239],[132.55294,33.93313],[132.54978,33.9382]]],[[[132.68958,33.97743],[132.68864,33.97195],[132.68325,33.96986],[132.6863,33.96549],[132.69774,33.96572],[132.69278,33.97608],[132.68958,33.97743]]],[[[132.53398,33.85275],[132.52963,33.85567],[132.52581,33.85183],[132.53234,33.84454],[132.53398,33.85275]]],[[[132.6389,33.89472],[132.64043,33.88718],[132.64612,33.89077],[132.6389,33.89472]]]]},"properties":{"pref":"愛媛県","city":"松山市","code5":"38201","code6":"382019"}},
{"type":"Feature","geometry":{"type":"MultiPolygon","coordinates":[[[[132.92559,33.90554],[132.93691,33.90191],[132.94152,33.90684],[132.94994,33.90804],[132.95746,33.9059],[132.96006,33.90267],[132.96541,33.90677],[132.9706,33.90516],[132.97562,33.91106],[132.97499,33.93542],[132.97882,33.94067],[132.97863,33.94836],[132.99094,33.95695],[132.99688,33.95557],[133.00548,33.95793],[133.00776,33.95475],[133.01773,33.9616],[133.02387,33.96256],[133.03383,33.96051],[133.03768,33.96648],[133.04136,33.9776],[133.05202,33.98145],[133.06659,33.98267],[133.05968,33.99298],[133.06034,33.99595],[133.06033,33.99597],[133.05141,34.00766],[133.04267,34.02587],[133.03808,34.03249],[133.03729,34.03808],[133.02995,34.04611],[133.03427,34.04904],[133.03151,34.05296],[133.02529,34.04996],[133.0228,34.06259],[133.01272,34.06724],[133.00679,34.06591],[132.99538,34.08163],[132.99185,34.09097],[132.98469,34.09761],[132.98152,34.10768],[132.97736,34.11639],[132.973,34.11521],[132.96921,34.10958],[132.96535,34.11878],[132.95313,34.12387],[132.94922,34.12908],[132.94791,34.13427],[132.94159,34.14204],[132.93906,34.13774],[132.93627,34.12682],[132.92829,34.12334],[132.92309,34.11585],[132.9171,34.11795],[132.89656,34.12068],[132.89686,34.11476],[132.91074,34.11326],[132.92624,34.10942],[132.93144,34.09429],[132.93024,34.08837],[132.9203,34.08712],[132.92304,34.08066],[132.92219,34.07457],[132.91636,34.06356],[132.89884,34.06666],[132.88577,34.05862],[132.86869,34.05648],[132.86509,34.05922],[132.8574,34.0547],[132.85542,34.04602],[132.84998,34.04613],[132.84029,34.04012],[132.83739,34.03353],[132.83052,34.03355],[132.82429,34.0267],[132.81857,34.02509],[132.81567,34.02116],[132.80849,34.01862],[132.81773,34.01176],[132.82241,34.0032],[132.83414,33.99858],[132.84189,34.00472],[132.85077,33.99895],[132.85811,33.99569],[132.86534,33.99449],[132.88067,33.99606],[132.88982,33.9884],[132.88737,33.98021],[132.8883,33.97662],[132.88502,33.96111],[132.88727,33.95091],[132.91628,33.93703],[132.9244,33.93004],[132.92503,33.91997],[132.9268,33.91398],[132.92395,33.9082],[132.92559,33.90554]]],[[[132.97286,34.19559],[132.98229,34.20002],[132.99283,34.20189],[132.99614,34.20686],[133.00047,34.20933],[133.02026,34.21115],[133.03247,34.2085],[133.04112,34.21115],[133.04546,34.21478],[133.05013,34.21415],[133.05854,34.22067],[133.05238,34.22722],[133.05382,34.23295],[133.05178,34.23982],[133.05473,34.24799],[133.05393,34.25314],[133.05728,34.25826],[133.04817,34.25903],[133.04484,34.26229],[133.0417,34.26932],[133.03618,34.27692],[133.03532,34.28502],[133.02937,34.29283],[133.02595,34.29506],[133.01134,34.29971],[133.0048,34.29675],[132.99926,34.29054],[132.99519,34.28911],[132.98606,34.29114],[132.98073,34.28666],[132.98645,34.27482],[132.98472,34.26972],[132.97823,34.27137],[132.97042,34.27034],[132.96487,34.2625],[132.97155,34.25799],[132.9868,34.26339],[132.99254,34.25727],[132.98907,34.25261],[132.99532,34.24712],[132.99234,34.23692],[132.99058,34.22498],[132.98195,34.2242],[132.97451,34.22622],[132.96485,34.2271],[132.96334,34.22047],[132.95683,34.22408],[132.953,34.22108],[132.94663,34.20944],[132.95133,34.19761],[132.95866,34.19216],[132.96926,34.19378],[132.97286,34.19559]]],[[[133.01569,34.12906],[133.02243,34.12664],[133.02157,34.12056],[133.013,34.11391],[133.01473,34.10941],[133.02954,34.11013],[133.03497,34.1076],[133.03745,34.11296],[133.04275,34.11317],[133.04541,34.12021],[133.05371,34.123],[133.06105,34.13445],[133.06858,34.13701],[133.07364,34.14208],[133.07895,34.14476],[133.08058,34.15049],[133.08681,34.15726],[133.10151,34.15921],[133.10689,34.16445],[133.10689,34.17442],[133.09897,34.17498],[133.09266,34.17354],[133.09049,34.17023],[133.08329,34.16942],[133.07614,34.17695],[133.07572,34.18622],[133.06855,34.19173],[133.05458,34.19176],[133.03698,34.19532],[133.03024,34.19336],[133.02757,34.18529],[133.02186,34.18304],[133.02081,34.17819],[133.02635,34.17256],[133.03374,34.17187],[133.03582,34.16448],[133.04005,34.15974],[133.03963,34.15335],[133.03348,34.15103],[133.03111,34.1564],[133.02639,34.15785],[133.02424,34.14917],[133.01636,34.14014],[133.01928,34.1354],[133.01569,34.12906]]],[[[133.06589,34.21714],[133.05727,34.2154],[133.05423,34.21203],[133.05978,34.20646],[133.07007,34.20883],[133.07733,34.19737],[133.08316,34.19365],[133.09532,34.20441],[133.10121,34.2027],[133.10505,34.19456],[133.11107,34.19134],[133.11387,34.19438],[133.12368,34.19408],[133.12564,34.19929],[133.11978,34.20642],[133.13289,34.21282],[133.12778,34.21639],[133.11829,34.2165],[133.10874,34.22245],[133.11012,34.22734],[133.1068,34.23181],[133.11024,34.23631],[133.10538,34.23915],[133.10159,34.23547],[133.09649,34.23833],[133.09347,34.23817],[133.08764,34.23316],[133.0788,34.23004],[133.07347,34.23125],[133.06905,34.23593],[133.06154,34.23268],[133.05928,34.22664],[133.06588,34.21718],[133.06589,34.21714]]],[[[132.87318,34.19737],[132.86979,34.19388],[132.86345,34.19451],[132.86387,34.19025],[132.87004,34.18612],[132.87549,34.17878],[132.87931,34.17698],[132.88466,34.18485],[132.89199,34.18381],[132.89402,34.19051],[132.89045,34.19257],[132.88221,34.19108],[132.87318,34.19737]]],[[[132.92385,34.20207],[132.91919,34.1987],[132.92161,34.19122],[132.9218,34.18412],[132.92978,34.18268],[132.93426,34.18495],[132.93064,34.18894],[132.92886,34.19535],[132.92385,34.20207]]],[[[132.99788,34.15864],[132.99155,34.15589],[132.98998,34.15125],[133.00646,34.1469],[133.01094,34.15287],[133.00362,34.15396],[132.99788,34.15864]]],[[[133.08834,34.19487],[133.08261,34.18521],[133.0854,34.18161],[133.09342,34.18776],[133.08834,34.19487]]],[[[133.1813,34.11191],[133.17783,34.10771],[133.18258,34.10343],[133.18788,34.10276],[133.18735,34.10797],[133.1813,34.11191]]],[[[132.90511,34.19425],[132.89599,34.18937],[132.89849,34.18547],[132.90714,34.18896],[132.90511,34.19425]]],[[[132.94982,34.24942],[132.94779,34.24413],[132.95449,34.24286],[132.9551,34.24747],[132.94982,34.24942]]],[[[133.19136,34.12336],[133.18384,34.12225],[133.18037,34.1163],[133.18607,34.11591],[133.18618,34.11985],[133.19136,34.12336]]]]},"properties":{"pref":"愛媛県","city":"今治市","code5":"38202","code6":"382027"}},
{"type":"Feature","geometry":{"type":"MultiPolygon","coordinates":[[[[132.65693,33.33234],[132.64376,33.32728],[132.62806,33.33104],[132.62186,33.3301],[132.6096,33.33175],[132.60375,33.33061],[132.60114,33.32669],[132.58278,33.32712],[132.57602,33.32952],[132.56949,33.32633],[132.56336,33.32651],[132.55373,33.32436],[132.54622,33.32696],[132.53568,33.3283],[132.5257,33.33585],[132.5197,33.33777],[132.51353,33.3348],[132.50716,33.33483],[132.50713,33.32998],[132.50155,33.32634],[132.49824,33.31193],[132.49824,33.31191],[132.49824,33.31183],[132.50464,33.31666],[132.51211,33.3189],[132.52237,33.31584],[132.52651,33.31278],[132.52816,33.30658],[132.52416,33.30419],[132.51234,33.30437],[132.50839,33.30608],[132.50544,33.30099],[132.48941,33.29459],[132.48308,33.28963],[132.4838,33.2822],[132.47959,33.27997],[132.47747,33.27524],[132.47281,33.27218],[132.47521,33.26815],[132.46969,33.2572],[132.48401,33.26628],[132.47574,33.26984],[132.48292,33.27487],[132.487,33.27405],[132.4889,33.26935],[132.49374,33.27108],[132.50377,33.26803],[132.50332,33.26251],[132.50667,33.25966],[132.51541,33.26005],[132.5192,33.26168],[132.53472,33.26502],[132.54286,33.26921],[132.54095,33.25884],[132.53686,33.256],[132.52333,33.25292],[132.52,33.24981],[132.523,33.24511],[132.53067,33.24565],[132.53379,33.23973],[132.53883,33.23513],[132.54567,33.23311],[132.55003,33.23391],[132.55111,33.22734],[132.55446,33.22224],[132.54713,33.22271],[132.54328,33.22626],[132.53877,33.22558],[132.54335,33.21398],[132.53385,33.21743],[132.52723,33.21391],[132.51506,33.2139],[132.51189,33.21325],[132.509,33.20678],[132.50386,33.20513],[132.50364,33.20452],[132.50425,33.2033],[132.50374,33.20293],[132.50098,33.20373],[132.50314,33.2019],[132.5044,33.20138],[132.50472,33.20064],[132.50551,33.19665],[132.49343,33.19571],[132.48928,33.19978],[132.49261,33.19321],[132.50196,33.19167],[132.50198,33.19167],[132.50856,33.19346],[132.50855,33.19341],[132.50824,33.19331],[132.50495,33.19103],[132.51063,33.18554],[132.50976,33.17598],[132.5149,33.17245],[132.50129,33.17013],[132.50359,33.17389],[132.50277,33.18102],[132.49885,33.18025],[132.49515,33.17382],[132.49674,33.17129],[132.48675,33.16443],[132.47716,33.1698],[132.4835,33.18088],[132.47943,33.18261],[132.4702,33.17642],[132.46529,33.18069],[132.45963,33.18336],[132.45533,33.19535],[132.4573,33.19688],[132.45458,33.20368],[132.45472,33.20945],[132.45111,33.20238],[132.44368,33.20162],[132.43651,33.20585],[132.42269,33.21097],[132.4117,33.20652],[132.39523,33.20629],[132.39361,33.20131],[132.38977,33.2],[132.38975,33.19998],[132.39146,33.19726],[132.39553,33.19777],[132.39884,33.1937],[132.39562,33.18718],[132.40101,33.18469],[132.40732,33.18946],[132.41515,33.19041],[132.41778,33.19728],[132.41022,33.19575],[132.40485,33.19983],[132.4036,33.20537],[132.41464,33.20402],[132.42014,33.20845],[132.43113,33.20312],[132.44284,33.18999],[132.44751,33.19166],[132.44745,33.191],[132.44765,33.18439],[132.4533,33.18161],[132.45422,33.18101],[132.45423,33.181],[132.45542,33.18025],[132.45819,33.17569],[132.46397,33.17244],[132.46427,33.17119],[132.45678,33.16839],[132.45153,33.17194],[132.44215,33.16795],[132.43653,33.16966],[132.43337,33.16454],[132.434,33.1584],[132.42635,33.15845],[132.42526,33.15528],[132.44299,33.14864],[132.44414,33.14674],[132.44207,33.1379],[132.45189,33.13176],[132.45524,33.13502],[132.45361,33.14251],[132.46339,33.13831],[132.46727,33.14115],[132.4735,33.13568],[132.48216,33.13841],[132.48675,33.13679],[132.49327,33.13796],[132.50018,33.13723],[132.49756,33.13192],[132.4998,33.12724],[132.49918,33.12038],[132.49169,33.12021],[132.4886,33.12409],[132.48366,33.1247],[132.48082,33.11968],[132.46989,33.12266],[132.46903,33.12621],[132.46245,33.12695],[132.4591,33.12493],[132.46413,33.11834],[132.46764,33.1169],[132.4662,33.11199],[132.47514,33.10706],[132.47092,33.09938],[132.4799,33.09565],[132.46842,33.08973],[132.47035,33.0836],[132.47,33.07606],[132.47822,33.07897],[132.48134,33.0765],[132.48412,33.06743],[132.48255,33.05982],[132.47807,33.06482],[132.47239,33.06021],[132.4621,33.06265],[132.45655,33.05685],[132.44868,33.05544],[132.44395,33.05718],[132.43754,33.05488],[132.42822,33.05675],[132.42762,33.06488],[132.42492,33.06729],[132.41936,33.06465],[132.41352,33.06421],[132.41356,33.07232],[132.40591,33.06955],[132.40534,33.0608],[132.39719,33.05729],[132.39795,33.0543],[132.40352,33.05142],[132.40493,33.04739],[132.40299,33.03982],[132.39812,33.04078],[132.39859,33.03329],[132.396,33.0274],[132.38615,33.02586],[132.37859,33.02288],[132.39334,33.02266],[132.39945,33.02896],[132.4005,33.03515],[132.40517,33.03943],[132.40612,33.04423],[132.40334,33.05628],[132.41005,33.06016],[132.42227,33.05988],[132.42335,33.05716],[132.43403,33.05215],[132.44066,33.05378],[132.45154,33.05152],[132.45965,33.05257],[132.46286,33.05544],[132.47016,33.0555],[132.47433,33.05315],[132.48122,33.05302],[132.49391,33.04444],[132.50347,33.04237],[132.50662,33.03898],[132.51916,33.04146],[132.52411,33.03833],[132.52866,33.03889],[132.53351,33.03559],[132.54509,33.04328],[132.56328,33.04001],[132.57648,33.04281],[132.57878,33.04758],[132.58256,33.04654],[132.5904,33.05056],[132.59521,33.05136],[132.59771,33.05472],[132.60713,33.0542],[132.61134,33.05167],[132.61874,33.05098],[132.63736,33.06345],[132.65164,33.05694],[132.65767,33.05706],[132.66233,33.06347],[132.66664,33.06623],[132.6695,33.07118],[132.66668,33.08048],[132.67005,33.08551],[132.66931,33.09239],[132.66595,33.09948],[132.66327,33.10914],[132.65389,33.11041],[132.64664,33.11557],[132.6444,33.12219],[132.63828,33.12791],[132.63748,33.13239],[132.62982,33.13229],[132.62822,33.13476],[132.63229,33.14924],[132.62757,33.15345],[132.62479,33.15935],[132.61933,33.16268],[132.61486,33.16929],[132.61949,33.17347],[132.61944,33.18088],[132.63566,33.1864],[132.63709,33.18476],[132.64925,33.19109],[132.65137,33.19423],[132.65702,33.19473],[132.6686,33.2048],[132.65865,33.21374],[132.65345,33.21421],[132.63641,33.21232],[132.63465,33.20758],[132.62566,33.20271],[132.61655,33.20089],[132.61227,33.20304],[132.61419,33.2104],[132.61488,33.21952],[132.61264,33.23601],[132.60175,33.25185],[132.60815,33.26143],[132.61615,33.26085],[132.61933,33.26451],[132.62027,33.2782],[132.62513,33.27695],[132.63632,33.27777],[132.63762,33.27534],[132.65395,33.2748],[132.65514,33.27985],[132.65972,33.28337],[132.66595,33.2805],[132.67083,33.27493],[132.67342,33.28364],[132.66651,33.30217],[132.66623,33.3116],[132.66809,33.32309],[132.66256,33.32905],[132.65693,33.33234]]],[[[132.51477,33.23651],[132.51148,33.23194],[132.51116,33.22747],[132.52017,33.2179],[132.52246,33.22141],[132.53389,33.22448],[132.53439,33.2277],[132.52624,33.23848],[132.51857,33.24091],[132.51567,33.23742],[132.51477,33.23651]]],[[[132.37533,33.20804],[132.38028,33.20821],[132.38273,33.21164],[132.37714,33.21743],[132.37653,33.21713],[132.36616,33.21238],[132.36499,33.21122],[132.36331,33.2074],[132.35463,33.20572],[132.35246,33.20772],[132.34725,33.20597],[132.3489,33.20599],[132.35431,33.20381],[132.35364,33.19983],[132.3557,33.20026],[132.36067,33.19392],[132.36219,33.20337],[132.36822,33.20442],[132.37533,33.20804]]],[[[132.26207,33.18381],[132.26428,33.17994],[132.26429,33.17992],[132.26305,33.1734],[132.26613,33.16832],[132.27398,33.16982],[132.28234,33.16931],[132.28923,33.16628],[132.29307,33.16958],[132.29535,33.17886],[132.28891,33.17525],[132.27702,33.17127],[132.27171,33.17724],[132.26207,33.18381]]],[[[132.26207,33.18381],[132.26205,33.18383],[132.26202,33.18375],[132.26203,33.18374],[132.26207,33.18381]]],[[[132.31199,33.14867],[132.30545,33.15286],[132.30482,33.15958],[132.29262,33.1601],[132.28799,33.16142],[132.2929,33.15432],[132.29556,33.15422],[132.29559,33.15423],[132.30334,33.14976],[132.31199,33.14867]]],[[[132.33537,33.10542],[132.33557,33.10911],[132.32763,33.10907],[132.3187,33.10699],[132.31806,33.10208],[132.32865,33.10421],[132.33536,33.10541],[132.33537,33.10542]]],[[[132.42217,33.1138],[132.4116,33.1104],[132.40817,33.10629],[132.41348,33.10261],[132.41644,33.10531],[132.41674,33.11135],[132.42217,33.1138]]],[[[132.39437,33.16286],[132.39441,33.16287],[132.39445,33.16285],[132.39447,33.16283],[132.39451,33.16281],[132.3946,33.16276],[132.39464,33.16274],[132.39465,33.16275],[132.39484,33.16276],[132.39503,33.16275],[132.39514,33.16277],[132.39524,33.16278],[132.39527,33.16275],[132.39529,33.16273],[132.39523,33.16259],[132.39523,33.16256],[132.39521,33.16252],[132.3952,33.16242],[132.39531,33.16226],[132.3956,33.1621],[132.39572,33.1621],[132.39591,33.1622],[132.39594,33.16222],[132.39614,33.16237],[132.39614,33.1624],[132.39615,33.16243],[132.39617,33.16246],[132.39622,33.16256],[132.39621,33.16259],[132.3962,33.16263],[132.39618,33.16266],[132.39598,33.16281],[132.39597,33.16285],[132.39601,33.1629],[132.39617,33.16291],[132.39635,33.16298],[132.39669,33.16313],[132.3967,33.16314],[132.39673,33.16315],[132.39692,33.16318],[132.39711,33.16323],[132.39725,33.16327],[132.39716,33.1632],[132.39706,33.16316],[132.39705,33.16302],[132.39715,33.16306],[132.3974,33.16322],[132.3974,33.16326],[132.39739,33.1633],[132.39726,33.1633],[132.39727,33.16338],[132.39728,33.16346],[132.39725,33.16356],[132.39719,33.16361],[132.39719,33.16362],[132.39745,33.16386],[132.39746,33.1639],[132.39749,33.16395],[132.39764,33.16399],[132.39759,33.16388],[132.3976,33.16386],[132.39761,33.16382],[132.39793,33.16389],[132.39793,33.16392],[132.39776,33.16412],[132.39762,33.16428],[132.39764,33.16435],[132.39765,33.16438],[132.39766,33.16441],[132.39767,33.16444],[132.39795,33.16464],[132.39797,33.16465],[132.39798,33.16465],[132.39821,33.16476],[132.39815,33.16484],[132.39793,33.16487],[132.39793,33.1649],[132.39794,33.16493],[132.39774,33.16513],[132.39774,33.16514],[132.39783,33.16526],[132.39808,33.1653],[132.39822,33.16511],[132.39825,33.16507],[132.39827,33.16506],[132.39848,33.1652],[132.39839,33.16531],[132.39836,33.16542],[132.39833,33.16544],[132.39805,33.16556],[132.39802,33.16561],[132.39797,33.16567],[132.39742,33.16732],[132.39743,33.16735],[132.39741,33.16745],[132.3974,33.16748],[132.39738,33.16752],[132.39736,33.16755],[132.39734,33.16757],[132.39731,33.1676],[132.39714,33.16765],[132.39711,33.16761],[132.39503,33.16596],[132.39414,33.16564],[132.39376,33.16565],[132.39375,33.16563],[132.39369,33.16557],[132.39337,33.16531],[132.39329,33.16529],[132.39323,33.16525],[132.3932,33.16522],[132.3932,33.16516],[132.39311,33.16489],[132.39274,33.16461],[132.39275,33.16452],[132.39263,33.16432],[132.39207,33.16439],[132.39204,33.16435],[132.39203,33.16432],[132.39197,33.16423],[132.39199,33.1642],[132.39202,33.16418],[132.39217,33.1641],[132.39218,33.16406],[132.39218,33.16404],[132.3922,33.16396],[132.39224,33.16388],[132.39216,33.16376],[132.39217,33.16374],[132.39218,33.16371],[132.3922,33.16368],[132.39222,33.16365],[132.39237,33.1635],[132.39268,33.16348],[132.39279,33.16351],[132.39282,33.16349],[132.39284,33.16344],[132.39284,33.16341],[132.39285,33.16337],[132.39286,33.16334],[132.39291,33.16328],[132.39295,33.16324],[132.39311,33.16316],[132.39314,33.16312],[132.39317,33.1631],[132.39321,33.16309],[132.39379,33.16326],[132.39389,33.16337],[132.39399,33.16346],[132.39402,33.16343],[132.39409,33.16333],[132.39411,33.1633],[132.39415,33.16325],[132.39419,33.16319],[132.39423,33.16313],[132.39425,33.1631],[132.3944,33.16288],[132.39437,33.16286]]],[[[132.40413,33.18278],[132.40079,33.1832],[132.40535,33.18181],[132.40537,33.18181],[132.40622,33.18185],[132.40724,33.18278],[132.40413,33.18278]]],[[[132.39437,33.16286],[132.39435,33.16287],[132.39433,33.16291],[132.39428,33.163],[132.39425,33.16302],[132.39423,33.16305],[132.39405,33.16318],[132.39394,33.16314],[132.39384,33.16303],[132.39383,33.163],[132.39383,33.16297],[132.3938,33.1629],[132.39379,33.16287],[132.39377,33.16284],[132.39376,33.16281],[132.39374,33.16278],[132.39374,33.16271],[132.39382,33.16264],[132.39383,33.16263],[132.39392,33.16257],[132.39402,33.16251],[132.39406,33.16246],[132.3941,33.16244],[132.39416,33.1624],[132.3942,33.16238],[132.39422,33.16236],[132.39449,33.16229],[132.3945,33.16236],[132.39449,33.16238],[132.39448,33.16242],[132.39448,33.16246],[132.39447,33.16249],[132.39447,33.16252],[132.39446,33.16256],[132.39446,33.16259],[132.39446,33.16263],[132.39445,33.16266],[132.39441,33.16276],[132.39437,33.16286]]]]},"properties":{"pref":"愛媛県","city":"宇和島市","code5":"38203","code6":"382035"}},
{"type":"Feature","geometry":{"type":"MultiPolygon","coordinates":[[[[132.42533,33.55161],[132.41827,33.5447],[132.41246,33.54447],[132.39532,33.53616],[132.39039,33.53188],[132.39095,33.52922],[132.37824,33.52615],[132.37746,33.524],[132.37085,33.52157],[132.36139,33.51579],[132.35748,33.51595],[132.35951,33.51123],[132.36689,33.5073],[132.36967,33.49871],[132.37441,33.49735],[132.37702,33.4911],[132.37713,33.4772],[132.37197,33.4698],[132.37292,33.46307],[132.37759,33.46182],[132.38283,33.4744],[132.39035,33.47698],[132.40199,33.47107],[132.4,33.46562],[132.39037,33.46834],[132.38736,33.46119],[132.38735,33.46118],[132.3943,33.45786],[132.40231,33.45952],[132.4082,33.45768],[132.41705,33.46177],[132.41763,33.45588],[132.40517,33.44554],[132.41621,33.44291],[132.40838,33.43667],[132.40408,33.43061],[132.40669,33.42551],[132.40022,33.42569],[132.39549,33.42938],[132.38626,33.41982],[132.39395,33.41323],[132.39384,33.40709],[132.38955,33.40443],[132.3963,33.39964],[132.39653,33.39715],[132.38949,33.39235],[132.38617,33.39244],[132.37941,33.38781],[132.37883,33.38481],[132.38663,33.38766],[132.38843,33.38534],[132.39801,33.38769],[132.39912,33.39098],[132.40937,33.3989],[132.4107,33.40856],[132.41504,33.41045],[132.42347,33.41761],[132.42689,33.41616],[132.4311,33.40801],[132.43682,33.40979],[132.44708,33.40781],[132.45152,33.40109],[132.46485,33.40516],[132.46895,33.40423],[132.47406,33.40756],[132.4827,33.40849],[132.48181,33.41192],[132.47573,33.41771],[132.47642,33.42069],[132.48271,33.42591],[132.48227,33.43089],[132.48632,33.43427],[132.48824,33.44256],[132.50225,33.45007],[132.4961,33.46186],[132.49874,33.46787],[132.49497,33.47251],[132.48647,33.476],[132.48759,33.4815],[132.48236,33.48339],[132.47341,33.48373],[132.46946,33.48192],[132.4618,33.48849],[132.46491,33.49364],[132.46693,33.50199],[132.4713,33.50528],[132.47854,33.50575],[132.48007,33.51751],[132.47908,33.52354],[132.47009,33.52597],[132.46929,33.53175],[132.46576,33.53495],[132.45497,33.53127],[132.44658,33.53571],[132.43734,33.53381],[132.42811,33.53996],[132.42936,33.55099],[132.42533,33.55161]]],[[[132.34374,33.38083],[132.34848,33.37274],[132.35339,33.37431],[132.35721,33.3723],[132.3632,33.37319],[132.36399,33.37622],[132.35772,33.37838],[132.35035,33.37777],[132.34374,33.38083]]],[[[132.34216,33.396],[132.33551,33.39129],[132.34039,33.38664],[132.34632,33.39523],[132.34216,33.396]]]]},"properties":{"pref":"愛媛県","city":"八幡浜市","code5":"38204","code6":"382043"}},
{"type":"Feature","geometry":{"type":"MultiPolygon","coordinates":[[[[133.3888,33.98583],[133.37842,33.98363],[133.37103,33.98075],[133.35636,33.97919],[133.35097,33.98366],[133.34609,33.99046],[133.33691,33.99206],[133.33735,33.98378],[133.33299,33.98374],[133.33315,33.99068],[133.32588,33.99383],[133.3205,33.99423],[133.31726,33.98897],[133.30995,33.98407],[133.29525,33.9813],[133.28982,33.98297],[133.28574,33.98027],[133.28012,33.98643],[133.27685,33.98072],[133.2703,33.98363],[133.26703,33.98024],[133.27265,33.97784],[133.26383,33.96989],[133.25571,33.98072],[133.2485,33.97493],[133.24983,33.9643],[133.24909,33.96067],[133.24304,33.95687],[133.23543,33.95612],[133.23416,33.95205],[133.23602,33.94688],[133.23388,33.93774],[133.24057,33.9383],[133.24414,33.93202],[133.24734,33.91913],[133.24167,33.91585],[133.23965,33.91037],[133.24483,33.90482],[133.24602,33.89955],[133.25102,33.89389],[133.25034,33.88903],[133.25522,33.88147],[133.25378,33.87685],[133.24596,33.87444],[133.25332,33.86389],[133.25783,33.86354],[133.26145,33.85987],[133.26674,33.85873],[133.26897,33.85093],[133.27277,33.84792],[133.27479,33.83557],[133.27736,33.83092],[133.28425,33.83179],[133.29377,33.8287],[133.30229,33.82313],[133.31028,33.81588],[133.31915,33.81606],[133.32633,33.81476],[133.33331,33.8213],[133.34561,33.82482],[133.3558,33.83436],[133.36185,33.83317],[133.36902,33.82933],[133.37571,33.82868],[133.39167,33.82443],[133.40083,33.83624],[133.40596,33.83626],[133.41205,33.83914],[133.42489,33.83926],[133.43249,33.83494],[133.44806,33.83405],[133.45501,33.83693],[133.45441,33.84878],[133.45282,33.85435],[133.4471,33.86613],[133.45183,33.86871],[133.44656,33.87819],[133.44827,33.88194],[133.44526,33.88757],[133.42986,33.89126],[133.42283,33.88831],[133.41794,33.88954],[133.41388,33.88744],[133.39913,33.88734],[133.39153,33.87935],[133.3863,33.8794],[133.3841,33.87648],[133.37207,33.87528],[133.36238,33.8768],[133.35339,33.88116],[133.3507,33.88921],[133.36482,33.90198],[133.36797,33.91045],[133.36923,33.92144],[133.36668,33.92652],[133.36665,33.93692],[133.36898,33.942],[133.3711,33.95532],[133.37558,33.95981],[133.37968,33.9702],[133.38408,33.97151],[133.38773,33.97869],[133.39171,33.9814],[133.3888,33.98583]]],[[[133.36296,33.99066],[133.36879,33.9939],[133.36987,34.00505],[133.36039,34.00371],[133.35522,34.00548],[133.35083,34.00189],[133.35055,33.99644],[133.35846,33.9946],[133.36296,33.99066]]]]},"properties":{"pref":"愛媛県","city":"新居浜市","code5":"38205","code6":"382051"}},
{"type":"Feature","geometry":{"type":"Polygon","coordinates":[[[132.96006,33.90267],[132.96053,33.89501],[132.95678,33.88443],[132.96071,33.87834],[132.96187,33.87165],[132.96852,33.86885],[132.9706,33.86117],[132.97449,33.85519],[132.9678,33.84647],[132.97277,33.83835],[132.97321,33.83006],[132.9795,33.82589],[132.98265,33.8167],[132.98609,33.81195],[132.992,33.81553],[133.00105,33.81672],[133.01295,33.81292],[133.01306,33.80366],[133.01753,33.79901],[133.02093,33.78756],[133.02338,33.78312],[133.01689,33.77956],[133.01909,33.77331],[133.01807,33.76818],[133.02412,33.76289],[133.0317,33.76339],[133.04414,33.7589],[133.05305,33.75885],[133.05589,33.75583],[133.06673,33.75598],[133.07329,33.75884],[133.08168,33.75648],[133.09375,33.75852],[133.10056,33.76225],[133.10277,33.76939],[133.10918,33.77282],[133.11708,33.76643],[133.12408,33.76711],[133.13404,33.764],[133.13947,33.75852],[133.14547,33.75715],[133.14988,33.75345],[133.15784,33.7503],[133.16465,33.75636],[133.17092,33.75754],[133.17997,33.76405],[133.18374,33.76814],[133.18237,33.77148],[133.19047,33.78363],[133.19274,33.79378],[133.2037,33.79474],[133.21554,33.78561],[133.21984,33.78043],[133.23161,33.78396],[133.23692,33.78273],[133.24594,33.78895],[133.24988,33.78833],[133.25718,33.79386],[133.26245,33.80483],[133.26077,33.81108],[133.26754,33.82083],[133.26921,33.82562],[133.27736,33.83092],[133.27479,33.83557],[133.27277,33.84792],[133.26897,33.85093],[133.26674,33.85873],[133.26145,33.85987],[133.25783,33.86354],[133.25332,33.86389],[133.24596,33.87444],[133.25378,33.87685],[133.25522,33.88147],[133.25034,33.88903],[133.25102,33.89389],[133.24602,33.89955],[133.24483,33.90482],[133.23965,33.91037],[133.24167,33.91585],[133.24734,33.91913],[133.24414,33.93202],[133.24057,33.9383],[133.23388,33.93774],[133.23602,33.94688],[133.23416,33.95205],[133.19931,33.94621],[133.20061,33.93744],[133.19797,33.9359],[133.19576,33.94601],[133.18866,33.94428],[133.18591,33.94945],[133.17825,33.94759],[133.18039,33.9419],[133.17189,33.93994],[133.17682,33.93075],[133.17168,33.93182],[133.1661,33.93746],[133.16603,33.93743],[133.14002,33.9279],[133.13482,33.92778],[133.13439,33.92764],[133.1259,33.93171],[133.1275,33.9413],[133.12006,33.93675],[133.11684,33.92581],[133.11234,33.93052],[133.11664,33.93417],[133.11932,33.94108],[133.10776,33.94776],[133.10119,33.94068],[133.0925,33.94758],[133.08617,33.94844],[133.08504,33.95749],[133.07389,33.96745],[133.06792,33.97534],[133.0647,33.97356],[133.06111,33.97907],[133.06659,33.98267],[133.05202,33.98145],[133.04136,33.9776],[133.03768,33.96648],[133.03383,33.96051],[133.02387,33.96256],[133.01773,33.9616],[133.00776,33.95475],[133.00548,33.95793],[132.99688,33.95557],[132.99094,33.95695],[132.97863,33.94836],[132.97882,33.94067],[132.97499,33.93542],[132.97562,33.91106],[132.9706,33.90516],[132.96541,33.90677],[132.96006,33.90267]]]},"properties":{"pref":"愛媛県","city":"西条市","code5":"38206","code6":"382060"}},
{"type":"Feature","geometry":{"type":"MultiPolygon","coordinates":[[[[132.50225,33.45007],[132.51557,33.45241],[132.51958,33.45038],[132.52496,33.45185],[132.52874,33.4501],[132.5302,33.44528],[132.53959,33.43861],[132.55005,33.43959],[132.55325,33.43687],[132.56417,33.44325],[132.56351,33.44592],[132.57328,33.45369],[132.57661,33.44927],[132.58218,33.44582],[132.58204,33.44317],[132.59023,33.43462],[132.59376,33.43467],[132.60063,33.43858],[132.61054,33.43592],[132.61551,33.43963],[132.62291,33.43917],[132.62815,33.44084],[132.63279,33.43974],[132.63427,33.43521],[132.64202,33.4327],[132.65423,33.42407],[132.67426,33.41987],[132.67654,33.4247],[132.68119,33.42712],[132.68494,33.42453],[132.68993,33.42609],[132.69005,33.42003],[132.69792,33.42195],[132.70503,33.41973],[132.70809,33.42554],[132.71157,33.42662],[132.7118,33.43356],[132.71453,33.4367],[132.7131,33.45041],[132.71586,33.45564],[132.72892,33.45504],[132.7335,33.4473],[132.73999,33.44941],[132.74112,33.45314],[132.74648,33.45376],[132.75146,33.46813],[132.75229,33.47912],[132.75437,33.48584],[132.75762,33.48484],[132.76533,33.48888],[132.77455,33.48482],[132.78364,33.48789],[132.78987,33.48808],[132.79538,33.49534],[132.8032,33.49784],[132.80549,33.50407],[132.81479,33.5066],[132.81563,33.50175],[132.82043,33.50015],[132.82829,33.504],[132.83312,33.51232],[132.8338,33.5192],[132.83947,33.52186],[132.83378,33.53202],[132.81977,33.54957],[132.8156,33.54537],[132.80447,33.54367],[132.80112,33.54156],[132.80088,33.53642],[132.79177,33.53155],[132.78426,33.52992],[132.7796,33.53797],[132.77665,33.54008],[132.76653,33.53955],[132.76241,33.53274],[132.75598,33.53236],[132.74973,33.52748],[132.74658,33.52995],[132.74005,33.52968],[132.74079,33.52594],[132.73655,33.52089],[132.72891,33.52073],[132.72594,33.51722],[132.71416,33.50978],[132.70418,33.51003],[132.68705,33.50742],[132.68646,33.50371],[132.67751,33.50084],[132.67153,33.49641],[132.66853,33.49129],[132.66195,33.50251],[132.65515,33.50551],[132.64778,33.50211],[132.64299,33.50655],[132.64556,33.51014],[132.64361,33.51441],[132.63658,33.5157],[132.63075,33.51997],[132.63143,33.53315],[132.62957,33.53563],[132.63833,33.54158],[132.6369,33.54452],[132.63917,33.55284],[132.63446,33.55637],[132.63274,33.56734],[132.62593,33.56678],[132.62426,33.57162],[132.63191,33.57661],[132.62967,33.58343],[132.62542,33.58552],[132.62324,33.59395],[132.61725,33.59731],[132.61456,33.60489],[132.61387,33.61307],[132.60526,33.61913],[132.60314,33.62295],[132.5899,33.62334],[132.58111,33.62631],[132.57598,33.621],[132.57558,33.61775],[132.56874,33.61359],[132.56815,33.60958],[132.56046,33.60196],[132.554,33.60573],[132.55225,33.61198],[132.55364,33.61469],[132.53779,33.62873],[132.53126,33.63766],[132.5157,33.629],[132.51066,33.62743],[132.50805,33.63032],[132.48494,33.6157],[132.48001,33.61703],[132.47429,33.61147],[132.47465,33.60686],[132.4619,33.59758],[132.45696,33.59507],[132.45755,33.59068],[132.45067,33.58484],[132.44221,33.57351],[132.43354,33.56855],[132.43369,33.55963],[132.42684,33.5547],[132.42533,33.55161],[132.42936,33.55099],[132.42811,33.53996],[132.43734,33.53381],[132.44658,33.53571],[132.45497,33.53127],[132.46576,33.53495],[132.46929,33.53175],[132.47009,33.52597],[132.47908,33.52354],[132.48007,33.51751],[132.47854,33.50575],[132.4713,33.50528],[132.46693,33.50199],[132.46491,33.49364],[132.4618,33.48849],[132.46946,33.48192],[132.47341,33.48373],[132.48236,33.48339],[132.48759,33.4815],[132.48647,33.476],[132.49497,33.47251],[132.49874,33.46787],[132.4961,33.46186],[132.50225,33.45007]]],[[[132.49184,33.73701],[132.48469,33.73871],[132.47831,33.73735],[132.47648,33.73704],[132.48211,33.73452],[132.49184,33.73701]]]]},"properties":{"pref":"愛媛県","city":"大洲市","code5":"38207","code6":"382078"}},
{"type":"Feature","geometry":{"type":"Polygon","coordinates":[[[132.60314,33.62295],[132.60222,33.62641],[132.60925,33.63804],[132.61322,33.64015],[132.62263,33.65046],[132.63165,33.6499],[132.63351,33.65311],[132.63903,33.65471],[132.64897,33.65504],[132.65187,33.65211],[132.6519,33.6436],[132.65455,33.63888],[132.65395,33.62868],[132.65092,33.62315],[132.65716,33.62099],[132.66112,33.61619],[132.66751,33.62021],[132.67627,33.62103],[132.69466,33.61391],[132.70052,33.61017],[132.7097,33.60845],[132.72213,33.61319],[132.72768,33.62134],[132.72832,33.6249],[132.73402,33.62694],[132.73744,33.62381],[132.74562,33.62767],[132.7525,33.63758],[132.75618,33.64566],[132.76255,33.64556],[132.76615,33.6564],[132.76566,33.6608],[132.77321,33.66924],[132.77146,33.6718],[132.77639,33.67889],[132.77409,33.68559],[132.77971,33.69238],[132.77652,33.69943],[132.76789,33.70258],[132.75948,33.71635],[132.75907,33.72217],[132.75353,33.72563],[132.74488,33.72517],[132.74362,33.73329],[132.73639,33.7367],[132.74676,33.74837],[132.74173,33.75749],[132.75696,33.76075],[132.76172,33.76391],[132.76241,33.77099],[132.77224,33.77783],[132.77434,33.78844],[132.77078,33.79054],[132.76473,33.79032],[132.76131,33.786],[132.7543,33.78626],[132.74542,33.78284],[132.74548,33.77783],[132.73269,33.77768],[132.73228,33.77144],[132.72545,33.77259],[132.72534,33.77795],[132.71586,33.77788],[132.71585,33.77249],[132.70985,33.77025],[132.70395,33.77681],[132.69846,33.77638],[132.70025,33.76713],[132.7,33.76099],[132.69286,33.75229],[132.67993,33.74578],[132.67435,33.73034],[132.67009,33.72535],[132.66321,33.71381],[132.65936,33.70352],[132.64766,33.69263],[132.63812,33.68968],[132.62711,33.67959],[132.61852,33.67749],[132.61152,33.67229],[132.60666,33.66636],[132.5914,33.65768],[132.58596,33.65358],[132.57372,33.65088],[132.53126,33.63766],[132.53779,33.62873],[132.55364,33.61469],[132.55225,33.61198],[132.554,33.60573],[132.56046,33.60196],[132.56815,33.60958],[132.56874,33.61359],[132.57558,33.61775],[132.57598,33.621],[132.58111,33.62631],[132.5899,33.62334],[132.60314,33.62295]]]},"properties":{"pref":"愛媛県","city":"伊予市","code5":"38210","code6":"382108"}},
{"type":"Feature","geometry":{"type":"Polygon","coordinates":[[[133.67955,34.01252],[133.67823,34.01819],[133.67189,34.02075],[133.66543,34.02711],[133.65599,34.02908],[133.63946,34.02593],[133.62688,34.03777],[133.61331,34.03232],[133.60417,34.0359],[133.5985,34.04363],[133.5954,34.03789],[133.59064,34.0335],[133.58619,34.0345],[133.58363,34.02962],[133.57853,34.03133],[133.57634,34.02757],[133.57992,34.02393],[133.57169,34.01977],[133.56555,34.01317],[133.56021,34.01186],[133.55165,34.01301],[133.54112,34.00334],[133.55195,33.99558],[133.54688,33.98902],[133.53985,33.98624],[133.53264,33.98697],[133.52748,33.98208],[133.51607,33.97548],[133.50237,33.97283],[133.49052,33.96925],[133.48556,33.97242],[133.47679,33.97267],[133.46658,33.97457],[133.45346,33.98414],[133.45151,33.98135],[133.44242,33.98518],[133.42998,33.9868],[133.41436,33.98591],[133.41061,33.99057],[133.40166,33.98849],[133.39328,33.99045],[133.3888,33.98583],[133.39171,33.9814],[133.38773,33.97869],[133.38408,33.97151],[133.37968,33.9702],[133.37558,33.95981],[133.3711,33.95532],[133.36898,33.942],[133.36665,33.93692],[133.36668,33.92652],[133.36923,33.92144],[133.36797,33.91045],[133.36482,33.90198],[133.3507,33.88921],[133.35339,33.88116],[133.36238,33.8768],[133.37207,33.87528],[133.3841,33.87648],[133.3863,33.8794],[133.39153,33.87935],[133.39913,33.88734],[133.41388,33.88744],[133.41794,33.88954],[133.42283,33.88831],[133.42986,33.89126],[133.44526,33.88757],[133.44827,33.88194],[133.44656,33.87819],[133.45183,33.86871],[133.4471,33.86613],[133.45282,33.85435],[133.45441,33.84878],[133.45501,33.83693],[133.4643,33.83452],[133.4705,33.83679],[133.47347,33.8337],[133.48321,33.83299],[133.48662,33.82971],[133.49339,33.83216],[133.4995,33.82924],[133.50793,33.83587],[133.50653,33.8399],[133.50969,33.84826],[133.51811,33.84733],[133.52635,33.85366],[133.52639,33.86211],[133.53624,33.8661],[133.53592,33.87148],[133.54393,33.87882],[133.54991,33.88199],[133.55711,33.88216],[133.56218,33.87534],[133.5657,33.87503],[133.57111,33.87028],[133.58303,33.86765],[133.58549,33.87098],[133.59289,33.87536],[133.59623,33.87982],[133.61109,33.88075],[133.61736,33.8766],[133.62731,33.87203],[133.63525,33.8802],[133.64407,33.88303],[133.66075,33.88181],[133.66192,33.88578],[133.67795,33.89308],[133.67747,33.89879],[133.67451,33.90319],[133.67758,33.90955],[133.68214,33.91044],[133.68795,33.91626],[133.68851,33.92163],[133.68563,33.92572],[133.67568,33.92638],[133.67648,33.93294],[133.68176,33.93808],[133.68644,33.93898],[133.69257,33.94399],[133.69263,33.94784],[133.68713,33.95533],[133.69236,33.96246],[133.68032,33.97022],[133.68413,33.97639],[133.68063,33.98417],[133.67509,33.98368],[133.67648,33.99249],[133.68574,34.00366],[133.67955,34.01252]]]},"properties":{"pref":"愛媛県","city":"四国中央市","code5":"38213","code6":"382132"}},
{"type":"Feature","geometry":{"type":"Polygon","coordinates":[[[132.65693,33.33234],[132.66042,33.33906],[132.66237,33.34895],[132.67829,33.35005],[132.70338,33.34798],[132.71401,33.34492],[132.71999,33.35079],[132.72317,33.35053],[132.72711,33.34454],[132.73449,33.343],[132.74924,33.34577],[132.75672,33.34406],[132.75882,33.34647],[132.77368,33.35086],[132.78064,33.35596],[132.78442,33.35094],[132.78456,33.34665],[132.791,33.34359],[132.80336,33.34317],[132.82137,33.3571],[132.82517,33.3667],[132.82552,33.37303],[132.84022,33.37764],[132.84619,33.38102],[132.85305,33.38822],[132.85556,33.39006],[132.85451,33.3983],[132.84105,33.39789],[132.83543,33.40064],[132.83162,33.40885],[132.83401,33.42015],[132.82492,33.42293],[132.82339,33.42984],[132.82777,33.43832],[132.82656,33.4456],[132.82195,33.44862],[132.80813,33.45386],[132.80699,33.46078],[132.81106,33.46606],[132.81893,33.46655],[132.82297,33.47294],[132.82716,33.47241],[132.84042,33.47473],[132.84753,33.47919],[132.86242,33.47453],[132.86453,33.47234],[132.88106,33.47095],[132.88413,33.47302],[132.89387,33.47248],[132.90067,33.47035],[132.89596,33.47604],[132.90068,33.48086],[132.90098,33.48631],[132.89709,33.49117],[132.89596,33.49779],[132.88674,33.49763],[132.88133,33.49948],[132.86567,33.5005],[132.86586,33.5039],[132.85542,33.50907],[132.8464,33.51203],[132.84312,33.52192],[132.83947,33.52186],[132.8338,33.5192],[132.83312,33.51232],[132.82829,33.504],[132.82043,33.50015],[132.81563,33.50175],[132.81479,33.5066],[132.80549,33.50407],[132.8032,33.49784],[132.79538,33.49534],[132.78987,33.48808],[132.78364,33.48789],[132.77455,33.48482],[132.76533,33.48888],[132.75762,33.48484],[132.75437,33.48584],[132.75229,33.47912],[132.75146,33.46813],[132.74648,33.45376],[132.74112,33.45314],[132.73999,33.44941],[132.7335,33.4473],[132.72892,33.45504],[132.71586,33.45564],[132.7131,33.45041],[132.71453,33.4367],[132.7118,33.43356],[132.71157,33.42662],[132.70809,33.42554],[132.70503,33.41973],[132.69792,33.42195],[132.69005,33.42003],[132.68993,33.42609],[132.68494,33.42453],[132.68119,33.42712],[132.67654,33.4247],[132.67426,33.41987],[132.65423,33.42407],[132.64202,33.4327],[132.63427,33.43521],[132.63279,33.43974],[132.62815,33.44084],[132.62291,33.43917],[132.61551,33.43963],[132.61054,33.43592],[132.60063,33.43858],[132.59376,33.43467],[132.59023,33.43462],[132.58204,33.44317],[132.58218,33.44582],[132.57661,33.44927],[132.57328,33.45369],[132.56351,33.44592],[132.56417,33.44325],[132.55325,33.43687],[132.55005,33.43959],[132.53959,33.43861],[132.5302,33.44528],[132.52874,33.4501],[132.52496,33.45185],[132.51958,33.45038],[132.51557,33.45241],[132.50225,33.45007],[132.48824,33.44256],[132.48632,33.43427],[132.48227,33.43089],[132.48271,33.42591],[132.47642,33.42069],[132.47573,33.41771],[132.48181,33.41192],[132.4827,33.40849],[132.47406,33.40756],[132.46895,33.40423],[132.46485,33.40516],[132.45152,33.40109],[132.44708,33.40781],[132.43682,33.40979],[132.4311,33.40801],[132.42689,33.41616],[132.42347,33.41761],[132.41504,33.41045],[132.4107,33.40856],[132.40937,33.3989],[132.39912,33.39098],[132.39801,33.38769],[132.38843,33.38534],[132.38663,33.38766],[132.37883,33.38481],[132.38217,33.3836],[132.38907,33.37193],[132.39009,33.3652],[132.39897,33.37092],[132.40285,33.37514],[132.415,33.38192],[132.41024,33.36406],[132.4159,33.36194],[132.42042,33.35664],[132.41934,33.35429],[132.40919,33.35321],[132.41163,33.3463],[132.40022,33.34711],[132.39239,33.34352],[132.3921,33.33973],[132.37643,33.33714],[132.3746,33.32957],[132.37161,33.32858],[132.36954,33.32268],[132.37059,33.31862],[132.38248,33.32119],[132.38784,33.31739],[132.39142,33.31951],[132.39896,33.31652],[132.40059,33.30925],[132.40622,33.30665],[132.41127,33.30722],[132.41669,33.30367],[132.42311,33.30423],[132.42488,33.31343],[132.42972,33.31922],[132.44053,33.31126],[132.45198,33.30901],[132.46084,33.31018],[132.46496,33.31285],[132.46708,33.31868],[132.47615,33.31814],[132.48673,33.32105],[132.49082,33.32519],[132.49575,33.32202],[132.49489,33.3192],[132.49824,33.31193],[132.50155,33.32634],[132.50713,33.32998],[132.50716,33.33483],[132.51353,33.3348],[132.5197,33.33777],[132.5257,33.33585],[132.53568,33.3283],[132.54622,33.32696],[132.55373,33.32436],[132.56336,33.32651],[132.56949,33.32633],[132.57602,33.32952],[132.58278,33.32712],[132.60114,33.32669],[132.60375,33.33061],[132.6096,33.33175],[132.62186,33.3301],[132.62806,33.33104],[132.64376,33.32728],[132.65693,33.33234]]]},"properties":{"pref":"愛媛県","city":"西予市","code5":"38214","code6":"382141"}},
{"type":"Feature","geometry":{"type":"Polygon","coordinates":[[[132.87508,33.72795],[132.878,33.72257],[132.88617,33.71998],[132.89339,33.71962],[132.89575,33.72393],[132.90439,33.72475],[132.90799,33.72795],[132.9137,33.72651],[132.92502,33.73119],[132.9304,33.73026],[132.93259,33.73316],[132.94407,33.73248],[132.95313,33.7337],[132.95315,33.74134],[132.95724,33.74468],[132.96654,33.74709],[132.97647,33.7434],[132.9804,33.73979],[132.98603,33.74686],[132.98951,33.74862],[132.99267,33.75438],[132.99252,33.75911],[133.00566,33.75605],[133.02065,33.75898],[133.02412,33.76289],[133.01807,33.76818],[133.01909,33.77331],[133.01689,33.77956],[133.02338,33.78312],[133.02093,33.78756],[133.01753,33.79901],[133.01306,33.80366],[133.01295,33.81292],[133.00105,33.81672],[132.992,33.81553],[132.98609,33.81195],[132.98265,33.8167],[132.9795,33.82589],[132.97321,33.83006],[132.97277,33.83835],[132.9678,33.84647],[132.97449,33.85519],[132.9706,33.86117],[132.96852,33.86885],[132.96187,33.87165],[132.96071,33.87834],[132.95678,33.88443],[132.96053,33.89501],[132.96006,33.90267],[132.95746,33.9059],[132.94994,33.90804],[132.94152,33.90684],[132.93691,33.90191],[132.92559,33.90554],[132.92003,33.9001],[132.9209,33.8974],[132.9063,33.88916],[132.90102,33.89001],[132.88513,33.88128],[132.88029,33.87506],[132.87594,33.86369],[132.88197,33.85444],[132.88447,33.84735],[132.87508,33.83398],[132.87276,33.82586],[132.86852,33.82391],[132.86985,33.81901],[132.86634,33.81338],[132.86511,33.80653],[132.86005,33.80546],[132.84122,33.79673],[132.83245,33.79619],[132.82999,33.79184],[132.82479,33.78905],[132.82478,33.78516],[132.84045,33.78258],[132.83642,33.77854],[132.8373,33.77517],[132.84299,33.77143],[132.84835,33.76321],[132.84721,33.758],[132.853,33.7564],[132.85549,33.75048],[132.86107,33.74902],[132.86544,33.73927],[132.8736,33.73258],[132.87508,33.72795]]]},"properties":{"pref":"愛媛県","city":"東温市","code5":"38215","code6":"382159"}},
{"type":"Feature","geometry":{"type":"MultiPolygon","coordinates":[[[[133.1525,34.28041],[133.14318,34.27794],[133.13772,34.2721],[133.13598,34.26648],[133.13247,34.2651],[133.13081,34.25644],[133.13281,34.24935],[133.13157,34.24516],[133.13379,34.24103],[133.14023,34.24429],[133.15246,34.24604],[133.15898,34.25189],[133.16557,34.25528],[133.16557,34.26062],[133.15798,34.2716],[133.15246,34.27761],[133.1525,34.28041]]],[[[133.22905,34.29181],[133.21673,34.28417],[133.21218,34.28398],[133.20993,34.27639],[133.19884,34.2688],[133.19967,34.25963],[133.20415,34.25813],[133.20005,34.24917],[133.20056,34.24006],[133.20762,34.2393],[133.214,34.244],[133.20854,34.25747],[133.22051,34.26577],[133.22696,34.2666],[133.2309,34.2735],[133.23683,34.27713],[133.23745,34.28074],[133.23348,34.28378],[133.22905,34.29181]]],[[[133.17191,34.28562],[133.16595,34.28106],[133.17156,34.26998],[133.17009,34.26555],[133.17279,34.25803],[133.17843,34.25581],[133.18609,34.25851],[133.1859,34.2692],[133.18202,34.27598],[133.17841,34.27723],[133.17617,34.28211],[133.17191,34.28562]]],[[[133.19316,34.25728],[133.18972,34.25668],[133.18462,34.2501],[133.18464,34.24399],[133.18216,34.24132],[133.18296,34.23208],[133.1867,34.2293],[133.19181,34.23468],[133.18942,34.238],[133.19146,34.24423],[133.196,34.2457],[133.19707,34.25433],[133.19316,34.25728]]],[[[133.16375,34.24639],[133.15361,34.2438],[133.15041,34.23979],[133.15191,34.23323],[133.15763,34.23463],[133.16719,34.23417],[133.17207,34.24142],[133.16829,34.24543],[133.16375,34.24639]]],[[[133.30936,34.18382],[133.31096,34.17838],[133.31736,34.1715],[133.32819,34.17356],[133.328,34.1791],[133.32125,34.17895],[133.31296,34.18072],[133.30936,34.18382]]],[[[133.27228,34.20006],[133.26603,34.19723],[133.26566,34.18607],[133.26832,34.1825],[133.27645,34.18427],[133.27305,34.19289],[133.27228,34.20006]]],[[[133.35954,34.17404],[133.36056,34.1656],[133.36621,34.16705],[133.35954,34.17404]]]]},"properties":{"pref":"愛媛県","county":"越智郡","city":"上島町","code5":"38356","code6":"383562"}},
{"type":"Feature","geometry":{"type":"Polygon","coordinates":[[[132.83195,33.68736],[132.83153,33.68523],[132.82185,33.68051],[132.82161,33.67686],[132.82524,33.67095],[132.83136,33.67049],[132.83543,33.66694],[132.83288,33.6628],[132.83198,33.65561],[132.8356,33.65352],[132.83082,33.645],[132.83097,33.64135],[132.83694,33.64071],[132.85124,33.63264],[132.85701,33.6216],[132.84942,33.6085],[132.8443,33.60747],[132.84661,33.5946],[132.84861,33.59254],[132.85637,33.59438],[132.86607,33.595],[132.86253,33.59086],[132.86729,33.58874],[132.88112,33.59134],[132.88662,33.59079],[132.89748,33.58668],[132.89971,33.58183],[132.90533,33.57583],[132.91093,33.57635],[132.9152,33.56817],[132.9226,33.56455],[132.92634,33.56049],[132.92162,33.55521],[132.92078,33.54663],[132.91715,33.54149],[132.92144,33.53373],[132.91408,33.53034],[132.91612,33.52738],[132.91147,33.52267],[132.90976,33.51778],[132.90047,33.51446],[132.90026,33.50361],[132.89596,33.49779],[132.89709,33.49117],[132.90098,33.48631],[132.90068,33.48086],[132.89596,33.47604],[132.90067,33.47035],[132.91521,33.46765],[132.929,33.46857],[132.93852,33.47208],[132.94422,33.47195],[132.95167,33.46658],[132.95964,33.46631],[132.97267,33.46979],[132.97884,33.47292],[132.98926,33.47387],[132.99903,33.47575],[133.01536,33.48101],[133.0134,33.49058],[133.0207,33.49611],[133.02616,33.50519],[133.03426,33.51183],[133.03825,33.51932],[133.03794,33.52641],[133.04629,33.53029],[133.05916,33.53871],[133.06262,33.54537],[133.06025,33.55409],[133.06231,33.56145],[133.054,33.57042],[133.04676,33.57522],[133.04921,33.58496],[133.0552,33.58995],[133.05742,33.59636],[133.06995,33.60114],[133.07962,33.6087],[133.07898,33.61167],[133.0732,33.61436],[133.06723,33.62255],[133.07236,33.63839],[133.07502,33.65062],[133.07751,33.65355],[133.08478,33.65492],[133.09076,33.65781],[133.09741,33.65824],[133.10666,33.65665],[133.11653,33.66015],[133.1215,33.67404],[133.11948,33.67946],[133.12148,33.68628],[133.11923,33.6886],[133.12532,33.69833],[133.13417,33.69985],[133.14458,33.70465],[133.13982,33.71569],[133.16121,33.73153],[133.1593,33.73394],[133.15784,33.7503],[133.14988,33.75345],[133.14547,33.75715],[133.13947,33.75852],[133.13404,33.764],[133.12408,33.76711],[133.11708,33.76643],[133.10918,33.77282],[133.10277,33.76939],[133.10056,33.76225],[133.09375,33.75852],[133.08168,33.75648],[133.07329,33.75884],[133.06673,33.75598],[133.05589,33.75583],[133.05305,33.75885],[133.04414,33.7589],[133.0317,33.76339],[133.02412,33.76289],[133.02065,33.75898],[133.00566,33.75605],[132.99252,33.75911],[132.99267,33.75438],[132.98951,33.74862],[132.98603,33.74686],[132.9804,33.73979],[132.97647,33.7434],[132.96654,33.74709],[132.95724,33.74468],[132.95315,33.74134],[132.95313,33.7337],[132.94407,33.73248],[132.93259,33.73316],[132.9304,33.73026],[132.92502,33.73119],[132.9137,33.72651],[132.90799,33.72795],[132.90439,33.72475],[132.89575,33.72393],[132.89339,33.71962],[132.88617,33.71998],[132.878,33.72257],[132.87508,33.72795],[132.87305,33.72633],[132.87093,33.71732],[132.8715,33.71311],[132.86508,33.71121],[132.86154,33.70659],[132.8564,33.70409],[132.85245,33.69821],[132.85329,33.6917],[132.8487,33.68875],[132.83639,33.68879],[132.83195,33.68736]]]},"properties":{"pref":"愛媛県","county":"上浮穴郡","city":"久万高原町","code5":"38386","code6":"383864"}},
{"type":"Feature","geometry":{"type":"Polygon","coordinates":[[[132.68578,33.80499],[132.68909,33.80336],[132.69241,33.79472],[132.6882,33.7933],[132.68997,33.78839],[132.6945,33.78608],[132.69846,33.77638],[132.70395,33.77681],[132.70985,33.77025],[132.71585,33.77249],[132.71586,33.77788],[132.72534,33.77795],[132.72545,33.77259],[132.73228,33.77144],[132.73269,33.77768],[132.74548,33.77783],[132.74542,33.78284],[132.7543,33.78626],[132.76131,33.786],[132.76473,33.79032],[132.77078,33.79054],[132.77065,33.79568],[132.75991,33.80189],[132.74913,33.80545],[132.72754,33.80528],[132.71945,33.80828],[132.71115,33.80757],[132.70569,33.80552],[132.68578,33.80499]]]},"properties":{"pref":"愛媛県","county":"伊予郡","city":"松前町","code5":"38401","code6":"384011"}},
{"type":"Feature","geometry":{"type":"Polygon","coordinates":[[[132.77065,33.79568],[132.77078,33.79054],[132.77434,33.78844],[132.77224,33.77783],[132.76241,33.77099],[132.76172,33.76391],[132.75696,33.76075],[132.74173,33.75749],[132.74676,33.74837],[132.73639,33.7367],[132.74362,33.73329],[132.74488,33.72517],[132.75353,33.72563],[132.75907,33.72217],[132.75948,33.71635],[132.76789,33.70258],[132.77652,33.69943],[132.77971,33.69238],[132.77409,33.68559],[132.77639,33.67889],[132.77146,33.6718],[132.77321,33.66924],[132.76566,33.6608],[132.76615,33.6564],[132.76255,33.64556],[132.75618,33.64566],[132.7525,33.63758],[132.74562,33.62767],[132.75,33.6276],[132.75937,33.62069],[132.76061,33.61574],[132.76631,33.60724],[132.77836,33.61246],[132.78163,33.6166],[132.78917,33.62037],[132.79643,33.61873],[132.80313,33.6211],[132.80482,33.62431],[132.81382,33.62378],[132.8128,33.62836],[132.82462,33.62964],[132.83572,33.63515],[132.83694,33.64071],[132.83097,33.64135],[132.83082,33.645],[132.8356,33.65352],[132.83198,33.65561],[132.83288,33.6628],[132.83543,33.66694],[132.83136,33.67049],[132.82524,33.67095],[132.82161,33.67686],[132.82185,33.68051],[132.83153,33.68523],[132.83195,33.68736],[132.82392,33.69471],[132.82447,33.7036],[132.82141,33.70783],[132.82561,33.71547],[132.82306,33.72242],[132.81833,33.72511],[132.81745,33.73256],[132.80674,33.74208],[132.80718,33.74874],[132.80499,33.75332],[132.79878,33.75568],[132.79741,33.76242],[132.79455,33.76489],[132.79699,33.7697],[132.79657,33.77818],[132.8027,33.7821],[132.79912,33.78604],[132.79006,33.78651],[132.77065,33.79568]]]},"properties":{"pref":"愛媛県","county":"伊予郡","city":"砥部町","code5":"38402","code6":"384020"}},
{"type":"Feature","geometry":{"type":"Polygon","coordinates":[[[132.83947,33.52186],[132.84312,33.52192],[132.8464,33.51203],[132.85542,33.50907],[132.86586,33.5039],[132.86567,33.5005],[132.88133,33.49948],[132.88674,33.49763],[132.89596,33.49779],[132.90026,33.50361],[132.90047,33.51446],[132.90976,33.51778],[132.91147,33.52267],[132.91612,33.52738],[132.91408,33.53034],[132.92144,33.53373],[132.91715,33.54149],[132.92078,33.54663],[132.92162,33.55521],[132.92634,33.56049],[132.9226,33.56455],[132.9152,33.56817],[132.91093,33.57635],[132.90533,33.57583],[132.89971,33.58183],[132.89748,33.58668],[132.88662,33.59079],[132.88112,33.59134],[132.86729,33.58874],[132.86253,33.59086],[132.86607,33.595],[132.85637,33.59438],[132.84861,33.59254],[132.84661,33.5946],[132.8443,33.60747],[132.84942,33.6085],[132.85701,33.6216],[132.85124,33.63264],[132.83694,33.64071],[132.83572,33.63515],[132.82462,33.62964],[132.8128,33.62836],[132.81382,33.62378],[132.80482,33.62431],[132.80313,33.6211],[132.79643,33.61873],[132.78917,33.62037],[132.78163,33.6166],[132.77836,33.61246],[132.76631,33.60724],[132.76061,33.61574],[132.75937,33.62069],[132.75,33.6276],[132.74562,33.62767],[132.73744,33.62381],[132.73402,33.62694],[132.72832,33.6249],[132.72768,33.62134],[132.72213,33.61319],[132.7097,33.60845],[132.70052,33.61017],[132.69466,33.61391],[132.67627,33.62103],[132.66751,33.62021],[132.66112,33.61619],[132.65716,33.62099],[132.65092,33.62315],[132.65395,33.62868],[132.65455,33.63888],[132.6519,33.6436],[132.65187,33.65211],[132.64897,33.65504],[132.63903,33.65471],[132.63351,33.65311],[132.63165,33.6499],[132.62263,33.65046],[132.61322,33.64015],[132.60925,33.63804],[132.60222,33.62641],[132.60314,33.62295],[132.60526,33.61913],[132.61387,33.61307],[132.61456,33.60489],[132.61725,33.59731],[132.62324,33.59395],[132.62542,33.58552],[132.62967,33.58343],[132.63191,33.57661],[132.62426,33.57162],[132.62593,33.56678],[132.63274,33.56734],[132.63446,33.55637],[132.63917,33.55284],[132.6369,33.54452],[132.63833,33.54158],[132.62957,33.53563],[132.63143,33.53315],[132.63075,33.51997],[132.63658,33.5157],[132.64361,33.51441],[132.64556,33.51014],[132.64299,33.50655],[132.64778,33.50211],[132.65515,33.50551],[132.66195,33.50251],[132.66853,33.49129],[132.67153,33.49641],[132.67751,33.50084],[132.68646,33.50371],[132.68705,33.50742],[132.70418,33.51003],[132.71416,33.50978],[132.72594,33.51722],[132.72891,33.52073],[132.73655,33.52089],[132.74079,33.52594],[132.74005,33.52968],[132.74658,33.52995],[132.74973,33.52748],[132.75598,33.53236],[132.76241,33.53274],[132.76653,33.53955],[132.77665,33.54008],[132.7796,33.53797],[132.78426,33.52992],[132.79177,33.53155],[132.80088,33.53642],[132.80112,33.54156],[132.80447,33.54367],[132.8156,33.54537],[132.81977,33.54957],[132.83378,33.53202],[132.83947,33.52186]]]},"properties":{"pref":"愛媛県","county":"喜多郡","city":"内子町","code5":"38422","code6":"384224"}},
{"type":"Feature","geometry":{"type":"MultiPolygon","coordinates":[[[[132.35748,33.51595],[132.35331,33.51038],[132.34243,33.50718],[132.33975,33.50256],[132.33426,33.50401],[132.32715,33.49826],[132.32238,33.49878],[132.31897,33.49342],[132.3081,33.49245],[132.30714,33.48727],[132.29603,33.48729],[132.28655,33.4791],[132.28233,33.48113],[132.27585,33.4732],[132.27275,33.47733],[132.268,33.47314],[132.25873,33.47261],[132.2657,33.46761],[132.26513,33.45707],[132.26074,33.45342],[132.25401,33.45155],[132.25082,33.45743],[132.24352,33.4591],[132.24074,33.46167],[132.2332,33.4617],[132.2259,33.45899],[132.22398,33.45174],[132.22461,33.44451],[132.21794,33.44755],[132.21046,33.44587],[132.19959,33.45609],[132.19441,33.45098],[132.19788,33.44514],[132.19406,33.44227],[132.18058,33.44891],[132.17201,33.44428],[132.17639,33.43525],[132.17679,33.4286],[132.16961,33.42703],[132.16413,33.43031],[132.15629,33.43774],[132.1481,33.43244],[132.15672,33.42888],[132.16464,33.42389],[132.16966,33.41872],[132.16521,33.41114],[132.16014,33.41121],[132.15349,33.40719],[132.14905,33.41087],[132.1476,33.41602],[132.14132,33.41954],[132.13705,33.4194],[132.13686,33.40755],[132.13427,33.40493],[132.12762,33.40651],[132.12793,33.41639],[132.12406,33.42022],[132.11544,33.41731],[132.10792,33.4085],[132.09662,33.40429],[132.08443,33.39813],[132.07871,33.39087],[132.07938,33.38856],[132.05279,33.375],[132.04478,33.36786],[132.03915,33.36653],[132.03712,33.36124],[132.02995,33.35657],[132.02799,33.35079],[132.02169,33.34843],[132.02524,33.34395],[132.03428,33.35017],[132.03984,33.3522],[132.05143,33.36036],[132.04824,33.36289],[132.05387,33.36818],[132.06365,33.37173],[132.06656,33.37597],[132.07324,33.37441],[132.0775,33.38035],[132.08376,33.38],[132.09391,33.38739],[132.11868,33.39079],[132.12076,33.38827],[132.11741,33.3816],[132.11202,33.37934],[132.11426,33.37263],[132.10389,33.3734],[132.10162,33.36988],[132.10225,33.36253],[132.12405,33.36573],[132.12915,33.36359],[132.13387,33.36985],[132.14484,33.37566],[132.15217,33.37585],[132.15328,33.38919],[132.15693,33.39282],[132.16614,33.39706],[132.17562,33.4066],[132.18254,33.41211],[132.18984,33.41379],[132.20289,33.41488],[132.2149,33.42274],[132.22442,33.42547],[132.23441,33.42527],[132.2456,33.43236],[132.24806,33.43611],[132.25708,33.44193],[132.26486,33.44275],[132.26922,33.44637],[132.28056,33.44711],[132.28214,33.45395],[132.28635,33.45693],[132.28634,33.46203],[132.29476,33.46464],[132.29683,33.47215],[132.29975,33.47468],[132.30672,33.473],[132.30695,33.46932],[132.31155,33.46222],[132.31736,33.45695],[132.32332,33.46568],[132.32217,33.46915],[132.32762,33.47389],[132.33427,33.47261],[132.33742,33.4753],[132.34971,33.47268],[132.35315,33.47376],[132.34585,33.48356],[132.35265,33.48394],[132.36404,33.47995],[132.37066,33.4738],[132.37197,33.4698],[132.37713,33.4772],[132.37702,33.4911],[132.37441,33.49735],[132.36967,33.49871],[132.36689,33.5073],[132.35951,33.51123],[132.35748,33.51595]]],[[[132.35244,33.45824],[132.34439,33.4573],[132.34458,33.4531],[132.3521,33.45503],[132.35244,33.45824]]]]},"properties":{"pref":"愛媛県","county":"西宇和郡","city":"伊方町","code5":"38442","code6":"384429"}},
{"type":"Feature","geometry":{"type":"Polygon","coordinates":[[[132.63709,33.18476],[132.63442,33.17879],[132.63873,33.17361],[132.64668,33.17186],[132.65966,33.16001],[132.66238,33.15442],[132.67356,33.14998],[132.68036,33.1442],[132.68689,33.13485],[132.69584,33.13759],[132.69585,33.14261],[132.6986,33.14641],[132.71056,33.15316],[132.71718,33.15988],[132.71955,33.16679],[132.72581,33.16828],[132.73159,33.1764],[132.73784,33.18216],[132.73722,33.18633],[132.74191,33.18974],[132.73842,33.19584],[132.74064,33.20128],[132.74848,33.20349],[132.75944,33.2017],[132.76796,33.20328],[132.77594,33.20841],[132.77316,33.21244],[132.77359,33.21797],[132.77086,33.22104],[132.77114,33.22631],[132.7746,33.22835],[132.77491,33.23399],[132.77192,33.24106],[132.77761,33.24614],[132.77773,33.25153],[132.78689,33.26224],[132.78714,33.26704],[132.78106,33.27002],[132.78002,33.27435],[132.77232,33.27708],[132.76098,33.26175],[132.74996,33.25894],[132.74279,33.26148],[132.73441,33.25392],[132.73183,33.2468],[132.72809,33.24351],[132.71908,33.24626],[132.71346,33.24196],[132.70842,33.2462],[132.70227,33.24573],[132.69313,33.24229],[132.68545,33.24252],[132.67948,33.23907],[132.67961,33.22911],[132.66819,33.22216],[132.66514,33.21706],[132.65865,33.21374],[132.6686,33.2048],[132.65702,33.19473],[132.65137,33.19423],[132.64925,33.19109],[132.63709,33.18476]]]},"properties":{"pref":"愛媛県","county":"北宇和郡","city":"松野町","code5":"38484","code6":"384844"}},
{"type":"Feature","geometry":{"type":"Polygon","coordinates":[[[132.65865,33.21374],[132.66514,33.21706],[132.66819,33.22216],[132.67961,33.22911],[132.67948,33.23907],[132.68545,33.24252],[132.69313,33.24229],[132.70227,33.24573],[132.70842,33.2462],[132.71346,33.24196],[132.71908,33.24626],[132.72809,33.24351],[132.73183,33.2468],[132.73441,33.25392],[132.74279,33.26148],[132.74996,33.25894],[132.76098,33.26175],[132.77232,33.27708],[132.78002,33.27435],[132.78106,33.27002],[132.78714,33.26704],[132.79312,33.27484],[132.80051,33.2755],[132.81756,33.28383],[132.8244,33.28223],[132.83955,33.28786],[132.84972,33.28964],[132.8577,33.29319],[132.87246,33.30493],[132.88495,33.3071],[132.89855,33.3147],[132.90067,33.32062],[132.89898,33.32445],[132.90175,33.32731],[132.9035,33.33105],[132.90288,33.33804],[132.90044,33.34374],[132.89473,33.34953],[132.89013,33.35751],[132.8838,33.36235],[132.87413,33.36396],[132.86674,33.3681],[132.86002,33.36846],[132.85658,33.37811],[132.8565,33.38259],[132.85305,33.38822],[132.84619,33.38102],[132.84022,33.37764],[132.82552,33.37303],[132.82517,33.3667],[132.82137,33.3571],[132.80336,33.34317],[132.791,33.34359],[132.78456,33.34665],[132.78442,33.35094],[132.78064,33.35596],[132.77368,33.35086],[132.75882,33.34647],[132.75672,33.34406],[132.74924,33.34577],[132.73449,33.343],[132.72711,33.34454],[132.72317,33.35053],[132.71999,33.35079],[132.71401,33.34492],[132.70338,33.34798],[132.67829,33.35005],[132.66237,33.34895],[132.66042,33.33906],[132.65693,33.33234],[132.66256,33.32905],[132.66809,33.32309],[132.66623,33.3116],[132.66651,33.30217],[132.67342,33.28364],[132.67083,33.27493],[132.66595,33.2805],[132.65972,33.28337],[132.65514,33.27985],[132.65395,33.2748],[132.63762,33.27534],[132.63632,33.27777],[132.62513,33.27695],[132.62027,33.2782],[132.61933,33.26451],[132.61615,33.26085],[132.60815,33.26143],[132.60175,33.25185],[132.61264,33.23601],[132.61488,33.21952],[132.61419,33.2104],[132.61227,33.20304],[132.61655,33.20089],[132.62566,33.20271],[132.63465,33.20758],[132.63641,33.21232],[132.65345,33.21421],[132.65865,33.21374]]]},"properties":{"pref":"愛媛県","county":"北宇和郡","city":"鬼北町","code5":"38488","code6":"384887"}},
{"type":"Feature","geometry":{"type":"MultiPolygon","coordinates":[[[[132.37859,33.02288],[132.38325,33.01829],[132.38672,33.02072],[132.39363,33.01995],[132.39968,33.02306],[132.39912,33.02575],[132.40477,33.02911],[132.40413,33.03464],[132.40863,33.0402],[132.40975,33.04591],[132.40754,33.0549],[132.41805,33.05807],[132.43262,33.0513],[132.43745,33.05165],[132.44297,33.04811],[132.44289,33.04191],[132.45087,33.04139],[132.44964,33.04797],[132.45608,33.0492],[132.46006,33.04623],[132.46597,33.04975],[132.4708,33.04927],[132.4689,33.04071],[132.47456,33.04209],[132.47479,33.04644],[132.48044,33.04948],[132.48519,33.04642],[132.48588,33.04218],[132.48147,33.02795],[132.48427,33.02434],[132.48495,33.01067],[132.49602,33.01212],[132.50611,33.00488],[132.5006,32.9938],[132.50413,32.98774],[132.50941,32.98314],[132.51192,32.97638],[132.52948,32.97178],[132.5326,32.97365],[132.53728,32.9686],[132.5422,32.97009],[132.54526,32.96532],[132.55248,32.96323],[132.55033,32.95686],[132.53738,32.96418],[132.53105,32.96575],[132.52511,32.96011],[132.52237,32.96476],[132.51647,32.96089],[132.5152,32.96643],[132.50811,32.96763],[132.506,32.96369],[132.49964,32.96509],[132.50153,32.97318],[132.49632,32.97534],[132.5016,32.98211],[132.493,32.98474],[132.48491,32.98065],[132.4867,32.97341],[132.4788,32.97176],[132.48291,32.96437],[132.48985,32.95941],[132.50279,32.95605],[132.49982,32.94852],[132.49434,32.94792],[132.49584,32.94379],[132.49214,32.93988],[132.48732,32.94179],[132.48163,32.93817],[132.46695,32.93896],[132.47123,32.93448],[132.47347,32.92338],[132.4775,32.92228],[132.47493,32.91519],[132.47729,32.90955],[132.47641,32.90464],[132.48472,32.90456],[132.48923,32.90218],[132.49926,32.9055],[132.50672,32.90354],[132.51527,32.90322],[132.52164,32.90831],[132.51891,32.91138],[132.52587,32.91368],[132.52708,32.91983],[132.52033,32.91974],[132.5119,32.91644],[132.50077,32.91494],[132.49723,32.91944],[132.50636,32.92593],[132.5105,32.9269],[132.51526,32.93155],[132.52177,32.9317],[132.51511,32.94149],[132.50921,32.9402],[132.50436,32.94304],[132.50482,32.947],[132.51267,32.95013],[132.53117,32.94875],[132.53789,32.94725],[132.53697,32.9422],[132.53992,32.93617],[132.54972,32.93276],[132.55637,32.93345],[132.5591,32.93696],[132.54989,32.93885],[132.5481,32.94486],[132.55134,32.9471],[132.56241,32.94438],[132.56402,32.9472],[132.57185,32.94615],[132.57761,32.93915],[132.57985,32.94179],[132.58708,32.94225],[132.59312,32.94581],[132.60258,32.94553],[132.58721,32.93881],[132.58607,32.93456],[132.59233,32.92392],[132.59935,32.92195],[132.59604,32.91705],[132.59903,32.91262],[132.60607,32.91578],[132.63086,32.92398],[132.64728,32.92811],[132.65553,32.9252],[132.65627,32.93231],[132.65247,32.93915],[132.66067,32.94248],[132.66567,32.94176],[132.67588,32.94394],[132.67825,32.94296],[132.68451,32.94957],[132.68205,32.95586],[132.68347,32.96314],[132.69152,32.97357],[132.68744,32.97581],[132.68707,32.9822],[132.68138,32.99382],[132.68672,32.99735],[132.6839,33.00405],[132.67701,33.01106],[132.67552,33.0224],[132.67867,33.0294],[132.67796,33.038],[132.67122,33.04591],[132.66619,33.04871],[132.66107,33.05534],[132.65767,33.05706],[132.65164,33.05694],[132.63736,33.06345],[132.61874,33.05098],[132.61134,33.05167],[132.60713,33.0542],[132.59771,33.05472],[132.59521,33.05136],[132.5904,33.05056],[132.58256,33.04654],[132.57878,33.04758],[132.57648,33.04281],[132.56328,33.04001],[132.54509,33.04328],[132.53351,33.03559],[132.52866,33.03889],[132.52411,33.03833],[132.51916,33.04146],[132.50662,33.03898],[132.50347,33.04237],[132.49391,33.04444],[132.48122,33.05302],[132.47433,33.05315],[132.47016,33.0555],[132.46286,33.05544],[132.45965,33.05257],[132.45154,33.05152],[132.44066,33.05378],[132.43403,33.05215],[132.42335,33.05716],[132.42227,33.05988],[132.41005,33.06016],[132.40334,33.05628],[132.40612,33.04423],[132.40517,33.03943],[132.4005,33.03515],[132.39945,33.02896],[132.39334,33.02266],[132.37859,33.02288]]],[[[132.45518,32.9521],[132.45029,32.94714],[132.44704,32.94811],[132.43695,32.9407],[132.4447,32.94053],[132.44699,32.94323],[132.45547,32.94284],[132.45868,32.94966],[132.45518,32.9521]]]]},"properties":{"pref":"愛媛県","county":"南宇和郡","city":"愛南町","code5":"38506","code6":"385069"}}
]}