{"type":"FeatureCollection", "features": [
{"type":"Feature","geometry":{"type":"Polygon","coordinates":[[[133.56339,33.66601],[133.55474,33.66631],[133.55025,33.66318],[133.54044,33.66492],[133.53857,33.67349],[133.53561,33.67792],[133.53051,33.67804],[133.51553,33.68189],[133.51538,33.67917],[133.5058,33.66982],[133.4993,33.66886],[133.49459,33.67103],[133.4878,33.66965],[133.47342,33.67119],[133.46469,33.66164],[133.45577,33.66632],[133.44943,33.67227],[133.43649,33.67051],[133.42766,33.66491],[133.41268,33.66053],[133.40064,33.65069],[133.39955,33.64303],[133.39501,33.63989],[133.39575,33.62913],[133.39898,33.61966],[133.4062,33.61748],[133.40928,33.61874],[133.41574,33.60826],[133.409,33.60492],[133.40613,33.59936],[133.40137,33.59536],[133.40196,33.59209],[133.41315,33.58703],[133.41291,33.58173],[133.41824,33.57616],[133.42914,33.5747],[133.43346,33.57582],[133.44263,33.57143],[133.44659,33.56726],[133.45247,33.57207],[133.45814,33.57398],[133.46311,33.57326],[133.46902,33.56601],[133.4745,33.56273],[133.46786,33.55392],[133.46485,33.53853],[133.46311,33.53561],[133.45598,33.53264],[133.45801,33.5237],[133.44907,33.51439],[133.44167,33.51358],[133.43657,33.51006],[133.44473,33.49655],[133.45672,33.49083],[133.4616,33.48356],[133.46095,33.47563],[133.47076,33.46796],[133.47951,33.45793],[133.48454,33.46127],[133.4987,33.46671],[133.50474,33.46797],[133.51042,33.4736],[133.53749,33.48462],[133.55349,33.48996],[133.56568,33.49304],[133.57464,33.49652],[133.57724,33.50084],[133.56695,33.49867],[133.56096,33.49895],[133.55806,33.50141],[133.55756,33.50316],[133.55751,33.50316],[133.55743,33.50308],[133.55951,33.50729],[133.55876,33.50879],[133.55869,33.50882],[133.55355,33.51001],[133.54763,33.51753],[133.54765,33.52159],[133.54763,33.52165],[133.54703,33.52373],[133.5482,33.52523],[133.56101,33.53018],[133.56033,33.53587],[133.55853,33.53609],[133.55849,33.5361],[133.55206,33.53783],[133.553,33.53833],[133.5528,33.54054],[133.55263,33.54079],[133.55901,33.53875],[133.56053,33.54213],[133.5694,33.54273],[133.57144,33.53906],[133.56685,33.53559],[133.56538,33.53115],[133.56478,33.51463],[133.56919,33.51182],[133.563,33.50442],[133.56294,33.50437],[133.56433,33.50117],[133.57052,33.50186],[133.57755,33.51044],[133.58413,33.51296],[133.58823,33.50887],[133.59236,33.51337],[133.5908,33.51595],[133.60143,33.51957],[133.60263,33.53256],[133.60688,33.53598],[133.60647,33.54189],[133.6094,33.54591],[133.61673,33.54808],[133.61585,33.55232],[133.62329,33.5581],[133.62535,33.56792],[133.6195,33.56968],[133.61454,33.56799],[133.61203,33.57304],[133.62437,33.57677],[133.60841,33.58048],[133.61005,33.5887],[133.60829,33.59095],[133.59594,33.59045],[133.58629,33.59624],[133.57603,33.60964],[133.57747,33.6152],[133.57199,33.6253],[133.57387,33.63038],[133.57826,33.6303],[133.58492,33.63538],[133.58132,33.64731],[133.57836,33.65297],[133.56844,33.66045],[133.56339,33.66601]]]},"properties":{"pref":"高知県","city":"高知市","code5":"39201","code6":"392014"}},
{"type":"Feature","geometry":{"type":"Polygon","coordinates":[[[134.23531,33.44211],[134.22777,33.45086],[134.22926,33.45535],[134.22669,33.46092],[134.22016,33.46298],[134.20898,33.47171],[134.20685,33.4792],[134.20193,33.48423],[134.19506,33.48769],[134.1921,33.48589],[134.17572,33.48447],[134.16948,33.47942],[134.15542,33.47737],[134.1442,33.46828],[134.13187,33.47462],[134.12573,33.46599],[134.11272,33.45777],[134.1084,33.44679],[134.10724,33.44309],[134.09571,33.44008],[134.09568,33.43273],[134.08722,33.42745],[134.08841,33.42255],[134.08684,33.41662],[134.07589,33.4136],[134.06857,33.40761],[134.07061,33.40475],[134.06602,33.39614],[134.05255,33.3917],[134.04763,33.38617],[134.03759,33.38215],[134.03377,33.37841],[134.03904,33.37061],[134.04134,33.3721],[134.05366,33.36845],[134.06669,33.35765],[134.07349,33.348],[134.07579,33.34265],[134.08327,33.33673],[134.09945,33.32973],[134.10549,33.32291],[134.10975,33.30574],[134.10896,33.30244],[134.1087,33.30156],[134.10735,33.29853],[134.11491,33.29415],[134.12058,33.29906],[134.12958,33.29898],[134.13605,33.29717],[134.13829,33.29306],[134.14341,33.29066],[134.14479,33.28684],[134.15339,33.2827],[134.15447,33.27687],[134.16442,33.26613],[134.17165,33.249],[134.17165,33.24898],[134.17289,33.24619],[134.17287,33.24618],[134.17288,33.24615],[134.17289,33.24615],[134.17346,33.24567],[134.17459,33.24461],[134.18146,33.24922],[134.18388,33.26045],[134.1857,33.26321],[134.185,33.26895],[134.18709,33.27981],[134.18725,33.29036],[134.18727,33.29036],[134.18648,33.2944],[134.18869,33.30122],[134.19245,33.30715],[134.19406,33.32037],[134.1985,33.32969],[134.19866,33.34338],[134.20165,33.35559],[134.20525,33.36212],[134.20542,33.36796],[134.21191,33.37733],[134.21406,33.38852],[134.2108,33.39277],[134.2119,33.4006],[134.2236,33.42218],[134.23465,33.43769],[134.23531,33.44211]]]},"properties":{"pref":"高知県","city":"室戸市","code5":"39202","code6":"392022"}},
{"type":"Feature","geometry":{"type":"Polygon","coordinates":[[[134.06504,33.71945],[134.06163,33.7203],[134.05257,33.71523],[134.04184,33.71412],[134.03528,33.71199],[134.02719,33.71878],[134.01955,33.71241],[134.01474,33.71387],[134.00184,33.71248],[133.99605,33.70845],[133.9946,33.69918],[133.99059,33.69353],[133.98101,33.68815],[133.97762,33.68864],[133.97372,33.68225],[133.96799,33.67909],[133.96812,33.67378],[133.9638,33.67354],[133.96016,33.66609],[133.94465,33.66019],[133.94199,33.6554],[133.93477,33.65076],[133.93193,33.6519],[133.92577,33.64779],[133.91621,33.64417],[133.90914,33.64871],[133.90097,33.64724],[133.90081,33.65271],[133.89829,33.65816],[133.89388,33.65422],[133.88645,33.65301],[133.88071,33.6434],[133.87649,33.64156],[133.87977,33.63422],[133.87994,33.62799],[133.87441,33.62407],[133.87259,33.618],[133.87597,33.61218],[133.87082,33.60785],[133.86117,33.60654],[133.8565,33.60087],[133.86458,33.59341],[133.8698,33.58447],[133.86958,33.57884],[133.8721,33.57273],[133.8694,33.57094],[133.8687,33.56409],[133.85934,33.55789],[133.85601,33.54445],[133.85653,33.53642],[133.85116,33.52842],[133.84646,33.52771],[133.83712,33.52148],[133.836,33.52846],[133.82776,33.52404],[133.82512,33.52544],[133.82006,33.5153],[133.83565,33.51246],[133.83798,33.508],[133.84358,33.50619],[133.85682,33.50584],[133.88064,33.50262],[133.89147,33.49909],[133.90474,33.49659],[133.92255,33.49191],[133.93667,33.48564],[133.94194,33.47851],[133.94185,33.47837],[133.9443,33.47525],[133.94163,33.46341],[133.94969,33.45031],[133.95587,33.4462],[133.9596,33.45101],[133.95992,33.4574],[133.96827,33.46903],[133.97647,33.47048],[133.98161,33.47819],[133.97867,33.48307],[133.98427,33.48773],[133.9857,33.49551],[133.98967,33.49798],[133.98765,33.50435],[133.99078,33.5118],[133.99701,33.51695],[134.00167,33.51771],[134.01418,33.53859],[134.02567,33.54707],[134.03043,33.55517],[134.02745,33.56306],[134.02084,33.57004],[134.01231,33.56811],[134.00693,33.57697],[134.00932,33.57899],[134.00999,33.58654],[134.0138,33.58896],[134.0192,33.58783],[134.02123,33.59098],[134.01987,33.59709],[134.02261,33.60288],[134.01301,33.60791],[134.01721,33.61175],[134.0191,33.62071],[134.02677,33.63572],[134.03102,33.64036],[134.03467,33.63816],[134.04488,33.64561],[134.05096,33.64433],[134.05566,33.64648],[134.05487,33.65183],[134.06098,33.6551],[134.07051,33.66358],[134.06881,33.66813],[134.06287,33.67182],[134.05229,33.67285],[134.04717,33.6796],[134.05263,33.68337],[134.05806,33.69103],[134.0566,33.69391],[134.06352,33.70014],[134.06642,33.70951],[134.0701,33.7112],[134.06504,33.71945]]]},"properties":{"pref":"高知県","city":"安芸市","code5":"39203","code6":"392031"}},
{"type":"Feature","geometry":{"type":"Polygon","coordinates":[[[133.60143,33.51957],[133.65766,33.53075],[133.68188,33.534],[133.68078,33.54152],[133.68521,33.54435],[133.68041,33.55819],[133.6797,33.56581],[133.68445,33.57968],[133.68381,33.58507],[133.67627,33.58476],[133.67089,33.5889],[133.67234,33.5926],[133.66799,33.60825],[133.66237,33.61033],[133.66496,33.62358],[133.66297,33.62931],[133.66664,33.63422],[133.66485,33.65914],[133.65077,33.65479],[133.64274,33.65679],[133.63947,33.66364],[133.63466,33.66471],[133.61971,33.66132],[133.61499,33.67757],[133.60684,33.68859],[133.6012,33.69119],[133.59669,33.70181],[133.58914,33.70616],[133.58338,33.70564],[133.57859,33.69968],[133.56812,33.69423],[133.55987,33.69254],[133.56593,33.68194],[133.56395,33.67904],[133.5653,33.66971],[133.56339,33.66601],[133.56844,33.66045],[133.57836,33.65297],[133.58132,33.64731],[133.58492,33.63538],[133.57826,33.6303],[133.57387,33.63038],[133.57199,33.6253],[133.57747,33.6152],[133.57603,33.60964],[133.58629,33.59624],[133.59594,33.59045],[133.60829,33.59095],[133.61005,33.5887],[133.60841,33.58048],[133.62437,33.57677],[133.61203,33.57304],[133.61454,33.56799],[133.6195,33.56968],[133.62535,33.56792],[133.62329,33.5581],[133.61585,33.55232],[133.61673,33.54808],[133.6094,33.54591],[133.60647,33.54189],[133.60688,33.53598],[133.60263,33.53256],[133.60143,33.51957]]]},"properties":{"pref":"高知県","city":"南国市","code5":"39204","code6":"392049"}},
{"type":"Feature","geometry":{"type":"MultiPolygon","coordinates":[[[[133.43657,33.51006],[133.43013,33.52282],[133.41074,33.52037],[133.40811,33.52109],[133.39385,33.51896],[133.39216,33.51599],[133.39566,33.51123],[133.38543,33.5097],[133.38045,33.5109],[133.36334,33.50514],[133.3582,33.50215],[133.34412,33.49788],[133.33714,33.49871],[133.33598,33.5016],[133.32987,33.49823],[133.32293,33.4896],[133.32717,33.48176],[133.31953,33.47457],[133.3084,33.47004],[133.30559,33.45915],[133.30613,33.45184],[133.30819,33.44987],[133.31436,33.43214],[133.32418,33.43335],[133.33055,33.43997],[133.3499,33.44121],[133.35484,33.44588],[133.35468,33.45042],[133.36016,33.45308],[133.36518,33.45234],[133.37315,33.44515],[133.38408,33.45373],[133.38627,33.45684],[133.39267,33.45643],[133.39923,33.45955],[133.40071,33.46518],[133.40822,33.46805],[133.42281,33.46339],[133.42948,33.46373],[133.43121,33.45806],[133.42891,33.45466],[133.43189,33.44831],[133.42906,33.44226],[133.43224,33.43721],[133.43729,33.43929],[133.44121,33.44915],[133.44665,33.45054],[133.45922,33.44855],[133.46709,33.45371],[133.47951,33.45793],[133.47076,33.46796],[133.46095,33.47563],[133.4616,33.48356],[133.45672,33.49083],[133.44473,33.49655],[133.43657,33.51006]]],[[[133.44289,33.41964],[133.44565,33.42122],[133.45698,33.41984],[133.45894,33.42793],[133.44164,33.43936],[133.43946,33.43318],[133.43543,33.4334],[133.43439,33.42821],[133.44289,33.41964]]]]},"properties":{"pref":"高知県","city":"土佐市","code5":"39205","code6":"392057"}},
{"type":"Feature","geometry":{"type":"MultiPolygon","coordinates":[[[[133.30559,33.45915],[133.29381,33.45203],[133.28708,33.44661],[133.27142,33.44029],[133.25824,33.4414],[133.2512,33.43326],[133.24283,33.43265],[133.23198,33.42877],[133.21715,33.43058],[133.20807,33.42869],[133.20803,33.41811],[133.20652,33.41039],[133.20959,33.40471],[133.20322,33.40286],[133.19551,33.39782],[133.18372,33.39994],[133.17548,33.39865],[133.17523,33.39366],[133.17913,33.38313],[133.17716,33.37636],[133.18371,33.37829],[133.19525,33.37777],[133.20066,33.38087],[133.20906,33.38219],[133.21423,33.37848],[133.22522,33.38007],[133.22801,33.37913],[133.23122,33.36941],[133.24099,33.36479],[133.24375,33.35798],[133.24956,33.35391],[133.25409,33.34773],[133.26383,33.34057],[133.26022,33.34764],[133.26469,33.35914],[133.25883,33.36329],[133.26159,33.36918],[133.2656,33.36983],[133.27388,33.37521],[133.28151,33.3775],[133.2793,33.38348],[133.28267,33.38626],[133.29245,33.38733],[133.29567,33.39311],[133.2882,33.40248],[133.29414,33.40332],[133.2985,33.39639],[133.30046,33.39037],[133.29577,33.38556],[133.29002,33.38313],[133.29949,33.37882],[133.30917,33.38007],[133.31579,33.3785],[133.32023,33.38302],[133.32447,33.37917],[133.32154,33.36865],[133.32789,33.36533],[133.32803,33.37152],[133.33208,33.37161],[133.3296,33.38736],[133.33139,33.39015],[133.33859,33.3924],[133.34039,33.39632],[133.34594,33.40094],[133.35395,33.40001],[133.35888,33.40263],[133.36556,33.40063],[133.38481,33.40308],[133.38992,33.40608],[133.39341,33.40198],[133.39709,33.4041],[133.41217,33.40617],[133.41149,33.41054],[133.43585,33.41567],[133.43892,33.41388],[133.44289,33.41964],[133.43439,33.42821],[133.42898,33.43036],[133.42426,33.42908],[133.4214,33.43631],[133.41648,33.43917],[133.41156,33.43243],[133.39972,33.41944],[133.39821,33.42358],[133.39181,33.41731],[133.38528,33.41719],[133.38426,33.41105],[133.37825,33.41501],[133.3783,33.42215],[133.36871,33.41928],[133.36988,33.41149],[133.36767,33.40856],[133.36197,33.4153],[133.35108,33.41606],[133.3555,33.42023],[133.36061,33.42126],[133.36985,33.43048],[133.38341,33.43021],[133.38723,33.42761],[133.39698,33.42963],[133.40039,33.4331],[133.40601,33.43261],[133.40613,33.4367],[133.39785,33.44528],[133.40569,33.4476],[133.4101,33.44337],[133.41784,33.44378],[133.42337,33.44913],[133.42355,33.43981],[133.43224,33.43721],[133.42906,33.44226],[133.43189,33.44831],[133.42891,33.45466],[133.43121,33.45806],[133.42948,33.46373],[133.42281,33.46339],[133.40822,33.46805],[133.40071,33.46518],[133.39923,33.45955],[133.39267,33.45643],[133.38627,33.45684],[133.38408,33.45373],[133.37315,33.44515],[133.36518,33.45234],[133.36016,33.45308],[133.35468,33.45042],[133.35484,33.44588],[133.3499,33.44121],[133.33055,33.43997],[133.32418,33.43335],[133.31436,33.43214],[133.30819,33.44987],[133.30613,33.45184],[133.30559,33.45915]]],[[[133.33451,33.37585],[133.33431,33.37566],[133.33453,33.37585],[133.33451,33.37585]]]]},"properties":{"pref":"高知県","city":"須崎市","code5":"39206","code6":"392065"}},
{"type":"Feature","geometry":{"type":"MultiPolygon","coordinates":[[[[132.65767,33.05706],[132.66107,33.05534],[132.66619,33.04871],[132.67122,33.04591],[132.67796,33.038],[132.67867,33.0294],[132.67552,33.0224],[132.67701,33.01106],[132.6839,33.00405],[132.68672,32.99735],[132.68138,32.99382],[132.68707,32.9822],[132.68744,32.97581],[132.69152,32.97357],[132.68347,32.96314],[132.68205,32.95586],[132.68451,32.94957],[132.67825,32.94296],[132.67588,32.94394],[132.66567,32.94176],[132.66067,32.94248],[132.65247,32.93915],[132.65627,32.93231],[132.65553,32.9252],[132.67116,32.91916],[132.67853,32.9199],[132.6837,32.92304],[132.68615,32.91975],[132.69079,32.92277],[132.68945,32.92658],[132.69625,32.92848],[132.69415,32.92058],[132.69818,32.9184],[132.70826,32.92596],[132.71089,32.92396],[132.71147,32.9182],[132.717,32.90861],[132.71294,32.90759],[132.7148,32.89942],[132.72116,32.90138],[132.72043,32.89447],[132.71112,32.89352],[132.71338,32.88565],[132.71823,32.88449],[132.71592,32.8797],[132.71108,32.87971],[132.7048,32.88813],[132.70488,32.88454],[132.69673,32.87336],[132.70996,32.86289],[132.71611,32.86703],[132.71988,32.86526],[132.72363,32.86997],[132.72887,32.86151],[132.73091,32.85281],[132.73822,32.85411],[132.74047,32.84623],[132.73856,32.83879],[132.74798,32.83917],[132.75357,32.83386],[132.76287,32.83029],[132.76904,32.8353],[132.77402,32.83512],[132.77755,32.83802],[132.78505,32.83929],[132.77904,32.85058],[132.78231,32.85523],[132.78384,32.86744],[132.77961,32.87013],[132.78036,32.8762],[132.77222,32.88798],[132.76618,32.8948],[132.76726,32.899],[132.77268,32.90018],[132.78014,32.90781],[132.78285,32.90353],[132.79445,32.90123],[132.7969,32.89887],[132.80484,32.8995],[132.80485,32.90566],[132.79982,32.91037],[132.80005,32.91338],[132.8063,32.91809],[132.8165,32.92306],[132.82259,32.92414],[132.82464,32.93646],[132.82978,32.94025],[132.82748,32.94348],[132.8267,32.95263],[132.82149,32.95764],[132.82481,32.97697],[132.82149,32.98475],[132.82199,32.99821],[132.81748,33.00311],[132.82354,33.0117],[132.82824,33.01076],[132.82953,33.0155],[132.82191,33.01576],[132.80629,33.02741],[132.80726,33.03506],[132.79832,33.04349],[132.79254,33.04293],[132.78749,33.03869],[132.78117,33.04021],[132.77955,33.04297],[132.76827,33.04389],[132.7608,33.04053],[132.75859,33.03666],[132.74728,33.0425],[132.74204,33.04742],[132.74562,33.0515],[132.74665,33.05657],[132.75197,33.06539],[132.74425,33.07018],[132.73549,33.07049],[132.72993,33.07484],[132.72135,33.07525],[132.71812,33.08059],[132.71768,33.08587],[132.70993,33.08949],[132.70401,33.0889],[132.69644,33.09213],[132.69484,33.09469],[132.68575,33.0961],[132.66327,33.10914],[132.66595,33.09948],[132.66931,33.09239],[132.67005,33.08551],[132.66668,33.08048],[132.6695,33.07118],[132.66664,33.06623],[132.66233,33.06347],[132.65767,33.05706]]],[[[132.54564,32.75515],[132.54422,32.75005],[132.54724,32.74667],[132.54312,32.73248],[132.5383,32.72754],[132.54685,32.71886],[132.55055,32.7166],[132.54836,32.71147],[132.54503,32.71136],[132.54018,32.70577],[132.54309,32.70251],[132.55396,32.70767],[132.57011,32.7137],[132.57188,32.71743],[132.56701,32.7252],[132.56713,32.72969],[132.57013,32.73628],[132.5676,32.74039],[132.55823,32.74266],[132.55833,32.748],[132.5527,32.74714],[132.55031,32.75233],[132.54564,32.75515]]],[[[132.48747,32.80763],[132.48569,32.80322],[132.48003,32.7999],[132.48081,32.79656],[132.49387,32.79774],[132.49827,32.80533],[132.48747,32.80763]]],[[[132.69585,32.91873],[132.68799,32.91851],[132.6893,32.91279],[132.69518,32.9103],[132.70433,32.91406],[132.69585,32.91873]]],[[[132.48982,32.74355],[132.4864,32.7374],[132.49277,32.73743],[132.48982,32.74355]]]]},"properties":{"pref":"高知県","city":"宿毛市","code5":"39208","code6":"392081"}},
{"type":"Feature","geometry":{"type":"Polygon","coordinates":[[[132.76287,32.83029],[132.76369,32.82318],[132.77019,32.81733],[132.76958,32.81446],[132.76112,32.80107],[132.77428,32.79327],[132.7734,32.78679],[132.78098,32.78293],[132.78645,32.77209],[132.78464,32.76861],[132.78638,32.75697],[132.78931,32.74965],[132.80189,32.74789],[132.80335,32.75164],[132.81555,32.75334],[132.81581,32.76199],[132.82377,32.76074],[132.82669,32.76519],[132.83276,32.76617],[132.83544,32.76899],[132.83911,32.78084],[132.845,32.78095],[132.8521,32.78683],[132.85998,32.78712],[132.86164,32.79073],[132.87162,32.78579],[132.87154,32.77685],[132.86876,32.77536],[132.86568,32.77176],[132.87221,32.76841],[132.87913,32.77066],[132.87577,32.77508],[132.88028,32.78312],[132.87504,32.78753],[132.87946,32.78967],[132.88367,32.788],[132.88737,32.79075],[132.90191,32.78858],[132.91272,32.788],[132.92348,32.78256],[132.92856,32.78209],[132.93524,32.78693],[132.94351,32.78326],[132.93977,32.77798],[132.94188,32.77097],[132.94813,32.76596],[132.95474,32.77198],[132.9589,32.77818],[132.96555,32.77508],[132.9575,32.77184],[132.9534,32.76581],[132.95365,32.75734],[132.96392,32.75794],[132.96337,32.75388],[132.96919,32.75147],[132.97146,32.74511],[132.96607,32.73786],[132.96605,32.72928],[132.98769,32.73335],[132.99059,32.72947],[133.00522,32.72171],[133.00828,32.72386],[133.02022,32.72449],[133.02211,32.729],[133.01865,32.73866],[133.01877,32.74451],[133.01396,32.75423],[133.0176,32.7616],[133.01035,32.76735],[133.0077,32.77398],[133.00142,32.78271],[133.00161,32.78725],[132.99594,32.78731],[132.99136,32.79041],[132.97883,32.7939],[132.97276,32.79851],[132.9655,32.79903],[132.9624,32.80396],[132.95854,32.80461],[132.95646,32.80924],[132.95187,32.81296],[132.95036,32.8206],[132.95276,32.82599],[132.95945,32.82776],[132.95856,32.8321],[132.9535,32.8364],[132.9566,32.8399],[132.95464,32.84562],[132.95598,32.85063],[132.94951,32.85558],[132.95099,32.86009],[132.95667,32.86109],[132.96034,32.86421],[132.9668,32.86593],[132.98184,32.86457],[132.98669,32.86769],[132.99333,32.86244],[132.99375,32.86835],[133.002,32.87975],[133.00937,32.88121],[133.00863,32.88987],[133.0063,32.8959],[133.00622,32.90546],[133.00884,32.91195],[132.99322,32.91191],[132.99035,32.91655],[132.98168,32.91929],[132.97284,32.91679],[132.96662,32.91749],[132.96277,32.91546],[132.963,32.90945],[132.9534,32.90942],[132.94401,32.91639],[132.94033,32.92162],[132.93704,32.9219],[132.93175,32.92778],[132.92941,32.93578],[132.9179,32.93527],[132.91826,32.92716],[132.9129,32.91984],[132.90911,32.91742],[132.91292,32.90958],[132.90613,32.90759],[132.90317,32.9034],[132.90654,32.89784],[132.91143,32.89565],[132.91361,32.89164],[132.91345,32.87951],[132.90274,32.88063],[132.89929,32.87535],[132.89251,32.87377],[132.8904,32.87099],[132.88359,32.87343],[132.87551,32.8726],[132.86929,32.86679],[132.85912,32.86823],[132.85647,32.8652],[132.84911,32.86563],[132.84525,32.85927],[132.83485,32.86301],[132.83026,32.86214],[132.8267,32.86508],[132.81719,32.86492],[132.80966,32.87542],[132.79952,32.88092],[132.79442,32.87461],[132.78589,32.87713],[132.78384,32.86744],[132.78231,32.85523],[132.77904,32.85058],[132.78505,32.83929],[132.77755,32.83802],[132.77402,32.83512],[132.76904,32.8353],[132.76287,32.83029]]]},"properties":{"pref":"高知県","city":"土佐清水市","code5":"39209","code6":"392090"}},
{"type":"Feature","geometry":{"type":"Polygon","coordinates":[[[132.66327,33.10914],[132.68575,33.0961],[132.69484,33.09469],[132.69644,33.09213],[132.70401,33.0889],[132.70993,33.08949],[132.71768,33.08587],[132.71812,33.08059],[132.72135,33.07525],[132.72993,33.07484],[132.73549,33.07049],[132.74425,33.07018],[132.75197,33.06539],[132.74665,33.05657],[132.74562,33.0515],[132.74204,33.04742],[132.74728,33.0425],[132.75859,33.03666],[132.7608,33.04053],[132.76827,33.04389],[132.77955,33.04297],[132.78117,33.04021],[132.78749,33.03869],[132.79254,33.04293],[132.79832,33.04349],[132.80726,33.03506],[132.80629,33.02741],[132.82191,33.01576],[132.82953,33.0155],[132.82824,33.01076],[132.82354,33.0117],[132.81748,33.00311],[132.82199,32.99821],[132.82149,32.98475],[132.82481,32.97697],[132.82149,32.95764],[132.8267,32.95263],[132.82748,32.94348],[132.82978,32.94025],[132.84325,32.94042],[132.84602,32.93859],[132.85361,32.93993],[132.85382,32.94229],[132.86072,32.9452],[132.86872,32.9435],[132.87649,32.93974],[132.89278,32.94497],[132.91251,32.93502],[132.9179,32.93527],[132.92941,32.93578],[132.93175,32.92778],[132.93704,32.9219],[132.94033,32.92162],[132.94401,32.91639],[132.9534,32.90942],[132.963,32.90945],[132.96277,32.91546],[132.96662,32.91749],[132.97284,32.91679],[132.98168,32.91929],[132.99035,32.91655],[132.99322,32.91191],[133.00884,32.91195],[133.00257,32.92072],[132.99788,32.92254],[132.9947,32.93173],[132.99652,32.94162],[132.99996,32.94608],[132.99465,32.94872],[132.99301,32.95233],[132.99527,32.96242],[132.99972,32.97162],[133.00391,32.97644],[132.9993,32.9803],[132.99097,32.97706],[132.98546,32.98191],[132.98025,32.98196],[132.97643,32.9851],[132.98,32.9889],[132.97564,32.99964],[132.96922,33.00324],[132.96182,33.00385],[132.95668,33.01503],[132.95339,33.01967],[132.96422,33.03027],[132.96472,33.0336],[132.96101,33.04101],[132.96163,33.04688],[132.96558,33.05376],[132.96394,33.05634],[132.97014,33.06686],[132.97052,33.07316],[132.974,33.07675],[132.97105,33.08265],[132.97394,33.08764],[132.9831,33.08833],[132.9848,33.09392],[132.98872,33.09876],[132.99688,33.09918],[133.00653,33.11042],[133.02189,33.1139],[133.02984,33.11017],[133.03927,33.11165],[133.04364,33.11067],[133.05134,33.12267],[133.05685,33.12977],[133.05684,33.13344],[133.04781,33.13561],[133.03446,33.14048],[133.02735,33.14509],[133.02219,33.1502],[133.01695,33.14993],[133.01089,33.14608],[133.00344,33.14724],[133.0004,33.15107],[133.00253,33.15591],[132.99404,33.16014],[132.98467,33.15734],[132.97897,33.16012],[132.97275,33.1609],[132.96923,33.15588],[132.9657,33.15468],[132.96318,33.14797],[132.95854,33.14658],[132.95144,33.14926],[132.94635,33.14629],[132.94028,33.14529],[132.93545,33.13755],[132.92385,33.13897],[132.91164,33.14382],[132.89918,33.14418],[132.89315,33.14857],[132.89051,33.15271],[132.88415,33.15359],[132.87603,33.16092],[132.88008,33.16701],[132.87762,33.17956],[132.86778,33.17999],[132.8612,33.17726],[132.84552,33.18453],[132.83889,33.18867],[132.8337,33.18744],[132.82645,33.19089],[132.8188,33.19205],[132.82453,33.20193],[132.82451,33.20658],[132.81765,33.21389],[132.81907,33.22294],[132.823,33.22271],[132.82746,33.23776],[132.82241,33.2396],[132.80467,33.23579],[132.80031,33.24384],[132.79995,33.24757],[132.79482,33.25174],[132.78689,33.26224],[132.77773,33.25153],[132.77761,33.24614],[132.77192,33.24106],[132.77491,33.23399],[132.7746,33.22835],[132.77114,33.22631],[132.77086,33.22104],[132.77359,33.21797],[132.77316,33.21244],[132.77594,33.20841],[132.76796,33.20328],[132.75944,33.2017],[132.74848,33.20349],[132.74064,33.20128],[132.73842,33.19584],[132.74191,33.18974],[132.73722,33.18633],[132.73784,33.18216],[132.73159,33.1764],[132.72581,33.16828],[132.71955,33.16679],[132.71718,33.15988],[132.71056,33.15316],[132.6986,33.14641],[132.69585,33.14261],[132.69584,33.13759],[132.68689,33.13485],[132.68036,33.1442],[132.67356,33.14998],[132.66238,33.15442],[132.65966,33.16001],[132.64668,33.17186],[132.63873,33.17361],[132.63442,33.17879],[132.63709,33.18476],[132.63566,33.1864],[132.61944,33.18088],[132.61949,33.17347],[132.61486,33.16929],[132.61933,33.16268],[132.62479,33.15935],[132.62757,33.15345],[132.63229,33.14924],[132.62822,33.13476],[132.62982,33.13229],[132.63748,33.13239],[132.63828,33.12791],[132.6444,33.12219],[132.64664,33.11557],[132.65389,33.11041],[132.66327,33.10914]]]},"properties":{"pref":"高知県","city":"四万十市","code5":"39210","code6":"392103"}},
{"type":"Feature","geometry":{"type":"Polygon","coordinates":[[[133.88645,33.65301],[133.87566,33.66266],[133.86532,33.66139],[133.85696,33.65824],[133.85108,33.65405],[133.84422,33.64661],[133.83722,33.64532],[133.83546,33.64046],[133.83831,33.63505],[133.83272,33.62998],[133.82747,33.63028],[133.81791,33.62215],[133.81412,33.61467],[133.80586,33.61032],[133.79403,33.60084],[133.79023,33.611],[133.78608,33.61676],[133.77623,33.61266],[133.76819,33.6107],[133.76693,33.60565],[133.75895,33.60541],[133.74598,33.59689],[133.74138,33.59756],[133.73747,33.59423],[133.731,33.59315],[133.72086,33.5996],[133.71583,33.59709],[133.70516,33.59823],[133.70362,33.60032],[133.69427,33.59416],[133.69164,33.5876],[133.68445,33.57968],[133.6797,33.56581],[133.68041,33.55819],[133.68521,33.54435],[133.68078,33.54152],[133.68188,33.534],[133.70159,33.53695],[133.72509,33.53834],[133.73819,33.53813],[133.74904,33.53609],[133.75591,33.5315],[133.75387,33.52616],[133.75436,33.5205],[133.7586,33.52031],[133.77,33.51577],[133.77038,33.51819],[133.77834,33.52473],[133.78189,33.5346],[133.79408,33.54945],[133.80188,33.55017],[133.80822,33.55555],[133.81318,33.55709],[133.82019,33.56693],[133.81726,33.57479],[133.82054,33.57999],[133.82702,33.58049],[133.82943,33.58352],[133.84346,33.57678],[133.84814,33.58175],[133.85943,33.59072],[133.86458,33.59341],[133.8565,33.60087],[133.86117,33.60654],[133.87082,33.60785],[133.87597,33.61218],[133.87259,33.618],[133.87441,33.62407],[133.87994,33.62799],[133.87977,33.63422],[133.87649,33.64156],[133.88071,33.6434],[133.88645,33.65301]]]},"properties":{"pref":"高知県","city":"香南市","code5":"39211","code6":"392111"}},
{"type":"Feature","geometry":{"type":"Polygon","coordinates":[[[133.87351,33.80592],[133.87056,33.80403],[133.8691,33.79693],[133.86098,33.78691],[133.85376,33.78434],[133.85444,33.77509],[133.8426,33.77368],[133.83155,33.76246],[133.83217,33.75563],[133.82358,33.75428],[133.81595,33.74417],[133.81058,33.74926],[133.7988,33.74266],[133.79112,33.73361],[133.78656,33.73159],[133.78443,33.7244],[133.77608,33.72532],[133.77129,33.73339],[133.75469,33.73229],[133.73665,33.72181],[133.73565,33.71203],[133.7303,33.70943],[133.7223,33.70243],[133.71242,33.69692],[133.70355,33.69457],[133.7019,33.69043],[133.69108,33.68375],[133.68568,33.68441],[133.67959,33.69253],[133.67443,33.69727],[133.66547,33.70103],[133.65697,33.70697],[133.65349,33.71247],[133.64917,33.71311],[133.64633,33.71691],[133.6396,33.7214],[133.62904,33.71487],[133.62149,33.71441],[133.61865,33.71044],[133.60434,33.70303],[133.59669,33.70181],[133.6012,33.69119],[133.60684,33.68859],[133.61499,33.67757],[133.61971,33.66132],[133.63466,33.66471],[133.63947,33.66364],[133.64274,33.65679],[133.65077,33.65479],[133.66485,33.65914],[133.66664,33.63422],[133.66297,33.62931],[133.66496,33.62358],[133.66237,33.61033],[133.66799,33.60825],[133.67234,33.5926],[133.67089,33.5889],[133.67627,33.58476],[133.68381,33.58507],[133.68445,33.57968],[133.69164,33.5876],[133.69427,33.59416],[133.70362,33.60032],[133.70516,33.59823],[133.71583,33.59709],[133.72086,33.5996],[133.731,33.59315],[133.73747,33.59423],[133.74138,33.59756],[133.74598,33.59689],[133.75895,33.60541],[133.76693,33.60565],[133.76819,33.6107],[133.77623,33.61266],[133.78608,33.61676],[133.79023,33.611],[133.79403,33.60084],[133.80586,33.61032],[133.81412,33.61467],[133.81791,33.62215],[133.82747,33.63028],[133.83272,33.62998],[133.83831,33.63505],[133.83546,33.64046],[133.83722,33.64532],[133.84422,33.64661],[133.85108,33.65405],[133.85696,33.65824],[133.86532,33.66139],[133.87566,33.66266],[133.88645,33.65301],[133.89388,33.65422],[133.89829,33.65816],[133.90081,33.65271],[133.90097,33.64724],[133.90914,33.64871],[133.91621,33.64417],[133.92577,33.64779],[133.93193,33.6519],[133.93477,33.65076],[133.94199,33.6554],[133.94465,33.66019],[133.96016,33.66609],[133.9638,33.67354],[133.96812,33.67378],[133.96799,33.67909],[133.97372,33.68225],[133.97762,33.68864],[133.98101,33.68815],[133.99059,33.69353],[133.9946,33.69918],[133.99605,33.70845],[134.00184,33.71248],[134.01474,33.71387],[134.01955,33.71241],[134.02719,33.71878],[134.03528,33.71199],[134.04184,33.71412],[134.05257,33.71523],[134.06163,33.7203],[134.06504,33.71945],[134.06842,33.72835],[134.06619,33.73407],[134.06178,33.73522],[134.06149,33.74044],[134.0561,33.75195],[134.05895,33.761],[134.05879,33.77667],[134.05532,33.78469],[134.05027,33.78564],[134.04587,33.79],[134.04658,33.79907],[134.04074,33.80189],[134.03331,33.80928],[134.03698,33.81498],[134.03688,33.82034],[134.03283,33.8284],[134.02671,33.82744],[134.02341,33.82469],[134.01233,33.82179],[133.99593,33.82193],[133.98995,33.82858],[133.98715,33.83667],[133.98312,33.8408],[133.97909,33.83749],[133.95978,33.83466],[133.9511,33.82869],[133.95307,33.82366],[133.95273,33.81549],[133.94747,33.80374],[133.94126,33.79916],[133.92488,33.80061],[133.9193,33.79763],[133.91278,33.7914],[133.908,33.79523],[133.90106,33.79438],[133.89597,33.80238],[133.88494,33.80341],[133.88267,33.80535],[133.87351,33.80592]]]},"properties":{"pref":"高知県","city":"香美市","code5":"39212","code6":"392120"}},
{"type":"Feature","geometry":{"type":"Polygon","coordinates":[[[134.19579,33.56082],[134.19844,33.55186],[134.19476,33.54689],[134.19313,33.53726],[134.20112,33.53397],[134.20128,33.52549],[134.20494,33.52034],[134.21295,33.51599],[134.21587,33.51279],[134.21433,33.50671],[134.21108,33.50566],[134.21007,33.49694],[134.20523,33.49661],[134.1976,33.50203],[134.19386,33.4989],[134.19902,33.49286],[134.19506,33.48769],[134.20193,33.48423],[134.20685,33.4792],[134.20898,33.47171],[134.22016,33.46298],[134.22669,33.46092],[134.22926,33.45535],[134.22777,33.45086],[134.23531,33.44211],[134.2416,33.45074],[134.24055,33.45935],[134.24208,33.46392],[134.25226,33.47874],[134.2612,33.48998],[134.26785,33.49578],[134.27036,33.50285],[134.27904,33.51177],[134.28988,33.52042],[134.28368,33.52139],[134.28558,33.53098],[134.28907,33.53186],[134.29422,33.53783],[134.29654,33.53868],[134.30044,33.53861],[134.30586,33.54844],[134.30369,33.55391],[134.297,33.55342],[134.29568,33.55773],[134.28724,33.5598],[134.27375,33.56062],[134.27001,33.55486],[134.2629,33.55642],[134.25821,33.55327],[134.24918,33.5529],[134.24335,33.55592],[134.23851,33.55292],[134.23223,33.55565],[134.22872,33.56101],[134.21871,33.56754],[134.2117,33.56696],[134.20227,33.56248],[134.19579,33.56082]]]},"properties":{"pref":"高知県","county":"安芸郡","city":"東洋町","code5":"39301","code6":"393011"}},
{"type":"Feature","geometry":{"type":"Polygon","coordinates":[[[134.1084,33.44679],[134.09704,33.44884],[134.08996,33.44838],[134.08605,33.44617],[134.07957,33.44593],[134.07734,33.44181],[134.06968,33.44122],[134.06409,33.4355],[134.04957,33.43582],[134.03356,33.4383],[134.02991,33.44064],[134.01581,33.42835],[134.01116,33.42241],[134.02867,33.41436],[134.03192,33.40837],[134.03783,33.39251],[134.03726,33.38403],[134.03377,33.37841],[134.03759,33.38215],[134.04763,33.38617],[134.05255,33.3917],[134.06602,33.39614],[134.07061,33.40475],[134.06857,33.40761],[134.07589,33.4136],[134.08684,33.41662],[134.08841,33.42255],[134.08722,33.42745],[134.09568,33.43273],[134.09571,33.44008],[134.10724,33.44309],[134.1084,33.44679]]]},"properties":{"pref":"高知県","county":"安芸郡","city":"奈半利町","code5":"39302","code6":"393029"}},
{"type":"Feature","geometry":{"type":"Polygon","coordinates":[[[134.02991,33.44064],[134.03017,33.44583],[134.02185,33.44609],[134.018,33.44955],[134.0242,33.45638],[134.02465,33.4595],[134.01429,33.45781],[134.01159,33.45577],[134.00988,33.4487],[134.00581,33.44599],[134.00802,33.44238],[134.00587,33.43735],[133.99363,33.43551],[133.99298,33.42793],[134.01116,33.42241],[134.01581,33.42835],[134.02991,33.44064]]]},"properties":{"pref":"高知県","county":"安芸郡","city":"田野町","code5":"39303","code6":"393037"}},
{"type":"Feature","geometry":{"type":"Polygon","coordinates":[[[133.95587,33.4462],[133.95859,33.44255],[133.97316,33.43888],[133.9828,33.43469],[133.9851,33.43224],[133.99298,33.42793],[133.99363,33.43551],[134.00587,33.43735],[134.00802,33.44238],[134.00581,33.44599],[134.00988,33.4487],[134.01159,33.45577],[134.01429,33.45781],[134.02465,33.4595],[134.0231,33.46717],[134.02556,33.47419],[134.02398,33.48138],[134.02657,33.48701],[134.0265,33.49635],[134.02862,33.50358],[134.03572,33.51008],[134.04075,33.51267],[134.04578,33.51175],[134.05643,33.52046],[134.0668,33.52258],[134.06912,33.52689],[134.06444,33.53134],[134.06013,33.53133],[134.05311,33.53541],[134.04104,33.53886],[134.03419,33.5394],[134.03079,33.54457],[134.02567,33.54707],[134.01418,33.53859],[134.00167,33.51771],[133.99701,33.51695],[133.99078,33.5118],[133.98765,33.50435],[133.98967,33.49798],[133.9857,33.49551],[133.98427,33.48773],[133.97867,33.48307],[133.98161,33.47819],[133.97647,33.47048],[133.96827,33.46903],[133.95992,33.4574],[133.9596,33.45101],[133.95587,33.4462]]]},"properties":{"pref":"高知県","county":"安芸郡","city":"安田町","code5":"39304","code6":"393045"}},
{"type":"Feature","geometry":{"type":"Polygon","coordinates":[[[134.15614,33.6117],[134.15488,33.60507],[134.15096,33.60367],[134.14593,33.59233],[134.13785,33.58945],[134.12625,33.5929],[134.1211,33.59591],[134.11158,33.59817],[134.106,33.59808],[134.10201,33.59309],[134.09383,33.59055],[134.0958,33.58421],[134.09221,33.57147],[134.08415,33.56758],[134.08322,33.56101],[134.09008,33.55127],[134.08207,33.54689],[134.07787,33.53928],[134.07687,33.53182],[134.06912,33.52689],[134.0668,33.52258],[134.05643,33.52046],[134.04578,33.51175],[134.04075,33.51267],[134.03572,33.51008],[134.02862,33.50358],[134.0265,33.49635],[134.02657,33.48701],[134.02398,33.48138],[134.02556,33.47419],[134.0231,33.46717],[134.02465,33.4595],[134.0242,33.45638],[134.018,33.44955],[134.02185,33.44609],[134.03017,33.44583],[134.02991,33.44064],[134.03356,33.4383],[134.04957,33.43582],[134.06409,33.4355],[134.06968,33.44122],[134.07734,33.44181],[134.07957,33.44593],[134.08605,33.44617],[134.08996,33.44838],[134.09704,33.44884],[134.1084,33.44679],[134.11272,33.45777],[134.12573,33.46599],[134.13187,33.47462],[134.1442,33.46828],[134.15542,33.47737],[134.16948,33.47942],[134.17572,33.48447],[134.1921,33.48589],[134.19506,33.48769],[134.19902,33.49286],[134.19386,33.4989],[134.1976,33.50203],[134.20523,33.49661],[134.21007,33.49694],[134.21108,33.50566],[134.21433,33.50671],[134.21587,33.51279],[134.21295,33.51599],[134.20494,33.52034],[134.20128,33.52549],[134.20112,33.53397],[134.19313,33.53726],[134.19476,33.54689],[134.19844,33.55186],[134.19579,33.56082],[134.19317,33.56163],[134.19536,33.56873],[134.19247,33.57398],[134.18777,33.57577],[134.18854,33.58106],[134.18472,33.58869],[134.17878,33.59415],[134.17058,33.59697],[134.17024,33.60211],[134.17596,33.6071],[134.17252,33.6096],[134.16479,33.61049],[134.16061,33.61281],[134.15614,33.6117]]]},"properties":{"pref":"高知県","county":"安芸郡","city":"北川村","code5":"39305","code6":"393053"}},
{"type":"Feature","geometry":{"type":"Polygon","coordinates":[[[134.05806,33.69103],[134.05263,33.68337],[134.04717,33.6796],[134.05229,33.67285],[134.06287,33.67182],[134.06881,33.66813],[134.07051,33.66358],[134.06098,33.6551],[134.05487,33.65183],[134.05566,33.64648],[134.05096,33.64433],[134.04488,33.64561],[134.03467,33.63816],[134.03102,33.64036],[134.02677,33.63572],[134.0191,33.62071],[134.01721,33.61175],[134.01301,33.60791],[134.02261,33.60288],[134.01987,33.59709],[134.02123,33.59098],[134.0192,33.58783],[134.0138,33.58896],[134.00999,33.58654],[134.00932,33.57899],[134.00693,33.57697],[134.01231,33.56811],[134.02084,33.57004],[134.02745,33.56306],[134.03043,33.55517],[134.02567,33.54707],[134.03079,33.54457],[134.03419,33.5394],[134.04104,33.53886],[134.05311,33.53541],[134.06013,33.53133],[134.06444,33.53134],[134.06912,33.52689],[134.07687,33.53182],[134.07787,33.53928],[134.08207,33.54689],[134.09008,33.55127],[134.08322,33.56101],[134.08415,33.56758],[134.09221,33.57147],[134.0958,33.58421],[134.09383,33.59055],[134.10201,33.59309],[134.106,33.59808],[134.11158,33.59817],[134.1211,33.59591],[134.12625,33.5929],[134.13785,33.58945],[134.14593,33.59233],[134.15096,33.60367],[134.15488,33.60507],[134.15614,33.6117],[134.15214,33.61818],[134.15489,33.62299],[134.14925,33.62714],[134.15022,33.63055],[134.16399,33.63545],[134.17055,33.64196],[134.18417,33.64902],[134.17133,33.65769],[134.17535,33.66159],[134.16896,33.67077],[134.17546,33.67593],[134.17478,33.68399],[134.16385,33.68812],[134.16097,33.68684],[134.14855,33.68571],[134.13578,33.69093],[134.13338,33.69396],[134.12626,33.69589],[134.11199,33.69566],[134.10602,33.69359],[134.0999,33.69462],[134.0814,33.69047],[134.06633,33.68862],[134.05806,33.69103]]]},"properties":{"pref":"高知県","county":"安芸郡","city":"馬路村","code5":"39306","code6":"393061"}},
{"type":"Feature","geometry":{"type":"Polygon","coordinates":[[[133.86458,33.59341],[133.85943,33.59072],[133.84814,33.58175],[133.84346,33.57678],[133.82943,33.58352],[133.82702,33.58049],[133.82054,33.57999],[133.81726,33.57479],[133.82019,33.56693],[133.81318,33.55709],[133.80822,33.55555],[133.80188,33.55017],[133.79408,33.54945],[133.78189,33.5346],[133.77834,33.52473],[133.77038,33.51819],[133.77,33.51577],[133.77983,33.51698],[133.82006,33.5153],[133.82512,33.52544],[133.82776,33.52404],[133.836,33.52846],[133.83712,33.52148],[133.84646,33.52771],[133.85116,33.52842],[133.85653,33.53642],[133.85601,33.54445],[133.85934,33.55789],[133.8687,33.56409],[133.8694,33.57094],[133.8721,33.57273],[133.86958,33.57884],[133.8698,33.58447],[133.86458,33.59341]]]},"properties":{"pref":"高知県","county":"安芸郡","city":"芸西村","code5":"39307","code6":"393070"}},
{"type":"Feature","geometry":{"type":"Polygon","coordinates":[[[133.50793,33.83587],[133.51552,33.82565],[133.52274,33.82304],[133.52377,33.81935],[133.52976,33.81385],[133.52914,33.80854],[133.53298,33.80662],[133.53436,33.79408],[133.5388,33.79138],[133.54582,33.78129],[133.5491,33.77281],[133.54453,33.76282],[133.54656,33.75937],[133.56289,33.74852],[133.56873,33.74841],[133.57631,33.73787],[133.57243,33.73461],[133.57229,33.72695],[133.57698,33.72317],[133.58393,33.71196],[133.58338,33.70564],[133.58914,33.70616],[133.59669,33.70181],[133.60434,33.70303],[133.61865,33.71044],[133.62149,33.71441],[133.62904,33.71487],[133.6396,33.7214],[133.63715,33.72672],[133.63753,33.73132],[133.64253,33.73608],[133.64278,33.73975],[133.63822,33.74441],[133.64323,33.7564],[133.64042,33.75924],[133.64149,33.7645],[133.63147,33.77563],[133.63029,33.78266],[133.62717,33.78734],[133.63327,33.79223],[133.63689,33.79978],[133.63447,33.80464],[133.6356,33.80905],[133.63341,33.81396],[133.62598,33.81647],[133.62328,33.82261],[133.6133,33.82908],[133.60788,33.83038],[133.59971,33.82893],[133.58622,33.83705],[133.58195,33.84407],[133.58375,33.85187],[133.58004,33.85593],[133.58303,33.86765],[133.57111,33.87028],[133.5657,33.87503],[133.56218,33.87534],[133.55711,33.88216],[133.54991,33.88199],[133.54393,33.87882],[133.53592,33.87148],[133.53624,33.8661],[133.52639,33.86211],[133.52635,33.85366],[133.51811,33.84733],[133.50969,33.84826],[133.50653,33.8399],[133.50793,33.83587]]]},"properties":{"pref":"高知県","county":"長岡郡","city":"本山町","code5":"39341","code6":"393410"}},
{"type":"Feature","geometry":{"type":"Polygon","coordinates":[[[133.66075,33.88181],[133.64407,33.88303],[133.63525,33.8802],[133.62731,33.87203],[133.61736,33.8766],[133.61109,33.88075],[133.59623,33.87982],[133.59289,33.87536],[133.58549,33.87098],[133.58303,33.86765],[133.58004,33.85593],[133.58375,33.85187],[133.58195,33.84407],[133.58622,33.83705],[133.59971,33.82893],[133.60788,33.83038],[133.6133,33.82908],[133.62328,33.82261],[133.62598,33.81647],[133.63341,33.81396],[133.6356,33.80905],[133.63447,33.80464],[133.63689,33.79978],[133.63327,33.79223],[133.62717,33.78734],[133.63029,33.78266],[133.63147,33.77563],[133.64149,33.7645],[133.64042,33.75924],[133.64323,33.7564],[133.63822,33.74441],[133.64278,33.73975],[133.64253,33.73608],[133.63753,33.73132],[133.63715,33.72672],[133.6396,33.7214],[133.64633,33.71691],[133.64917,33.71311],[133.65349,33.71247],[133.65697,33.70697],[133.66547,33.70103],[133.67443,33.69727],[133.67959,33.69253],[133.68568,33.68441],[133.69108,33.68375],[133.7019,33.69043],[133.70355,33.69457],[133.71242,33.69692],[133.7223,33.70243],[133.7303,33.70943],[133.73565,33.71203],[133.73665,33.72181],[133.75469,33.73229],[133.77129,33.73339],[133.77608,33.72532],[133.78443,33.7244],[133.78656,33.73159],[133.79112,33.73361],[133.7988,33.74266],[133.81058,33.74926],[133.81595,33.74417],[133.82358,33.75428],[133.83217,33.75563],[133.83155,33.76246],[133.8426,33.77368],[133.85444,33.77509],[133.85376,33.78434],[133.86098,33.78691],[133.8691,33.79693],[133.87056,33.80403],[133.87351,33.80592],[133.8725,33.81016],[133.86637,33.81922],[133.85687,33.82791],[133.85352,33.8346],[133.84391,33.83813],[133.83869,33.84517],[133.82849,33.84475],[133.81777,33.83732],[133.80902,33.83803],[133.78858,33.83624],[133.78671,33.84084],[133.77577,33.8423],[133.77328,33.83988],[133.76684,33.84028],[133.75623,33.83643],[133.74824,33.83677],[133.74082,33.84287],[133.74018,33.84778],[133.72895,33.85108],[133.71947,33.84928],[133.7076,33.85168],[133.70174,33.84979],[133.69486,33.85628],[133.6873,33.85653],[133.68081,33.85951],[133.67769,33.85854],[133.67177,33.86499],[133.66641,33.86601],[133.66291,33.87035],[133.66075,33.88181]]]},"properties":{"pref":"高知県","county":"長岡郡","city":"大豊町","code5":"39344","code6":"393444"}},
{"type":"Feature","geometry":{"type":"Polygon","coordinates":[[[133.48662,33.82971],[133.48269,33.82651],[133.48013,33.81106],[133.48409,33.80191],[133.49317,33.79561],[133.49121,33.79251],[133.48473,33.789],[133.48111,33.78206],[133.45765,33.77078],[133.44901,33.76826],[133.43444,33.7657],[133.42881,33.7666],[133.42304,33.76511],[133.41685,33.76819],[133.40571,33.76118],[133.40234,33.76219],[133.39401,33.76072],[133.38884,33.75654],[133.36831,33.75504],[133.36288,33.75194],[133.35953,33.74691],[133.36342,33.74194],[133.35989,33.73395],[133.3619,33.72813],[133.36909,33.72634],[133.36893,33.71905],[133.38058,33.71379],[133.38167,33.70936],[133.38546,33.70756],[133.38285,33.70318],[133.39648,33.7001],[133.4008,33.6944],[133.39612,33.68068],[133.40475,33.68473],[133.41408,33.68566],[133.42661,33.69132],[133.43522,33.6939],[133.44578,33.68486],[133.44952,33.67826],[133.44943,33.67227],[133.45577,33.66632],[133.46469,33.66164],[133.47342,33.67119],[133.4878,33.66965],[133.49459,33.67103],[133.4993,33.66886],[133.5058,33.66982],[133.51538,33.67917],[133.51553,33.68189],[133.53051,33.67804],[133.53561,33.67792],[133.53857,33.67349],[133.54044,33.66492],[133.55025,33.66318],[133.55474,33.66631],[133.56339,33.66601],[133.5653,33.66971],[133.56395,33.67904],[133.56593,33.68194],[133.55987,33.69254],[133.56812,33.69423],[133.57859,33.69968],[133.58338,33.70564],[133.58393,33.71196],[133.57698,33.72317],[133.57229,33.72695],[133.57243,33.73461],[133.57631,33.73787],[133.56873,33.74841],[133.56289,33.74852],[133.54656,33.75937],[133.54453,33.76282],[133.5491,33.77281],[133.54582,33.78129],[133.5388,33.79138],[133.53436,33.79408],[133.53298,33.80662],[133.52914,33.80854],[133.52976,33.81385],[133.52377,33.81935],[133.52274,33.82304],[133.51552,33.82565],[133.50793,33.83587],[133.4995,33.82924],[133.49339,33.83216],[133.48662,33.82971]]]},"properties":{"pref":"高知県","county":"土佐郡","city":"土佐町","code5":"39363","code6":"393631"}},
{"type":"Feature","geometry":{"type":"Polygon","coordinates":[[[133.32633,33.81476],[133.32849,33.80954],[133.33552,33.80363],[133.34007,33.80275],[133.34599,33.79794],[133.34945,33.79813],[133.35907,33.78951],[133.35304,33.78592],[133.35307,33.78029],[133.3606,33.77705],[133.36456,33.77338],[133.36378,33.76867],[133.36831,33.75504],[133.38884,33.75654],[133.39401,33.76072],[133.40234,33.76219],[133.40571,33.76118],[133.41685,33.76819],[133.42304,33.76511],[133.42881,33.7666],[133.43444,33.7657],[133.44901,33.76826],[133.45765,33.77078],[133.48111,33.78206],[133.48473,33.789],[133.49121,33.79251],[133.49317,33.79561],[133.48409,33.80191],[133.48013,33.81106],[133.48269,33.82651],[133.48662,33.82971],[133.48321,33.83299],[133.47347,33.8337],[133.4705,33.83679],[133.4643,33.83452],[133.45501,33.83693],[133.44806,33.83405],[133.43249,33.83494],[133.42489,33.83926],[133.41205,33.83914],[133.40596,33.83626],[133.40083,33.83624],[133.39167,33.82443],[133.37571,33.82868],[133.36902,33.82933],[133.36185,33.83317],[133.3558,33.83436],[133.34561,33.82482],[133.33331,33.8213],[133.32633,33.81476]]]},"properties":{"pref":"高知県","county":"土佐郡","city":"大川村","code5":"39364","code6":"393649"}},
{"type":"Feature","geometry":{"type":"Polygon","coordinates":[[[133.27736,33.83092],[133.26921,33.82562],[133.26754,33.82083],[133.26077,33.81108],[133.26245,33.80483],[133.25718,33.79386],[133.24988,33.78833],[133.24594,33.78895],[133.23692,33.78273],[133.23161,33.78396],[133.21984,33.78043],[133.21554,33.78561],[133.2037,33.79474],[133.19274,33.79378],[133.19047,33.78363],[133.18237,33.77148],[133.18374,33.76814],[133.17997,33.76405],[133.17092,33.75754],[133.16465,33.75636],[133.15784,33.7503],[133.1593,33.73394],[133.16121,33.73153],[133.16717,33.7285],[133.1663,33.72085],[133.17177,33.71362],[133.17414,33.70774],[133.18653,33.7013],[133.19268,33.70087],[133.19948,33.69458],[133.20676,33.69318],[133.21209,33.68629],[133.22012,33.68599],[133.22596,33.68303],[133.22977,33.67573],[133.22574,33.66181],[133.22974,33.65782],[133.23351,33.64907],[133.23287,33.64241],[133.23475,33.63871],[133.22294,33.63173],[133.22468,33.6177],[133.22418,33.61309],[133.22827,33.60505],[133.23793,33.60214],[133.24312,33.60441],[133.24548,33.60809],[133.25946,33.61347],[133.26577,33.61292],[133.26868,33.60856],[133.27438,33.60763],[133.28063,33.60196],[133.27788,33.59516],[133.28572,33.59159],[133.2892,33.58567],[133.30368,33.59189],[133.30454,33.58647],[133.31055,33.57884],[133.31301,33.57382],[133.32373,33.57079],[133.33059,33.5595],[133.33291,33.55834],[133.34183,33.56504],[133.34724,33.564],[133.34853,33.55906],[133.35725,33.56147],[133.35614,33.57542],[133.35943,33.57973],[133.36488,33.57754],[133.36326,33.57269],[133.365,33.5661],[133.37642,33.5574],[133.3834,33.55455],[133.40104,33.54313],[133.40346,33.53674],[133.39938,33.53274],[133.39781,33.52728],[133.39412,33.52285],[133.39385,33.51896],[133.40811,33.52109],[133.41074,33.52037],[133.43013,33.52282],[133.43657,33.51006],[133.44167,33.51358],[133.44907,33.51439],[133.45801,33.5237],[133.45598,33.53264],[133.46311,33.53561],[133.46485,33.53853],[133.46786,33.55392],[133.4745,33.56273],[133.46902,33.56601],[133.46311,33.57326],[133.45814,33.57398],[133.45247,33.57207],[133.44659,33.56726],[133.44263,33.57143],[133.43346,33.57582],[133.42914,33.5747],[133.41824,33.57616],[133.41291,33.58173],[133.41315,33.58703],[133.40196,33.59209],[133.40137,33.59536],[133.40613,33.59936],[133.409,33.60492],[133.41574,33.60826],[133.40928,33.61874],[133.4062,33.61748],[133.39898,33.61966],[133.39575,33.62913],[133.39501,33.63989],[133.39955,33.64303],[133.40064,33.65069],[133.41268,33.66053],[133.42766,33.66491],[133.43649,33.67051],[133.44943,33.67227],[133.44952,33.67826],[133.44578,33.68486],[133.43522,33.6939],[133.42661,33.69132],[133.41408,33.68566],[133.40475,33.68473],[133.39612,33.68068],[133.4008,33.6944],[133.39648,33.7001],[133.38285,33.70318],[133.38546,33.70756],[133.38167,33.70936],[133.38058,33.71379],[133.36893,33.71905],[133.36909,33.72634],[133.3619,33.72813],[133.35989,33.73395],[133.36342,33.74194],[133.35953,33.74691],[133.36288,33.75194],[133.36831,33.75504],[133.36378,33.76867],[133.36456,33.77338],[133.3606,33.77705],[133.35307,33.78029],[133.35304,33.78592],[133.35907,33.78951],[133.34945,33.79813],[133.34599,33.79794],[133.34007,33.80275],[133.33552,33.80363],[133.32849,33.80954],[133.32633,33.81476],[133.31915,33.81606],[133.31028,33.81588],[133.30229,33.82313],[133.29377,33.8287],[133.28425,33.83179],[133.27736,33.83092]]]},"properties":{"pref":"高知県","county":"吾川郡","city":"いの町","code5":"39386","code6":"393860"}},
{"type":"Feature","geometry":{"type":"Polygon","coordinates":[[[133.01536,33.48101],[133.02407,33.48155],[133.03443,33.47932],[133.04474,33.4746],[133.0588,33.47974],[133.06114,33.46902],[133.06828,33.46578],[133.06913,33.4592],[133.07364,33.45566],[133.07338,33.45259],[133.09064,33.45171],[133.09275,33.44779],[133.10232,33.44303],[133.11169,33.4504],[133.11677,33.45025],[133.12579,33.45632],[133.13748,33.45674],[133.15124,33.46101],[133.15943,33.46699],[133.15818,33.47856],[133.15315,33.4793],[133.14633,33.48482],[133.14767,33.49163],[133.15083,33.49568],[133.14688,33.50063],[133.15174,33.50462],[133.15115,33.51317],[133.1483,33.51855],[133.15841,33.52427],[133.16218,33.52995],[133.17507,33.53586],[133.18111,33.54572],[133.18125,33.55148],[133.18523,33.55475],[133.18078,33.56303],[133.18394,33.56594],[133.19457,33.56631],[133.196,33.57334],[133.19898,33.57447],[133.20365,33.57007],[133.20971,33.5686],[133.21398,33.5703],[133.21254,33.5746],[133.21539,33.58617],[133.21352,33.59733],[133.21978,33.60193],[133.22399,33.60124],[133.22827,33.60505],[133.22418,33.61309],[133.22468,33.6177],[133.22294,33.63173],[133.23475,33.63871],[133.23287,33.64241],[133.23351,33.64907],[133.22974,33.65782],[133.22574,33.66181],[133.22977,33.67573],[133.22596,33.68303],[133.22012,33.68599],[133.21209,33.68629],[133.20676,33.69318],[133.19948,33.69458],[133.19268,33.70087],[133.18653,33.7013],[133.17414,33.70774],[133.17177,33.71362],[133.1663,33.72085],[133.16717,33.7285],[133.16121,33.73153],[133.13982,33.71569],[133.14458,33.70465],[133.13417,33.69985],[133.12532,33.69833],[133.11923,33.6886],[133.12148,33.68628],[133.11948,33.67946],[133.1215,33.67404],[133.11653,33.66015],[133.10666,33.65665],[133.09741,33.65824],[133.09076,33.65781],[133.08478,33.65492],[133.07751,33.65355],[133.07502,33.65062],[133.07236,33.63839],[133.06723,33.62255],[133.0732,33.61436],[133.07898,33.61167],[133.07962,33.6087],[133.06995,33.60114],[133.05742,33.59636],[133.0552,33.58995],[133.04921,33.58496],[133.04676,33.57522],[133.054,33.57042],[133.06231,33.56145],[133.06025,33.55409],[133.06262,33.54537],[133.05916,33.53871],[133.04629,33.53029],[133.03794,33.52641],[133.03825,33.51932],[133.03426,33.51183],[133.02616,33.50519],[133.0207,33.49611],[133.0134,33.49058],[133.01536,33.48101]]]},"properties":{"pref":"高知県","county":"吾川郡","city":"仁淀川町","code5":"39387","code6":"393878"}},
{"type":"Feature","geometry":{"type":"MultiPolygon","coordinates":[[[[133.17548,33.39865],[133.16891,33.408],[133.16975,33.41748],[133.15825,33.42083],[133.15211,33.41901],[133.14996,33.41548],[133.14095,33.41581],[133.14025,33.41789],[133.13155,33.42102],[133.1257,33.41983],[133.11565,33.42173],[133.111,33.42004],[133.11091,33.41452],[133.10655,33.41125],[133.10903,33.40754],[133.10977,33.40112],[133.10618,33.39532],[133.10796,33.3915],[133.10552,33.38686],[133.09876,33.38323],[133.09867,33.3753],[133.09408,33.37173],[133.08838,33.38135],[133.07618,33.38923],[133.07124,33.38803],[133.06994,33.38379],[133.058,33.3764],[133.05693,33.37172],[133.05306,33.36928],[133.04983,33.36147],[133.05095,33.3564],[133.06267,33.35533],[133.07158,33.34877],[133.06818,33.34136],[133.06278,33.34471],[133.0567,33.34272],[133.05785,33.33335],[133.06733,33.33466],[133.07205,33.33788],[133.07587,33.33531],[133.07658,33.32868],[133.08768,33.32035],[133.08893,33.31716],[133.0976,33.31012],[133.10635,33.31202],[133.10532,33.31854],[133.11297,33.31719],[133.11744,33.31348],[133.12164,33.30666],[133.13175,33.30323],[133.14035,33.30334],[133.14931,33.30698],[133.16288,33.30953],[133.16419,33.31563],[133.16908,33.3173],[133.17199,33.32109],[133.17854,33.3217],[133.18232,33.31715],[133.17922,33.30853],[133.18804,33.3024],[133.19031,33.29468],[133.19512,33.29521],[133.19839,33.28967],[133.19479,33.28646],[133.19503,33.2731],[133.19687,33.27059],[133.19183,33.26014],[133.19308,33.25659],[133.19807,33.25386],[133.206,33.25403],[133.21595,33.25055],[133.2227,33.2405],[133.22854,33.23568],[133.23464,33.23485],[133.24149,33.23652],[133.25609,33.23781],[133.24773,33.24396],[133.24773,33.24965],[133.25548,33.24974],[133.25622,33.25341],[133.26421,33.25731],[133.25836,33.26115],[133.25548,33.27042],[133.26025,33.27731],[133.25763,33.28071],[133.25161,33.27991],[133.24967,33.27527],[133.24213,33.27634],[133.24386,33.28235],[133.24289,33.28975],[133.23852,33.29708],[133.25876,33.31173],[133.25873,33.31176],[133.25872,33.31177],[133.24453,33.31827],[133.23716,33.32256],[133.23157,33.32409],[133.23221,33.32832],[133.24242,33.33335],[133.2488,33.33071],[133.24916,33.32779],[133.24969,33.32972],[133.25124,33.33435],[133.25643,33.33338],[133.25783,33.33667],[133.26,33.34144],[133.26383,33.34057],[133.25409,33.34773],[133.24956,33.35391],[133.24375,33.35798],[133.24099,33.36479],[133.23122,33.36941],[133.22801,33.37913],[133.22522,33.38007],[133.21423,33.37848],[133.20906,33.38219],[133.20066,33.38087],[133.19525,33.37777],[133.18371,33.37829],[133.17716,33.37636],[133.17913,33.38313],[133.17523,33.39366],[133.17548,33.39865]]],[[[133.25667,33.33339],[133.25658,33.33335],[133.2567,33.33337],[133.25667,33.33339]]]]},"properties":{"pref":"高知県","county":"高岡郡","city":"中土佐町","code5":"39401","code6":"394017"}},
{"type":"Feature","geometry":{"type":"Polygon","coordinates":[[[133.33598,33.5016],[133.34109,33.50632],[133.34153,33.51592],[133.33769,33.51826],[133.33218,33.51798],[133.32825,33.52277],[133.3281,33.53475],[133.32148,33.54418],[133.31665,33.54845],[133.31442,33.55738],[133.3107,33.55856],[133.3022,33.55381],[133.28056,33.5579],[133.27411,33.55744],[133.26215,33.5519],[133.26147,33.54722],[133.26501,33.54065],[133.26439,33.53557],[133.26701,33.52414],[133.2605,33.52402],[133.24842,33.51553],[133.24943,33.50384],[133.24407,33.50191],[133.23522,33.5058],[133.22642,33.50765],[133.22426,33.50973],[133.21188,33.51314],[133.21268,33.50633],[133.20236,33.50787],[133.20431,33.50268],[133.20063,33.49953],[133.19957,33.49296],[133.19617,33.48842],[133.19456,33.48246],[133.19682,33.47428],[133.20249,33.47215],[133.20505,33.46713],[133.21455,33.46682],[133.22092,33.46201],[133.23333,33.46145],[133.25128,33.45203],[133.25187,33.44538],[133.25824,33.4414],[133.27142,33.44029],[133.28708,33.44661],[133.29381,33.45203],[133.30559,33.45915],[133.3084,33.47004],[133.31953,33.47457],[133.32717,33.48176],[133.32293,33.4896],[133.32987,33.49823],[133.33598,33.5016]]]},"properties":{"pref":"高知県","county":"高岡郡","city":"佐川町","code5":"39402","code6":"394025"}},
{"type":"Feature","geometry":{"type":"Polygon","coordinates":[[[133.22827,33.60505],[133.22399,33.60124],[133.21978,33.60193],[133.21352,33.59733],[133.21539,33.58617],[133.21254,33.5746],[133.21398,33.5703],[133.20971,33.5686],[133.20365,33.57007],[133.19898,33.57447],[133.196,33.57334],[133.19457,33.56631],[133.18394,33.56594],[133.18078,33.56303],[133.18523,33.55475],[133.18125,33.55148],[133.18111,33.54572],[133.17507,33.53586],[133.16218,33.52995],[133.15841,33.52427],[133.1483,33.51855],[133.15115,33.51317],[133.15174,33.50462],[133.14688,33.50063],[133.15083,33.49568],[133.14767,33.49163],[133.14633,33.48482],[133.15315,33.4793],[133.15818,33.47856],[133.15943,33.46699],[133.16698,33.46392],[133.17841,33.46522],[133.18329,33.47255],[133.18939,33.4708],[133.19682,33.47428],[133.19456,33.48246],[133.19617,33.48842],[133.19957,33.49296],[133.20063,33.49953],[133.20431,33.50268],[133.20236,33.50787],[133.21268,33.50633],[133.21188,33.51314],[133.22426,33.50973],[133.22642,33.50765],[133.23522,33.5058],[133.24407,33.50191],[133.24943,33.50384],[133.24842,33.51553],[133.2605,33.52402],[133.26701,33.52414],[133.26439,33.53557],[133.26501,33.54065],[133.26147,33.54722],[133.26215,33.5519],[133.27411,33.55744],[133.28056,33.5579],[133.3022,33.55381],[133.29916,33.56839],[133.30139,33.5744],[133.30002,33.57932],[133.3066,33.58096],[133.31055,33.57884],[133.30454,33.58647],[133.30368,33.59189],[133.2892,33.58567],[133.28572,33.59159],[133.27788,33.59516],[133.28063,33.60196],[133.27438,33.60763],[133.26868,33.60856],[133.26577,33.61292],[133.25946,33.61347],[133.24548,33.60809],[133.24312,33.60441],[133.23793,33.60214],[133.22827,33.60505]]]},"properties":{"pref":"高知県","county":"高岡郡","city":"越知町","code5":"39403","code6":"394033"}},
{"type":"Feature","geometry":{"type":"Polygon","coordinates":[[[132.85305,33.38822],[132.8565,33.38259],[132.85658,33.37811],[132.86002,33.36846],[132.86674,33.3681],[132.87413,33.36396],[132.8838,33.36235],[132.89013,33.35751],[132.89473,33.34953],[132.90044,33.34374],[132.90288,33.33804],[132.9035,33.33105],[132.90175,33.32731],[132.91123,33.32737],[132.92894,33.32307],[132.94063,33.31471],[132.95225,33.31349],[132.95613,33.30905],[132.95977,33.30002],[132.9591,33.29606],[132.96775,33.29248],[132.97116,33.28626],[132.98043,33.28381],[132.9816,33.29076],[132.99412,33.29807],[133.00034,33.30876],[133.00721,33.30837],[133.01449,33.31018],[133.01918,33.30735],[133.02583,33.30639],[133.02825,33.30944],[133.03082,33.31922],[133.03552,33.32124],[133.0319,33.32848],[133.02847,33.34297],[133.01792,33.34584],[133.00776,33.3543],[133.00229,33.35502],[132.99402,33.36214],[132.99431,33.37398],[132.99698,33.38119],[132.9887,33.38694],[132.98552,33.39152],[132.97962,33.39083],[132.97829,33.38711],[132.9694,33.38262],[132.9627,33.39191],[132.95849,33.39365],[132.95609,33.40054],[132.95952,33.40864],[132.96307,33.41308],[132.97074,33.41237],[132.97563,33.41492],[132.98537,33.41529],[132.98381,33.42487],[132.98922,33.42599],[132.9937,33.43043],[132.98656,33.4347],[132.98854,33.4405],[132.99377,33.44301],[132.9969,33.44718],[132.99567,33.4534],[132.99282,33.45589],[132.99384,33.46142],[132.99267,33.46861],[132.98926,33.47387],[132.97884,33.47292],[132.97267,33.46979],[132.95964,33.46631],[132.95167,33.46658],[132.94422,33.47195],[132.93852,33.47208],[132.929,33.46857],[132.91521,33.46765],[132.90067,33.47035],[132.89387,33.47248],[132.88413,33.47302],[132.88106,33.47095],[132.86453,33.47234],[132.86242,33.47453],[132.84753,33.47919],[132.84042,33.47473],[132.82716,33.47241],[132.82297,33.47294],[132.81893,33.46655],[132.81106,33.46606],[132.80699,33.46078],[132.80813,33.45386],[132.82195,33.44862],[132.82656,33.4456],[132.82777,33.43832],[132.82339,33.42984],[132.82492,33.42293],[132.83401,33.42015],[132.83162,33.40885],[132.83543,33.40064],[132.84105,33.39789],[132.85451,33.3983],[132.85556,33.39006],[132.85305,33.38822]]]},"properties":{"pref":"高知県","county":"高岡郡","city":"檮原町","code5":"39405","code6":"394050"}},
{"type":"Feature","geometry":{"type":"Polygon","coordinates":[[[133.39385,33.51896],[133.39412,33.52285],[133.39781,33.52728],[133.39938,33.53274],[133.40346,33.53674],[133.40104,33.54313],[133.3834,33.55455],[133.37642,33.5574],[133.365,33.5661],[133.36326,33.57269],[133.36488,33.57754],[133.35943,33.57973],[133.35614,33.57542],[133.35725,33.56147],[133.34853,33.55906],[133.34724,33.564],[133.34183,33.56504],[133.33291,33.55834],[133.33059,33.5595],[133.32373,33.57079],[133.31301,33.57382],[133.31055,33.57884],[133.3066,33.58096],[133.30002,33.57932],[133.30139,33.5744],[133.29916,33.56839],[133.3022,33.55381],[133.3107,33.55856],[133.31442,33.55738],[133.31665,33.54845],[133.32148,33.54418],[133.3281,33.53475],[133.32825,33.52277],[133.33218,33.51798],[133.33769,33.51826],[133.34153,33.51592],[133.34109,33.50632],[133.33598,33.5016],[133.33714,33.49871],[133.34412,33.49788],[133.3582,33.50215],[133.36334,33.50514],[133.38045,33.5109],[133.38543,33.5097],[133.39566,33.51123],[133.39216,33.51599],[133.39385,33.51896]]]},"properties":{"pref":"高知県","county":"高岡郡","city":"日高村","code5":"39410","code6":"394106"}},
{"type":"Feature","geometry":{"type":"Polygon","coordinates":[[[132.98926,33.47387],[132.99267,33.46861],[132.99384,33.46142],[132.99282,33.45589],[132.99567,33.4534],[132.9969,33.44718],[132.99377,33.44301],[132.98854,33.4405],[132.98656,33.4347],[132.9937,33.43043],[132.98922,33.42599],[132.98381,33.42487],[132.98537,33.41529],[132.97563,33.41492],[132.97074,33.41237],[132.96307,33.41308],[132.95952,33.40864],[132.95609,33.40054],[132.95849,33.39365],[132.9627,33.39191],[132.9694,33.38262],[132.97829,33.38711],[132.97962,33.39083],[132.98552,33.39152],[132.9887,33.38694],[132.99698,33.38119],[132.99431,33.37398],[132.99402,33.36214],[133.00229,33.35502],[133.00776,33.3543],[133.01792,33.34584],[133.02847,33.34297],[133.04108,33.34716],[133.04245,33.35226],[133.05095,33.3564],[133.04983,33.36147],[133.05306,33.36928],[133.05693,33.37172],[133.058,33.3764],[133.06994,33.38379],[133.07124,33.38803],[133.07618,33.38923],[133.08838,33.38135],[133.09408,33.37173],[133.09867,33.3753],[133.09876,33.38323],[133.10552,33.38686],[133.10796,33.3915],[133.10618,33.39532],[133.10977,33.40112],[133.10903,33.40754],[133.10655,33.41125],[133.11091,33.41452],[133.111,33.42004],[133.11565,33.42173],[133.1257,33.41983],[133.13155,33.42102],[133.14025,33.41789],[133.14095,33.41581],[133.14996,33.41548],[133.15211,33.41901],[133.15825,33.42083],[133.16975,33.41748],[133.16891,33.408],[133.17548,33.39865],[133.18372,33.39994],[133.19551,33.39782],[133.20322,33.40286],[133.20959,33.40471],[133.20652,33.41039],[133.20803,33.41811],[133.20807,33.42869],[133.21715,33.43058],[133.23198,33.42877],[133.24283,33.43265],[133.2512,33.43326],[133.25824,33.4414],[133.25187,33.44538],[133.25128,33.45203],[133.23333,33.46145],[133.22092,33.46201],[133.21455,33.46682],[133.20505,33.46713],[133.20249,33.47215],[133.19682,33.47428],[133.18939,33.4708],[133.18329,33.47255],[133.17841,33.46522],[133.16698,33.46392],[133.15943,33.46699],[133.15124,33.46101],[133.13748,33.45674],[133.12579,33.45632],[133.11677,33.45025],[133.11169,33.4504],[133.10232,33.44303],[133.09275,33.44779],[133.09064,33.45171],[133.07338,33.45259],[133.07364,33.45566],[133.06913,33.4592],[133.06828,33.46578],[133.06114,33.46902],[133.0588,33.47974],[133.04474,33.4746],[133.03443,33.47932],[133.02407,33.48155],[133.01536,33.48101],[132.99903,33.47575],[132.98926,33.47387]]]},"properties":{"pref":"高知県","county":"高岡郡","city":"津野町","code5":"39411","code6":"394114"}},
{"type":"Feature","geometry":{"type":"Polygon","coordinates":[[[132.78689,33.26224],[132.79482,33.25174],[132.79995,33.24757],[132.80031,33.24384],[132.80467,33.23579],[132.82241,33.2396],[132.82746,33.23776],[132.823,33.22271],[132.81907,33.22294],[132.81765,33.21389],[132.82451,33.20658],[132.82453,33.20193],[132.8188,33.19205],[132.82645,33.19089],[132.8337,33.18744],[132.83889,33.18867],[132.84552,33.18453],[132.8612,33.17726],[132.86778,33.17999],[132.87762,33.17956],[132.88008,33.16701],[132.87603,33.16092],[132.88415,33.15359],[132.89051,33.15271],[132.89315,33.14857],[132.89918,33.14418],[132.91164,33.14382],[132.92385,33.13897],[132.93545,33.13755],[132.94028,33.14529],[132.94635,33.14629],[132.95144,33.14926],[132.95854,33.14658],[132.96318,33.14797],[132.9657,33.15468],[132.96923,33.15588],[132.97275,33.1609],[132.97897,33.16012],[132.98467,33.15734],[132.99404,33.16014],[133.00253,33.15591],[133.0004,33.15107],[133.00344,33.14724],[133.01089,33.14608],[133.01695,33.14993],[133.02219,33.1502],[133.02735,33.14509],[133.03446,33.14048],[133.04781,33.13561],[133.05684,33.13344],[133.05685,33.12977],[133.05134,33.12267],[133.05891,33.1178],[133.06489,33.12206],[133.07105,33.1232],[133.0731,33.14191],[133.07874,33.14802],[133.09549,33.14414],[133.09387,33.15099],[133.08941,33.15408],[133.09085,33.15837],[133.0986,33.16486],[133.10473,33.16316],[133.1114,33.16357],[133.11447,33.15886],[133.1248,33.16192],[133.13208,33.16799],[133.13873,33.16721],[133.14617,33.17191],[133.15155,33.17881],[133.16036,33.1835],[133.16447,33.18826],[133.17322,33.18974],[133.17719,33.18856],[133.18321,33.18237],[133.18259,33.17784],[133.17575,33.17306],[133.1661,33.16001],[133.15615,33.15209],[133.15318,33.14667],[133.15801,33.13815],[133.164,33.13529],[133.16743,33.1459],[133.17062,33.15042],[133.1829,33.16026],[133.18462,33.16351],[133.19192,33.16742],[133.19871,33.16747],[133.20699,33.16502],[133.20542,33.15926],[133.21456,33.15139],[133.223,33.1533],[133.22027,33.15654],[133.21899,33.16693],[133.2216,33.17394],[133.21682,33.17523],[133.21053,33.18369],[133.21525,33.19232],[133.2194,33.19423],[133.23581,33.19816],[133.23498,33.20518],[133.23873,33.20915],[133.23916,33.21666],[133.25607,33.22519],[133.2551,33.22933],[133.24949,33.23293],[133.25609,33.23781],[133.24149,33.23652],[133.23464,33.23485],[133.22854,33.23568],[133.2227,33.2405],[133.21595,33.25055],[133.206,33.25403],[133.19807,33.25386],[133.19308,33.25659],[133.19183,33.26014],[133.19687,33.27059],[133.19503,33.2731],[133.19479,33.28646],[133.19839,33.28967],[133.19512,33.29521],[133.19031,33.29468],[133.18804,33.3024],[133.17922,33.30853],[133.18232,33.31715],[133.17854,33.3217],[133.17199,33.32109],[133.16908,33.3173],[133.16419,33.31563],[133.16288,33.30953],[133.14931,33.30698],[133.14035,33.30334],[133.13175,33.30323],[133.12164,33.30666],[133.11744,33.31348],[133.11297,33.31719],[133.10532,33.31854],[133.10635,33.31202],[133.0976,33.31012],[133.08893,33.31716],[133.08768,33.32035],[133.07658,33.32868],[133.07587,33.33531],[133.07205,33.33788],[133.06733,33.33466],[133.05785,33.33335],[133.0567,33.34272],[133.06278,33.34471],[133.06818,33.34136],[133.07158,33.34877],[133.06267,33.35533],[133.05095,33.3564],[133.04245,33.35226],[133.04108,33.34716],[133.02847,33.34297],[133.0319,33.32848],[133.03552,33.32124],[133.03082,33.31922],[133.02825,33.30944],[133.02583,33.30639],[133.01918,33.30735],[133.01449,33.31018],[133.00721,33.30837],[133.00034,33.30876],[132.99412,33.29807],[132.9816,33.29076],[132.98043,33.28381],[132.97116,33.28626],[132.96775,33.29248],[132.9591,33.29606],[132.95977,33.30002],[132.95613,33.30905],[132.95225,33.31349],[132.94063,33.31471],[132.92894,33.32307],[132.91123,33.32737],[132.90175,33.32731],[132.89898,33.32445],[132.90067,33.32062],[132.89855,33.3147],[132.88495,33.3071],[132.87246,33.30493],[132.8577,33.29319],[132.84972,33.28964],[132.83955,33.28786],[132.8244,33.28223],[132.81756,33.28383],[132.80051,33.2755],[132.79312,33.27484],[132.78714,33.26704],[132.78689,33.26224]]]},"properties":{"pref":"高知県","county":"高岡郡","city":"四万十町","code5":"39412","code6":"394122"}},
{"type":"Feature","geometry":{"type":"MultiPolygon","coordinates":[[[[132.7048,32.88813],[132.69943,32.88502],[132.69687,32.88692],[132.69062,32.88241],[132.6905,32.8749],[132.68145,32.8713],[132.67458,32.86507],[132.66893,32.86497],[132.66261,32.85625],[132.66167,32.84933],[132.66805,32.84544],[132.66861,32.84141],[132.65945,32.83929],[132.66289,32.83548],[132.65994,32.8268],[132.65618,32.82383],[132.65038,32.82596],[132.65053,32.82046],[132.64405,32.81954],[132.64444,32.814],[132.65232,32.80642],[132.64735,32.80041],[132.63957,32.80182],[132.638,32.79895],[132.63106,32.80151],[132.62859,32.80018],[132.63564,32.78918],[132.64419,32.7876],[132.64107,32.78314],[132.63569,32.7848],[132.63693,32.77645],[132.64039,32.76948],[132.64745,32.76582],[132.64917,32.77741],[132.65456,32.78116],[132.66306,32.78054],[132.66792,32.78429],[132.67997,32.7822],[132.69094,32.78828],[132.69192,32.7939],[132.70643,32.79555],[132.71064,32.79903],[132.71403,32.79486],[132.7185,32.79783],[132.72297,32.78881],[132.72647,32.7859],[132.72929,32.77884],[132.7323,32.77932],[132.73842,32.77294],[132.74236,32.77345],[132.74775,32.76725],[132.74966,32.76074],[132.75763,32.75309],[132.76577,32.756],[132.76565,32.76057],[132.77067,32.76198],[132.77937,32.75414],[132.78638,32.75697],[132.78464,32.76861],[132.78645,32.77209],[132.78098,32.78293],[132.7734,32.78679],[132.77428,32.79327],[132.76112,32.80107],[132.76958,32.81446],[132.77019,32.81733],[132.76369,32.82318],[132.76287,32.83029],[132.75357,32.83386],[132.74798,32.83917],[132.73856,32.83879],[132.74047,32.84623],[132.73822,32.85411],[132.73091,32.85281],[132.72887,32.86151],[132.72363,32.86997],[132.71988,32.86526],[132.71611,32.86703],[132.70996,32.86289],[132.69673,32.87336],[132.70488,32.88454],[132.7048,32.88813]]],[[[132.62936,32.77246],[132.62052,32.77146],[132.61809,32.76635],[132.62526,32.76729],[132.62936,32.77246]]]]},"properties":{"pref":"高知県","county":"幡多郡","city":"大月町","code5":"39424","code6":"394246"}},
{"type":"Feature","geometry":{"type":"Polygon","coordinates":[[[132.78384,32.86744],[132.78589,32.87713],[132.79442,32.87461],[132.79952,32.88092],[132.80966,32.87542],[132.81719,32.86492],[132.8267,32.86508],[132.83026,32.86214],[132.83485,32.86301],[132.84525,32.85927],[132.84911,32.86563],[132.85647,32.8652],[132.85912,32.86823],[132.86929,32.86679],[132.87551,32.8726],[132.88359,32.87343],[132.8904,32.87099],[132.89251,32.87377],[132.89929,32.87535],[132.90274,32.88063],[132.91345,32.87951],[132.91361,32.89164],[132.91143,32.89565],[132.90654,32.89784],[132.90317,32.9034],[132.90613,32.90759],[132.91292,32.90958],[132.90911,32.91742],[132.9129,32.91984],[132.91826,32.92716],[132.9179,32.93527],[132.91251,32.93502],[132.89278,32.94497],[132.87649,32.93974],[132.86872,32.9435],[132.86072,32.9452],[132.85382,32.94229],[132.85361,32.93993],[132.84602,32.93859],[132.84325,32.94042],[132.82978,32.94025],[132.82464,32.93646],[132.82259,32.92414],[132.8165,32.92306],[132.8063,32.91809],[132.80005,32.91338],[132.79982,32.91037],[132.80485,32.90566],[132.80484,32.8995],[132.7969,32.89887],[132.79445,32.90123],[132.78285,32.90353],[132.78014,32.90781],[132.77268,32.90018],[132.76726,32.899],[132.76618,32.8948],[132.77222,32.88798],[132.78036,32.8762],[132.77961,32.87013],[132.78384,32.86744]]]},"properties":{"pref":"高知県","county":"幡多郡","city":"三原村","code5":"39427","code6":"394271"}},
{"type":"Feature","geometry":{"type":"Polygon","coordinates":[[[132.9993,32.9803],[133.00292,32.99273],[133.00693,32.99536],[133.00562,33.00134],[133.00833,33.00933],[133.01862,33.02322],[133.0349,33.03639],[133.04446,33.0389],[133.05621,33.0391],[133.06042,33.03694],[133.07252,33.03747],[133.07557,33.03313],[133.07982,33.0316],[133.08118,33.02761],[133.08928,33.02624],[133.09447,33.02357],[133.0971,33.02898],[133.09305,33.03405],[133.09614,33.04178],[133.09614,33.0489],[133.09932,33.05813],[133.10885,33.06264],[133.1092,33.06631],[133.10515,33.07307],[133.11095,33.07563],[133.11811,33.08639],[133.12848,33.09134],[133.13068,33.09008],[133.13836,33.09408],[133.14832,33.10832],[133.14746,33.11043],[133.15386,33.11857],[133.15484,33.12543],[133.164,33.13529],[133.15801,33.13815],[133.15318,33.14667],[133.15615,33.15209],[133.1661,33.16001],[133.17575,33.17306],[133.18259,33.17784],[133.18321,33.18237],[133.17719,33.18856],[133.17322,33.18974],[133.16447,33.18826],[133.16036,33.1835],[133.15155,33.17881],[133.14617,33.17191],[133.13873,33.16721],[133.13208,33.16799],[133.1248,33.16192],[133.11447,33.15886],[133.1114,33.16357],[133.10473,33.16316],[133.0986,33.16486],[133.09085,33.15837],[133.08941,33.15408],[133.09387,33.15099],[133.09549,33.14414],[133.07874,33.14802],[133.0731,33.14191],[133.07105,33.1232],[133.06489,33.12206],[133.05891,33.1178],[133.05134,33.12267],[133.04364,33.11067],[133.03927,33.11165],[133.02984,33.11017],[133.02189,33.1139],[133.00653,33.11042],[132.99688,33.09918],[132.98872,33.09876],[132.9848,33.09392],[132.9831,33.08833],[132.97394,33.08764],[132.97105,33.08265],[132.974,33.07675],[132.97052,33.07316],[132.97014,33.06686],[132.96394,33.05634],[132.96558,33.05376],[132.96163,33.04688],[132.96101,33.04101],[132.96472,33.0336],[132.96422,33.03027],[132.95339,33.01967],[132.95668,33.01503],[132.96182,33.00385],[132.96922,33.00324],[132.97564,32.99964],[132.98,32.9889],[132.97643,32.9851],[132.98025,32.98196],[132.98546,32.98191],[132.99097,32.97706],[132.9993,32.9803]]]},"properties":{"pref":"高知県","county":"幡多郡","city":"黒潮町","code5":"39428","code6":"394289"}}
]}