{"type":"FeatureCollection", "features": [
{"type":"Feature","geometry":{"type":"Polygon","coordinates":[[[130.54245,33.08174],[130.53887,33.08966],[130.53109,33.08388],[130.52252,33.083],[130.51965,33.08706],[130.5204,33.09108],[130.51715,33.09638],[130.50784,33.09802],[130.50679,33.09198],[130.49566,33.08993],[130.49242,33.08696],[130.48295,33.08507],[130.47224,33.08901],[130.44968,33.08791],[130.45075,33.08549],[130.44475,33.0788],[130.43915,33.07594],[130.41768,33.07189],[130.42526,33.05297],[130.42237,33.05119],[130.42193,33.04484],[130.41928,33.03605],[130.42311,33.02954],[130.40775,33.01734],[130.41431,33.0168],[130.41932,33.0079],[130.40932,33.00944],[130.39664,33.00477],[130.39672,33.00002],[130.41336,33.00402],[130.41414,33.00231],[130.4248,33.00517],[130.43625,33.00506],[130.44487,33.00247],[130.45066,33.0039],[130.46842,33.00287],[130.47459,33.00144],[130.47923,33.00348],[130.48397,33.00161],[130.49093,33.00303],[130.4991,33.00656],[130.50706,33.00389],[130.51587,33.01202],[130.51095,33.02314],[130.50558,33.02607],[130.50447,33.03679],[130.49504,33.04868],[130.49673,33.05176],[130.50374,33.05575],[130.50406,33.05803],[130.51309,33.06152],[130.51687,33.06557],[130.53225,33.0655],[130.53537,33.07805],[130.54245,33.08174]]]},"properties":{"pref":"福岡県","city":"大牟田市","code5":"40202","code6":"402028"}},
{"type":"Feature","geometry":{"type":"Polygon","coordinates":[[[130.66679,33.36219],[130.65059,33.36285],[130.64016,33.35847],[130.63133,33.35284],[130.62743,33.3622],[130.6294,33.36687],[130.61527,33.36742],[130.61175,33.36559],[130.60555,33.36749],[130.57843,33.36707],[130.57719,33.35965],[130.57064,33.35522],[130.56233,33.35521],[130.55715,33.35055],[130.55022,33.34838],[130.55034,33.34542],[130.54079,33.34567],[130.53598,33.34296],[130.53191,33.34461],[130.5268,33.34022],[130.51955,33.34049],[130.5121,33.34406],[130.50674,33.34116],[130.50565,33.33107],[130.49946,33.32558],[130.49035,33.32967],[130.48705,33.33271],[130.47995,33.33087],[130.47699,33.326],[130.48302,33.32062],[130.48751,33.31971],[130.48939,33.31593],[130.4849,33.30622],[130.47826,33.30434],[130.46671,33.30475],[130.45802,33.30327],[130.45561,33.30081],[130.45623,33.29379],[130.46623,33.29033],[130.46486,33.28486],[130.45295,33.28295],[130.44873,33.27841],[130.45059,33.27006],[130.44975,33.2651],[130.44246,33.26403],[130.43623,33.26979],[130.43508,33.27588],[130.4385,33.28938],[130.43378,33.29245],[130.42687,33.29014],[130.42987,33.28622],[130.43095,33.28053],[130.42973,33.2746],[130.42632,33.27061],[130.42084,33.27185],[130.41746,33.26834],[130.41951,33.2616],[130.4149,33.25265],[130.41135,33.25015],[130.4021,33.24865],[130.40002,33.2591],[130.39198,33.26023],[130.38897,33.25712],[130.39107,33.24936],[130.39031,33.2453],[130.3852,33.24046],[130.39163,33.23855],[130.39539,33.23227],[130.40123,33.22973],[130.41181,33.23248],[130.4143,33.22841],[130.41239,33.22472],[130.41765,33.22611],[130.42314,33.22397],[130.4255,33.23011],[130.43751,33.22892],[130.43534,33.23689],[130.44225,33.23717],[130.44157,33.24424],[130.45798,33.23691],[130.45851,33.22988],[130.4637,33.22411],[130.47485,33.23256],[130.47849,33.2418],[130.48205,33.23988],[130.48731,33.24368],[130.49551,33.24393],[130.5006,33.24668],[130.50511,33.24468],[130.50833,33.24696],[130.51205,33.25355],[130.51287,33.26014],[130.51698,33.25833],[130.53115,33.25803],[130.53455,33.26265],[130.54593,33.26015],[130.55693,33.26476],[130.56611,33.26638],[130.56824,33.27379],[130.57562,33.27663],[130.57978,33.27491],[130.58715,33.26862],[130.59342,33.27268],[130.60211,33.27448],[130.60779,33.28043],[130.61394,33.28271],[130.61675,33.28618],[130.61659,33.29087],[130.62234,33.29269],[130.62786,33.2918],[130.63141,33.2965],[130.63745,33.29886],[130.64683,33.29783],[130.66334,33.30224],[130.67729,33.30354],[130.68035,33.30248],[130.68946,33.30598],[130.69875,33.30519],[130.70531,33.3064],[130.72404,33.30214],[130.72874,33.30266],[130.72514,33.32112],[130.72346,33.32472],[130.7238,33.33777],[130.73113,33.34013],[130.73096,33.34694],[130.7262,33.34715],[130.72547,33.35101],[130.71835,33.35309],[130.7227,33.36088],[130.71968,33.35922],[130.70771,33.36019],[130.70548,33.36415],[130.70018,33.36209],[130.6842,33.36279],[130.67297,33.36156],[130.66679,33.36219]]]},"properties":{"pref":"福岡県","city":"久留米市","code5":"40203","code6":"402036"}},
{"type":"Feature","geometry":{"type":"Polygon","coordinates":[[[130.80403,33.74204],[130.80488,33.74981],[130.80213,33.75112],[130.80222,33.7587],[130.7994,33.76519],[130.80243,33.77055],[130.79942,33.77679],[130.79485,33.78028],[130.7886,33.77985],[130.78456,33.78517],[130.77295,33.78647],[130.76664,33.78239],[130.76812,33.77728],[130.75738,33.76947],[130.746,33.77211],[130.73814,33.77056],[130.72971,33.77443],[130.72068,33.77418],[130.714,33.78763],[130.70716,33.79605],[130.70046,33.79095],[130.69519,33.78461],[130.69972,33.77661],[130.69844,33.76782],[130.6931,33.76775],[130.6801,33.76317],[130.68425,33.74844],[130.68651,33.74357],[130.69401,33.74709],[130.69847,33.74687],[130.70715,33.74305],[130.71047,33.73519],[130.71431,33.73254],[130.71958,33.72918],[130.72409,33.73162],[130.72728,33.72921],[130.72663,33.71836],[130.72478,33.71693],[130.72733,33.7066],[130.73401,33.70495],[130.73921,33.70001],[130.74382,33.70176],[130.74709,33.70449],[130.74931,33.7111],[130.74819,33.7159],[130.7733,33.72257],[130.77389,33.72517],[130.78204,33.72741],[130.78858,33.7393],[130.79739,33.73904],[130.80403,33.74204]]]},"properties":{"pref":"福岡県","city":"直方市","code5":"40204","code6":"402044"}},
{"type":"Feature","geometry":{"type":"Polygon","coordinates":[[[130.72733,33.7066],[130.72603,33.702],[130.72135,33.69978],[130.71208,33.70075],[130.71483,33.69296],[130.7134,33.68813],[130.70773,33.68331],[130.70322,33.68236],[130.69851,33.6854],[130.68549,33.68623],[130.67768,33.68323],[130.67112,33.69108],[130.65911,33.6906],[130.64978,33.68701],[130.64346,33.68792],[130.63903,33.68342],[130.63702,33.67168],[130.62739,33.66596],[130.62237,33.6685],[130.6197,33.66471],[130.62031,33.66034],[130.60899,33.65059],[130.60376,33.65345],[130.58221,33.64697],[130.57506,33.63807],[130.58577,33.63237],[130.58733,33.62598],[130.58448,33.61873],[130.59166,33.61899],[130.5971,33.61558],[130.59353,33.60878],[130.58554,33.60309],[130.57982,33.6027],[130.56809,33.60694],[130.56083,33.60014],[130.55814,33.59949],[130.56291,33.59332],[130.56642,33.5908],[130.56819,33.57958],[130.57271,33.57694],[130.57506,33.56799],[130.57945,33.5653],[130.58041,33.55876],[130.58409,33.55468],[130.5956,33.54567],[130.59784,33.5385],[130.61209,33.5252],[130.60991,33.51953],[130.61818,33.51596],[130.62145,33.5061],[130.62793,33.50451],[130.63531,33.50725],[130.64214,33.5055],[130.65314,33.51095],[130.65892,33.50819],[130.66238,33.50382],[130.6644,33.50581],[130.66589,33.51708],[130.66346,33.52262],[130.66743,33.5291],[130.67222,33.52908],[130.66934,33.53464],[130.67086,33.53876],[130.67711,33.54523],[130.6777,33.55081],[130.67298,33.55431],[130.66608,33.55213],[130.66368,33.56277],[130.66063,33.56676],[130.66574,33.57936],[130.65643,33.58176],[130.65974,33.58695],[130.6555,33.58901],[130.64916,33.58871],[130.65386,33.59551],[130.66746,33.59709],[130.66999,33.60028],[130.68223,33.60241],[130.68522,33.59673],[130.691,33.59573],[130.70011,33.59951],[130.69811,33.60233],[130.70059,33.61509],[130.69804,33.61796],[130.70282,33.62344],[130.70633,33.62353],[130.71483,33.61615],[130.72231,33.61854],[130.73257,33.61313],[130.73991,33.61253],[130.73888,33.60393],[130.74502,33.59482],[130.75136,33.58865],[130.7621,33.58629],[130.7651,33.59189],[130.77257,33.59481],[130.77204,33.59896],[130.77572,33.60267],[130.77541,33.60914],[130.77025,33.61246],[130.76434,33.61184],[130.75929,33.61855],[130.75924,33.62183],[130.75431,33.62901],[130.75049,33.63159],[130.75118,33.63534],[130.74798,33.64027],[130.75162,33.6438],[130.75386,33.65006],[130.76049,33.65432],[130.75651,33.66405],[130.75423,33.66524],[130.75125,33.67389],[130.75193,33.68099],[130.7551,33.68476],[130.74785,33.69959],[130.74382,33.70176],[130.73921,33.70001],[130.73401,33.70495],[130.72733,33.7066]]]},"properties":{"pref":"福岡県","city":"飯塚市","code5":"40205","code6":"402052"}},
{"type":"Feature","geometry":{"type":"Polygon","coordinates":[[[130.7621,33.58629],[130.76437,33.58214],[130.77532,33.57473],[130.77288,33.57078],[130.77699,33.56864],[130.78514,33.56831],[130.78961,33.57305],[130.79526,33.57526],[130.7929,33.57844],[130.79796,33.58236],[130.79737,33.58887],[130.79974,33.59415],[130.79599,33.59942],[130.80145,33.61244],[130.79363,33.61732],[130.7948,33.62307],[130.81697,33.61717],[130.82396,33.60974],[130.82985,33.60987],[130.83222,33.6055],[130.83965,33.61061],[130.84273,33.61615],[130.84595,33.61744],[130.8412,33.62724],[130.83601,33.63242],[130.83762,33.63757],[130.84325,33.64],[130.84326,33.64481],[130.83385,33.64988],[130.8298,33.6544],[130.83467,33.65628],[130.83664,33.66051],[130.82949,33.66135],[130.82537,33.66472],[130.82456,33.66934],[130.82759,33.68105],[130.82572,33.68797],[130.82754,33.69672],[130.81934,33.69418],[130.81135,33.69458],[130.80636,33.69052],[130.80684,33.68286],[130.80381,33.67999],[130.80751,33.67122],[130.79238,33.67035],[130.78781,33.66625],[130.79273,33.65613],[130.79263,33.65129],[130.75799,33.63928],[130.75162,33.6438],[130.74798,33.64027],[130.75118,33.63534],[130.75049,33.63159],[130.75431,33.62901],[130.75924,33.62183],[130.75929,33.61855],[130.76434,33.61184],[130.77025,33.61246],[130.77541,33.60914],[130.77572,33.60267],[130.77204,33.59896],[130.77257,33.59481],[130.7651,33.59189],[130.7621,33.58629]]]},"properties":{"pref":"福岡県","city":"田川市","code5":"40206","code6":"402061"}},
{"type":"Feature","geometry":{"type":"Polygon","coordinates":[[[130.45712,33.18578],[130.44609,33.18491],[130.43517,33.18122],[130.43455,33.18662],[130.42801,33.19659],[130.42034,33.19451],[130.40159,33.19285],[130.39768,33.18901],[130.39688,33.18479],[130.39216,33.17915],[130.3883,33.18264],[130.38042,33.1857],[130.37215,33.18628],[130.36589,33.17761],[130.36754,33.17401],[130.36252,33.17078],[130.35951,33.17256],[130.35214,33.1708],[130.35593,33.15382],[130.35578,33.14036],[130.36667,33.13902],[130.37331,33.14129],[130.37368,33.13552],[130.377,33.12824],[130.37273,33.12327],[130.3733,33.11965],[130.38814,33.11146],[130.39766,33.10786],[130.39664,33.10545],[130.38758,33.09661],[130.38956,33.09371],[130.41173,33.08668],[130.41867,33.0917],[130.43089,33.10767],[130.43702,33.11957],[130.44252,33.12289],[130.44778,33.13438],[130.45432,33.13925],[130.45222,33.14294],[130.45378,33.14724],[130.46071,33.14797],[130.46214,33.15495],[130.4587,33.16383],[130.45908,33.16783],[130.47537,33.16723],[130.47603,33.17098],[130.46514,33.17164],[130.45632,33.17553],[130.46032,33.18015],[130.45712,33.18578]]]},"properties":{"pref":"福岡県","city":"柳川市","code5":"40207","code6":"402079"}},
{"type":"Feature","geometry":{"type":"Polygon","coordinates":[[[130.61675,33.28618],[130.61754,33.2705],[130.62021,33.26557],[130.61924,33.25958],[130.63008,33.24583],[130.63002,33.23796],[130.62326,33.23617],[130.6114,33.23668],[130.60592,33.23843],[130.603,33.24477],[130.59879,33.24481],[130.58654,33.23805],[130.5784,33.23523],[130.57012,33.23469],[130.56,33.23211],[130.55108,33.23224],[130.54498,33.23023],[130.53517,33.23394],[130.52915,33.23183],[130.52442,33.23301],[130.51881,33.23123],[130.51939,33.23034],[130.52565,33.23029],[130.52095,33.22614],[130.52328,33.21627],[130.51967,33.21591],[130.52181,33.20592],[130.51736,33.20113],[130.523,33.19921],[130.52771,33.20055],[130.52575,33.19269],[130.53592,33.18447],[130.54154,33.18452],[130.54224,33.17926],[130.53977,33.17],[130.5387,33.15989],[130.54142,33.15538],[130.54683,33.15804],[130.55265,33.15514],[130.5498,33.14433],[130.55384,33.13877],[130.55176,33.12915],[130.55227,33.12521],[130.55703,33.12009],[130.55771,33.11295],[130.55594,33.10736],[130.5618,33.10419],[130.5708,33.10674],[130.57316,33.11174],[130.5802,33.11602],[130.58976,33.11394],[130.60101,33.11479],[130.60701,33.11039],[130.61555,33.1086],[130.62134,33.11129],[130.64013,33.11339],[130.65568,33.10862],[130.65469,33.1154],[130.66026,33.11811],[130.65995,33.12468],[130.66305,33.13457],[130.6689,33.13895],[130.66631,33.14338],[130.66754,33.15695],[130.67873,33.16424],[130.68002,33.17131],[130.68522,33.16908],[130.69309,33.15995],[130.69104,33.15495],[130.70432,33.15166],[130.70936,33.15184],[130.71236,33.15533],[130.72301,33.15191],[130.72769,33.15433],[130.73453,33.15342],[130.73749,33.14637],[130.75387,33.13745],[130.75855,33.13155],[130.76392,33.13209],[130.76523,33.12859],[130.77089,33.12433],[130.77756,33.12322],[130.78188,33.12481],[130.78918,33.12403],[130.79935,33.12035],[130.80728,33.11586],[130.81182,33.11664],[130.82097,33.11135],[130.82038,33.10657],[130.82664,33.10661],[130.83982,33.10405],[130.84412,33.10751],[130.85332,33.10914],[130.85565,33.11308],[130.86165,33.11753],[130.86622,33.12685],[130.86706,33.13375],[130.87096,33.14244],[130.87133,33.14752],[130.87965,33.15299],[130.87662,33.16465],[130.87353,33.16786],[130.87785,33.1742],[130.88572,33.17629],[130.88746,33.18627],[130.87487,33.18927],[130.8696,33.19387],[130.86368,33.19306],[130.85888,33.19805],[130.84719,33.20312],[130.84355,33.20724],[130.83649,33.2106],[130.83882,33.21693],[130.84446,33.21931],[130.85959,33.22913],[130.85254,33.23226],[130.83293,33.23417],[130.82626,33.23676],[130.82519,33.24101],[130.82748,33.24491],[130.82485,33.25342],[130.81947,33.258],[130.81445,33.25673],[130.80415,33.26256],[130.79291,33.2636],[130.79169,33.26989],[130.78715,33.27071],[130.78129,33.26863],[130.77292,33.27547],[130.76839,33.28185],[130.7519,33.28273],[130.74726,33.28002],[130.73853,33.28472],[130.72999,33.28777],[130.73027,33.29215],[130.72509,33.29597],[130.72404,33.30214],[130.70531,33.3064],[130.69875,33.30519],[130.68946,33.30598],[130.68035,33.30248],[130.67729,33.30354],[130.66334,33.30224],[130.64683,33.29783],[130.63745,33.29886],[130.63141,33.2965],[130.62786,33.2918],[130.62234,33.29269],[130.61659,33.29087],[130.61675,33.28618]]]},"properties":{"pref":"福岡県","city":"八女市","code5":"40210","code6":"402109"}},
{"type":"Feature","geometry":{"type":"Polygon","coordinates":[[[130.4637,33.22411],[130.46083,33.22098],[130.45808,33.20684],[130.45159,33.20484],[130.4544,33.1922],[130.4595,33.1905],[130.45712,33.18578],[130.46032,33.18015],[130.45632,33.17553],[130.46514,33.17164],[130.47603,33.17098],[130.47685,33.18317],[130.48762,33.18275],[130.49017,33.17804],[130.48809,33.17268],[130.49575,33.17269],[130.50201,33.18043],[130.5054,33.18251],[130.51425,33.18134],[130.52553,33.18152],[130.53592,33.18447],[130.52575,33.19269],[130.52771,33.20055],[130.523,33.19921],[130.51736,33.20113],[130.52181,33.20592],[130.51967,33.21591],[130.52328,33.21627],[130.52095,33.22614],[130.52565,33.23029],[130.51939,33.23034],[130.51881,33.23123],[130.51377,33.23804],[130.5086,33.23866],[130.51339,33.24763],[130.51205,33.25355],[130.50833,33.24696],[130.50511,33.24468],[130.5006,33.24668],[130.49551,33.24393],[130.48731,33.24368],[130.48205,33.23988],[130.47849,33.2418],[130.47485,33.23256],[130.4637,33.22411]]]},"properties":{"pref":"福岡県","city":"筑後市","code5":"40211","code6":"402117"}},
{"type":"Feature","geometry":{"type":"Polygon","coordinates":[[[130.3852,33.24046],[130.37869,33.24147],[130.37394,33.24436],[130.37013,33.23976],[130.37065,33.23609],[130.37905,33.22918],[130.37884,33.22215],[130.37617,33.21992],[130.36206,33.2152],[130.35503,33.20923],[130.34268,33.20828],[130.3397,33.20502],[130.34055,33.18845],[130.34706,33.18196],[130.35312,33.18046],[130.35214,33.1708],[130.35951,33.17256],[130.36252,33.17078],[130.36754,33.17401],[130.36589,33.17761],[130.37215,33.18628],[130.38042,33.1857],[130.3883,33.18264],[130.39216,33.17915],[130.39688,33.18479],[130.39768,33.18901],[130.40159,33.19285],[130.42034,33.19451],[130.421,33.1998],[130.41875,33.2032],[130.41925,33.21145],[130.42342,33.22054],[130.41239,33.22472],[130.4143,33.22841],[130.41181,33.23248],[130.40123,33.22973],[130.39539,33.23227],[130.39163,33.23855],[130.3852,33.24046]]]},"properties":{"pref":"福岡県","city":"大川市","code5":"40212","code6":"402125"}},
{"type":"Feature","geometry":{"type":"Polygon","coordinates":[[[130.89434,33.73414],[130.89875,33.72168],[130.90394,33.71998],[130.90598,33.7139],[130.91215,33.71166],[130.91388,33.72099],[130.92063,33.71845],[130.93125,33.71957],[130.93862,33.71117],[130.92878,33.69947],[130.93024,33.69464],[130.92619,33.67222],[130.93417,33.67214],[130.94103,33.67713],[130.95506,33.67819],[130.96496,33.68653],[130.9694,33.68695],[130.9708,33.6912],[130.97717,33.68973],[130.98405,33.69187],[130.98969,33.68899],[130.99523,33.69456],[131.00331,33.68955],[131.00436,33.68112],[131.01072,33.67624],[131.02287,33.68347],[131.02982,33.67942],[131.03676,33.67981],[131.04588,33.68497],[131.04579,33.68909],[131.03935,33.69212],[131.03465,33.70232],[131.03063,33.70547],[131.02521,33.71705],[131.02108,33.73089],[131.01486,33.73468],[131.01796,33.73891],[131.01932,33.74532],[131.01613,33.75082],[131.00832,33.74391],[131.00417,33.74992],[130.98591,33.74121],[130.97888,33.74527],[130.97553,33.74242],[130.95863,33.73844],[130.95137,33.73566],[130.94347,33.73746],[130.94319,33.73969],[130.93198,33.74052],[130.9287,33.74474],[130.91004,33.74888],[130.90723,33.746],[130.90226,33.75321],[130.89866,33.74707],[130.89434,33.73414]]]},"properties":{"pref":"福岡県","city":"行橋市","code5":"40213","code6":"402133"}},
{"type":"Feature","geometry":{"type":"Polygon","coordinates":[[[131.16619,33.61692],[131.16177,33.61646],[131.15387,33.62161],[131.14751,33.62265],[131.1447,33.62543],[131.13183,33.62692],[131.12395,33.62632],[131.12071,33.6304],[131.115,33.63052],[131.11631,33.62314],[131.10798,33.62391],[131.10906,33.61817],[131.10008,33.61809],[131.09426,33.62779],[131.08666,33.63445],[131.08226,33.6262],[131.07687,33.62393],[131.06615,33.60949],[131.05555,33.60273],[131.04869,33.59575],[131.04557,33.58717],[131.03583,33.57309],[131.02925,33.565],[131.02399,33.56412],[131.01212,33.55358],[131.01222,33.54898],[131.00947,33.5438],[131.01069,33.54011],[130.99448,33.52708],[130.99016,33.51743],[130.98995,33.50914],[131.00144,33.51218],[131.01516,33.50907],[131.01938,33.5126],[131.02679,33.51392],[131.02984,33.51883],[131.03574,33.51907],[131.04235,33.51401],[131.05331,33.50789],[131.0631,33.5102],[131.06765,33.50906],[131.07641,33.5177],[131.08214,33.51877],[131.09084,33.52477],[131.09456,33.53117],[131.09343,33.53565],[131.10966,33.5431],[131.11862,33.55706],[131.1218,33.56762],[131.12809,33.574],[131.131,33.57937],[131.15191,33.59047],[131.15665,33.59825],[131.15291,33.60223],[131.16007,33.60755],[131.16619,33.61692]]]},"properties":{"pref":"福岡県","city":"豊前市","code5":"40214","code6":"402141"}},
{"type":"Feature","geometry":{"type":"Polygon","coordinates":[[[130.71846,33.83445],[130.71659,33.83735],[130.70941,33.83871],[130.70165,33.84193],[130.70279,33.83494],[130.69567,33.83011],[130.69127,33.8341],[130.68539,33.83062],[130.67721,33.83049],[130.67521,33.82675],[130.66851,33.82326],[130.66975,33.81963],[130.67449,33.82152],[130.67879,33.81656],[130.68065,33.81109],[130.6879,33.81261],[130.69233,33.80688],[130.70057,33.80647],[130.70356,33.80126],[130.7067,33.8044],[130.71655,33.8073],[130.72174,33.80658],[130.72527,33.80327],[130.73111,33.81258],[130.74307,33.81608],[130.74285,33.82001],[130.7338,33.82247],[130.72971,33.82535],[130.7288,33.83069],[130.71846,33.83445]]]},"properties":{"pref":"福岡県","city":"中間市","code5":"40215","code6":"402150"}},
{"type":"Feature","geometry":{"type":"Polygon","coordinates":[[[130.57843,33.36707],[130.5781,33.37286],[130.58286,33.38305],[130.58552,33.38398],[130.59307,33.40252],[130.59851,33.40319],[130.5998,33.41002],[130.60932,33.41231],[130.60506,33.41929],[130.58602,33.43012],[130.57977,33.43697],[130.57141,33.44285],[130.56149,33.44766],[130.5536,33.44993],[130.55231,33.44367],[130.54963,33.44076],[130.54049,33.44156],[130.53647,33.43898],[130.53515,33.43439],[130.53737,33.4263],[130.54106,33.42122],[130.54182,33.39425],[130.54196,33.36634],[130.54026,33.36522],[130.53598,33.34296],[130.54079,33.34567],[130.55034,33.34542],[130.55022,33.34838],[130.55715,33.35055],[130.56233,33.35521],[130.57064,33.35522],[130.57719,33.35965],[130.57843,33.36707]]]},"properties":{"pref":"福岡県","city":"小郡市","code5":"40216","code6":"402168"}},
{"type":"Feature","geometry":{"type":"Polygon","coordinates":[[[130.58409,33.55468],[130.57942,33.55317],[130.57522,33.54477],[130.57216,33.54248],[130.56889,33.53987],[130.56537,33.53084],[130.56071,33.52858],[130.55822,33.52353],[130.55028,33.52143],[130.54721,33.52442],[130.54216,33.52169],[130.54041,33.51255],[130.54645,33.51021],[130.5494,33.50633],[130.54654,33.49758],[130.54084,33.49089],[130.53642,33.49271],[130.53096,33.49833],[130.52924,33.50594],[130.52075,33.50724],[130.51964,33.5033],[130.51377,33.50001],[130.50789,33.50016],[130.50324,33.50613],[130.49597,33.49644],[130.49636,33.49033],[130.49259,33.4841],[130.495,33.48003],[130.49413,33.47467],[130.49,33.47047],[130.48218,33.46463],[130.47346,33.46382],[130.46626,33.46635],[130.46444,33.46227],[130.45749,33.45738],[130.46118,33.44498],[130.45685,33.44197],[130.4561,33.43599],[130.45781,33.43066],[130.46141,33.42824],[130.46237,33.42792],[130.47438,33.43547],[130.48007,33.43613],[130.49112,33.43971],[130.49591,33.44477],[130.50354,33.44693],[130.50963,33.4438],[130.51113,33.44911],[130.52182,33.44605],[130.53368,33.44146],[130.53647,33.43898],[130.54049,33.44156],[130.54963,33.44076],[130.55231,33.44367],[130.5536,33.44993],[130.56149,33.44766],[130.57141,33.44285],[130.57977,33.43697],[130.58462,33.44103],[130.57557,33.44511],[130.57064,33.45266],[130.56567,33.45677],[130.56202,33.46276],[130.56223,33.47356],[130.56632,33.47689],[130.57156,33.47431],[130.58009,33.47273],[130.58828,33.48142],[130.58902,33.48573],[130.60199,33.48914],[130.61016,33.49281],[130.61001,33.49592],[130.62145,33.5061],[130.61818,33.51596],[130.60991,33.51953],[130.61209,33.5252],[130.59784,33.5385],[130.5956,33.54567],[130.58409,33.55468]]]},"properties":{"pref":"福岡県","city":"筑紫野市","code5":"40217","code6":"402176"}},
{"type":"Feature","geometry":{"type":"Polygon","coordinates":[[[130.46893,33.53789],[130.46339,33.53584],[130.45217,33.54882],[130.44606,33.54773],[130.43964,33.54291],[130.44302,33.53323],[130.43581,33.52892],[130.43405,33.52291],[130.43871,33.51431],[130.44831,33.50857],[130.44543,33.50316],[130.45034,33.4988],[130.47014,33.51024],[130.47547,33.51138],[130.47489,33.51548],[130.47797,33.51982],[130.47881,33.52797],[130.47538,33.53143],[130.47704,33.53566],[130.47314,33.53923],[130.46893,33.53789]]]},"properties":{"pref":"福岡県","city":"春日市","code5":"40218","code6":"402184"}},
{"type":"Feature","geometry":{"type":"Polygon","coordinates":[[[130.46893,33.53789],[130.47314,33.53923],[130.47704,33.53566],[130.47538,33.53143],[130.47881,33.52797],[130.47797,33.51982],[130.47489,33.51548],[130.47547,33.51138],[130.47014,33.51024],[130.45034,33.4988],[130.45583,33.47055],[130.46218,33.47018],[130.46626,33.46635],[130.47346,33.46382],[130.48218,33.46463],[130.49,33.47047],[130.48312,33.49034],[130.48441,33.49964],[130.48922,33.50429],[130.48619,33.51333],[130.49481,33.51968],[130.48934,33.53045],[130.49439,33.53302],[130.49954,33.53098],[130.51432,33.53698],[130.50829,33.54267],[130.50938,33.54722],[130.50302,33.55027],[130.5043,33.55439],[130.50192,33.55971],[130.49877,33.56067],[130.48917,33.55862],[130.48567,33.56019],[130.47784,33.55253],[130.4737,33.55317],[130.46671,33.56279],[130.46217,33.5607],[130.46931,33.55302],[130.46842,33.5478],[130.47111,33.5441],[130.46893,33.53789]]]},"properties":{"pref":"福岡県","city":"大野城市","code5":"40219","code6":"402192"}},
{"type":"Feature","geometry":{"type":"MultiPolygon","coordinates":[[[[130.54294,33.88909],[130.54075,33.88778],[130.52928,33.88787],[130.52979,33.88104],[130.52824,33.87337],[130.52145,33.86311],[130.51142,33.85687],[130.49569,33.85205],[130.48796,33.85099],[130.48197,33.85346],[130.47974,33.8507],[130.48253,33.84493],[130.48962,33.84528],[130.49374,33.83697],[130.5002,33.83094],[130.499,33.81834],[130.50515,33.81221],[130.50516,33.80948],[130.49844,33.80399],[130.4994,33.79885],[130.49496,33.79435],[130.50758,33.78763],[130.51672,33.78078],[130.52082,33.77495],[130.52623,33.78006],[130.53522,33.78005],[130.53923,33.77376],[130.54508,33.77208],[130.54208,33.76392],[130.54929,33.7581],[130.55153,33.75139],[130.55511,33.75052],[130.55967,33.75491],[130.578,33.75579],[130.58441,33.75685],[130.58461,33.75979],[130.59139,33.76179],[130.59852,33.76193],[130.60413,33.76458],[130.60088,33.77061],[130.60542,33.77701],[130.61333,33.77743],[130.61543,33.78161],[130.63243,33.78018],[130.63133,33.785],[130.63356,33.79061],[130.63982,33.79062],[130.63406,33.80014],[130.63318,33.8042],[130.63658,33.80656],[130.63597,33.81275],[130.62937,33.81564],[130.62425,33.82073],[130.61276,33.82294],[130.60849,33.82159],[130.6028,33.82328],[130.59695,33.81861],[130.59163,33.81793],[130.58617,33.82424],[130.58319,33.83251],[130.58237,33.84063],[130.57231,33.84538],[130.56737,33.85444],[130.56965,33.85749],[130.56402,33.86379],[130.55716,33.86414],[130.55232,33.86952],[130.54153,33.88438],[130.54294,33.88909]]],[[[130.44731,33.91307],[130.44373,33.91535],[130.4304,33.913],[130.42823,33.90932],[130.4175,33.91217],[130.40668,33.90873],[130.4067,33.90808],[130.40644,33.90754],[130.40645,33.90753],[130.4064,33.90742],[130.40606,33.90739],[130.40728,33.90439],[130.40729,33.90437],[130.40714,33.89648],[130.41313,33.89202],[130.42629,33.88695],[130.43099,33.88848],[130.43249,33.89586],[130.44492,33.90924],[130.44731,33.91307]]],[[[130.489,33.91349],[130.48763,33.91209],[130.49486,33.90473],[130.49572,33.89922],[130.50122,33.8953],[130.50564,33.89703],[130.50651,33.90097],[130.499,33.90651],[130.49671,33.91211],[130.489,33.91349]]],[[[130.11216,34.24984],[130.1035,34.24883],[130.09812,34.24185],[130.10501,34.23956],[130.11245,34.24626],[130.11216,34.24984]]],[[[130.46981,33.86485],[130.47325,33.86199],[130.47312,33.86385],[130.47181,33.86405],[130.47177,33.86404],[130.47168,33.86395],[130.46981,33.86485]]],[[[130.4733,33.86384],[130.47326,33.8638],[130.47331,33.86383],[130.4733,33.86384]]]]},"properties":{"pref":"福岡県","city":"宗像市","code5":"40220","code6":"402206"}},
{"type":"Feature","geometry":{"type":"Polygon","coordinates":[[[130.57216,33.54248],[130.56552,33.54511],[130.55746,33.55214],[130.54919,33.55644],[130.54067,33.55491],[130.54168,33.54928],[130.53425,33.54378],[130.52892,33.54275],[130.52944,33.53598],[130.52016,33.52981],[130.51435,33.53343],[130.51432,33.53698],[130.49954,33.53098],[130.49439,33.53302],[130.48934,33.53045],[130.49481,33.51968],[130.48619,33.51333],[130.48922,33.50429],[130.48441,33.49964],[130.48312,33.49034],[130.49,33.47047],[130.49413,33.47467],[130.495,33.48003],[130.49259,33.4841],[130.49636,33.49033],[130.49597,33.49644],[130.50324,33.50613],[130.50789,33.50016],[130.51377,33.50001],[130.51964,33.5033],[130.52075,33.50724],[130.52924,33.50594],[130.53096,33.49833],[130.53642,33.49271],[130.54084,33.49089],[130.54654,33.49758],[130.5494,33.50633],[130.54645,33.51021],[130.54041,33.51255],[130.54216,33.52169],[130.54721,33.52442],[130.55028,33.52143],[130.55822,33.52353],[130.56071,33.52858],[130.56537,33.53084],[130.56889,33.53987],[130.57216,33.54248]]]},"properties":{"pref":"福岡県","city":"太宰府市","code5":"40221","code6":"402214"}},
{"type":"Feature","geometry":{"type":"Polygon","coordinates":[[[130.54774,33.73061],[130.54102,33.73793],[130.51329,33.74077],[130.50919,33.74034],[130.49858,33.74525],[130.48925,33.74734],[130.48078,33.75196],[130.46741,33.75375],[130.4582,33.73617],[130.4471,33.72506],[130.45912,33.71916],[130.46858,33.70787],[130.46572,33.70097],[130.46728,33.69565],[130.4733,33.6938],[130.47811,33.69512],[130.49151,33.69235],[130.50007,33.69743],[130.50275,33.69701],[130.50501,33.68943],[130.50837,33.68699],[130.51932,33.69273],[130.52157,33.70169],[130.53286,33.7098],[130.54472,33.71017],[130.54829,33.71763],[130.55869,33.72005],[130.55808,33.72366],[130.55372,33.72797],[130.54774,33.73061]]]},"properties":{"pref":"福岡県","city":"古賀市","code5":"40223","code6":"402231"}},
{"type":"Feature","geometry":{"type":"Polygon","coordinates":[[[130.47974,33.8507],[130.48199,33.84323],[130.47964,33.8323],[130.47569,33.82239],[130.46938,33.81429],[130.46579,33.81173],[130.4514,33.811],[130.44856,33.81666],[130.444,33.81532],[130.44633,33.80912],[130.4512,33.80162],[130.44587,33.79548],[130.4459,33.79072],[130.45032,33.78484],[130.45437,33.78597],[130.45859,33.79108],[130.46573,33.78568],[130.47081,33.7742],[130.46882,33.7581],[130.46741,33.75375],[130.48078,33.75196],[130.48925,33.74734],[130.49858,33.74525],[130.50919,33.74034],[130.51329,33.74077],[130.54102,33.73793],[130.54774,33.73061],[130.55285,33.73764],[130.55236,33.74438],[130.55511,33.75052],[130.55153,33.75139],[130.54929,33.7581],[130.54208,33.76392],[130.54508,33.77208],[130.53923,33.77376],[130.53522,33.78005],[130.52623,33.78006],[130.52082,33.77495],[130.51672,33.78078],[130.50758,33.78763],[130.49496,33.79435],[130.4994,33.79885],[130.49844,33.80399],[130.50516,33.80948],[130.50515,33.81221],[130.499,33.81834],[130.5002,33.83094],[130.49374,33.83697],[130.48962,33.84528],[130.48253,33.84493],[130.47974,33.8507]]]},"properties":{"pref":"福岡県","city":"福津市","code5":"40224","code6":"402249"}},
{"type":"Feature","geometry":{"type":"Polygon","coordinates":[[[130.72404,33.30214],[130.72509,33.29597],[130.73027,33.29215],[130.72999,33.28777],[130.73853,33.28472],[130.74726,33.28002],[130.7519,33.28273],[130.76839,33.28185],[130.77292,33.27547],[130.78129,33.26863],[130.78715,33.27071],[130.79169,33.26989],[130.79291,33.2636],[130.80415,33.26256],[130.81445,33.25673],[130.81947,33.258],[130.82485,33.25342],[130.8287,33.25746],[130.83812,33.25824],[130.84526,33.25751],[130.84874,33.26103],[130.85535,33.26257],[130.86391,33.26117],[130.86805,33.26408],[130.86758,33.26798],[130.8607,33.26675],[130.85738,33.27043],[130.85649,33.27535],[130.85207,33.27747],[130.85713,33.28497],[130.86635,33.29211],[130.86158,33.30319],[130.86304,33.30503],[130.85631,33.31854],[130.85478,33.32915],[130.8506,33.33666],[130.84503,33.3387],[130.84209,33.33666],[130.83535,33.34355],[130.82882,33.35039],[130.81801,33.35598],[130.81458,33.35927],[130.80886,33.36043],[130.79524,33.35472],[130.78919,33.34943],[130.78245,33.34882],[130.77691,33.35342],[130.77295,33.36087],[130.76407,33.36086],[130.75925,33.36464],[130.74827,33.36489],[130.74652,33.36049],[130.73954,33.36283],[130.73186,33.37318],[130.72684,33.37272],[130.7228,33.36726],[130.7227,33.36088],[130.71835,33.35309],[130.72547,33.35101],[130.7262,33.34715],[130.73096,33.34694],[130.73113,33.34013],[130.7238,33.33777],[130.72346,33.32472],[130.72514,33.32112],[130.72874,33.30266],[130.72404,33.30214]]]},"properties":{"pref":"福岡県","city":"うきは市","code5":"40225","code6":"402257"}},
{"type":"Feature","geometry":{"type":"Polygon","coordinates":[[[130.68425,33.74844],[130.66776,33.74051],[130.65914,33.73975],[130.65528,33.74298],[130.65196,33.75073],[130.65248,33.76276],[130.6493,33.7705],[130.6509,33.77208],[130.64506,33.78184],[130.64488,33.7847],[130.63982,33.79062],[130.63356,33.79061],[130.63133,33.785],[130.63243,33.78018],[130.61543,33.78161],[130.61333,33.77743],[130.60542,33.77701],[130.60088,33.77061],[130.60413,33.76458],[130.59852,33.76193],[130.59139,33.76179],[130.58461,33.75979],[130.58441,33.75685],[130.578,33.75579],[130.55967,33.75491],[130.55511,33.75052],[130.55236,33.74438],[130.55285,33.73764],[130.54774,33.73061],[130.55372,33.72797],[130.55808,33.72366],[130.55869,33.72005],[130.54829,33.71763],[130.54472,33.71017],[130.54199,33.70732],[130.54096,33.69835],[130.54489,33.69382],[130.53976,33.68135],[130.54142,33.67638],[130.54973,33.67319],[130.55131,33.66808],[130.56205,33.66575],[130.57053,33.66326],[130.57527,33.65759],[130.56642,33.64654],[130.57506,33.63807],[130.58221,33.64697],[130.60376,33.65345],[130.60899,33.65059],[130.62031,33.66034],[130.6197,33.66471],[130.62237,33.6685],[130.62739,33.66596],[130.63702,33.67168],[130.63903,33.68342],[130.64346,33.68792],[130.64978,33.68701],[130.65911,33.6906],[130.67112,33.69108],[130.67321,33.69645],[130.68056,33.69918],[130.69587,33.69885],[130.69888,33.70108],[130.69672,33.70526],[130.69539,33.71964],[130.70392,33.72582],[130.71072,33.72482],[130.71016,33.73032],[130.71431,33.73254],[130.71047,33.73519],[130.70715,33.74305],[130.69847,33.74687],[130.69401,33.74709],[130.68651,33.74357],[130.68425,33.74844]]]},"properties":{"pref":"福岡県","city":"宮若市","code5":"40226","code6":"402265"}},
{"type":"Feature","geometry":{"type":"Polygon","coordinates":[[[130.70011,33.59951],[130.70515,33.59072],[130.70409,33.58196],[130.69869,33.56963],[130.69226,33.56609],[130.6936,33.55746],[130.69085,33.55062],[130.68651,33.55069],[130.68476,33.54171],[130.67706,33.53109],[130.67222,33.52908],[130.66743,33.5291],[130.66346,33.52262],[130.66589,33.51708],[130.6644,33.50581],[130.66238,33.50382],[130.66868,33.49809],[130.67274,33.49943],[130.68716,33.49121],[130.68912,33.4941],[130.71158,33.49088],[130.71688,33.48596],[130.7271,33.48358],[130.74179,33.48807],[130.75009,33.48652],[130.75896,33.48833],[130.76567,33.48796],[130.77992,33.48159],[130.78728,33.47958],[130.79123,33.47099],[130.79388,33.47241],[130.80609,33.47187],[130.80909,33.47514],[130.8083,33.48341],[130.81172,33.4873],[130.81763,33.48884],[130.81401,33.49314],[130.81072,33.50226],[130.81034,33.50967],[130.80404,33.51126],[130.80365,33.51739],[130.80668,33.53684],[130.80369,33.5384],[130.80267,33.54723],[130.79291,33.55596],[130.79229,33.56019],[130.78514,33.56831],[130.77699,33.56864],[130.77288,33.57078],[130.77532,33.57473],[130.76437,33.58214],[130.7621,33.58629],[130.75136,33.58865],[130.74502,33.59482],[130.73888,33.60393],[130.73991,33.61253],[130.73257,33.61313],[130.72231,33.61854],[130.71483,33.61615],[130.70633,33.62353],[130.70282,33.62344],[130.69804,33.61796],[130.70059,33.61509],[130.69811,33.60233],[130.70011,33.59951]]]},"properties":{"pref":"福岡県","city":"嘉麻市","code5":"40227","code6":"402273"}},
{"type":"Feature","geometry":{"type":"Polygon","coordinates":[[[130.7227,33.36088],[130.7228,33.36726],[130.72684,33.37272],[130.73186,33.37318],[130.73954,33.36283],[130.74652,33.36049],[130.74827,33.36489],[130.75925,33.36464],[130.76407,33.36086],[130.77295,33.36087],[130.77691,33.35342],[130.78245,33.34882],[130.78919,33.34943],[130.79524,33.35472],[130.80886,33.36043],[130.81458,33.35927],[130.81801,33.35598],[130.82882,33.35039],[130.83535,33.34355],[130.84019,33.34579],[130.84226,33.35026],[130.8502,33.35377],[130.8618,33.3626],[130.85972,33.37296],[130.85864,33.38815],[130.85695,33.39295],[130.85957,33.39963],[130.85412,33.40766],[130.85088,33.40944],[130.84875,33.41801],[130.84242,33.41648],[130.83677,33.42093],[130.83402,33.42838],[130.83407,33.4332],[130.8281,33.43997],[130.82879,33.44735],[130.81822,33.45724],[130.81087,33.4581],[130.80303,33.45484],[130.79796,33.45723],[130.79067,33.4537],[130.78726,33.4549],[130.77727,33.45054],[130.76973,33.45267],[130.77486,33.45808],[130.77966,33.46721],[130.79123,33.47099],[130.78728,33.47958],[130.77992,33.48159],[130.76567,33.48796],[130.75896,33.48833],[130.75009,33.48652],[130.74179,33.48807],[130.7271,33.48358],[130.71688,33.48596],[130.71158,33.49088],[130.68912,33.4941],[130.68716,33.49121],[130.67274,33.49943],[130.66868,33.49809],[130.66456,33.49272],[130.66592,33.48557],[130.65946,33.47306],[130.6547,33.47016],[130.65316,33.4637],[130.64896,33.46106],[130.64771,33.45612],[130.64939,33.45199],[130.64734,33.44813],[130.65465,33.44578],[130.65919,33.44111],[130.65845,33.4362],[130.65396,33.4312],[130.65102,33.4318],[130.64553,33.42336],[130.64261,33.42142],[130.63599,33.4119],[130.62381,33.41227],[130.61646,33.40716],[130.61631,33.4049],[130.61548,33.39992],[130.61773,33.3961],[130.62438,33.39438],[130.62553,33.39072],[130.64592,33.38592],[130.64495,33.37933],[130.64031,33.37338],[130.64733,33.37228],[130.65249,33.37379],[130.65358,33.3678],[130.66679,33.36219],[130.67297,33.36156],[130.6842,33.36279],[130.70018,33.36209],[130.70548,33.36415],[130.70771,33.36019],[130.71968,33.35922],[130.7227,33.36088]]]},"properties":{"pref":"福岡県","city":"朝倉市","code5":"40228","code6":"402281"}},
{"type":"Feature","geometry":{"type":"Polygon","coordinates":[[[130.54245,33.08174],[130.54663,33.08057],[130.55596,33.08609],[130.56572,33.08725],[130.56543,33.09163],[130.5612,33.09591],[130.5618,33.10419],[130.55594,33.10736],[130.55771,33.11295],[130.55703,33.12009],[130.55227,33.12521],[130.55176,33.12915],[130.55384,33.13877],[130.5498,33.14433],[130.55265,33.15514],[130.54683,33.15804],[130.54142,33.15538],[130.5387,33.15989],[130.53977,33.17],[130.54224,33.17926],[130.54154,33.18452],[130.53592,33.18447],[130.52553,33.18152],[130.51425,33.18134],[130.5054,33.18251],[130.50201,33.18043],[130.49575,33.17269],[130.48809,33.17268],[130.49017,33.17804],[130.48762,33.18275],[130.47685,33.18317],[130.47603,33.17098],[130.47537,33.16723],[130.45908,33.16783],[130.4587,33.16383],[130.46214,33.15495],[130.46071,33.14797],[130.45378,33.14724],[130.45222,33.14294],[130.45432,33.13925],[130.44778,33.13438],[130.44252,33.12289],[130.43702,33.11957],[130.43089,33.10767],[130.41867,33.0917],[130.41173,33.08668],[130.41219,33.08117],[130.41768,33.07189],[130.43915,33.07594],[130.44475,33.0788],[130.45075,33.08549],[130.44968,33.08791],[130.47224,33.08901],[130.48295,33.08507],[130.49242,33.08696],[130.49566,33.08993],[130.50679,33.09198],[130.50784,33.09802],[130.51715,33.09638],[130.5204,33.09108],[130.51965,33.08706],[130.52252,33.083],[130.53109,33.08388],[130.53887,33.08966],[130.54245,33.08174]]]},"properties":{"pref":"福岡県","city":"みやま市","code5":"40229","code6":"402290"}},
{"type":"Feature","geometry":{"type":"MultiPolygon","coordinates":[[[[130.19784,33.63975],[130.1844,33.6326],[130.17527,33.62988],[130.16733,33.63271],[130.1567,33.62787],[130.15423,33.62108],[130.15793,33.61514],[130.16196,33.61264],[130.16083,33.60844],[130.15508,33.6018],[130.14735,33.59514],[130.13761,33.59154],[130.12802,33.58985],[130.11762,33.59159],[130.10899,33.59545],[130.10628,33.59282],[130.1087,33.58792],[130.10205,33.58816],[130.09559,33.58583],[130.08886,33.58335],[130.08822,33.5778],[130.09727,33.57427],[130.10065,33.5636],[130.10676,33.56699],[130.10829,33.57002],[130.11968,33.5746],[130.12618,33.57251],[130.13037,33.56698],[130.135,33.56631],[130.13214,33.55867],[130.12019,33.55835],[130.11713,33.55381],[130.1181,33.54749],[130.12614,33.55681],[130.13283,33.55586],[130.13284,33.55587],[130.1365,33.55514],[130.14132,33.5499],[130.14689,33.55133],[130.15565,33.56003],[130.16464,33.56013],[130.16526,33.55502],[130.16187,33.55025],[130.15702,33.54404],[130.15389,33.53706],[130.14318,33.53488],[130.13812,33.52978],[130.13383,33.52881],[130.12917,33.52843],[130.12915,33.52843],[130.12529,33.52597],[130.13204,33.52276],[130.13307,33.51738],[130.1268,33.51004],[130.12163,33.50863],[130.12153,33.5086],[130.11492,33.50766],[130.1121,33.50995],[130.10619,33.50968],[130.10448,33.51482],[130.10148,33.51601],[130.10121,33.51597],[130.10121,33.51595],[130.09857,33.5137],[130.09856,33.51369],[130.09856,33.51366],[130.09948,33.51021],[130.09473,33.50708],[130.08598,33.505],[130.08365,33.50739],[130.07835,33.50345],[130.07066,33.50258],[130.06215,33.49757],[130.04843,33.49523],[130.05006,33.48998],[130.04482,33.48451],[130.03902,33.47001],[130.04492,33.46744],[130.05062,33.46935],[130.0606,33.47036],[130.06807,33.4725],[130.07355,33.46915],[130.08892,33.46867],[130.09842,33.46984],[130.10313,33.47589],[130.11799,33.47506],[130.12974,33.47555],[130.1388,33.47044],[130.1485,33.47729],[130.15677,33.47672],[130.16879,33.46765],[130.17593,33.46592],[130.1828,33.46665],[130.18863,33.47082],[130.18867,33.4747],[130.19453,33.47611],[130.19795,33.47934],[130.20559,33.4814],[130.22334,33.47828],[130.2268,33.4767],[130.23343,33.47887],[130.23823,33.47403],[130.2442,33.47441],[130.24641,33.47146],[130.25237,33.47096],[130.2575,33.47607],[130.27211,33.47935],[130.27269,33.48818],[130.27602,33.48948],[130.27189,33.49511],[130.27789,33.50161],[130.27951,33.50666],[130.28561,33.50707],[130.2918,33.51301],[130.29221,33.51907],[130.28731,33.52625],[130.28925,33.53132],[130.28865,33.53864],[130.28381,33.53953],[130.27758,33.54403],[130.26644,33.55001],[130.26558,33.55656],[130.25751,33.55523],[130.25452,33.55781],[130.24974,33.55604],[130.24522,33.5577],[130.24043,33.55173],[130.23627,33.55536],[130.23938,33.5589],[130.23666,33.56643],[130.24107,33.57308],[130.23771,33.58044],[130.2267,33.58139],[130.21919,33.58056],[130.21179,33.58898],[130.20972,33.59655],[130.21012,33.60605],[130.20596,33.60954],[130.20497,33.62271],[130.20674,33.62854],[130.20398,33.63524],[130.19784,33.63975]]],[[[130.04912,33.57576],[130.04657,33.57563],[130.04633,33.57555],[130.04627,33.57552],[130.04626,33.57552],[130.04576,33.57453],[130.04488,33.56875],[130.05023,33.56565],[130.0545,33.57246],[130.0545,33.57247],[130.05208,33.57509],[130.04912,33.57576]]]]},"properties":{"pref":"福岡県","city":"糸島市","code5":"40230","code6":"402303"}},
{"type":"Feature","geometry":{"type":"Polygon","coordinates":[[[130.43405,33.52291],[130.42836,33.52267],[130.4268,33.53039],[130.42073,33.52779],[130.41658,33.52349],[130.41076,33.52226],[130.40392,33.5185],[130.40394,33.51357],[130.39844,33.51307],[130.39616,33.5071],[130.3859,33.5071],[130.38206,33.50553],[130.3772,33.5082],[130.37123,33.50477],[130.37838,33.49749],[130.38142,33.48712],[130.38127,33.48038],[130.38802,33.46646],[130.38581,33.4621],[130.38796,33.4548],[130.39935,33.44879],[130.39887,33.44528],[130.40438,33.4406],[130.40312,33.43808],[130.39599,33.44026],[130.39616,33.42741],[130.40477,33.41624],[130.41509,33.40929],[130.40768,33.3986],[130.41097,33.39504],[130.41901,33.40112],[130.42259,33.39846],[130.42876,33.39688],[130.43828,33.40062],[130.43704,33.40485],[130.44123,33.4102],[130.44221,33.41563],[130.44668,33.41858],[130.45826,33.41998],[130.45801,33.42501],[130.46141,33.42824],[130.45781,33.43066],[130.4561,33.43599],[130.45685,33.44197],[130.46118,33.44498],[130.45749,33.45738],[130.46444,33.46227],[130.46626,33.46635],[130.46218,33.47018],[130.45583,33.47055],[130.45034,33.4988],[130.44543,33.50316],[130.44831,33.50857],[130.43871,33.51431],[130.43405,33.52291]]]},"properties":{"pref":"福岡県","city":"那珂川市","code5":"40231","code6":"402311"}},
{"type":"Feature","geometry":{"type":"Polygon","coordinates":[[[130.48567,33.56019],[130.48917,33.55862],[130.49877,33.56067],[130.50192,33.55971],[130.5043,33.55439],[130.50302,33.55027],[130.50938,33.54722],[130.50829,33.54267],[130.51432,33.53698],[130.51435,33.53343],[130.52016,33.52981],[130.52944,33.53598],[130.52892,33.54275],[130.53425,33.54378],[130.54168,33.54928],[130.54067,33.55491],[130.54919,33.55644],[130.55746,33.55214],[130.56552,33.54511],[130.57216,33.54248],[130.57522,33.54477],[130.57942,33.55317],[130.58409,33.55468],[130.58041,33.55876],[130.57945,33.5653],[130.57506,33.56799],[130.57271,33.57694],[130.56819,33.57958],[130.56642,33.5908],[130.56291,33.59332],[130.5598,33.59336],[130.54832,33.58695],[130.54578,33.57893],[130.53194,33.57601],[130.52502,33.57561],[130.51042,33.57728],[130.50433,33.58115],[130.49912,33.58047],[130.49685,33.57675],[130.48819,33.57004],[130.48825,33.564],[130.48564,33.56028],[130.48567,33.56019]]]},"properties":{"pref":"福岡県","county":"糟屋郡","city":"宇美町","code5":"40341","code6":"403415"}},
{"type":"Feature","geometry":{"type":"Polygon","coordinates":[[[130.57506,33.63807],[130.56642,33.64654],[130.57527,33.65759],[130.57053,33.66326],[130.56205,33.66575],[130.55406,33.65855],[130.5491,33.65636],[130.54782,33.6472],[130.53632,33.64291],[130.53602,33.63884],[130.52854,33.63628],[130.5237,33.63895],[130.51579,33.63975],[130.49796,33.63489],[130.49621,33.62979],[130.49921,33.62716],[130.49953,33.61493],[130.50664,33.6112],[130.51592,33.60364],[130.52464,33.60071],[130.53122,33.60037],[130.53802,33.59539],[130.55046,33.59876],[130.55814,33.59949],[130.56083,33.60014],[130.56809,33.60694],[130.57982,33.6027],[130.58554,33.60309],[130.59353,33.60878],[130.5971,33.61558],[130.59166,33.61899],[130.58448,33.61873],[130.58733,33.62598],[130.58577,33.63237],[130.57506,33.63807]]]},"properties":{"pref":"福岡県","county":"糟屋郡","city":"篠栗町","code5":"40342","code6":"403423"}},
{"type":"Feature","geometry":{"type":"Polygon","coordinates":[[[130.44241,33.60668],[130.44228,33.60639],[130.45064,33.60239],[130.4555,33.59617],[130.45924,33.59688],[130.46345,33.59128],[130.46928,33.58712],[130.47753,33.57772],[130.47938,33.57259],[130.47728,33.56721],[130.48564,33.56028],[130.48825,33.564],[130.48819,33.57004],[130.49685,33.57675],[130.49912,33.58047],[130.49176,33.58583],[130.48874,33.59345],[130.48257,33.59484],[130.47947,33.59281],[130.4743,33.59829],[130.4644,33.60344],[130.45804,33.60967],[130.45423,33.60983],[130.44867,33.60651],[130.44241,33.60668]]]},"properties":{"pref":"福岡県","county":"糟屋郡","city":"志免町","code5":"40343","code6":"403431"}},
{"type":"Feature","geometry":{"type":"Polygon","coordinates":[[[130.55814,33.59949],[130.55046,33.59876],[130.53802,33.59539],[130.53122,33.60037],[130.52464,33.60071],[130.51592,33.60364],[130.50664,33.6112],[130.49953,33.61493],[130.48931,33.60954],[130.48917,33.6005],[130.49173,33.59691],[130.48874,33.59345],[130.49176,33.58583],[130.49912,33.58047],[130.50433,33.58115],[130.51042,33.57728],[130.52502,33.57561],[130.53194,33.57601],[130.54578,33.57893],[130.54832,33.58695],[130.5598,33.59336],[130.56291,33.59332],[130.55814,33.59949]]]},"properties":{"pref":"福岡県","county":"糟屋郡","city":"須恵町","code5":"40344","code6":"403440"}},
{"type":"Feature","geometry":{"type":"MultiPolygon","coordinates":[[[[130.46877,33.67954],[130.47408,33.67597],[130.48856,33.67427],[130.49231,33.67823],[130.50837,33.68699],[130.50501,33.68943],[130.50275,33.69701],[130.50007,33.69743],[130.49151,33.69235],[130.47811,33.69512],[130.4733,33.6938],[130.46728,33.69565],[130.46572,33.70097],[130.46858,33.70787],[130.45912,33.71916],[130.4471,33.72506],[130.43217,33.71612],[130.42064,33.71555],[130.42068,33.71553],[130.41803,33.71255],[130.43057,33.70824],[130.44123,33.69887],[130.44784,33.69782],[130.45014,33.69031],[130.45516,33.67953],[130.46406,33.68285],[130.46877,33.67954]]],[[[130.36355,33.76706],[130.35935,33.76209],[130.3628,33.75503],[130.36748,33.7608],[130.37619,33.75984],[130.37261,33.76475],[130.36355,33.76706]]]]},"properties":{"pref":"福岡県","county":"糟屋郡","city":"新宮町","code5":"40345","code6":"403458"}},
{"type":"Feature","geometry":{"type":"Polygon","coordinates":[[[130.49429,33.6347],[130.49796,33.63489],[130.51579,33.63975],[130.5237,33.63895],[130.52854,33.63628],[130.53602,33.63884],[130.53632,33.64291],[130.54782,33.6472],[130.5491,33.65636],[130.55406,33.65855],[130.56205,33.66575],[130.55131,33.66808],[130.54973,33.67319],[130.54142,33.67638],[130.53976,33.68135],[130.54489,33.69382],[130.54096,33.69835],[130.54199,33.70732],[130.54472,33.71017],[130.53286,33.7098],[130.52157,33.70169],[130.51932,33.69273],[130.50837,33.68699],[130.49231,33.67823],[130.48856,33.67427],[130.47408,33.67597],[130.46877,33.67954],[130.46717,33.6735],[130.46897,33.66713],[130.4796,33.65377],[130.47906,33.64874],[130.49045,33.64939],[130.49454,33.64635],[130.49218,33.64182],[130.49429,33.6347]]]},"properties":{"pref":"福岡県","county":"糟屋郡","city":"久山町","code5":"40348","code6":"403482"}},
{"type":"Feature","geometry":{"type":"Polygon","coordinates":[[[130.44241,33.60668],[130.44867,33.60651],[130.45423,33.60983],[130.45804,33.60967],[130.4644,33.60344],[130.4743,33.59829],[130.47947,33.59281],[130.48257,33.59484],[130.48874,33.59345],[130.49173,33.59691],[130.48917,33.6005],[130.48931,33.60954],[130.49953,33.61493],[130.49921,33.62716],[130.49621,33.62979],[130.49796,33.63489],[130.49429,33.6347],[130.49449,33.63189],[130.4858,33.62679],[130.48249,33.63028],[130.47216,33.6372],[130.46644,33.63081],[130.45967,33.62882],[130.4541,33.62493],[130.45161,33.61886],[130.44109,33.61269],[130.44241,33.60668]]]},"properties":{"pref":"福岡県","county":"糟屋郡","city":"粕屋町","code5":"40349","code6":"403491"}},
{"type":"Feature","geometry":{"type":"Polygon","coordinates":[[[130.6732,33.91868],[130.66214,33.91335],[130.66324,33.90114],[130.65132,33.89219],[130.63564,33.88543],[130.64258,33.88129],[130.64408,33.87707],[130.64333,33.86802],[130.64945,33.87109],[130.65819,33.8704],[130.6665,33.87288],[130.67503,33.88512],[130.67657,33.8905],[130.68167,33.88881],[130.68551,33.89738],[130.67547,33.90678],[130.67796,33.91225],[130.6732,33.91868]]]},"properties":{"pref":"福岡県","county":"遠賀郡","city":"芦屋町","code5":"40381","code6":"403814"}},
{"type":"Feature","geometry":{"type":"Polygon","coordinates":[[[130.68167,33.88881],[130.67657,33.8905],[130.68021,33.85828],[130.68457,33.84532],[130.69127,33.8341],[130.69567,33.83011],[130.70279,33.83494],[130.70165,33.84193],[130.70941,33.83871],[130.71659,33.83735],[130.71846,33.83445],[130.72086,33.83914],[130.71846,33.84415],[130.71247,33.84937],[130.70614,33.85272],[130.70416,33.85761],[130.6933,33.86777],[130.69493,33.87207],[130.69234,33.87831],[130.68777,33.88043],[130.68234,33.88807],[130.68167,33.88881]]]},"properties":{"pref":"福岡県","county":"遠賀郡","city":"水巻町","code5":"40382","code6":"403822"}},
{"type":"Feature","geometry":{"type":"Polygon","coordinates":[[[130.63597,33.81275],[130.64094,33.81321],[130.64414,33.81995],[130.6416,33.82822],[130.64293,33.83337],[130.64852,33.84442],[130.64688,33.84925],[130.63804,33.84987],[130.64172,33.85683],[130.64431,33.86632],[130.64333,33.86802],[130.64408,33.87707],[130.64258,33.88129],[130.63564,33.88543],[130.62966,33.88326],[130.60611,33.87878],[130.59098,33.87784],[130.5771,33.87844],[130.5697,33.88033],[130.56268,33.89016],[130.55096,33.88962],[130.54294,33.88909],[130.54153,33.88438],[130.55232,33.86952],[130.55716,33.86414],[130.56402,33.86379],[130.56965,33.85749],[130.56737,33.85444],[130.57231,33.84538],[130.58237,33.84063],[130.58319,33.83251],[130.58617,33.82424],[130.59163,33.81793],[130.59695,33.81861],[130.6028,33.82328],[130.60849,33.82159],[130.61276,33.82294],[130.62425,33.82073],[130.62937,33.81564],[130.63597,33.81275]]]},"properties":{"pref":"福岡県","county":"遠賀郡","city":"岡垣町","code5":"40383","code6":"403831"}},
{"type":"Feature","geometry":{"type":"Polygon","coordinates":[[[130.69127,33.8341],[130.68457,33.84532],[130.68021,33.85828],[130.67657,33.8905],[130.67503,33.88512],[130.6665,33.87288],[130.65819,33.8704],[130.64945,33.87109],[130.64333,33.86802],[130.64431,33.86632],[130.64172,33.85683],[130.63804,33.84987],[130.64688,33.84925],[130.64852,33.84442],[130.64293,33.83337],[130.6416,33.82822],[130.64414,33.81995],[130.64094,33.81321],[130.63597,33.81275],[130.64142,33.80907],[130.64901,33.80964],[130.65321,33.81587],[130.65799,33.81915],[130.66975,33.81963],[130.66851,33.82326],[130.67521,33.82675],[130.67721,33.83049],[130.68539,33.83062],[130.69127,33.8341]]]},"properties":{"pref":"福岡県","county":"遠賀郡","city":"遠賀町","code5":"40384","code6":"403849"}},
{"type":"Feature","geometry":{"type":"Polygon","coordinates":[[[130.71431,33.73254],[130.71016,33.73032],[130.71072,33.72482],[130.70392,33.72582],[130.69539,33.71964],[130.69672,33.70526],[130.69888,33.70108],[130.69587,33.69885],[130.68056,33.69918],[130.67321,33.69645],[130.67112,33.69108],[130.67768,33.68323],[130.68549,33.68623],[130.69851,33.6854],[130.70322,33.68236],[130.70773,33.68331],[130.7134,33.68813],[130.71483,33.69296],[130.71208,33.70075],[130.72135,33.69978],[130.72603,33.702],[130.72733,33.7066],[130.72478,33.71693],[130.72663,33.71836],[130.72728,33.72921],[130.72409,33.73162],[130.71958,33.72918],[130.71431,33.73254]]]},"properties":{"pref":"福岡県","county":"鞍手郡","city":"小竹町","code5":"40401","code6":"404012"}},
{"type":"Feature","geometry":{"type":"Polygon","coordinates":[[[130.70356,33.80126],[130.70057,33.80647],[130.69233,33.80688],[130.6879,33.81261],[130.68065,33.81109],[130.67879,33.81656],[130.67449,33.82152],[130.66975,33.81963],[130.65799,33.81915],[130.65321,33.81587],[130.64901,33.80964],[130.64142,33.80907],[130.63597,33.81275],[130.63658,33.80656],[130.63318,33.8042],[130.63406,33.80014],[130.63982,33.79062],[130.64488,33.7847],[130.64506,33.78184],[130.6509,33.77208],[130.6493,33.7705],[130.65248,33.76276],[130.65196,33.75073],[130.65528,33.74298],[130.65914,33.73975],[130.66776,33.74051],[130.68425,33.74844],[130.6801,33.76317],[130.6931,33.76775],[130.69844,33.76782],[130.69972,33.77661],[130.69519,33.78461],[130.70046,33.79095],[130.70716,33.79605],[130.70356,33.80126]]]},"properties":{"pref":"福岡県","county":"鞍手郡","city":"鞍手町","code5":"40402","code6":"404021"}},
{"type":"Feature","geometry":{"type":"Polygon","coordinates":[[[130.67222,33.52908],[130.67706,33.53109],[130.68476,33.54171],[130.68651,33.55069],[130.69085,33.55062],[130.6936,33.55746],[130.69226,33.56609],[130.69869,33.56963],[130.70409,33.58196],[130.70515,33.59072],[130.70011,33.59951],[130.691,33.59573],[130.68522,33.59673],[130.68223,33.60241],[130.66999,33.60028],[130.66746,33.59709],[130.65386,33.59551],[130.64916,33.58871],[130.6555,33.58901],[130.65974,33.58695],[130.65643,33.58176],[130.66574,33.57936],[130.66063,33.56676],[130.66368,33.56277],[130.66608,33.55213],[130.67298,33.55431],[130.6777,33.55081],[130.67711,33.54523],[130.67086,33.53876],[130.66934,33.53464],[130.67222,33.52908]]]},"properties":{"pref":"福岡県","county":"嘉穂郡","city":"桂川町","code5":"40421","code6":"404217"}},
{"type":"Feature","geometry":{"type":"Polygon","coordinates":[[[130.62145,33.5061],[130.61001,33.49592],[130.61016,33.49281],[130.60199,33.48914],[130.58902,33.48573],[130.58828,33.48142],[130.58009,33.47273],[130.57156,33.47431],[130.56632,33.47689],[130.56223,33.47356],[130.56202,33.46276],[130.56567,33.45677],[130.57064,33.45266],[130.57557,33.44511],[130.58462,33.44103],[130.57977,33.43697],[130.58602,33.43012],[130.60506,33.41929],[130.60932,33.41231],[130.61631,33.4049],[130.61646,33.40716],[130.62381,33.41227],[130.63599,33.4119],[130.64261,33.42142],[130.64553,33.42336],[130.65102,33.4318],[130.65396,33.4312],[130.65845,33.4362],[130.65919,33.44111],[130.65465,33.44578],[130.64734,33.44813],[130.64939,33.45199],[130.64771,33.45612],[130.64896,33.46106],[130.65316,33.4637],[130.6547,33.47016],[130.65946,33.47306],[130.66592,33.48557],[130.66456,33.49272],[130.66868,33.49809],[130.66238,33.50382],[130.65892,33.50819],[130.65314,33.51095],[130.64214,33.5055],[130.63531,33.50725],[130.62793,33.50451],[130.62145,33.5061]]]},"properties":{"pref":"福岡県","county":"朝倉郡","city":"筑前町","code5":"40447","code6":"404471"}},
{"type":"Feature","geometry":{"type":"Polygon","coordinates":[[[130.79123,33.47099],[130.77966,33.46721],[130.77486,33.45808],[130.76973,33.45267],[130.77727,33.45054],[130.78726,33.4549],[130.79067,33.4537],[130.79796,33.45723],[130.80303,33.45484],[130.81087,33.4581],[130.81822,33.45724],[130.82879,33.44735],[130.8281,33.43997],[130.83407,33.4332],[130.83402,33.42838],[130.83677,33.42093],[130.84242,33.41648],[130.84875,33.41801],[130.85088,33.40944],[130.85412,33.40766],[130.85957,33.39963],[130.85695,33.39295],[130.85864,33.38815],[130.85972,33.37296],[130.86243,33.37666],[130.88584,33.37923],[130.88458,33.38943],[130.88761,33.40446],[130.892,33.40645],[130.88954,33.41518],[130.89253,33.41998],[130.89169,33.42995],[130.89758,33.43855],[130.89492,33.44616],[130.90028,33.44921],[130.89065,33.45266],[130.88802,33.45064],[130.87925,33.45119],[130.87187,33.44972],[130.86428,33.45103],[130.86119,33.44682],[130.85315,33.44768],[130.84624,33.45722],[130.84436,33.46214],[130.83606,33.46837],[130.8363,33.47218],[130.84203,33.47442],[130.8478,33.47934],[130.84283,33.4855],[130.8375,33.48426],[130.82943,33.48821],[130.82139,33.4875],[130.81763,33.48884],[130.81172,33.4873],[130.8083,33.48341],[130.80909,33.47514],[130.80609,33.47187],[130.79388,33.47241],[130.79123,33.47099]]]},"properties":{"pref":"福岡県","county":"朝倉郡","city":"東峰村","code5":"40448","code6":"404489"}},
{"type":"Feature","geometry":{"type":"Polygon","coordinates":[[[130.66679,33.36219],[130.65358,33.3678],[130.65249,33.37379],[130.64733,33.37228],[130.64031,33.37338],[130.64495,33.37933],[130.64592,33.38592],[130.62553,33.39072],[130.62438,33.39438],[130.61773,33.3961],[130.61548,33.39992],[130.61631,33.4049],[130.60932,33.41231],[130.5998,33.41002],[130.59851,33.40319],[130.59307,33.40252],[130.58552,33.38398],[130.58286,33.38305],[130.5781,33.37286],[130.57843,33.36707],[130.60555,33.36749],[130.61175,33.36559],[130.61527,33.36742],[130.6294,33.36687],[130.62743,33.3622],[130.63133,33.35284],[130.64016,33.35847],[130.65059,33.36285],[130.66679,33.36219]]]},"properties":{"pref":"福岡県","county":"三井郡","city":"大刀洗町","code5":"40503","code6":"405035"}},
{"type":"Feature","geometry":{"type":"Polygon","coordinates":[[[130.41239,33.22472],[130.42342,33.22054],[130.41925,33.21145],[130.41875,33.2032],[130.421,33.1998],[130.42034,33.19451],[130.42801,33.19659],[130.43455,33.18662],[130.43517,33.18122],[130.44609,33.18491],[130.45712,33.18578],[130.4595,33.1905],[130.4544,33.1922],[130.45159,33.20484],[130.45808,33.20684],[130.46083,33.22098],[130.4637,33.22411],[130.45851,33.22988],[130.45798,33.23691],[130.44157,33.24424],[130.44225,33.23717],[130.43534,33.23689],[130.43751,33.22892],[130.4255,33.23011],[130.42314,33.22397],[130.41765,33.22611],[130.41239,33.22472]]]},"properties":{"pref":"福岡県","county":"三潴郡","city":"大木町","code5":"40522","code6":"405221"}},
{"type":"Feature","geometry":{"type":"Polygon","coordinates":[[[130.51205,33.25355],[130.51339,33.24763],[130.5086,33.23866],[130.51377,33.23804],[130.51881,33.23123],[130.52442,33.23301],[130.52915,33.23183],[130.53517,33.23394],[130.54498,33.23023],[130.55108,33.23224],[130.56,33.23211],[130.57012,33.23469],[130.5784,33.23523],[130.58654,33.23805],[130.59879,33.24481],[130.603,33.24477],[130.60592,33.23843],[130.6114,33.23668],[130.62326,33.23617],[130.63002,33.23796],[130.63008,33.24583],[130.61924,33.25958],[130.62021,33.26557],[130.61754,33.2705],[130.61675,33.28618],[130.61394,33.28271],[130.60779,33.28043],[130.60211,33.27448],[130.59342,33.27268],[130.58715,33.26862],[130.57978,33.27491],[130.57562,33.27663],[130.56824,33.27379],[130.56611,33.26638],[130.55693,33.26476],[130.54593,33.26015],[130.53455,33.26265],[130.53115,33.25803],[130.51698,33.25833],[130.51287,33.26014],[130.51205,33.25355]]]},"properties":{"pref":"福岡県","county":"八女郡","city":"広川町","code5":"40544","code6":"405442"}},
{"type":"Feature","geometry":{"type":"Polygon","coordinates":[[[130.82202,33.72126],[130.82654,33.71295],[130.82994,33.71142],[130.83104,33.7042],[130.82754,33.69672],[130.82572,33.68797],[130.82759,33.68105],[130.82456,33.66934],[130.82537,33.66472],[130.82949,33.66135],[130.83664,33.66051],[130.83467,33.65628],[130.8298,33.6544],[130.83385,33.64988],[130.84326,33.64481],[130.85585,33.64583],[130.86546,33.64313],[130.86764,33.63999],[130.87595,33.64102],[130.89053,33.64991],[130.88483,33.65225],[130.88229,33.65774],[130.88581,33.66092],[130.88974,33.66906],[130.8825,33.68186],[130.87551,33.68881],[130.87522,33.69385],[130.87844,33.6996],[130.87242,33.70511],[130.86914,33.71507],[130.86978,33.7227],[130.86783,33.73429],[130.86294,33.73637],[130.85518,33.7357],[130.85017,33.73322],[130.84747,33.72591],[130.8446,33.72441],[130.83766,33.7257],[130.82694,33.72381],[130.82202,33.72126]]]},"properties":{"pref":"福岡県","county":"田川郡","city":"香春町","code5":"40601","code6":"406015"}},
{"type":"Feature","geometry":{"type":"Polygon","coordinates":[[[130.81763,33.48884],[130.82139,33.4875],[130.82943,33.48821],[130.8375,33.48426],[130.84283,33.4855],[130.8478,33.47934],[130.84203,33.47442],[130.8363,33.47218],[130.83606,33.46837],[130.84436,33.46214],[130.84624,33.45722],[130.85315,33.44768],[130.86119,33.44682],[130.86428,33.45103],[130.87187,33.44972],[130.87925,33.45119],[130.88802,33.45064],[130.89065,33.45266],[130.90028,33.44921],[130.91053,33.44979],[130.91572,33.4548],[130.92629,33.45762],[130.92925,33.46063],[130.92982,33.4667],[130.94242,33.48564],[130.94988,33.48767],[130.94716,33.49554],[130.93796,33.49922],[130.94022,33.50913],[130.93511,33.51322],[130.93504,33.51977],[130.93121,33.52548],[130.93316,33.53246],[130.92007,33.55185],[130.92203,33.55745],[130.91723,33.56013],[130.9144,33.56473],[130.90576,33.56789],[130.90169,33.57383],[130.88934,33.58056],[130.88398,33.57589],[130.87855,33.57515],[130.8743,33.57156],[130.86806,33.58451],[130.86169,33.5814],[130.85698,33.58364],[130.85612,33.58964],[130.84531,33.58604],[130.83956,33.58745],[130.83634,33.59087],[130.8325,33.58231],[130.83753,33.57855],[130.8387,33.57014],[130.83221,33.56738],[130.8324,33.55427],[130.83019,33.54775],[130.83267,33.54254],[130.83193,33.5342],[130.82704,33.52088],[130.82141,33.51789],[130.81176,33.51542],[130.81034,33.50967],[130.81072,33.50226],[130.81401,33.49314],[130.81763,33.48884]]]},"properties":{"pref":"福岡県","county":"田川郡","city":"添田町","code5":"40602","code6":"406023"}},
{"type":"Feature","geometry":{"type":"Polygon","coordinates":[[[130.75162,33.6438],[130.75799,33.63928],[130.79263,33.65129],[130.79273,33.65613],[130.78781,33.66625],[130.78392,33.67146],[130.77873,33.67054],[130.76616,33.66493],[130.75651,33.66405],[130.76049,33.65432],[130.75386,33.65006],[130.75162,33.6438]]]},"properties":{"pref":"福岡県","county":"田川郡","city":"糸田町","code5":"40604","code6":"406040"}},
{"type":"Feature","geometry":{"type":"Polygon","coordinates":[[[130.78514,33.56831],[130.79229,33.56019],[130.79291,33.55596],[130.80267,33.54723],[130.80369,33.5384],[130.80668,33.53684],[130.80365,33.51739],[130.80404,33.51126],[130.81034,33.50967],[130.81176,33.51542],[130.82141,33.51789],[130.82704,33.52088],[130.83193,33.5342],[130.83267,33.54254],[130.83019,33.54775],[130.8324,33.55427],[130.83221,33.56738],[130.8387,33.57014],[130.83753,33.57855],[130.8325,33.58231],[130.83634,33.59087],[130.84155,33.59855],[130.83662,33.60071],[130.83222,33.6055],[130.82985,33.60987],[130.82396,33.60974],[130.81697,33.61717],[130.7948,33.62307],[130.79363,33.61732],[130.80145,33.61244],[130.79599,33.59942],[130.79974,33.59415],[130.79737,33.58887],[130.79796,33.58236],[130.7929,33.57844],[130.79526,33.57526],[130.78961,33.57305],[130.78514,33.56831]]]},"properties":{"pref":"福岡県","county":"田川郡","city":"川崎町","code5":"40605","code6":"406058"}},
{"type":"Feature","geometry":{"type":"Polygon","coordinates":[[[130.83222,33.6055],[130.83662,33.60071],[130.84155,33.59855],[130.83634,33.59087],[130.83956,33.58745],[130.84531,33.58604],[130.85612,33.58964],[130.85698,33.58364],[130.86169,33.5814],[130.86806,33.58451],[130.87096,33.59128],[130.86369,33.60368],[130.86511,33.60785],[130.85989,33.62068],[130.8592,33.62692],[130.86053,33.63857],[130.85585,33.64583],[130.84326,33.64481],[130.84325,33.64],[130.83762,33.63757],[130.83601,33.63242],[130.8412,33.62724],[130.84595,33.61744],[130.84273,33.61615],[130.83965,33.61061],[130.83222,33.6055]]]},"properties":{"pref":"福岡県","county":"田川郡","city":"大任町","code5":"40608","code6":"406082"}},
{"type":"Feature","geometry":{"type":"Polygon","coordinates":[[[130.85585,33.64583],[130.86053,33.63857],[130.8592,33.62692],[130.85989,33.62068],[130.86511,33.60785],[130.86369,33.60368],[130.87096,33.59128],[130.86806,33.58451],[130.8743,33.57156],[130.87855,33.57515],[130.88398,33.57589],[130.88934,33.58056],[130.90169,33.57383],[130.90576,33.56789],[130.9144,33.56473],[130.91723,33.56013],[130.92203,33.55745],[130.92364,33.56045],[130.92095,33.56519],[130.92218,33.57495],[130.91825,33.58644],[130.91135,33.58949],[130.91131,33.59572],[130.90301,33.60419],[130.90297,33.61032],[130.89801,33.61485],[130.9058,33.62693],[130.90823,33.6367],[130.9026,33.63975],[130.89356,33.63591],[130.89029,33.64148],[130.89263,33.64433],[130.89053,33.64991],[130.87595,33.64102],[130.86764,33.63999],[130.86546,33.64313],[130.85585,33.64583]]]},"properties":{"pref":"福岡県","county":"田川郡","city":"赤村","code5":"40609","code6":"406091"}},
{"type":"Feature","geometry":{"type":"Polygon","coordinates":[[[130.80403,33.74204],[130.79739,33.73904],[130.78858,33.7393],[130.78204,33.72741],[130.77389,33.72517],[130.7733,33.72257],[130.74819,33.7159],[130.74931,33.7111],[130.74709,33.70449],[130.74382,33.70176],[130.74785,33.69959],[130.7551,33.68476],[130.75193,33.68099],[130.75125,33.67389],[130.75423,33.66524],[130.75651,33.66405],[130.76616,33.66493],[130.77873,33.67054],[130.78392,33.67146],[130.78781,33.66625],[130.79238,33.67035],[130.80751,33.67122],[130.80381,33.67999],[130.80684,33.68286],[130.80636,33.69052],[130.81135,33.69458],[130.81934,33.69418],[130.82754,33.69672],[130.83104,33.7042],[130.82994,33.71142],[130.82654,33.71295],[130.82202,33.72126],[130.82093,33.72549],[130.81396,33.72809],[130.81078,33.73351],[130.80564,33.73466],[130.80403,33.74204]]]},"properties":{"pref":"福岡県","county":"田川郡","city":"福智町","code5":"40610","code6":"406104"}},
{"type":"Feature","geometry":{"type":"MultiPolygon","coordinates":[[[[130.91004,33.74888],[130.9287,33.74474],[130.93198,33.74052],[130.94319,33.73969],[130.94347,33.73746],[130.95137,33.73566],[130.95863,33.73844],[130.97553,33.74242],[130.97888,33.74527],[130.98591,33.74121],[131.00417,33.74992],[131.00081,33.75728],[131.01772,33.76799],[131.01169,33.77749],[130.99927,33.76937],[130.99447,33.7749],[131.003,33.78105],[131.00369,33.78333],[130.9983,33.79154],[130.99353,33.79458],[130.99106,33.78913],[130.98693,33.79209],[130.98785,33.79651],[131.00067,33.80178],[131.00445,33.80625],[131.00929,33.80795],[131.01592,33.80362],[131.01929,33.80476],[131.01177,33.81959],[130.98526,33.81026],[130.9813,33.81063],[130.97444,33.80524],[130.96033,33.79079],[130.95772,33.79081],[130.95327,33.78086],[130.94481,33.77783],[130.93374,33.77585],[130.92678,33.77984],[130.91641,33.77492],[130.91662,33.77122],[130.91009,33.76683],[130.91342,33.7567],[130.91004,33.74888]]],[[[131.02928,33.83423],[131.03227,33.81993],[131.04186,33.82126],[131.03899,33.8356],[131.02928,33.83423]]]]},"properties":{"pref":"福岡県","county":"京都郡","city":"苅田町","code5":"40621","code6":"406210"}},
{"type":"Feature","geometry":{"type":"Polygon","coordinates":[[[130.86783,33.73429],[130.86978,33.7227],[130.86914,33.71507],[130.87242,33.70511],[130.87844,33.6996],[130.87522,33.69385],[130.87551,33.68881],[130.8825,33.68186],[130.88974,33.66906],[130.88581,33.66092],[130.88229,33.65774],[130.88483,33.65225],[130.89053,33.64991],[130.89263,33.64433],[130.89029,33.64148],[130.89356,33.63591],[130.9026,33.63975],[130.90823,33.6367],[130.9058,33.62693],[130.89801,33.61485],[130.90297,33.61032],[130.90301,33.60419],[130.91131,33.59572],[130.91135,33.58949],[130.91825,33.58644],[130.92218,33.57495],[130.92095,33.56519],[130.92364,33.56045],[130.92203,33.55745],[130.92007,33.55185],[130.93316,33.53246],[130.93121,33.52548],[130.93504,33.51977],[130.93511,33.51322],[130.94022,33.50913],[130.93796,33.49922],[130.94716,33.49554],[130.94988,33.48767],[130.9561,33.49198],[130.96159,33.49358],[130.96261,33.49769],[130.96969,33.50051],[130.97232,33.50515],[130.98152,33.50776],[130.97133,33.51591],[130.96578,33.52641],[130.96672,33.53823],[130.96508,33.54282],[130.97021,33.54708],[130.96879,33.55037],[130.9736,33.56032],[130.96177,33.56563],[130.9608,33.57206],[130.9627,33.58212],[130.96145,33.5852],[130.96592,33.59408],[130.96886,33.59665],[130.97303,33.61079],[130.98055,33.63003],[130.98345,33.63054],[130.98563,33.6367],[130.99053,33.64133],[130.98798,33.65169],[130.99153,33.65759],[130.98959,33.66108],[131.00234,33.67107],[131.01072,33.67624],[131.00436,33.68112],[131.00331,33.68955],[130.99523,33.69456],[130.98969,33.68899],[130.98405,33.69187],[130.97717,33.68973],[130.9708,33.6912],[130.9694,33.68695],[130.96496,33.68653],[130.95506,33.67819],[130.94103,33.67713],[130.93417,33.67214],[130.92619,33.67222],[130.93024,33.69464],[130.92878,33.69947],[130.93862,33.71117],[130.93125,33.71957],[130.92063,33.71845],[130.91388,33.72099],[130.91215,33.71166],[130.90598,33.7139],[130.90394,33.71998],[130.89875,33.72168],[130.89434,33.73414],[130.89177,33.73542],[130.88946,33.74246],[130.87819,33.74171],[130.86783,33.73429]]]},"properties":{"pref":"福岡県","county":"京都郡","city":"みやこ町","code5":"40625","code6":"406252"}},
{"type":"Feature","geometry":{"type":"Polygon","coordinates":[[[131.15665,33.59825],[131.165,33.59522],[131.1664,33.58895],[131.1727,33.58842],[131.17838,33.59682],[131.17792,33.60482],[131.18557,33.61685],[131.18479,33.62042],[131.17869,33.62126],[131.16619,33.61692],[131.16007,33.60755],[131.15291,33.60223],[131.15665,33.59825]]]},"properties":{"pref":"福岡県","county":"築上郡","city":"吉富町","code5":"40642","code6":"406422"}},
{"type":"Feature","geometry":{"type":"Polygon","coordinates":[[[131.06765,33.50906],[131.06974,33.50679],[131.07965,33.50535],[131.0937,33.50737],[131.10053,33.50476],[131.10551,33.50776],[131.11897,33.50208],[131.13019,33.50242],[131.13363,33.50577],[131.14158,33.50464],[131.15466,33.50607],[131.16316,33.50846],[131.16716,33.50559],[131.17595,33.50656],[131.17414,33.51262],[131.16806,33.51615],[131.16971,33.52116],[131.16671,33.52871],[131.17675,33.5344],[131.1869,33.54404],[131.19057,33.55803],[131.18616,33.56786],[131.17602,33.57472],[131.17316,33.57824],[131.1727,33.58842],[131.1664,33.58895],[131.165,33.59522],[131.15665,33.59825],[131.15191,33.59047],[131.131,33.57937],[131.12809,33.574],[131.1218,33.56762],[131.11862,33.55706],[131.10966,33.5431],[131.09343,33.53565],[131.09456,33.53117],[131.09084,33.52477],[131.08214,33.51877],[131.07641,33.5177],[131.06765,33.50906]]]},"properties":{"pref":"福岡県","county":"築上郡","city":"上毛町","code5":"40646","code6":"406465"}},
{"type":"Feature","geometry":{"type":"Polygon","coordinates":[[[131.01072,33.67624],[131.00234,33.67107],[130.98959,33.66108],[130.99153,33.65759],[130.98798,33.65169],[130.99053,33.64133],[130.98563,33.6367],[130.98345,33.63054],[130.98055,33.63003],[130.97303,33.61079],[130.96886,33.59665],[130.96592,33.59408],[130.96145,33.5852],[130.9627,33.58212],[130.9608,33.57206],[130.96177,33.56563],[130.9736,33.56032],[130.96879,33.55037],[130.97021,33.54708],[130.96508,33.54282],[130.96672,33.53823],[130.96578,33.52641],[130.97133,33.51591],[130.98152,33.50776],[130.98995,33.50914],[130.99016,33.51743],[130.99448,33.52708],[131.01069,33.54011],[131.00947,33.5438],[131.01222,33.54898],[131.01212,33.55358],[131.02399,33.56412],[131.02925,33.565],[131.03583,33.57309],[131.04557,33.58717],[131.04869,33.59575],[131.05555,33.60273],[131.06615,33.60949],[131.07687,33.62393],[131.08226,33.6262],[131.08666,33.63445],[131.084,33.63676],[131.08035,33.64805],[131.07274,33.65653],[131.06734,33.65882],[131.06579,33.66504],[131.06191,33.6723],[131.05933,33.67309],[131.05154,33.68614],[131.04579,33.68909],[131.04588,33.68497],[131.03676,33.67981],[131.02982,33.67942],[131.02287,33.68347],[131.01072,33.67624]]]},"properties":{"pref":"福岡県","county":"築上郡","city":"築上町","code5":"40647","code6":"406473"}},
{"type":"Feature","geometry":{"type":"MultiPolygon","coordinates":[[[[130.9813,33.81063],[130.98007,33.81186],[130.96656,33.8095],[130.96255,33.81967],[130.95684,33.82936],[130.96038,33.83904],[130.96322,33.83839],[130.9632,33.83817],[130.97622,33.83437],[130.97742,33.84444],[130.983,33.84556],[130.98794,33.85083],[130.99344,33.85103],[130.99822,33.86832],[130.98874,33.86871],[130.98688,33.87229],[130.98661,33.88146],[130.99054,33.88563],[130.9952,33.88506],[130.99402,33.87515],[130.99975,33.87365],[131.00403,33.88954],[131.00203,33.89209],[130.99087,33.89577],[130.98863,33.90033],[130.99365,33.90232],[131.00443,33.904],[131.00191,33.9096],[131.00523,33.91529],[131.01322,33.91582],[131.01456,33.91927],[131.00884,33.92303],[131.00518,33.92132],[131.00141,33.92455],[131.01061,33.93032],[131.00797,33.93426],[131.01077,33.94189],[131.02109,33.94187],[131.02195,33.94681],[131.02195,33.94683],[131.0184,33.94896],[131.02264,33.9552],[131.02364,33.95986],[131.01085,33.96546],[131.00518,33.96519],[131.00216,33.96988],[130.99224,33.96175],[130.97449,33.95907],[130.97081,33.96146],[130.96301,33.9622],[130.96165,33.95669],[130.96243,33.94766],[130.95459,33.9421],[130.94624,33.93838],[130.94244,33.93175],[130.93942,33.92266],[130.93189,33.90784],[130.91709,33.8961],[130.91507,33.89578],[130.90548,33.89421],[130.90116,33.89076],[130.8947,33.89214],[130.89208,33.8881],[130.8878,33.88849],[130.88811,33.89342],[130.89305,33.89627],[130.88779,33.90206],[130.87357,33.89713],[130.87104,33.89938],[130.88417,33.90518],[130.87181,33.91598],[130.85115,33.90656],[130.85202,33.91007],[130.86913,33.9175],[130.86659,33.9205],[130.85049,33.91492],[130.84829,33.91932],[130.85994,33.92359],[130.85665,33.92622],[130.85503,33.92949],[130.845,33.9279],[130.82476,33.92052],[130.82156,33.91082],[130.82271,33.90362],[130.81582,33.89974],[130.81606,33.89735],[130.80575,33.89171],[130.80688,33.88485],[130.80878,33.87877],[130.80581,33.87558],[130.80012,33.87544],[130.80475,33.88162],[130.8036,33.89059],[130.79735,33.88561],[130.78489,33.8827],[130.78228,33.87819],[130.78232,33.882],[130.74986,33.87394],[130.74444,33.88774],[130.75033,33.87929],[130.75371,33.87818],[130.7838,33.88592],[130.78547,33.89086],[130.7958,33.89038],[130.80029,33.89271],[130.80746,33.89974],[130.81433,33.90218],[130.81857,33.92296],[130.80734,33.93124],[130.78624,33.93357],[130.78617,33.93358],[130.77751,33.93427],[130.77532,33.92718],[130.75708,33.92036],[130.75506,33.9204],[130.75158,33.92324],[130.7688,33.92912],[130.76879,33.93395],[130.7601,33.93393],[130.76008,33.93961],[130.76879,33.94063],[130.76869,33.94731],[130.7526,33.94525],[130.75261,33.93916],[130.74304,33.93881],[130.73967,33.93422],[130.73801,33.92701],[130.73247,33.92892],[130.72909,33.93437],[130.72234,33.93466],[130.71735,33.93758],[130.70166,33.93857],[130.69479,33.93758],[130.68741,33.93443],[130.68273,33.93739],[130.68559,33.93222],[130.68239,33.92427],[130.6732,33.91868],[130.67796,33.91225],[130.67547,33.90678],[130.68551,33.89738],[130.68167,33.88881],[130.68234,33.88807],[130.68777,33.88043],[130.69234,33.87831],[130.69493,33.87207],[130.6933,33.86777],[130.70416,33.85761],[130.70614,33.85272],[130.71247,33.84937],[130.71846,33.84415],[130.72086,33.83914],[130.71846,33.83445],[130.7288,33.83069],[130.72971,33.82535],[130.7338,33.82247],[130.74285,33.82001],[130.74307,33.81608],[130.73111,33.81258],[130.72527,33.80327],[130.72174,33.80658],[130.71655,33.8073],[130.7067,33.8044],[130.70356,33.80126],[130.70716,33.79605],[130.714,33.78763],[130.72068,33.77418],[130.72971,33.77443],[130.73814,33.77056],[130.746,33.77211],[130.75738,33.76947],[130.76812,33.77728],[130.76664,33.78239],[130.77295,33.78647],[130.78456,33.78517],[130.7886,33.77985],[130.79485,33.78028],[130.79942,33.77679],[130.80243,33.77055],[130.7994,33.76519],[130.80222,33.7587],[130.80213,33.75112],[130.80488,33.74981],[130.80403,33.74204],[130.80564,33.73466],[130.81078,33.73351],[130.81396,33.72809],[130.82093,33.72549],[130.82202,33.72126],[130.82694,33.72381],[130.83766,33.7257],[130.8446,33.72441],[130.84747,33.72591],[130.85017,33.73322],[130.85518,33.7357],[130.86294,33.73637],[130.86783,33.73429],[130.87819,33.74171],[130.88946,33.74246],[130.89177,33.73542],[130.89434,33.73414],[130.89866,33.74707],[130.90226,33.75321],[130.90723,33.746],[130.91004,33.74888],[130.91342,33.7567],[130.91009,33.76683],[130.91662,33.77122],[130.91641,33.77492],[130.92678,33.77984],[130.93374,33.77585],[130.94481,33.77783],[130.95327,33.78086],[130.95772,33.79081],[130.96033,33.79079],[130.97444,33.80524],[130.9813,33.81063]]],[[[130.77742,33.94608],[130.77743,33.94048],[130.78414,33.94051],[130.78422,33.93499],[130.80985,33.93267],[130.81452,33.93422],[130.82226,33.93037],[130.84505,33.93924],[130.83229,33.94984],[130.81432,33.94344],[130.80865,33.9492],[130.79971,33.94611],[130.77742,33.94608]]],[[[130.72548,34.01906],[130.72212,34.01664],[130.72431,34.01204],[130.72871,34.00872],[130.73166,34.0162],[130.72548,34.01906]]],[[[131.03899,33.8356],[131.03433,33.85803],[131.02465,33.85666],[131.02928,33.83423],[131.03899,33.8356]]]]},"properties":{"pref":"福岡県","city":"北九州市","code5":"40100","code6":"401005"}},
{"type":"Feature","geometry":{"type":"MultiPolygon","coordinates":[[[[130.41803,33.71255],[130.418,33.71255],[130.41694,33.7093],[130.417,33.70859],[130.4161,33.70594],[130.41629,33.70283],[130.39966,33.68724],[130.38693,33.67879],[130.36728,33.66921],[130.35304,33.66577],[130.34627,33.66188],[130.33541,33.66039],[130.32496,33.66014],[130.33385,33.64934],[130.33935,33.65195],[130.35008,33.64845],[130.35449,33.64427],[130.359,33.64854],[130.36031,33.65828],[130.3684,33.66512],[130.39846,33.67099],[130.40508,33.67467],[130.40351,33.68108],[130.41814,33.6863],[130.4305,33.68679],[130.43279,33.67952],[130.42561,33.67496],[130.43448,33.66224],[130.43253,33.65902],[130.42552,33.6606],[130.40502,33.65217],[130.41344,33.64798],[130.42178,33.64671],[130.42053,33.64121],[130.41131,33.64374],[130.40736,33.64246],[130.4041,33.63443],[130.40545,33.62891],[130.39964,33.61364],[130.39595,33.6102],[130.40203,33.60504],[130.39696,33.60337],[130.39452,33.60234],[130.38997,33.60978],[130.3847,33.60751],[130.38827,33.60168],[130.39321,33.5973],[130.38567,33.59417],[130.38126,33.60271],[130.37362,33.60509],[130.36908,33.60158],[130.35649,33.59662],[130.35289,33.59515],[130.34316,33.59574],[130.33211,33.5975],[130.32733,33.59367],[130.32335,33.59849],[130.31362,33.59806],[130.3119,33.58793],[130.30381,33.58342],[130.2926,33.58012],[130.28644,33.58313],[130.28566,33.58233],[130.27995,33.58091],[130.27295,33.58262],[130.26491,33.58988],[130.26001,33.59123],[130.25187,33.59666],[130.25072,33.59993],[130.26253,33.60278],[130.26603,33.59733],[130.27076,33.59615],[130.27507,33.60975],[130.27362,33.61137],[130.27177,33.61202],[130.27165,33.61219],[130.27162,33.61219],[130.27108,33.61209],[130.27021,33.61232],[130.2691,33.61264],[130.26904,33.61264],[130.26903,33.61265],[130.2689,33.61265],[130.26609,33.61274],[130.26207,33.6108],[130.24661,33.61169],[130.23788,33.61379],[130.23222,33.61853],[130.23231,33.61866],[130.23244,33.6188],[130.23233,33.61896],[130.22939,33.62406],[130.22942,33.62407],[130.23025,33.62646],[130.22488,33.63207],[130.22454,33.6349],[130.22467,33.63498],[130.22912,33.63867],[130.22904,33.64205],[130.2364,33.64756],[130.23641,33.64755],[130.23703,33.64859],[130.23643,33.64966],[130.23641,33.64967],[130.23506,33.65031],[130.23113,33.65518],[130.22985,33.65573],[130.22984,33.65573],[130.22982,33.65579],[130.2237,33.65864],[130.21862,33.66165],[130.21723,33.66286],[130.2132,33.66477],[130.21012,33.66746],[130.20744,33.66604],[130.20744,33.66603],[130.20689,33.66559],[130.2067,33.66516],[130.20717,33.65925],[130.20716,33.65903],[130.20712,33.65836],[130.20711,33.65827],[130.20724,33.65731],[130.20922,33.65352],[130.20658,33.64657],[130.20025,33.64516],[130.19784,33.63975],[130.20398,33.63524],[130.20674,33.62854],[130.20497,33.62271],[130.20596,33.60954],[130.21012,33.60605],[130.20972,33.59655],[130.21179,33.58898],[130.21919,33.58056],[130.2267,33.58139],[130.23771,33.58044],[130.24107,33.57308],[130.23666,33.56643],[130.23938,33.5589],[130.23627,33.55536],[130.24043,33.55173],[130.24522,33.5577],[130.24974,33.55604],[130.25452,33.55781],[130.25751,33.55523],[130.26558,33.55656],[130.26644,33.55001],[130.27758,33.54403],[130.28381,33.53953],[130.28865,33.53864],[130.28925,33.53132],[130.28731,33.52625],[130.29221,33.51907],[130.2918,33.51301],[130.28561,33.50707],[130.27951,33.50666],[130.27789,33.50161],[130.27189,33.49511],[130.27602,33.48948],[130.27269,33.48818],[130.27211,33.47935],[130.27671,33.47888],[130.28825,33.46961],[130.29119,33.46942],[130.29588,33.46355],[130.30326,33.4613],[130.31112,33.46198],[130.31378,33.4581],[130.31966,33.45873],[130.335,33.45037],[130.33637,33.44523],[130.33975,33.44461],[130.34543,33.44502],[130.35579,33.43324],[130.36349,33.4349],[130.37058,33.43321],[130.3753,33.4302],[130.37822,33.42496],[130.38739,33.42812],[130.39119,33.42608],[130.39616,33.42741],[130.39599,33.44026],[130.40312,33.43808],[130.40438,33.4406],[130.39887,33.44528],[130.39935,33.44879],[130.38796,33.4548],[130.38581,33.4621],[130.38802,33.46646],[130.38127,33.48038],[130.38142,33.48712],[130.37838,33.49749],[130.37123,33.50477],[130.3772,33.5082],[130.38206,33.50553],[130.3859,33.5071],[130.39616,33.5071],[130.39844,33.51307],[130.40394,33.51357],[130.40392,33.5185],[130.41076,33.52226],[130.41658,33.52349],[130.42073,33.52779],[130.4268,33.53039],[130.42836,33.52267],[130.43405,33.52291],[130.43581,33.52892],[130.44302,33.53323],[130.43964,33.54291],[130.44606,33.54773],[130.45217,33.54882],[130.46339,33.53584],[130.46893,33.53789],[130.47111,33.5441],[130.46842,33.5478],[130.46931,33.55302],[130.46217,33.5607],[130.46671,33.56279],[130.4737,33.55317],[130.47784,33.55253],[130.48567,33.56019],[130.48564,33.56028],[130.47728,33.56721],[130.47938,33.57259],[130.47753,33.57772],[130.46928,33.58712],[130.46345,33.59128],[130.45924,33.59688],[130.4555,33.59617],[130.45064,33.60239],[130.44228,33.60639],[130.44241,33.60668],[130.44109,33.61269],[130.45161,33.61886],[130.4541,33.62493],[130.45967,33.62882],[130.46644,33.63081],[130.47216,33.6372],[130.48249,33.63028],[130.4858,33.62679],[130.49449,33.63189],[130.49429,33.6347],[130.49218,33.64182],[130.49454,33.64635],[130.49045,33.64939],[130.47906,33.64874],[130.4796,33.65377],[130.46897,33.66713],[130.46717,33.6735],[130.46877,33.67954],[130.46406,33.68285],[130.45516,33.67953],[130.45014,33.69031],[130.44784,33.69782],[130.44123,33.69887],[130.43057,33.70824],[130.41803,33.71255]]],[[[130.29955,33.68932],[130.2966,33.689],[130.29006,33.68771],[130.28704,33.68095],[130.28617,33.67995],[130.28909,33.67737],[130.28975,33.67181],[130.29443,33.66417],[130.29659,33.66313],[130.29659,33.66318],[130.298,33.66142],[130.29847,33.66046],[130.2987,33.66025],[130.30096,33.66004],[130.30783,33.65922],[130.31606,33.66162],[130.3134,33.66885],[130.31343,33.66923],[130.3135,33.67042],[130.3135,33.67048],[130.31355,33.67099],[130.31353,33.67129],[130.31166,33.67542],[130.31065,33.67753],[130.31001,33.67848],[130.3084,33.67964],[130.30748,33.68156],[130.30744,33.68156],[130.30663,33.68295],[130.30661,33.68318],[130.30651,33.68353],[130.30561,33.68553],[130.30332,33.68751],[130.29955,33.68932]]],[[[130.42112,33.67533],[130.41577,33.67522],[130.40172,33.66735],[130.39426,33.66216],[130.39817,33.65552],[130.41408,33.6614],[130.4175,33.6583],[130.42617,33.66187],[130.42818,33.6652],[130.42494,33.67191],[130.42112,33.67533]]],[[[130.2906,33.68921],[130.29033,33.68919],[130.28963,33.68876],[130.28955,33.68869],[130.2906,33.68921]]],[[[130.31408,33.61526],[130.31423,33.61564],[130.31413,33.61564],[130.31334,33.62043],[130.31355,33.62287],[130.30759,33.62989],[130.30786,33.63261],[130.30721,33.63554],[130.30718,33.63557],[130.30495,33.63744],[130.30342,33.63804],[130.30272,33.63824],[130.30262,33.63826],[130.30259,33.63827],[130.30258,33.63829],[130.30258,33.63826],[130.30159,33.63827],[130.30026,33.63765],[130.30001,33.63744],[130.3,33.63743],[130.29985,33.63725],[130.2992,33.63659],[130.29915,33.63656],[130.29814,33.63465],[130.298,33.63158],[130.2986,33.62899],[130.29891,33.62791],[130.29892,33.62788],[130.29758,33.62006],[130.29499,33.61771],[130.29783,33.60865],[130.30116,33.60702],[130.30768,33.60849],[130.31408,33.61513],[130.31405,33.61525],[130.31406,33.61526],[130.31408,33.61526]]],[[[130.2376,33.68847],[130.23491,33.69303],[130.22889,33.6946],[130.22429,33.69188],[130.22446,33.69104],[130.22453,33.69097],[130.22725,33.68661],[130.2328,33.6827],[130.23759,33.68699],[130.23764,33.68705],[130.23771,33.68712],[130.23774,33.68727],[130.23779,33.68751],[130.23759,33.68846],[130.2376,33.68847]]],[[[130.03666,33.87387],[130.03625,33.87391],[130.03568,33.87393],[130.03476,33.87326],[130.03471,33.87313],[130.03471,33.87208],[130.03472,33.87201],[130.03432,33.86981],[130.03421,33.86956],[130.03412,33.86911],[130.03349,33.86774],[130.03298,33.86668],[130.03876,33.86504],[130.03711,33.87248],[130.03716,33.87259],[130.03666,33.87387]]],[[[130.21979,33.69628],[130.21891,33.69683],[130.21895,33.69573],[130.21929,33.69559],[130.21979,33.69628]]],[[[130.23139,33.69845],[130.23117,33.69828],[130.23186,33.69822],[130.23181,33.69828],[130.23152,33.69834],[130.2315,33.69836],[130.23139,33.69845]]],[[[130.31408,33.61526],[130.31409,33.61524],[130.3141,33.61526],[130.31408,33.61526]]],[[[130.31413,33.61521],[130.31414,33.6152],[130.31415,33.61519],[130.31416,33.6152],[130.31415,33.61521],[130.31413,33.61521]]],[[[130.31426,33.61507],[130.31426,33.61509],[130.31425,33.61508],[130.31426,33.61507]]],[[[130.31426,33.61507],[130.31426,33.61505],[130.31427,33.61505],[130.31427,33.61507],[130.31426,33.61507]]],[[[130.31418,33.61514],[130.31418,33.61517],[130.31415,33.61519],[130.31416,33.61517],[130.31417,33.61515],[130.31418,33.61514]]],[[[130.31426,33.61509],[130.31426,33.61511],[130.31425,33.6151],[130.31426,33.61509]]],[[[130.31418,33.61514],[130.3142,33.61513],[130.3142,33.61515],[130.31418,33.61514]]],[[[130.31422,33.61512],[130.31423,33.61513],[130.31421,33.61513],[130.31421,33.61512],[130.31422,33.61512]]],[[[130.31413,33.61521],[130.31412,33.6152],[130.31413,33.61519],[130.31413,33.61521]]]]},"properties":{"pref":"福岡県","city":"福岡市","code5":"40130","code6":"401307"}}
]}