{"type":"FeatureCollection", "features": [
{"type":"Feature","geometry":{"type":"Polygon","coordinates":[[[130.27211,33.47935],[130.2575,33.47607],[130.25237,33.47096],[130.24641,33.47146],[130.2442,33.47441],[130.23823,33.47403],[130.23343,33.47887],[130.2268,33.4767],[130.22334,33.47828],[130.20559,33.4814],[130.19795,33.47934],[130.19453,33.47611],[130.18867,33.4747],[130.18863,33.47082],[130.1828,33.46665],[130.17593,33.46592],[130.16879,33.46765],[130.17,33.46337],[130.1658,33.45891],[130.16521,33.45367],[130.16933,33.45151],[130.16814,33.44517],[130.16794,33.43159],[130.16374,33.42347],[130.1578,33.42209],[130.15953,33.41585],[130.1702,33.41499],[130.16483,33.40957],[130.15645,33.40934],[130.15539,33.40583],[130.15772,33.40064],[130.15423,33.39261],[130.14863,33.38889],[130.14138,33.38105],[130.13943,33.3722],[130.14461,33.36445],[130.14574,33.35203],[130.14089,33.34647],[130.14281,33.33888],[130.16147,33.3403],[130.16826,33.33785],[130.17881,33.33888],[130.18207,33.34088],[130.19477,33.34186],[130.21014,33.34062],[130.22168,33.33494],[130.22555,33.32875],[130.22383,33.32044],[130.22664,33.3137],[130.23245,33.30887],[130.23474,33.29626],[130.23759,33.29448],[130.2447,33.2727],[130.24366,33.26735],[130.24448,33.25297],[130.23562,33.25241],[130.23477,33.25684],[130.22972,33.25646],[130.21959,33.2519],[130.21857,33.24644],[130.22339,33.24021],[130.22141,33.22927],[130.22509,33.22501],[130.22983,33.21502],[130.22824,33.21097],[130.22933,33.20398],[130.23459,33.20419],[130.23495,33.19811],[130.2311,33.19788],[130.22982,33.19288],[130.23121,33.19214],[130.23345,33.19421],[130.24672,33.19174],[130.24643,33.2029],[130.25396,33.20252],[130.25558,33.19708],[130.25133,33.19018],[130.25999,33.17999],[130.27858,33.16889],[130.27877,33.1638],[130.28573,33.16169],[130.28397,33.15602],[130.28852,33.14669],[130.30639,33.14606],[130.34077,33.14146],[130.35578,33.14036],[130.35593,33.15382],[130.35214,33.1708],[130.35312,33.18046],[130.34706,33.18196],[130.34055,33.18845],[130.3397,33.20502],[130.34268,33.20828],[130.35503,33.20923],[130.36206,33.2152],[130.37617,33.21992],[130.37884,33.22215],[130.37905,33.22918],[130.37065,33.23609],[130.37013,33.23976],[130.37394,33.24436],[130.37369,33.25725],[130.3616,33.25714],[130.35011,33.25602],[130.34993,33.25009],[130.34363,33.2499],[130.34224,33.25291],[130.34353,33.25985],[130.34063,33.269],[130.34059,33.27846],[130.33839,33.29061],[130.33566,33.29762],[130.34234,33.29891],[130.34256,33.30695],[130.33662,33.32921],[130.33762,33.33338],[130.33114,33.35649],[130.32401,33.36023],[130.30951,33.35859],[130.30467,33.3518],[130.29781,33.35766],[130.30019,33.35957],[130.29233,33.36473],[130.28885,33.36901],[130.29313,33.37191],[130.2936,33.37914],[130.28745,33.38251],[130.28186,33.37964],[130.27597,33.38243],[130.27377,33.38691],[130.27652,33.39216],[130.27549,33.39804],[130.27858,33.40266],[130.29445,33.40352],[130.29835,33.40929],[130.30751,33.41299],[130.31267,33.41176],[130.3202,33.42058],[130.32739,33.42247],[130.33073,33.43467],[130.33401,33.44032],[130.33974,33.44103],[130.33975,33.44461],[130.33637,33.44523],[130.335,33.45037],[130.31966,33.45873],[130.31378,33.4581],[130.31112,33.46198],[130.30326,33.4613],[130.29588,33.46355],[130.29119,33.46942],[130.28825,33.46961],[130.27671,33.47888],[130.27211,33.47935]]]},"properties":{"pref":"佐賀県","city":"佐賀市","code5":"41201","code6":"412015"}},
{"type":"Feature","geometry":{"type":"MultiPolygon","coordinates":[[[[130.03902,33.47001],[130.03642,33.46182],[130.04133,33.45614],[130.03892,33.45338],[130.02665,33.44761],[130.01615,33.44609],[130.00247,33.44639],[129.99145,33.44846],[129.97851,33.45516],[129.97052,33.45492],[129.96658,33.45659],[129.96612,33.46109],[129.95997,33.46871],[129.96708,33.46988],[129.97115,33.47547],[129.96522,33.48318],[129.95966,33.48313],[129.95663,33.47618],[129.94771,33.47244],[129.94249,33.47456],[129.93742,33.48164],[129.94417,33.48381],[129.94636,33.48754],[129.94396,33.49303],[129.95833,33.50584],[129.96473,33.50576],[129.96929,33.51146],[129.96049,33.51456],[129.95706,33.51751],[129.9582,33.52104],[129.95275,33.52968],[129.94594,33.52837],[129.92949,33.53695],[129.93063,33.54525],[129.92847,33.54602],[129.91935,33.54212],[129.91414,33.54238],[129.90105,33.54544],[129.89765,33.54924],[129.89092,33.54609],[129.89477,33.53985],[129.89185,33.53773],[129.89103,33.54164],[129.8861,33.54167],[129.88263,33.53591],[129.88225,33.52316],[129.87761,33.53669],[129.87324,33.53617],[129.86576,33.53931],[129.86494,33.54186],[129.85842,33.5438],[129.85803,33.55142],[129.8514,33.55347],[129.84729,33.54744],[129.84807,33.53788],[129.85645,33.5332],[129.85115,33.52341],[129.84807,33.52227],[129.84883,33.51562],[129.85686,33.51141],[129.86915,33.50873],[129.87691,33.50132],[129.88166,33.50148],[129.88898,33.49215],[129.89684,33.48986],[129.90167,33.48167],[129.90458,33.47057],[129.89633,33.46741],[129.89795,33.4614],[129.89433,33.45837],[129.88751,33.44614],[129.88639,33.44101],[129.88054,33.44093],[129.87909,33.43267],[129.87191,33.43093],[129.87003,33.43525],[129.86092,33.4347],[129.85853,33.43881],[129.86279,33.44594],[129.85846,33.44822],[129.85151,33.44725],[129.84327,33.4449],[129.84163,33.44939],[129.83494,33.45084],[129.83892,33.45837],[129.83737,33.46427],[129.82603,33.46842],[129.82365,33.47356],[129.82661,33.47931],[129.81547,33.48341],[129.81284,33.47949],[129.80643,33.48566],[129.80382,33.47907],[129.79994,33.47458],[129.79378,33.47229],[129.79851,33.46363],[129.80621,33.46192],[129.80841,33.45881],[129.80352,33.455],[129.79048,33.45908],[129.78449,33.45603],[129.78329,33.45068],[129.79143,33.44236],[129.79569,33.44374],[129.80177,33.44042],[129.80275,33.43612],[129.81163,33.43513],[129.81541,33.42705],[129.81891,33.42447],[129.82499,33.42401],[129.82213,33.41444],[129.8238,33.41189],[129.83315,33.41398],[129.84726,33.40579],[129.85998,33.40658],[129.86408,33.41066],[129.86866,33.40095],[129.86578,33.39863],[129.86501,33.39319],[129.86819,33.39321],[129.87631,33.3872],[129.88369,33.39063],[129.8803,33.39655],[129.88187,33.40738],[129.89089,33.40626],[129.90424,33.41183],[129.90554,33.40694],[129.91315,33.40273],[129.92047,33.39305],[129.91492,33.37822],[129.9259,33.35755],[129.93011,33.35726],[129.93588,33.34746],[129.94422,33.34482],[129.94703,33.33803],[129.95021,33.33524],[129.9544,33.32352],[129.95977,33.32856],[129.95525,33.34161],[129.95609,33.3462],[129.96279,33.34629],[129.9678,33.33616],[129.97529,33.33139],[129.97911,33.33067],[129.98209,33.32641],[129.98903,33.32549],[129.9933,33.32704],[129.99947,33.3209],[130.00906,33.31531],[130.00822,33.30851],[130.00954,33.30278],[130.01518,33.29398],[130.0206,33.29118],[130.02542,33.28303],[130.02763,33.28084],[130.03451,33.27759],[130.04496,33.28611],[130.05424,33.2884],[130.05936,33.29182],[130.06332,33.29722],[130.074,33.29977],[130.08235,33.30667],[130.08611,33.31223],[130.09778,33.31444],[130.11222,33.32522],[130.11677,33.3269],[130.11979,33.33325],[130.12747,33.33976],[130.14281,33.33888],[130.14089,33.34647],[130.14574,33.35203],[130.14461,33.36445],[130.13943,33.3722],[130.14138,33.38105],[130.14863,33.38889],[130.15423,33.39261],[130.15772,33.40064],[130.15539,33.40583],[130.15645,33.40934],[130.16483,33.40957],[130.1702,33.41499],[130.15953,33.41585],[130.1578,33.42209],[130.16374,33.42347],[130.16794,33.43159],[130.16814,33.44517],[130.16933,33.45151],[130.16521,33.45367],[130.1658,33.45891],[130.17,33.46337],[130.16879,33.46765],[130.15677,33.47672],[130.1485,33.47729],[130.1388,33.47044],[130.12974,33.47555],[130.11799,33.47506],[130.10313,33.47589],[130.09842,33.46984],[130.08892,33.46867],[130.07355,33.46915],[130.06807,33.4725],[130.0606,33.47036],[130.05062,33.46935],[130.04492,33.46744],[130.03902,33.47001]]],[[[129.76066,33.58267],[129.75396,33.57781],[129.7475,33.58259],[129.7402,33.57286],[129.75036,33.56894],[129.75536,33.56388],[129.76293,33.56369],[129.76599,33.56894],[129.77303,33.57199],[129.77352,33.57539],[129.76868,33.58206],[129.76066,33.58267]]],[[[129.86295,33.61767],[129.8524,33.607],[129.84814,33.59935],[129.85179,33.59504],[129.86482,33.58797],[129.86676,33.59711],[129.86223,33.59685],[129.85948,33.60335],[129.86232,33.60624],[129.86489,33.61479],[129.86295,33.61767]]],[[[129.88101,33.56759],[129.87388,33.55945],[129.87583,33.55074],[129.87349,33.54432],[129.88106,33.54451],[129.89046,33.55221],[129.88994,33.55819],[129.88101,33.56759]]],[[[129.97376,33.54357],[129.96464,33.52917],[129.96688,33.52721],[129.974,33.52867],[129.97762,33.53348],[129.97801,33.53843],[129.97376,33.54357]]],[[[129.9032,33.59992],[129.89866,33.60339],[129.89382,33.6006],[129.89327,33.59752],[129.89379,33.59683],[129.89424,33.5951],[129.89406,33.59495],[129.89734,33.59427],[129.9032,33.59992]]],[[[129.99167,33.48034],[129.98522,33.478],[129.98647,33.47337],[129.99424,33.47285],[129.99167,33.48034]]],[[[129.84165,33.59037],[129.83686,33.5896],[129.83516,33.58573],[129.84414,33.58486],[129.8478,33.59038],[129.84371,33.59173],[129.84165,33.59037]]],[[[129.88101,33.56759],[129.88105,33.56767],[129.88103,33.56769],[129.88102,33.56769],[129.88101,33.56759]]]]},"properties":{"pref":"佐賀県","city":"唐津市","code5":"41202","code6":"412023"}},
{"type":"Feature","geometry":{"type":"Polygon","coordinates":[[[130.53598,33.34296],[130.54026,33.36522],[130.54196,33.36634],[130.54182,33.39425],[130.53872,33.40328],[130.52961,33.40285],[130.52694,33.41112],[130.52001,33.41151],[130.50763,33.40868],[130.50183,33.40568],[130.49259,33.40969],[130.48828,33.41343],[130.48395,33.42013],[130.47804,33.4238],[130.46778,33.4273],[130.46237,33.42792],[130.46141,33.42824],[130.45801,33.42501],[130.45826,33.41998],[130.44668,33.41858],[130.44221,33.41563],[130.44123,33.4102],[130.43704,33.40485],[130.43828,33.40062],[130.4417,33.39748],[130.43983,33.39246],[130.44311,33.38367],[130.44747,33.38051],[130.44722,33.37721],[130.45307,33.37266],[130.45696,33.363],[130.45586,33.35629],[130.45894,33.34828],[130.46396,33.35091],[130.46913,33.34716],[130.46904,33.34307],[130.47292,33.33798],[130.47853,33.33726],[130.47995,33.33087],[130.48705,33.33271],[130.49035,33.32967],[130.49946,33.32558],[130.50565,33.33107],[130.50674,33.34116],[130.5121,33.34406],[130.51955,33.34049],[130.5268,33.34022],[130.53191,33.34461],[130.53598,33.34296]]]},"properties":{"pref":"佐賀県","city":"鳥栖市","code5":"41203","code6":"412031"}},
{"type":"Feature","geometry":{"type":"Polygon","coordinates":[[[130.02763,33.28084],[130.02361,33.26823],[130.02295,33.25813],[130.02836,33.25354],[130.02745,33.24983],[130.04005,33.25125],[130.04808,33.24706],[130.04981,33.24289],[130.05549,33.23867],[130.06323,33.24376],[130.06942,33.23956],[130.07453,33.24022],[130.07907,33.2371],[130.09573,33.23876],[130.10349,33.23508],[130.11197,33.23922],[130.11396,33.23725],[130.12556,33.23426],[130.12699,33.23848],[130.13143,33.23943],[130.13908,33.24674],[130.14448,33.24652],[130.16025,33.25228],[130.16571,33.24372],[130.17234,33.24417],[130.1828,33.25045],[130.18111,33.25627],[130.1706,33.26858],[130.1655,33.27797],[130.17183,33.2832],[130.16878,33.28794],[130.15741,33.29286],[130.15561,33.29963],[130.15819,33.30204],[130.1478,33.3102],[130.14302,33.30866],[130.13759,33.31135],[130.13849,33.31804],[130.13666,33.32006],[130.13954,33.32563],[130.13815,33.33346],[130.14281,33.33888],[130.12747,33.33976],[130.11979,33.33325],[130.11677,33.3269],[130.11222,33.32522],[130.09778,33.31444],[130.08611,33.31223],[130.08235,33.30667],[130.074,33.29977],[130.06332,33.29722],[130.05936,33.29182],[130.05424,33.2884],[130.04496,33.28611],[130.03451,33.27759],[130.02763,33.28084]]]},"properties":{"pref":"佐賀県","city":"多久市","code5":"41204","code6":"412040"}},
{"type":"Feature","geometry":{"type":"Polygon","coordinates":[[[129.86501,33.39319],[129.86899,33.39177],[129.86477,33.38516],[129.86689,33.37595],[129.85899,33.37332],[129.85914,33.36976],[129.85399,33.36578],[129.84929,33.36502],[129.85105,33.35932],[129.84544,33.354],[129.84398,33.34862],[129.84783,33.34356],[129.83046,33.33587],[129.83386,33.32856],[129.84099,33.33236],[129.84706,33.32721],[129.8418,33.32339],[129.84299,33.31941],[129.8362,33.3152],[129.83588,33.31156],[129.82824,33.31243],[129.83108,33.30422],[129.83893,33.30441],[129.84661,33.30089],[129.85376,33.29349],[129.85094,33.28979],[129.84406,33.29318],[129.84238,33.28661],[129.83782,33.28814],[129.83139,33.29368],[129.83137,33.29647],[129.81784,33.31495],[129.81312,33.31693],[129.80281,33.332],[129.80718,33.33577],[129.80416,33.33836],[129.7942,33.33723],[129.79081,33.3404],[129.78211,33.3371],[129.77658,33.33286],[129.77583,33.32979],[129.76911,33.31906],[129.76157,33.29662],[129.75897,33.29085],[129.76386,33.28988],[129.77247,33.28026],[129.7778,33.2701],[129.79095,33.25736],[129.7984,33.25331],[129.81005,33.24265],[129.8136,33.24302],[129.81409,33.23637],[129.82589,33.23677],[129.83182,33.23501],[129.84334,33.23607],[129.85458,33.23869],[129.86134,33.24139],[129.87007,33.23764],[129.87269,33.23114],[129.87707,33.22985],[129.8793,33.22554],[129.89124,33.22521],[129.89739,33.22366],[129.90458,33.2278],[129.92165,33.22682],[129.92489,33.22977],[129.9312,33.22992],[129.9363,33.23848],[129.94481,33.24638],[129.9529,33.25715],[129.96114,33.25479],[129.96529,33.26041],[129.97067,33.26141],[129.97239,33.26846],[129.98143,33.27493],[129.98943,33.2762],[129.99195,33.27846],[130.00214,33.28084],[130.00843,33.27952],[130.01309,33.28204],[130.02226,33.28097],[130.02542,33.28303],[130.0206,33.29118],[130.01518,33.29398],[130.00954,33.30278],[130.00822,33.30851],[130.00906,33.31531],[129.99947,33.3209],[129.9933,33.32704],[129.98903,33.32549],[129.98209,33.32641],[129.97911,33.33067],[129.97529,33.33139],[129.9678,33.33616],[129.96279,33.34629],[129.95609,33.3462],[129.95525,33.34161],[129.95977,33.32856],[129.9544,33.32352],[129.95021,33.33524],[129.94703,33.33803],[129.94422,33.34482],[129.93588,33.34746],[129.93011,33.35726],[129.9259,33.35755],[129.91492,33.37822],[129.92047,33.39305],[129.91315,33.40273],[129.90554,33.40694],[129.90424,33.41183],[129.89089,33.40626],[129.88187,33.40738],[129.8803,33.39655],[129.88369,33.39063],[129.87631,33.3872],[129.86819,33.39321],[129.86501,33.39319]]]},"properties":{"pref":"佐賀県","city":"伊万里市","code5":"41205","code6":"412058"}},
{"type":"Feature","geometry":{"type":"Polygon","coordinates":[[[130.02542,33.28303],[130.02226,33.28097],[130.01309,33.28204],[130.00843,33.27952],[130.00214,33.28084],[129.99195,33.27846],[129.98943,33.2762],[129.98143,33.27493],[129.97239,33.26846],[129.97067,33.26141],[129.96529,33.26041],[129.96114,33.25479],[129.9529,33.25715],[129.94481,33.24638],[129.9363,33.23848],[129.9312,33.22992],[129.92489,33.22977],[129.92165,33.22682],[129.90458,33.2278],[129.89739,33.22366],[129.90033,33.22034],[129.90715,33.1987],[129.91233,33.19753],[129.912,33.18627],[129.91822,33.18256],[129.91715,33.17155],[129.92656,33.17414],[129.93862,33.16537],[129.94333,33.16427],[129.94145,33.15995],[129.94488,33.14626],[129.94741,33.14324],[129.94885,33.13407],[129.95628,33.12863],[129.95669,33.11823],[129.95129,33.10996],[129.95878,33.10944],[129.95989,33.11288],[129.96891,33.11529],[129.97602,33.11033],[129.98193,33.11286],[129.98647,33.11719],[129.99379,33.11737],[129.99489,33.12685],[129.98817,33.13385],[129.99263,33.13668],[130.00046,33.13669],[130.00449,33.13878],[130.00391,33.14489],[130.01276,33.14771],[130.01973,33.15153],[130.02853,33.14842],[130.03364,33.15383],[130.0334,33.15777],[130.04205,33.15935],[130.04851,33.15878],[130.05651,33.16176],[130.05964,33.16735],[130.06522,33.16815],[130.07197,33.16676],[130.07671,33.17204],[130.07496,33.17707],[130.07028,33.18163],[130.07308,33.18414],[130.08403,33.18411],[130.08857,33.19931],[130.09823,33.20494],[130.09978,33.20718],[130.09334,33.21465],[130.09614,33.22117],[130.10001,33.22383],[130.10026,33.22851],[130.10349,33.23508],[130.09573,33.23876],[130.07907,33.2371],[130.07453,33.24022],[130.06942,33.23956],[130.06323,33.24376],[130.05549,33.23867],[130.04981,33.24289],[130.04808,33.24706],[130.04005,33.25125],[130.02745,33.24983],[130.02836,33.25354],[130.02295,33.25813],[130.02361,33.26823],[130.02763,33.28084],[130.02542,33.28303]]]},"properties":{"pref":"佐賀県","city":"武雄市","code5":"41206","code6":"412066"}},
{"type":"Feature","geometry":{"type":"Polygon","coordinates":[[[130.12951,33.11783],[130.12884,33.12312],[130.12131,33.12451],[130.11115,33.13108],[130.09602,33.13127],[130.09182,33.12913],[130.08237,33.13077],[130.08196,33.12486],[130.0785,33.11728],[130.08212,33.1129],[130.08074,33.10688],[130.07562,33.10318],[130.07538,33.09804],[130.06447,33.09969],[130.06261,33.09467],[130.05441,33.0873],[130.05032,33.08685],[130.0394,33.07923],[130.0424,33.07324],[130.04123,33.0707],[130.04805,33.06305],[130.04504,33.0435],[130.04043,33.03705],[130.03784,33.02965],[130.03994,33.02555],[130.04478,33.02368],[130.04271,33.01442],[130.0474,33.00772],[130.04449,33.00411],[130.05403,32.99168],[130.06123,32.98585],[130.07606,32.98756],[130.08014,32.99295],[130.08811,32.99388],[130.09551,33.0014],[130.09702,33.01438],[130.10794,33.02055],[130.12115,33.02419],[130.12816,33.0292],[130.135,33.03184],[130.14294,33.03711],[130.15359,33.04013],[130.1644,33.04639],[130.16973,33.05103],[130.16153,33.05491],[130.15896,33.06058],[130.14987,33.06724],[130.14618,33.07687],[130.14293,33.07952],[130.14566,33.08619],[130.1405,33.09446],[130.13572,33.09541],[130.132,33.10428],[130.12766,33.10358],[130.12951,33.11783]]]},"properties":{"pref":"佐賀県","city":"鹿島市","code5":"41207","code6":"412074"}},
{"type":"Feature","geometry":{"type":"Polygon","coordinates":[[[130.14281,33.33888],[130.13815,33.33346],[130.13954,33.32563],[130.13666,33.32006],[130.13849,33.31804],[130.13759,33.31135],[130.14302,33.30866],[130.1478,33.3102],[130.15819,33.30204],[130.15561,33.29963],[130.15741,33.29286],[130.16878,33.28794],[130.17183,33.2832],[130.1655,33.27797],[130.1706,33.26858],[130.18111,33.25627],[130.1828,33.25045],[130.17234,33.24417],[130.16571,33.24372],[130.15981,33.23744],[130.15924,33.23272],[130.16186,33.22904],[130.17896,33.22778],[130.18457,33.21989],[130.18847,33.22171],[130.19338,33.21434],[130.19943,33.21406],[130.20158,33.2104],[130.20002,33.20646],[130.1933,33.20809],[130.19065,33.20601],[130.20044,33.19523],[130.20669,33.19434],[130.21638,33.19698],[130.22385,33.19586],[130.22982,33.19288],[130.2311,33.19788],[130.23495,33.19811],[130.23459,33.20419],[130.22933,33.20398],[130.22824,33.21097],[130.22983,33.21502],[130.22509,33.22501],[130.22141,33.22927],[130.22339,33.24021],[130.21857,33.24644],[130.21959,33.2519],[130.22972,33.25646],[130.23477,33.25684],[130.23562,33.25241],[130.24448,33.25297],[130.24366,33.26735],[130.2447,33.2727],[130.23759,33.29448],[130.23474,33.29626],[130.23245,33.30887],[130.22664,33.3137],[130.22383,33.32044],[130.22555,33.32875],[130.22168,33.33494],[130.21014,33.34062],[130.19477,33.34186],[130.18207,33.34088],[130.17881,33.33888],[130.16826,33.33785],[130.16147,33.3403],[130.14281,33.33888]]]},"properties":{"pref":"佐賀県","city":"小城市","code5":"41208","code6":"412082"}},
{"type":"Feature","geometry":{"type":"Polygon","coordinates":[[[129.95129,33.10996],[129.94073,33.11286],[129.93284,33.11108],[129.92524,33.10572],[129.92676,33.10186],[129.92236,33.09049],[129.93307,33.08834],[129.93514,33.08114],[129.93967,33.07776],[129.93883,33.07416],[129.95475,33.06597],[129.96403,33.06435],[129.97804,33.05742],[129.98329,33.0568],[129.98759,33.05133],[129.99412,33.04798],[129.9945,33.03713],[129.9997,33.03176],[130.0011,33.02569],[130.00607,33.02465],[130.0082,33.01982],[130.01495,33.01748],[130.02738,33.02031],[130.02801,33.01245],[130.03792,33.00867],[130.04263,33.00392],[130.04449,33.00411],[130.0474,33.00772],[130.04271,33.01442],[130.04478,33.02368],[130.03994,33.02555],[130.03784,33.02965],[130.04043,33.03705],[130.04504,33.0435],[130.04805,33.06305],[130.04123,33.0707],[130.0424,33.07324],[130.0394,33.07923],[130.05032,33.08685],[130.05441,33.0873],[130.06261,33.09467],[130.06447,33.09969],[130.07538,33.09804],[130.07562,33.10318],[130.08074,33.10688],[130.08212,33.1129],[130.0785,33.11728],[130.08196,33.12486],[130.08237,33.13077],[130.07786,33.12916],[130.07243,33.1311],[130.07351,33.13765],[130.08384,33.1416],[130.08821,33.15203],[130.08428,33.15451],[130.07931,33.16363],[130.07952,33.16999],[130.07671,33.17204],[130.07197,33.16676],[130.06522,33.16815],[130.05964,33.16735],[130.05651,33.16176],[130.04851,33.15878],[130.04205,33.15935],[130.0334,33.15777],[130.03364,33.15383],[130.02853,33.14842],[130.01973,33.15153],[130.01276,33.14771],[130.00391,33.14489],[130.00449,33.13878],[130.00046,33.13669],[129.99263,33.13668],[129.98817,33.13385],[129.99489,33.12685],[129.99379,33.11737],[129.98647,33.11719],[129.98193,33.11286],[129.97602,33.11033],[129.96891,33.11529],[129.95989,33.11288],[129.95878,33.10944],[129.95129,33.10996]]]},"properties":{"pref":"佐賀県","city":"嬉野市","code5":"41209","code6":"412091"}},
{"type":"Feature","geometry":{"type":"Polygon","coordinates":[[[130.33975,33.44461],[130.33974,33.44103],[130.33401,33.44032],[130.33073,33.43467],[130.32739,33.42247],[130.3202,33.42058],[130.31267,33.41176],[130.30751,33.41299],[130.29835,33.40929],[130.29445,33.40352],[130.27858,33.40266],[130.27549,33.39804],[130.27652,33.39216],[130.27377,33.38691],[130.27597,33.38243],[130.28186,33.37964],[130.28745,33.38251],[130.2936,33.37914],[130.29313,33.37191],[130.28885,33.36901],[130.29233,33.36473],[130.30019,33.35957],[130.29781,33.35766],[130.30467,33.3518],[130.30951,33.35859],[130.32401,33.36023],[130.33114,33.35649],[130.33762,33.33338],[130.33662,33.32921],[130.34256,33.30695],[130.34234,33.29891],[130.33566,33.29762],[130.33839,33.29061],[130.34059,33.27846],[130.34063,33.269],[130.34353,33.25985],[130.34224,33.25291],[130.34363,33.2499],[130.34993,33.25009],[130.35011,33.25602],[130.3616,33.25714],[130.37369,33.25725],[130.37394,33.24436],[130.37869,33.24147],[130.3852,33.24046],[130.39031,33.2453],[130.39107,33.24936],[130.38897,33.25712],[130.39198,33.26023],[130.40002,33.2591],[130.4021,33.24865],[130.41135,33.25015],[130.4149,33.25265],[130.41951,33.2616],[130.41746,33.26834],[130.40968,33.26894],[130.40712,33.27355],[130.40617,33.28503],[130.40153,33.28609],[130.39695,33.28284],[130.38725,33.31778],[130.38358,33.31752],[130.38559,33.33551],[130.38247,33.34919],[130.37745,33.36208],[130.37927,33.36487],[130.37537,33.37071],[130.37716,33.37781],[130.37232,33.37821],[130.36509,33.38929],[130.37014,33.39488],[130.37764,33.39531],[130.38371,33.40464],[130.38357,33.40925],[130.378,33.41353],[130.37662,33.41912],[130.37822,33.42496],[130.3753,33.4302],[130.37058,33.43321],[130.36349,33.4349],[130.35579,33.43324],[130.34543,33.44502],[130.33975,33.44461]]]},"properties":{"pref":"佐賀県","city":"神埼市","code5":"41210","code6":"412104"}},
{"type":"Feature","geometry":{"type":"Polygon","coordinates":[[[130.37822,33.42496],[130.37662,33.41912],[130.378,33.41353],[130.38357,33.40925],[130.38371,33.40464],[130.37764,33.39531],[130.37014,33.39488],[130.36509,33.38929],[130.37232,33.37821],[130.37716,33.37781],[130.37537,33.37071],[130.37927,33.36487],[130.37745,33.36208],[130.38247,33.34919],[130.38559,33.33551],[130.38358,33.31752],[130.38725,33.31778],[130.39695,33.28284],[130.40153,33.28609],[130.4054,33.29031],[130.40615,33.29661],[130.40578,33.30273],[130.41107,33.30935],[130.41334,33.31523],[130.41531,33.32858],[130.41451,33.33211],[130.41882,33.33587],[130.4132,33.35522],[130.41106,33.36001],[130.41407,33.36356],[130.41959,33.37544],[130.41968,33.38361],[130.41692,33.38917],[130.41179,33.39139],[130.41097,33.39504],[130.40768,33.3986],[130.41509,33.40929],[130.40477,33.41624],[130.39616,33.42741],[130.39119,33.42608],[130.38739,33.42812],[130.37822,33.42496]]]},"properties":{"pref":"佐賀県","county":"神埼郡","city":"吉野ヶ里町","code5":"41327","code6":"413275"}},
{"type":"Feature","geometry":{"type":"Polygon","coordinates":[[[130.53647,33.43898],[130.53368,33.44146],[130.52182,33.44605],[130.51113,33.44911],[130.50963,33.4438],[130.50354,33.44693],[130.49591,33.44477],[130.49112,33.43971],[130.48007,33.43613],[130.47438,33.43547],[130.46237,33.42792],[130.46778,33.4273],[130.47804,33.4238],[130.48395,33.42013],[130.48828,33.41343],[130.49259,33.40969],[130.50183,33.40568],[130.50763,33.40868],[130.52001,33.41151],[130.52694,33.41112],[130.52961,33.40285],[130.53872,33.40328],[130.54182,33.39425],[130.54106,33.42122],[130.53737,33.4263],[130.53515,33.43439],[130.53647,33.43898]]]},"properties":{"pref":"佐賀県","county":"三養基郡","city":"基山町","code5":"41341","code6":"413411"}},
{"type":"Feature","geometry":{"type":"Polygon","coordinates":[[[130.41097,33.39504],[130.41179,33.39139],[130.41692,33.38917],[130.41968,33.38361],[130.41959,33.37544],[130.41407,33.36356],[130.41106,33.36001],[130.4132,33.35522],[130.41882,33.33587],[130.41451,33.33211],[130.41531,33.32858],[130.41334,33.31523],[130.41107,33.30935],[130.40578,33.30273],[130.40615,33.29661],[130.4163,33.29663],[130.41595,33.30193],[130.42289,33.30257],[130.42509,33.29786],[130.43243,33.29927],[130.43335,33.30624],[130.439,33.30887],[130.43816,33.31637],[130.42826,33.3208],[130.42524,33.3337],[130.42589,33.33719],[130.43218,33.33883],[130.43016,33.34801],[130.42691,33.35112],[130.42862,33.35651],[130.42259,33.39846],[130.41901,33.40112],[130.41097,33.39504]]]},"properties":{"pref":"佐賀県","county":"三養基郡","city":"上峰町","code5":"41345","code6":"413453"}},
{"type":"Feature","geometry":{"type":"Polygon","coordinates":[[[130.47995,33.33087],[130.47853,33.33726],[130.47292,33.33798],[130.46904,33.34307],[130.46913,33.34716],[130.46396,33.35091],[130.45894,33.34828],[130.45586,33.35629],[130.45696,33.363],[130.45307,33.37266],[130.44722,33.37721],[130.44747,33.38051],[130.44311,33.38367],[130.43983,33.39246],[130.4417,33.39748],[130.43828,33.40062],[130.42876,33.39688],[130.42259,33.39846],[130.42862,33.35651],[130.42691,33.35112],[130.43016,33.34801],[130.43218,33.33883],[130.42589,33.33719],[130.42524,33.3337],[130.42826,33.3208],[130.43816,33.31637],[130.439,33.30887],[130.43335,33.30624],[130.43243,33.29927],[130.42509,33.29786],[130.42289,33.30257],[130.41595,33.30193],[130.4163,33.29663],[130.40615,33.29661],[130.4054,33.29031],[130.40153,33.28609],[130.40617,33.28503],[130.40712,33.27355],[130.40968,33.26894],[130.41746,33.26834],[130.42084,33.27185],[130.42632,33.27061],[130.42973,33.2746],[130.43095,33.28053],[130.42987,33.28622],[130.42687,33.29014],[130.43378,33.29245],[130.4385,33.28938],[130.43508,33.27588],[130.43623,33.26979],[130.44246,33.26403],[130.44975,33.2651],[130.45059,33.27006],[130.44873,33.27841],[130.45295,33.28295],[130.46486,33.28486],[130.46623,33.29033],[130.45623,33.29379],[130.45561,33.30081],[130.45802,33.30327],[130.46671,33.30475],[130.47826,33.30434],[130.4849,33.30622],[130.48939,33.31593],[130.48751,33.31971],[130.48302,33.32062],[130.47699,33.326],[130.47995,33.33087]]]},"properties":{"pref":"佐賀県","county":"三養基郡","city":"みやき町","code5":"41346","code6":"413461"}},
{"type":"Feature","geometry":{"type":"Polygon","coordinates":[[[129.85686,33.51141],[129.85045,33.51239],[129.84314,33.51746],[129.83075,33.51979],[129.82861,33.51749],[129.83312,33.51186],[129.83335,33.50742],[129.82964,33.50521],[129.84037,33.4947],[129.83674,33.48722],[129.84449,33.48094],[129.8345,33.47604],[129.83514,33.47206],[129.84297,33.47106],[129.84815,33.47551],[129.85722,33.46479],[129.85669,33.45861],[129.85062,33.45281],[129.85151,33.44725],[129.85846,33.44822],[129.86279,33.44594],[129.85853,33.43881],[129.86092,33.4347],[129.87003,33.43525],[129.87191,33.43093],[129.87909,33.43267],[129.88054,33.44093],[129.88639,33.44101],[129.88751,33.44614],[129.89433,33.45837],[129.89795,33.4614],[129.89633,33.46741],[129.90458,33.47057],[129.90167,33.48167],[129.89684,33.48986],[129.88898,33.49215],[129.88166,33.50148],[129.87691,33.50132],[129.86915,33.50873],[129.85686,33.51141]]]},"properties":{"pref":"佐賀県","county":"東松浦郡","city":"玄海町","code5":"41387","code6":"413879"}},
{"type":"Feature","geometry":{"type":"Polygon","coordinates":[[[129.81409,33.23637],[129.80991,33.23036],[129.81307,33.22121],[129.8096,33.21862],[129.8069,33.21117],[129.81003,33.20235],[129.81411,33.19859],[129.81699,33.19227],[129.81715,33.18454],[129.82779,33.17971],[129.83733,33.17419],[129.84287,33.17685],[129.85348,33.17634],[129.85777,33.17093],[129.86937,33.16908],[129.87268,33.16521],[129.87898,33.16204],[129.88607,33.16146],[129.88812,33.15617],[129.89517,33.15973],[129.89874,33.15793],[129.90594,33.1581],[129.91153,33.16217],[129.91775,33.16004],[129.92801,33.16402],[129.93365,33.16327],[129.93862,33.16537],[129.92656,33.17414],[129.91715,33.17155],[129.91822,33.18256],[129.912,33.18627],[129.91233,33.19753],[129.90715,33.1987],[129.90033,33.22034],[129.89739,33.22366],[129.89124,33.22521],[129.8793,33.22554],[129.87707,33.22985],[129.87269,33.23114],[129.87007,33.23764],[129.86134,33.24139],[129.85458,33.23869],[129.84334,33.23607],[129.83182,33.23501],[129.82589,33.23677],[129.81409,33.23637]]]},"properties":{"pref":"佐賀県","county":"西松浦郡","city":"有田町","code5":"41401","code6":"414018"}},
{"type":"Feature","geometry":{"type":"Polygon","coordinates":[[[130.10349,33.23508],[130.10026,33.22851],[130.10001,33.22383],[130.09614,33.22117],[130.09334,33.21465],[130.09978,33.20718],[130.09823,33.20494],[130.1052,33.20273],[130.10592,33.20791],[130.11116,33.20922],[130.11093,33.20282],[130.12632,33.19621],[130.12999,33.19842],[130.12787,33.2059],[130.13495,33.20865],[130.13414,33.21373],[130.13775,33.21582],[130.1301,33.22178],[130.12556,33.23426],[130.11396,33.23725],[130.11197,33.23922],[130.10349,33.23508]]]},"properties":{"pref":"佐賀県","county":"杵島郡","city":"大町町","code5":"41423","code6":"414239"}},
{"type":"Feature","geometry":{"type":"Polygon","coordinates":[[[130.12556,33.23426],[130.1301,33.22178],[130.13775,33.21582],[130.13414,33.21373],[130.13495,33.20865],[130.14083,33.20607],[130.14167,33.20306],[130.13582,33.20021],[130.13859,33.19561],[130.14433,33.19566],[130.15438,33.19278],[130.15998,33.18859],[130.16744,33.19218],[130.1663,33.20005],[130.16984,33.20289],[130.17862,33.19999],[130.1844,33.20141],[130.19065,33.20601],[130.1933,33.20809],[130.20002,33.20646],[130.20158,33.2104],[130.19943,33.21406],[130.19338,33.21434],[130.18847,33.22171],[130.18457,33.21989],[130.17896,33.22778],[130.16186,33.22904],[130.15924,33.23272],[130.15981,33.23744],[130.16571,33.24372],[130.16025,33.25228],[130.14448,33.24652],[130.13908,33.24674],[130.13143,33.23943],[130.12699,33.23848],[130.12556,33.23426]]]},"properties":{"pref":"佐賀県","county":"杵島郡","city":"江北町","code5":"41424","code6":"414247"}},
{"type":"Feature","geometry":{"type":"Polygon","coordinates":[[[130.22982,33.19288],[130.22385,33.19586],[130.21638,33.19698],[130.20669,33.19434],[130.20044,33.19523],[130.19065,33.20601],[130.1844,33.20141],[130.17862,33.19999],[130.16984,33.20289],[130.1663,33.20005],[130.16744,33.19218],[130.15998,33.18859],[130.15438,33.19278],[130.14433,33.19566],[130.13859,33.19561],[130.13582,33.20021],[130.14167,33.20306],[130.14083,33.20607],[130.13495,33.20865],[130.12787,33.2059],[130.12999,33.19842],[130.12632,33.19621],[130.11093,33.20282],[130.11116,33.20922],[130.10592,33.20791],[130.1052,33.20273],[130.09823,33.20494],[130.08857,33.19931],[130.08403,33.18411],[130.07308,33.18414],[130.07028,33.18163],[130.07496,33.17707],[130.07671,33.17204],[130.07952,33.16999],[130.07931,33.16363],[130.08428,33.15451],[130.08821,33.15203],[130.08384,33.1416],[130.07351,33.13765],[130.07243,33.1311],[130.07786,33.12916],[130.08237,33.13077],[130.09182,33.12913],[130.09602,33.13127],[130.11115,33.13108],[130.12131,33.12451],[130.12884,33.12312],[130.12951,33.11783],[130.14985,33.1126],[130.16882,33.12974],[130.19226,33.1416],[130.19012,33.14607],[130.22222,33.16503],[130.23221,33.18325],[130.23121,33.19214],[130.22982,33.19288]]]},"properties":{"pref":"佐賀県","county":"杵島郡","city":"白石町","code5":"41425","code6":"414255"}},
{"type":"Feature","geometry":{"type":"MultiPolygon","coordinates":[[[[130.07606,32.98756],[130.07744,32.98475],[130.0858,32.97922],[130.08683,32.9749],[130.10303,32.97474],[130.10919,32.97176],[130.11451,32.97241],[130.13092,32.96832],[130.13905,32.96862],[130.14406,32.97168],[130.14966,32.96279],[130.15508,32.96336],[130.16166,32.96123],[130.17306,32.96215],[130.18742,32.9589],[130.20116,32.95906],[130.20359,32.95712],[130.21031,32.95651],[130.21388,32.95932],[130.22437,32.96215],[130.225,32.96683],[130.22268,32.97377],[130.21524,32.97992],[130.20936,32.97953],[130.21012,32.98607],[130.20078,32.99161],[130.19566,32.98857],[130.18746,33.00531],[130.18798,33.01097],[130.18287,33.01293],[130.17896,33.02964],[130.17149,33.03546],[130.16973,33.05103],[130.1644,33.04639],[130.15359,33.04013],[130.14294,33.03711],[130.135,33.03184],[130.12816,33.0292],[130.12115,33.02419],[130.10794,33.02055],[130.09702,33.01438],[130.09551,33.0014],[130.08811,32.99388],[130.08014,32.99295],[130.07606,32.98756]]],[[[130.22398,32.95827],[130.21677,32.95909],[130.21478,32.95237],[130.22273,32.95393],[130.22398,32.95827]]]]},"properties":{"pref":"佐賀県","county":"藤津郡","city":"太良町","code5":"41441","code6":"414417"}}
]}