{"type":"FeatureCollection", "features": [
{"type":"Feature","geometry":{"type":"MultiPolygon","coordinates":[[[[129.80695,32.96193],[129.80251,32.96495],[129.79183,32.96858],[129.78563,32.96257],[129.77331,32.95634],[129.76347,32.95484],[129.74831,32.94831],[129.74086,32.94699],[129.73969,32.93906],[129.74139,32.93682],[129.73731,32.93026],[129.74244,32.919],[129.73763,32.91313],[129.7333,32.91498],[129.72956,32.91129],[129.71893,32.91141],[129.71556,32.90985],[129.70906,32.91273],[129.70589,32.90631],[129.69862,32.90368],[129.69077,32.90258],[129.6829,32.90391],[129.67718,32.90187],[129.67337,32.89724],[129.66854,32.89548],[129.67434,32.88455],[129.67996,32.87963],[129.67728,32.8669],[129.68418,32.85836],[129.68462,32.85312],[129.69203,32.84664],[129.69248,32.84378],[129.70076,32.84117],[129.70034,32.83316],[129.70037,32.83304],[129.70996,32.83294],[129.71368,32.83531],[129.71838,32.83343],[129.71947,32.82329],[129.72953,32.8178],[129.73261,32.81377],[129.73372,32.80789],[129.74032,32.8078],[129.74595,32.82213],[129.75133,32.81954],[129.76019,32.81986],[129.76677,32.81592],[129.76982,32.82074],[129.7755,32.81701],[129.7698,32.80793],[129.76655,32.80008],[129.7683,32.79694],[129.77458,32.79841],[129.783,32.78797],[129.78979,32.78734],[129.79117,32.7792],[129.80115,32.77729],[129.80158,32.77186],[129.79655,32.76506],[129.79711,32.76004],[129.80302,32.76171],[129.80767,32.7545],[129.81134,32.7585],[129.81486,32.75598],[129.80572,32.74778],[129.80902,32.74235],[129.81635,32.74121],[129.82342,32.74587],[129.82974,32.74395],[129.82604,32.73984],[129.83146,32.73757],[129.83157,32.73287],[129.82573,32.73183],[129.81945,32.72314],[129.82009,32.7204],[129.82665,32.71712],[129.83335,32.72496],[129.83925,32.72623],[129.84515,32.72011],[129.84745,32.7263],[129.85661,32.73142],[129.85886,32.74185],[129.86532,32.74922],[129.86798,32.74539],[129.8685,32.73785],[129.86517,32.73286],[129.85791,32.72672],[129.85706,32.72252],[129.85225,32.72111],[129.84775,32.70606],[129.84293,32.70569],[129.84164,32.70214],[129.84581,32.69701],[129.83331,32.69744],[129.83741,32.68941],[129.82843,32.68795],[129.82006,32.69507],[129.8259,32.69566],[129.82906,32.70713],[129.81771,32.70629],[129.81554,32.69914],[129.81096,32.69295],[129.80552,32.6912],[129.80036,32.6935],[129.79142,32.69208],[129.79427,32.68859],[129.79531,32.68461],[129.80614,32.68112],[129.81291,32.68363],[129.81511,32.68721],[129.81965,32.6856],[129.81661,32.67252],[129.81798,32.66575],[129.81729,32.65551],[129.81418,32.65364],[129.80978,32.65588],[129.80459,32.64943],[129.80256,32.64176],[129.79727,32.63474],[129.79174,32.63024],[129.79057,32.6147],[129.77989,32.61125],[129.78242,32.6073],[129.78004,32.60375],[129.76719,32.59489],[129.75754,32.59326],[129.7565,32.58603],[129.75172,32.59198],[129.74939,32.59178],[129.74911,32.59164],[129.74765,32.59067],[129.74764,32.59067],[129.74628,32.58843],[129.74603,32.58809],[129.74602,32.5881],[129.74227,32.58341],[129.73567,32.58063],[129.73732,32.57455],[129.74124,32.56979],[129.74468,32.57431],[129.75052,32.57464],[129.75151,32.57463],[129.75547,32.58079],[129.76827,32.58297],[129.77822,32.57729],[129.77901,32.57329],[129.77902,32.57328],[129.77909,32.57331],[129.77905,32.57342],[129.77907,32.57343],[129.77919,32.57355],[129.78046,32.57319],[129.78046,32.57317],[129.78103,32.57185],[129.78104,32.57185],[129.78133,32.57155],[129.78151,32.5718],[129.77966,32.57765],[129.7808,32.5831],[129.78454,32.58262],[129.79188,32.58565],[129.80451,32.5907],[129.80618,32.59278],[129.81105,32.598],[129.82256,32.60646],[129.82509,32.61018],[129.82511,32.61019],[129.83031,32.61294],[129.83277,32.61852],[129.83802,32.62138],[129.83506,32.6256],[129.83498,32.6328],[129.8413,32.64166],[129.84633,32.63793],[129.86582,32.64362],[129.87202,32.65059],[129.87832,32.65372],[129.88474,32.65444],[129.89481,32.66212],[129.8954,32.66682],[129.90048,32.67147],[129.90188,32.67978],[129.91033,32.68692],[129.91574,32.69886],[129.91147,32.70277],[129.91609,32.70938],[129.92558,32.70816],[129.92691,32.71783],[129.9335,32.71719],[129.93908,32.72383],[129.94306,32.72598],[129.94063,32.73186],[129.94576,32.73597],[129.95298,32.73644],[129.95411,32.73984],[129.95427,32.73987],[129.95461,32.73999],[129.95525,32.74092],[129.95652,32.74249],[129.95311,32.74914],[129.95097,32.75113],[129.94824,32.75546],[129.94842,32.75509],[129.94694,32.75528],[129.94728,32.75889],[129.95833,32.76516],[129.96591,32.76513],[129.97432,32.76225],[129.98169,32.76284],[129.98772,32.75911],[129.99087,32.76303],[129.98709,32.7716],[129.99354,32.78195],[129.98953,32.78749],[129.98909,32.79935],[129.9931,32.8036],[129.99254,32.80661],[129.98635,32.80679],[129.98032,32.81109],[129.978,32.81746],[129.96933,32.81253],[129.96173,32.81042],[129.95728,32.81175],[129.95522,32.81629],[129.95034,32.81941],[129.9452,32.8193],[129.93452,32.81615],[129.93114,32.82003],[129.92417,32.82087],[129.91748,32.81369],[129.91197,32.81096],[129.90366,32.80934],[129.89395,32.81169],[129.8875,32.80641],[129.88067,32.8081],[129.87013,32.80571],[129.86677,32.80848],[129.86415,32.80126],[129.85811,32.79923],[129.85105,32.80527],[129.84644,32.8121],[129.83863,32.81006],[129.83955,32.81657],[129.83514,32.81587],[129.82795,32.81772],[129.82125,32.81488],[129.81696,32.81724],[129.82054,32.82593],[129.81432,32.83103],[129.81323,32.83567],[129.80809,32.83669],[129.80183,32.84319],[129.80015,32.8537],[129.79428,32.85728],[129.79368,32.86238],[129.79709,32.87097],[129.7933,32.87356],[129.78847,32.87155],[129.79106,32.88543],[129.79609,32.88235],[129.80234,32.88276],[129.80959,32.88918],[129.80537,32.89355],[129.80381,32.90125],[129.80629,32.90774],[129.79118,32.90677],[129.78831,32.9021],[129.78351,32.90797],[129.78758,32.91499],[129.78875,32.92349],[129.78402,32.92844],[129.78332,32.94112],[129.78565,32.94785],[129.79176,32.95208],[129.79997,32.9514],[129.79665,32.94745],[129.79564,32.9392],[129.79991,32.93503],[129.80118,32.92881],[129.79773,32.92639],[129.79848,32.92206],[129.80705,32.91648],[129.81316,32.92088],[129.81648,32.92599],[129.81446,32.92846],[129.81745,32.93332],[129.81671,32.93682],[129.8157,32.94191],[129.81853,32.94735],[129.8153,32.95581],[129.80695,32.96193]]],[[[129.79026,32.56156],[129.78902,32.569],[129.77858,32.56827],[129.77537,32.5655],[129.77408,32.55792],[129.77414,32.55018],[129.78085,32.55398],[129.78955,32.55594],[129.79026,32.56156]]],[[[129.97223,32.76048],[129.9663,32.76013],[129.9678,32.75316],[129.97289,32.75027],[129.98191,32.74859],[129.9794,32.75261],[129.97689,32.75998],[129.97223,32.76048]]],[[[129.7603,32.71349],[129.76148,32.7093],[129.77306,32.70182],[129.78014,32.70533],[129.77518,32.70967],[129.76028,32.71455],[129.7603,32.71349]]],[[[129.75199,32.66454],[129.74638,32.66179],[129.75456,32.65054],[129.75858,32.65488],[129.75541,32.6587],[129.75968,32.66387],[129.75199,32.66454]]],[[[129.6057,32.8874],[129.60191,32.89114],[129.59249,32.88509],[129.59101,32.88054],[129.60208,32.88125],[129.60614,32.88746],[129.60607,32.88745],[129.60601,32.88744],[129.60595,32.88744],[129.60588,32.88743],[129.6057,32.8874]]],[[[129.78306,32.69765],[129.78053,32.70215],[129.77241,32.70098],[129.77517,32.69713],[129.77584,32.69643],[129.77678,32.69372],[129.77669,32.69365],[129.77637,32.69266],[129.78182,32.69072],[129.78556,32.69271],[129.78205,32.69683],[129.78306,32.69765]]],[[[129.63178,32.86781],[129.63168,32.86863],[129.62948,32.86895],[129.63174,32.86778],[129.63178,32.86781]]]]},"properties":{"pref":"長崎県","city":"長崎市","code5":"42201","code6":"422011"}},
{"type":"Feature","geometry":{"type":"MultiPolygon","coordinates":[[[[129.7778,33.2701],[129.77493,33.26693],[129.76688,33.26908],[129.76025,33.27704],[129.74889,33.27716],[129.7441,33.27489],[129.7351,33.27866],[129.72411,33.28529],[129.71929,33.28624],[129.71391,33.29011],[129.71541,33.3025],[129.70795,33.30226],[129.70878,33.30658],[129.70369,33.3105],[129.6961,33.30972],[129.67937,33.31112],[129.6764,33.3079],[129.66677,33.31133],[129.66745,33.31809],[129.66427,33.32151],[129.65655,33.31965],[129.65586,33.32282],[129.6451,33.33259],[129.64084,33.33386],[129.63761,33.33896],[129.63129,33.34267],[129.62815,33.33663],[129.62332,33.33663],[129.61984,33.33324],[129.6229,33.32932],[129.61595,33.32531],[129.61109,33.32604],[129.60666,33.32363],[129.60583,33.31608],[129.60832,33.31494],[129.60827,33.31162],[129.60028,33.30818],[129.59523,33.29761],[129.58518,33.29192],[129.58811,33.28551],[129.58612,33.28032],[129.58908,33.27171],[129.58159,33.27115],[129.57806,33.26643],[129.57006,33.26724],[129.56875,33.25965],[129.56497,33.25634],[129.56565,33.24836],[129.55758,33.24727],[129.55598,33.2413],[129.56245,33.23958],[129.56792,33.24282],[129.56662,33.2297],[129.55597,33.22438],[129.55643,33.21581],[129.56718,33.2182],[129.57138,33.21589],[129.57377,33.21704],[129.5744,33.21553],[129.5747,33.21479],[129.57542,33.21426],[129.57541,33.21424],[129.57575,33.21421],[129.57582,33.21517],[129.5754,33.21562],[129.57651,33.21621],[129.57932,33.2171],[129.58275,33.21293],[129.59988,33.21227],[129.60183,33.21777],[129.6075,33.22164],[129.60488,33.21109],[129.60062,33.20713],[129.60501,33.20374],[129.6102,33.20656],[129.61328,33.20347],[129.61329,33.20346],[129.61755,33.20904],[129.62182,33.20467],[129.61855,33.19487],[129.62742,33.18754],[129.62895,33.19286],[129.63445,33.19595],[129.6395,33.2052],[129.63939,33.21522],[129.63675,33.21748],[129.63712,33.2247],[129.63917,33.23079],[129.63333,33.2335],[129.63036,33.24273],[129.62406,33.24581],[129.62206,33.25542],[129.6272,33.26301],[129.62844,33.26781],[129.63312,33.27233],[129.64125,33.269],[129.64323,33.27433],[129.64894,33.27894],[129.65996,33.27553],[129.67663,33.26485],[129.68271,33.26637],[129.68861,33.25517],[129.68358,33.25206],[129.68076,33.24185],[129.68485,33.24073],[129.69146,33.23268],[129.6896,33.22784],[129.67927,33.22223],[129.67517,33.22256],[129.67042,33.21485],[129.66,33.21225],[129.64971,33.20784],[129.64421,33.20272],[129.64519,33.19578],[129.65341,33.18882],[129.65122,33.18591],[129.65266,33.18127],[129.643,33.17941],[129.63943,33.17523],[129.63951,33.1696],[129.6506,33.17372],[129.65211,33.17183],[129.6616,33.17122],[129.66231,33.16475],[129.67076,33.16708],[129.67903,33.15901],[129.67814,33.15545],[129.68516,33.14439],[129.69226,33.1403],[129.67925,33.13039],[129.67945,33.12622],[129.67188,33.12783],[129.66121,33.1252],[129.65793,33.12159],[129.6613,33.11247],[129.66491,33.1105],[129.66652,33.10126],[129.67243,33.10633],[129.67408,33.11146],[129.67174,33.11854],[129.67397,33.11989],[129.67953,33.11391],[129.68986,33.11532],[129.69242,33.11735],[129.69769,33.11302],[129.71172,33.1177],[129.70003,33.12375],[129.71047,33.1246],[129.7091,33.12945],[129.7094,33.13836],[129.70632,33.14135],[129.70692,33.14789],[129.70511,33.1559],[129.69892,33.16008],[129.70162,33.16324],[129.71351,33.16675],[129.71701,33.16654],[129.71904,33.16117],[129.72376,33.16422],[129.72874,33.15892],[129.72883,33.15532],[129.721,33.15408],[129.72226,33.14609],[129.72027,33.13894],[129.72782,33.13303],[129.7355,33.13635],[129.7399,33.1322],[129.74674,33.13641],[129.74839,33.14376],[129.7536,33.14483],[129.75601,33.14161],[129.76091,33.14422],[129.77135,33.14321],[129.78506,33.14329],[129.78793,33.13896],[129.79399,33.13839],[129.79792,33.13154],[129.7935,33.12514],[129.7966,33.11457],[129.79607,33.11116],[129.78793,33.10286],[129.79627,33.0919],[129.79472,33.08385],[129.80517,33.07532],[129.80333,33.06782],[129.80621,33.07055],[129.81647,33.07167],[129.81991,33.07705],[129.83034,33.07433],[129.8389,33.0786],[129.83926,33.08396],[129.84697,33.09058],[129.84275,33.09979],[129.84577,33.10276],[129.8435,33.11154],[129.84415,33.11887],[129.8506,33.13447],[129.85037,33.14363],[129.8561,33.14617],[129.85617,33.15198],[129.85955,33.15584],[129.86806,33.15839],[129.87268,33.16521],[129.86937,33.16908],[129.85777,33.17093],[129.85348,33.17634],[129.84287,33.17685],[129.83733,33.17419],[129.82779,33.17971],[129.81715,33.18454],[129.81699,33.19227],[129.81411,33.19859],[129.81003,33.20235],[129.8069,33.21117],[129.8096,33.21862],[129.81307,33.22121],[129.80991,33.23036],[129.81409,33.23637],[129.8136,33.24302],[129.81005,33.24265],[129.7984,33.25331],[129.79095,33.25736],[129.7778,33.2701]]],[[[129.74517,33.06788],[129.74287,33.06176],[129.75541,33.06266],[129.75524,33.05507],[129.76501,33.0534],[129.76461,33.05847],[129.76886,33.06057],[129.7808,33.06121],[129.77848,33.06603],[129.77117,33.06577],[129.772,33.07269],[129.76479,33.07419],[129.75779,33.08048],[129.75825,33.08819],[129.76918,33.09244],[129.76272,33.08343],[129.76641,33.07984],[129.77292,33.07778],[129.7837,33.07831],[129.78634,33.08326],[129.79335,33.08261],[129.79514,33.09125],[129.7865,33.10414],[129.79363,33.11089],[129.79468,33.11877],[129.79244,33.12677],[129.79584,33.13222],[129.79385,33.13761],[129.78754,33.13815],[129.78025,33.14178],[129.77375,33.14112],[129.76696,33.1429],[129.76474,33.13935],[129.75799,33.13481],[129.75791,33.13136],[129.76542,33.13158],[129.77124,33.1255],[129.75876,33.12829],[129.75731,33.12009],[129.75878,33.11432],[129.75462,33.11418],[129.75174,33.12411],[129.74703,33.12539],[129.74371,33.12152],[129.74472,33.1123],[129.75137,33.10862],[129.7527,33.10198],[129.74656,33.09847],[129.7391,33.10227],[129.73116,33.10341],[129.72882,33.10008],[129.73396,33.09407],[129.73389,33.09027],[129.73849,33.08347],[129.73945,33.07874],[129.74349,33.07336],[129.74516,33.06789],[129.74517,33.06788]]],[[[129.12865,33.30224],[129.12362,33.30101],[129.12517,33.29454],[129.114,33.2875],[129.1078,33.28998],[129.10189,33.28912],[129.09691,33.28617],[129.0929,33.28765],[129.08838,33.28469],[129.08347,33.27779],[129.06978,33.27096],[129.07792,33.26411],[129.08486,33.26395],[129.08778,33.26026],[129.09257,33.25911],[129.09448,33.25179],[129.10018,33.24881],[129.10764,33.2488],[129.10963,33.24685],[129.12314,33.2462],[129.12986,33.24898],[129.13291,33.25267],[129.1286,33.25613],[129.13005,33.26118],[129.13781,33.262],[129.14976,33.26985],[129.14003,33.27868],[129.14224,33.28333],[129.1374,33.29302],[129.13946,33.29522],[129.13591,33.30077],[129.12865,33.30224]]],[[[129.54389,33.15174],[129.54065,33.14874],[129.5355,33.14945],[129.52353,33.1455],[129.51276,33.13842],[129.51823,33.13569],[129.525,33.13631],[129.52926,33.13203],[129.53612,33.13098],[129.53976,33.13768],[129.54995,33.13633],[129.55079,33.14417],[129.54389,33.15174]]],[[[129.59078,33.19386],[129.5813,33.19243],[129.57933,33.18244],[129.58107,33.17851],[129.58934,33.17283],[129.59038,33.1686],[129.58403,33.16822],[129.58322,33.16065],[129.5914,33.16331],[129.59181,33.17132],[129.5937,33.17523],[129.59183,33.1801],[129.5936,33.18363],[129.59396,33.19161],[129.59078,33.19386]]],[[[129.06655,33.26281],[129.0584,33.25716],[129.06178,33.24711],[129.06792,33.24847],[129.06895,33.24436],[129.07524,33.24802],[129.07266,33.25503],[129.06688,33.25409],[129.0624,33.25914],[129.06655,33.26281]]],[[[129.78084,33.07687],[129.7784,33.07447],[129.78268,33.06676],[129.78635,33.06831],[129.7832,33.07631],[129.78084,33.07687]]],[[[129.67495,33.14327],[129.67348,33.1407],[129.67935,33.13644],[129.68054,33.14116],[129.67495,33.14327]]],[[[129.61086,33.19791],[129.60859,33.18969],[129.61291,33.18927],[129.61086,33.19791]]],[[[129.57857,33.20849],[129.57667,33.21199],[129.57674,33.2077],[129.57857,33.20849]]],[[[129.57444,33.21229],[129.57405,33.21262],[129.57388,33.21225],[129.57453,33.2119],[129.57453,33.21201],[129.57444,33.21229]]]]},"properties":{"pref":"長崎県","city":"佐世保市","code5":"42202","code6":"422029"}},
{"type":"Feature","geometry":{"type":"MultiPolygon","coordinates":[[[[130.37289,32.73751],[130.3745,32.73806],[130.37655,32.73998],[130.37727,32.74718],[130.3709,32.76204],[130.37419,32.77327],[130.37866,32.77874],[130.37734,32.78885],[130.37293,32.79229],[130.36595,32.80357],[130.36625,32.8084],[130.36308,32.81016],[130.3615,32.81547],[130.3571,32.81691],[130.35483,32.82391],[130.34598,32.83989],[130.34099,32.85524],[130.33278,32.86101],[130.31942,32.86677],[130.31253,32.86326],[130.30778,32.85572],[130.30062,32.84023],[130.30282,32.83462],[130.29937,32.81791],[130.28952,32.7944],[130.28501,32.79108],[130.28472,32.7839],[130.27509,32.78212],[130.27293,32.77376],[130.27306,32.76662],[130.28699,32.76213],[130.29379,32.76531],[130.29772,32.76065],[130.30657,32.76236],[130.30862,32.75932],[130.30668,32.75392],[130.29522,32.75416],[130.28765,32.75312],[130.28571,32.75037],[130.29963,32.747],[130.32055,32.74625],[130.32227,32.74719],[130.34877,32.74716],[130.35086,32.74264],[130.35604,32.74159],[130.35736,32.7465],[130.36567,32.74062],[130.37289,32.73751]]],[[[130.37852,32.77521],[130.37855,32.77522],[130.37869,32.77526],[130.37879,32.77529],[130.37872,32.77528],[130.37762,32.77533],[130.37709,32.77418],[130.3785,32.77457],[130.37841,32.77485],[130.37825,32.77494],[130.37842,32.77512],[130.37852,32.77521]]]]},"properties":{"pref":"長崎県","city":"島原市","code5":"42203","code6":"422037"}},
{"type":"Feature","geometry":{"type":"Polygon","coordinates":[[[130.08683,32.9749],[130.08452,32.97009],[130.07753,32.96723],[130.07749,32.95919],[130.06427,32.95322],[130.05827,32.9573],[130.04862,32.95515],[130.04125,32.95631],[130.03643,32.94931],[130.02773,32.94331],[130.02097,32.94147],[130.01766,32.93155],[130.0176,32.92594],[130.01405,32.90649],[130.01328,32.89308],[130.00985,32.88819],[130.00854,32.88136],[130.01323,32.87713],[130.01447,32.86309],[130.01271,32.86002],[130.015,32.85406],[130.01385,32.85031],[130.00353,32.84392],[130.00495,32.84047],[129.99423,32.83975],[129.99413,32.84188],[129.98088,32.84047],[129.97949,32.84352],[129.97049,32.84968],[129.96591,32.84677],[129.95782,32.84669],[129.95617,32.84858],[129.95806,32.85522],[129.94993,32.86127],[129.94101,32.86199],[129.934,32.85754],[129.92759,32.86098],[129.91803,32.86865],[129.91237,32.8663],[129.90546,32.8722],[129.90384,32.87798],[129.89719,32.87816],[129.89413,32.86832],[129.89034,32.87117],[129.88544,32.86859],[129.88912,32.86348],[129.89018,32.85678],[129.89316,32.85566],[129.89928,32.84441],[129.90579,32.84241],[129.91295,32.83361],[129.91589,32.83344],[129.92417,32.82087],[129.93114,32.82003],[129.93452,32.81615],[129.9452,32.8193],[129.95034,32.81941],[129.95522,32.81629],[129.95728,32.81175],[129.96173,32.81042],[129.96933,32.81253],[129.978,32.81746],[129.98032,32.81109],[129.98635,32.80679],[129.99254,32.80661],[129.9931,32.8036],[129.98909,32.79935],[129.98953,32.78749],[129.99354,32.78195],[129.98709,32.7716],[129.99087,32.76303],[129.98772,32.75911],[129.99091,32.75368],[129.99887,32.76193],[130.00368,32.76022],[130.00357,32.76023],[130.00505,32.75792],[130.01963,32.75998],[130.02403,32.75837],[130.02978,32.76157],[130.03177,32.76552],[130.04015,32.76715],[130.05466,32.78001],[130.05893,32.7813],[130.06739,32.78748],[130.07798,32.78985],[130.08349,32.79448],[130.10443,32.79333],[130.11267,32.79037],[130.12435,32.7878],[130.13515,32.78977],[130.1441,32.79603],[130.13568,32.80794],[130.13748,32.80969],[130.14554,32.80949],[130.15285,32.82333],[130.15645,32.82555],[130.15841,32.84076],[130.15409,32.84081],[130.14823,32.84532],[130.17424,32.87003],[130.15533,32.89357],[130.15299,32.89915],[130.15777,32.90207],[130.15634,32.9055],[130.1645,32.90695],[130.16777,32.91204],[130.17335,32.91625],[130.1798,32.91412],[130.18683,32.91406],[130.187,32.92463],[130.19241,32.92847],[130.20186,32.9291],[130.20333,32.93213],[130.19972,32.93833],[130.20332,32.94224],[130.2011,32.94957],[130.20359,32.95712],[130.20116,32.95906],[130.18742,32.9589],[130.17306,32.96215],[130.16166,32.96123],[130.15508,32.96336],[130.14966,32.96279],[130.14406,32.97168],[130.13905,32.96862],[130.13092,32.96832],[130.11451,32.97241],[130.10919,32.97176],[130.10303,32.97474],[130.08683,32.9749]]]},"properties":{"pref":"長崎県","city":"諫早市","code5":"42204","code6":"422045"}},
{"type":"Feature","geometry":{"type":"MultiPolygon","coordinates":[[[[130.04449,33.00411],[130.04263,33.00392],[130.03797,33.00142],[130.0278,32.99966],[130.02291,32.99442],[130.01484,32.99512],[130.00979,32.99754],[130.00161,32.99516],[129.99319,32.99473],[129.9848,32.98706],[129.9743,32.98649],[129.96354,32.98348],[129.95801,32.99224],[129.94918,32.99072],[129.94987,32.98521],[129.94579,32.98271],[129.94224,32.9748],[129.93579,32.97564],[129.92833,32.96869],[129.93213,32.96608],[129.92935,32.95944],[129.93187,32.95705],[129.92894,32.94482],[129.92886,32.93569],[129.93021,32.92646],[129.93508,32.92051],[129.95388,32.90514],[129.95257,32.89937],[129.94961,32.89554],[129.94959,32.89552],[129.95505,32.89614],[129.95898,32.8901],[129.96912,32.89134],[129.97247,32.88591],[129.96479,32.88472],[129.9628,32.87596],[129.96905,32.87142],[129.9724,32.87193],[129.97986,32.86733],[129.98302,32.86165],[129.98958,32.85934],[129.99372,32.85294],[129.99432,32.84859],[130.00067,32.84754],[130.00353,32.84392],[130.01385,32.85031],[130.015,32.85406],[130.01271,32.86002],[130.01447,32.86309],[130.01323,32.87713],[130.00854,32.88136],[130.00985,32.88819],[130.01328,32.89308],[130.01405,32.90649],[130.0176,32.92594],[130.01766,32.93155],[130.02097,32.94147],[130.02773,32.94331],[130.03643,32.94931],[130.04125,32.95631],[130.04862,32.95515],[130.05827,32.9573],[130.06427,32.95322],[130.07749,32.95919],[130.07753,32.96723],[130.08452,32.97009],[130.08683,32.9749],[130.0858,32.97922],[130.07744,32.98475],[130.07606,32.98756],[130.06123,32.98585],[130.05403,32.99168],[130.04449,33.00411]]],[[[129.90186,32.92903],[129.90065,32.92679],[129.90715,32.9207],[129.9064,32.91604],[129.91833,32.90362],[129.92677,32.90786],[129.92585,32.91306],[129.91739,32.92099],[129.91458,32.91917],[129.90399,32.92909],[129.90186,32.92903]]]]},"properties":{"pref":"長崎県","city":"大村市","code5":"42205","code6":"422053"}},
{"type":"Feature","geometry":{"type":"MultiPolygon","coordinates":[[[[129.55531,33.4064],[129.54278,33.4087],[129.53485,33.40172],[129.52933,33.4047],[129.52371,33.40439],[129.51984,33.40105],[129.52648,33.39228],[129.51813,33.39149],[129.5221,33.38681],[129.53694,33.38778],[129.54478,33.38981],[129.54999,33.388],[129.55188,33.3807],[129.54694,33.37652],[129.53001,33.37618],[129.53181,33.36902],[129.52519,33.36255],[129.52256,33.3538],[129.51654,33.35395],[129.51394,33.35796],[129.51841,33.3646],[129.5177,33.37358],[129.52062,33.37766],[129.51091,33.38138],[129.50763,33.37922],[129.50488,33.37115],[129.50645,33.3665],[129.50192,33.35723],[129.48396,33.35585],[129.47787,33.35145],[129.4693,33.35421],[129.45737,33.3497],[129.44362,33.35005],[129.43724,33.34715],[129.43848,33.3441],[129.44349,33.33135],[129.4416,33.32424],[129.43684,33.32396],[129.43679,33.31776],[129.43253,33.31439],[129.44691,33.29699],[129.44308,33.2891],[129.43706,33.29237],[129.42313,33.28896],[129.42099,33.27841],[129.41392,33.27616],[129.40935,33.2766],[129.40429,33.27152],[129.40788,33.26791],[129.40387,33.26544],[129.41202,33.26054],[129.41048,33.24895],[129.41814,33.24847],[129.42734,33.24542],[129.42301,33.24151],[129.43186,33.23894],[129.42983,33.23427],[129.42098,33.23553],[129.42133,33.23379],[129.42631,33.2283],[129.42412,33.22627],[129.4119,33.23806],[129.40837,33.24011],[129.39941,33.24001],[129.39466,33.23785],[129.39024,33.23036],[129.38541,33.22969],[129.38026,33.22388],[129.38193,33.20674],[129.39309,33.19696],[129.40033,33.19935],[129.40602,33.1976],[129.40634,33.19333],[129.40231,33.19016],[129.40279,33.18482],[129.39598,33.18149],[129.39042,33.18657],[129.38714,33.18441],[129.373,33.18459],[129.36384,33.19868],[129.36296,33.2029],[129.35709,33.20717],[129.35159,33.20199],[129.35623,33.19827],[129.35896,33.19207],[129.35046,33.18124],[129.36093,33.17763],[129.37514,33.16869],[129.3975,33.17501],[129.40502,33.18081],[129.41527,33.18252],[129.42289,33.18779],[129.43399,33.19093],[129.44353,33.19881],[129.4442,33.20348],[129.45688,33.21483],[129.46352,33.21381],[129.46694,33.21833],[129.47247,33.23007],[129.47658,33.23218],[129.48489,33.24138],[129.48782,33.25116],[129.49403,33.25242],[129.50124,33.25923],[129.50174,33.26667],[129.50456,33.27136],[129.49736,33.2781],[129.49061,33.27805],[129.48547,33.28435],[129.48858,33.28842],[129.49482,33.28239],[129.50073,33.28628],[129.50413,33.28549],[129.51229,33.28982],[129.50593,33.29321],[129.50426,33.30021],[129.50822,33.30324],[129.51175,33.30139],[129.51796,33.30431],[129.52388,33.30253],[129.53165,33.31035],[129.52573,33.31414],[129.52235,33.32055],[129.51611,33.32545],[129.52045,33.32967],[129.53666,33.33307],[129.54663,33.34167],[129.54598,33.34884],[129.5526,33.3506],[129.56068,33.35561],[129.5663,33.35497],[129.56472,33.36154],[129.56443,33.36179],[129.56058,33.36419],[129.55737,33.37398],[129.56281,33.38181],[129.55845,33.38792],[129.56168,33.39141],[129.55593,33.3968],[129.55899,33.39928],[129.55531,33.4064]]],[[[129.63129,33.34267],[129.63237,33.35427],[129.63056,33.36087],[129.63295,33.36221],[129.62744,33.36313],[129.61204,33.37376],[129.6056,33.36853],[129.59888,33.374],[129.59516,33.37],[129.59072,33.37464],[129.59706,33.37929],[129.59251,33.38126],[129.58833,33.37806],[129.58231,33.37727],[129.57808,33.38001],[129.57473,33.3779],[129.57021,33.37691],[129.56891,33.37105],[129.57732,33.36282],[129.57466,33.35561],[129.57429,33.3493],[129.57161,33.34605],[129.57202,33.33128],[129.5635,33.33319],[129.56141,33.33072],[129.562,33.32489],[129.57123,33.31546],[129.57702,33.30747],[129.58089,33.31068],[129.58721,33.30489],[129.59169,33.30427],[129.59865,33.31204],[129.60832,33.31494],[129.60583,33.31608],[129.60666,33.32363],[129.61109,33.32604],[129.61595,33.32531],[129.6229,33.32932],[129.61984,33.33324],[129.62332,33.33663],[129.62815,33.33663],[129.63129,33.34267]]],[[[129.43459,33.44069],[129.42058,33.43188],[129.4235,33.42094],[129.42159,33.41564],[129.42164,33.40849],[129.41247,33.39804],[129.4133,33.3913],[129.40851,33.37494],[129.40417,33.36478],[129.39813,33.36187],[129.4009,33.35876],[129.42002,33.35126],[129.43507,33.35482],[129.43165,33.36117],[129.43727,33.36581],[129.43074,33.3747],[129.43126,33.38527],[129.43675,33.39638],[129.43533,33.40383],[129.42837,33.40932],[129.43331,33.4188],[129.42793,33.42212],[129.42874,33.42662],[129.43423,33.42902],[129.43459,33.44069]]],[[[129.56705,33.50106],[129.56843,33.4965],[129.56135,33.48772],[129.55385,33.48927],[129.55392,33.49937],[129.55603,33.504],[129.55213,33.5098],[129.5429,33.50477],[129.5277,33.49942],[129.52685,33.49622],[129.50948,33.48282],[129.50355,33.48005],[129.49845,33.4727],[129.5031,33.47139],[129.5074,33.4741],[129.51401,33.47243],[129.5185,33.47164],[129.51846,33.48359],[129.52425,33.48233],[129.52744,33.48473],[129.53493,33.4778],[129.53474,33.47471],[129.55379,33.4694],[129.55424,33.47483],[129.56219,33.47313],[129.57493,33.48372],[129.57862,33.48874],[129.58032,33.49714],[129.57492,33.49633],[129.56705,33.50106]]],[[[129.53058,33.45437],[129.52708,33.45288],[129.52659,33.44772],[129.52142,33.44039],[129.50686,33.43523],[129.50486,33.4278],[129.50739,33.42415],[129.51367,33.4261],[129.5134,33.43107],[129.53234,33.43818],[129.53723,33.43695],[129.53967,33.44573],[129.53264,33.44843],[129.53058,33.45437]]],[[[129.58246,33.30429],[129.58179,33.30561],[129.57902,33.30625],[129.57929,33.30545],[129.58239,33.30433],[129.58246,33.30429]]]]},"properties":{"pref":"長崎県","city":"平戸市","code5":"42207","code6":"422070"}},
{"type":"Feature","geometry":{"type":"MultiPolygon","coordinates":[[[[129.79081,33.3404],[129.79265,33.34327],[129.7931,33.35283],[129.78897,33.35781],[129.79161,33.36742],[129.78867,33.37158],[129.78342,33.37284],[129.77654,33.37192],[129.77429,33.36829],[129.77507,33.36083],[129.77096,33.35866],[129.77113,33.35448],[129.76308,33.35434],[129.76059,33.36007],[129.75464,33.36607],[129.74545,33.36705],[129.73941,33.36477],[129.73763,33.3605],[129.73144,33.36107],[129.72814,33.35544],[129.72222,33.35059],[129.71174,33.3477],[129.70312,33.34717],[129.70141,33.35187],[129.69668,33.35391],[129.69699,33.36131],[129.68682,33.36149],[129.68688,33.35456],[129.67774,33.35306],[129.67401,33.35745],[129.67416,33.36192],[129.66843,33.36578],[129.67333,33.36784],[129.6756,33.38515],[129.67935,33.38348],[129.68522,33.38506],[129.68507,33.38894],[129.6781,33.39013],[129.6728,33.39929],[129.6654,33.39439],[129.66365,33.39019],[129.66781,33.38646],[129.6651,33.38125],[129.65799,33.37783],[129.65746,33.37296],[129.65365,33.37059],[129.64644,33.37175],[129.64488,33.36501],[129.63573,33.36806],[129.63295,33.36221],[129.63056,33.36087],[129.63237,33.35427],[129.63129,33.34267],[129.63761,33.33896],[129.64084,33.33386],[129.6451,33.33259],[129.65586,33.32282],[129.65655,33.31965],[129.66427,33.32151],[129.66745,33.31809],[129.66677,33.31133],[129.6764,33.3079],[129.67937,33.31112],[129.6961,33.30972],[129.70369,33.3105],[129.70878,33.30658],[129.70795,33.30226],[129.71541,33.3025],[129.71391,33.29011],[129.71929,33.28624],[129.72411,33.28529],[129.7351,33.27866],[129.7441,33.27489],[129.74889,33.27716],[129.76025,33.27704],[129.76688,33.26908],[129.77493,33.26693],[129.7778,33.2701],[129.77247,33.28026],[129.76386,33.28988],[129.75897,33.29085],[129.76157,33.29662],[129.76911,33.31906],[129.77583,33.32979],[129.77658,33.33286],[129.78211,33.3371],[129.79081,33.3404]]],[[[129.84098,33.36524],[129.83761,33.36951],[129.84469,33.37128],[129.85079,33.37005],[129.85869,33.37555],[129.85837,33.38139],[129.85117,33.38583],[129.84495,33.38594],[129.83391,33.38383],[129.82881,33.39145],[129.83364,33.3999],[129.8301,33.40686],[129.81973,33.41075],[129.80928,33.40996],[129.80562,33.41172],[129.79739,33.41103],[129.80879,33.40352],[129.81354,33.39908],[129.80757,33.39342],[129.80858,33.38885],[129.81361,33.38296],[129.80905,33.38209],[129.81118,33.37699],[129.81092,33.36952],[129.80356,33.3622],[129.81005,33.35621],[129.80656,33.3534],[129.81199,33.34831],[129.81992,33.35563],[129.82245,33.36092],[129.82865,33.36383],[129.8355,33.36254],[129.84098,33.36524]]],[[[129.78696,33.43303],[129.7788,33.43425],[129.77691,33.43911],[129.77106,33.44291],[129.76894,33.44837],[129.77371,33.45476],[129.76794,33.4563],[129.77126,33.46037],[129.76218,33.4661],[129.75802,33.46489],[129.75343,33.47037],[129.7505,33.46736],[129.75468,33.45472],[129.74951,33.4504],[129.74999,33.44383],[129.7392,33.43774],[129.74419,33.43476],[129.74286,33.42834],[129.73342,33.4277],[129.73106,33.4235],[129.72544,33.4228],[129.71877,33.41868],[129.71926,33.41411],[129.7264,33.41435],[129.72676,33.40994],[129.73126,33.40637],[129.74521,33.40758],[129.75077,33.41299],[129.74671,33.42008],[129.75727,33.41973],[129.76404,33.42912],[129.7699,33.42896],[129.78945,33.42509],[129.79131,33.43244],[129.78696,33.43303]]],[[[129.6871,33.4231],[129.68226,33.42269],[129.68596,33.41653],[129.67954,33.41063],[129.68501,33.40602],[129.68928,33.40803],[129.69018,33.41308],[129.68629,33.41768],[129.6871,33.4231]]],[[[129.719,33.46378],[129.71537,33.45921],[129.71952,33.45435],[129.72624,33.45409],[129.72545,33.46064],[129.719,33.46378]]],[[[129.7775,33.40139],[129.77397,33.40055],[129.77794,33.39379],[129.78465,33.39648],[129.7775,33.40139]]]]},"properties":{"pref":"長崎県","city":"松浦市","code5":"42208","code6":"422088"}},
{"type":"Feature","geometry":{"type":"MultiPolygon","coordinates":[[[[129.45436,34.70058],[129.44784,34.70428],[129.44226,34.70134],[129.44134,34.69642],[129.43147,34.69113],[129.42853,34.69357],[129.41853,34.69566],[129.41606,34.68982],[129.41893,34.68804],[129.41484,34.68247],[129.41976,34.67966],[129.41924,34.67565],[129.40833,34.67834],[129.40715,34.67558],[129.40361,34.6715],[129.40245,34.66399],[129.39731,34.66403],[129.39495,34.65798],[129.38757,34.65308],[129.3834,34.64811],[129.39085,34.63977],[129.38396,34.64275],[129.37888,34.64261],[129.37434,34.64695],[129.36535,34.63849],[129.36225,34.64625],[129.35759,34.64952],[129.3527,34.65],[129.34219,34.64543],[129.3399,34.64066],[129.3355,34.63813],[129.33375,34.64972],[129.33067,34.65088],[129.31965,34.64683],[129.3212,34.6421],[129.31903,34.63649],[129.31773,34.6259],[129.31336,34.62124],[129.31316,34.61425],[129.30541,34.60333],[129.30723,34.59695],[129.30618,34.58913],[129.29873,34.58451],[129.29593,34.57421],[129.29549,34.5738],[129.2868,34.56922],[129.28573,34.56277],[129.28866,34.55622],[129.2952,34.5561],[129.29863,34.5584],[129.3044,34.56768],[129.30967,34.56313],[129.3075,34.56048],[129.31675,34.5542],[129.31504,34.5514],[129.32024,34.54786],[129.32538,34.55153],[129.32957,34.53313],[129.33375,34.53769],[129.33817,34.53809],[129.33627,34.53139],[129.32918,34.52789],[129.32497,34.52992],[129.31749,34.52913],[129.31084,34.52164],[129.30789,34.52575],[129.30382,34.52024],[129.30124,34.51323],[129.29669,34.5067],[129.29638,34.49877],[129.29384,34.49715],[129.2909,34.488],[129.28749,34.48328],[129.28107,34.48075],[129.27993,34.47562],[129.27328,34.46612],[129.27844,34.46348],[129.27398,34.45664],[129.28634,34.44955],[129.29415,34.45158],[129.30029,34.45757],[129.30892,34.46371],[129.30831,34.45547],[129.30237,34.45576],[129.29764,34.4485],[129.29432,34.4469],[129.29259,34.44506],[129.29472,34.43778],[129.28573,34.4436],[129.2782,34.44406],[129.27214,34.43613],[129.27484,34.42951],[129.27062,34.42602],[129.2742,34.41893],[129.27179,34.41358],[129.27457,34.4046],[129.27203,34.39047],[129.2679,34.38561],[129.27705,34.38342],[129.27634,34.37702],[129.27068,34.37473],[129.26283,34.36669],[129.25157,34.36541],[129.25401,34.36129],[129.24889,34.35618],[129.24416,34.36497],[129.23266,34.36628],[129.22815,34.3635],[129.22929,34.35741],[129.23357,34.35328],[129.24407,34.35176],[129.25516,34.35235],[129.26235,34.35507],[129.27607,34.35473],[129.27907,34.35009],[129.29155,34.345],[129.29536,34.35311],[129.29233,34.35877],[129.28473,34.36019],[129.28897,34.36724],[129.29045,34.37381],[129.28494,34.37768],[129.28431,34.38401],[129.29473,34.3755],[129.30535,34.38218],[129.30912,34.38602],[129.31329,34.38383],[129.30897,34.37846],[129.30338,34.37555],[129.29928,34.37021],[129.30349,34.36681],[129.30322,34.35931],[129.30676,34.35553],[129.30458,34.35054],[129.29977,34.34963],[129.30196,34.34131],[129.30559,34.34242],[129.31397,34.34039],[129.3156,34.34839],[129.32584,34.35092],[129.32482,34.35934],[129.32873,34.35979],[129.32366,34.36731],[129.32824,34.3701],[129.33658,34.37973],[129.33882,34.37683],[129.33398,34.37285],[129.33234,34.36854],[129.34275,34.36694],[129.34934,34.36374],[129.34127,34.35847],[129.349,34.35329],[129.35005,34.34806],[129.35587,34.33904],[129.34848,34.33726],[129.3508,34.33071],[129.34539,34.32768],[129.34317,34.32392],[129.33321,34.31878],[129.33663,34.31564],[129.33481,34.31271],[129.3389,34.31219],[129.33628,34.30677],[129.34682,34.30299],[129.35055,34.29733],[129.35392,34.2958],[129.35712,34.30083],[129.36579,34.30621],[129.36566,34.31102],[129.37961,34.31291],[129.37881,34.3179],[129.37511,34.32003],[129.378,34.32421],[129.37366,34.33124],[129.36912,34.33276],[129.37211,34.3374],[129.37949,34.33551],[129.38505,34.33049],[129.39286,34.33664],[129.38813,34.34069],[129.38755,34.35042],[129.3935,34.35982],[129.39338,34.36241],[129.38566,34.36549],[129.3892,34.36963],[129.38442,34.37181],[129.38072,34.37958],[129.37558,34.38558],[129.38072,34.38871],[129.3869,34.38284],[129.38779,34.39028],[129.39358,34.3923],[129.39281,34.39773],[129.39672,34.40653],[129.39526,34.41067],[129.39012,34.40481],[129.38964,34.40095],[129.37619,34.39839],[129.36751,34.39176],[129.36355,34.39185],[129.35753,34.39513],[129.36587,34.39823],[129.36912,34.4065],[129.37602,34.40736],[129.37722,34.41026],[129.37789,34.42007],[129.37499,34.42622],[129.36745,34.41958],[129.36581,34.43248],[129.37068,34.43482],[129.37482,34.43145],[129.3839,34.42447],[129.38507,34.42913],[129.38128,34.43367],[129.38114,34.4384],[129.37434,34.44296],[129.37526,34.44507],[129.36958,34.45193],[129.37208,34.45643],[129.3772,34.4528],[129.38666,34.4582],[129.38954,34.46684],[129.39703,34.4725],[129.3993,34.4768],[129.41284,34.49005],[129.41648,34.49137],[129.42554,34.49884],[129.43713,34.50747],[129.43556,34.51123],[129.43844,34.51538],[129.45077,34.524],[129.44989,34.52977],[129.45595,34.53189],[129.4605,34.53714],[129.45894,34.55252],[129.47163,34.55303],[129.46961,34.55742],[129.47172,34.56088],[129.46934,34.5693],[129.47557,34.57234],[129.47132,34.57503],[129.47604,34.58479],[129.47146,34.58737],[129.4794,34.59458],[129.47386,34.59478],[129.47412,34.59886],[129.4706,34.6008],[129.47017,34.60746],[129.46245,34.60587],[129.45119,34.60975],[129.44869,34.61477],[129.44061,34.61253],[129.43689,34.61322],[129.43563,34.6197],[129.45152,34.61718],[129.44961,34.62603],[129.45379,34.6261],[129.45724,34.61592],[129.47927,34.61772],[129.48017,34.61963],[129.47228,34.62415],[129.47113,34.62777],[129.4768,34.62935],[129.48229,34.6285],[129.49057,34.6429],[129.47542,34.64728],[129.47523,34.65297],[129.46911,34.65553],[129.47044,34.65828],[129.48212,34.65372],[129.48226,34.65843],[129.49551,34.66619],[129.49039,34.66483],[129.48539,34.66671],[129.48438,34.67295],[129.49305,34.68325],[129.4873,34.6835],[129.48651,34.67569],[129.47805,34.67767],[129.4747,34.68536],[129.47952,34.68964],[129.47728,34.69307],[129.46402,34.69784],[129.4548,34.69639],[129.45436,34.70058]]],[[[129.25861,34.29624],[129.25948,34.30046],[129.25,34.30542],[129.24358,34.29755],[129.23634,34.29966],[129.23428,34.29311],[129.2315,34.29222],[129.22312,34.29582],[129.2229,34.30947],[129.22907,34.31878],[129.22782,34.3242],[129.22199,34.32999],[129.21681,34.32672],[129.20417,34.32925],[129.20325,34.32334],[129.19805,34.31876],[129.19619,34.31329],[129.19882,34.30157],[129.19624,34.29453],[129.19503,34.28621],[129.19791,34.28235],[129.19439,34.27389],[129.19555,34.26855],[129.19204,34.25901],[129.18639,34.25083],[129.18525,34.24599],[129.1913,34.23537],[129.18962,34.23131],[129.18168,34.22669],[129.17965,34.21963],[129.18062,34.21105],[129.17931,34.20593],[129.17818,34.18875],[129.17963,34.18496],[129.1763,34.17611],[129.17854,34.16833],[129.17406,34.1679],[129.17258,34.15604],[129.17451,34.14988],[129.1692,34.14628],[129.16759,34.12987],[129.17174,34.12303],[129.17016,34.11884],[129.17088,34.1115],[129.1667,34.104],[129.17367,34.10599],[129.17728,34.11332],[129.18249,34.11388],[129.18264,34.11802],[129.19612,34.1131],[129.19678,34.10581],[129.20358,34.10398],[129.20966,34.10674],[129.21133,34.11237],[129.21578,34.11219],[129.21171,34.10502],[129.21763,34.10038],[129.21247,34.08487],[129.22024,34.0886],[129.21833,34.09506],[129.22162,34.09744],[129.22939,34.09472],[129.23079,34.1039],[129.23035,34.11271],[129.23578,34.11278],[129.23795,34.10555],[129.24576,34.10566],[129.24502,34.1096],[129.24994,34.1126],[129.25434,34.10962],[129.26096,34.11444],[129.26267,34.12196],[129.254,34.12536],[129.26142,34.12792],[129.26376,34.1263],[129.27941,34.13079],[129.28055,34.13433],[129.2775,34.14124],[129.27916,34.14485],[129.2821,34.14531],[129.28044,34.15565],[129.28393,34.15993],[129.28175,34.16338],[129.28621,34.16569],[129.29048,34.16243],[129.29605,34.16179],[129.29707,34.17257],[129.29602,34.17955],[129.29189,34.19037],[129.28541,34.18931],[129.29143,34.19724],[129.29151,34.19729],[129.29703,34.19364],[129.30075,34.20189],[129.30058,34.20799],[129.30365,34.21161],[129.29573,34.21566],[129.29722,34.22028],[129.30272,34.22276],[129.30553,34.2162],[129.31183,34.21841],[129.313,34.22142],[129.32168,34.2257],[129.32579,34.22605],[129.32181,34.23606],[129.31531,34.2427],[129.31851,34.25457],[129.32377,34.25611],[129.32551,34.26207],[129.32456,34.26779],[129.33062,34.27592],[129.33602,34.27188],[129.34051,34.27743],[129.3488,34.27811],[129.351,34.28152],[129.34654,34.28681],[129.35049,34.28998],[129.34648,34.29422],[129.34003,34.29482],[129.33078,34.29828],[129.32508,34.29439],[129.31665,34.29356],[129.31419,34.29124],[129.315,34.28446],[129.30704,34.28398],[129.30347,34.28081],[129.29927,34.28238],[129.29878,34.2869],[129.30214,34.29156],[129.30077,34.29662],[129.30409,34.30449],[129.30158,34.30976],[129.29284,34.31116],[129.29393,34.31669],[129.28864,34.31765],[129.2805,34.31602],[129.28119,34.3228],[129.27421,34.32128],[129.26692,34.32248],[129.27398,34.31396],[129.27443,34.30997],[129.28272,34.30573],[129.28383,34.29766],[129.28974,34.29441],[129.286,34.28538],[129.28241,34.28969],[129.28555,34.29521],[129.27852,34.29761],[129.28244,34.30334],[129.27934,34.30611],[129.26681,34.30515],[129.25975,34.2908],[129.25861,34.29624]]],[[[129.37154,34.29659],[129.36877,34.3024],[129.36381,34.29784],[129.3566,34.29811],[129.35098,34.2929],[129.35299,34.28787],[129.35084,34.28332],[129.35316,34.27802],[129.35937,34.27064],[129.36813,34.27846],[129.38416,34.28639],[129.38813,34.29308],[129.39316,34.29677],[129.39206,34.30096],[129.38768,34.30298],[129.37364,34.30247],[129.37154,34.29659]]],[[[129.29751,34.33713],[129.29171,34.32789],[129.29798,34.32887],[129.30354,34.32129],[129.3095,34.32118],[129.31193,34.32495],[129.31652,34.3175],[129.31761,34.31266],[129.32167,34.30908],[129.33407,34.30687],[129.33409,34.31286],[129.33593,34.31611],[129.3285,34.31701],[129.32866,34.32958],[129.32656,34.33637],[129.31831,34.33101],[129.3174,34.32614],[129.31309,34.32657],[129.30963,34.33088],[129.30306,34.3309],[129.29751,34.33713]]],[[[129.39631,34.35987],[129.39181,34.3539],[129.38904,34.34019],[129.39646,34.33674],[129.40764,34.33817],[129.40431,34.35215],[129.39631,34.35987]]],[[[129.39535,34.32348],[129.38826,34.32052],[129.39347,34.31671],[129.39535,34.32348]]],[[[129.41247,34.36326],[129.40833,34.35949],[129.40416,34.36108],[129.40596,34.35077],[129.41141,34.35369],[129.41247,34.36326]]],[[[129.32772,34.30664],[129.32125,34.30247],[129.32271,34.29958],[129.32979,34.30423],[129.32772,34.30664]]]]},"properties":{"pref":"長崎県","city":"対馬市","code5":"42209","code6":"422096"}},
{"type":"Feature","geometry":{"type":"MultiPolygon","coordinates":[[[[129.76468,33.82607],[129.7665,33.829],[129.76489,33.8341],[129.77308,33.84225],[129.76834,33.84646],[129.76425,33.84467],[129.75364,33.84721],[129.74295,33.84744],[129.72431,33.85054],[129.72113,33.85569],[129.71655,33.85691],[129.71142,33.85512],[129.70189,33.86086],[129.69212,33.85605],[129.67564,33.84426],[129.67559,33.84421],[129.67558,33.8442],[129.67447,33.84366],[129.67446,33.84365],[129.67142,33.83807],[129.67277,33.82604],[129.67518,33.82293],[129.67519,33.82292],[129.67272,33.81988],[129.67276,33.81941],[129.67377,33.8179],[129.67538,33.81921],[129.68116,33.81113],[129.68386,33.81152],[129.68574,33.80855],[129.68817,33.80734],[129.68638,33.80665],[129.68638,33.80667],[129.68372,33.80496],[129.67753,33.80524],[129.67151,33.80504],[129.66215,33.81287],[129.66183,33.81316],[129.65422,33.81268],[129.65285,33.80652],[129.65844,33.80333],[129.6645,33.80255],[129.6642,33.79862],[129.65807,33.79915],[129.65765,33.79422],[129.66043,33.78808],[129.65671,33.78752],[129.65572,33.7809],[129.66013,33.77568],[129.67483,33.77633],[129.67432,33.77317],[129.67493,33.77275],[129.68016,33.77197],[129.68188,33.76094],[129.67358,33.76806],[129.66349,33.76719],[129.65036,33.77353],[129.64639,33.77332],[129.64308,33.77041],[129.64333,33.76975],[129.64488,33.76454],[129.64965,33.76209],[129.64983,33.76171],[129.65236,33.76202],[129.64726,33.75308],[129.65372,33.74669],[129.66203,33.74665],[129.66404,33.74872],[129.66405,33.74873],[129.66435,33.74848],[129.6646,33.74815],[129.66787,33.75352],[129.6714,33.75432],[129.68076,33.74702],[129.68302,33.74283],[129.68459,33.73833],[129.68065,33.7358],[129.67659,33.72827],[129.6837,33.7243],[129.68398,33.72356],[129.68401,33.72352],[129.68403,33.72351],[129.68793,33.7221],[129.69177,33.72431],[129.69621,33.7222],[129.69226,33.71649],[129.70073,33.7111],[129.70892,33.71062],[129.71517,33.70702],[129.72109,33.71699],[129.7211,33.717],[129.72136,33.71737],[129.73191,33.72629],[129.73445,33.7393],[129.73847,33.73803],[129.75305,33.74021],[129.75731,33.74343],[129.7624,33.73841],[129.76625,33.74018],[129.7787,33.74039],[129.78183,33.74318],[129.78808,33.74186],[129.78609,33.7441],[129.7879,33.75499],[129.79401,33.75578],[129.79897,33.76164],[129.79126,33.76325],[129.78707,33.76911],[129.77977,33.77251],[129.77209,33.77271],[129.77202,33.76841],[129.76596,33.76731],[129.75868,33.77388],[129.75877,33.77885],[129.7641,33.78432],[129.7728,33.78619],[129.7814,33.78441],[129.7845,33.78595],[129.79608,33.77937],[129.79885,33.78869],[129.78647,33.78756],[129.77693,33.79539],[129.7711,33.79589],[129.76415,33.80062],[129.76392,33.80312],[129.75561,33.80635],[129.75782,33.81191],[129.76395,33.81158],[129.76016,33.81618],[129.76302,33.81812],[129.76468,33.82607]]],[[[129.62907,33.73371],[129.63756,33.73441],[129.6436,33.73728],[129.64381,33.74171],[129.62823,33.74206],[129.62821,33.74205],[129.63039,33.73675],[129.62907,33.73371]]],[[[129.68259,33.86854],[129.68389,33.86246],[129.68879,33.86646],[129.68259,33.86854]]],[[[129.64817,33.73067],[129.6472,33.718],[129.65378,33.72526],[129.64817,33.73067]]],[[[129.63525,33.72865],[129.62906,33.73057],[129.62757,33.72714],[129.63374,33.72561],[129.63483,33.72605],[129.63525,33.72865]]],[[[129.65989,33.83393],[129.65857,33.83047],[129.66054,33.83041],[129.65989,33.83393]]],[[[129.67023,33.76904],[129.67027,33.76905],[129.67024,33.76905],[129.67023,33.76904]]],[[[129.79947,33.78859],[129.79941,33.78859],[129.79943,33.78857],[129.79948,33.78857],[129.7996,33.78861],[129.79947,33.78859]]],[[[129.67002,33.76914],[129.66992,33.76914],[129.67001,33.76913],[129.67013,33.76913],[129.67002,33.76914]]],[[[129.6398,33.7353],[129.6398,33.73526],[129.63982,33.73527],[129.63982,33.73528],[129.6398,33.7353]]]]},"properties":{"pref":"長崎県","city":"壱岐市","code5":"42210","code6":"422100"}},
{"type":"Feature","geometry":{"type":"MultiPolygon","coordinates":[[[[128.69353,32.60361],[128.70568,32.60526],[128.7159,32.60408],[128.72825,32.60748],[128.73678,32.60701],[128.74216,32.59968],[128.75157,32.59078],[128.7529,32.57946],[128.76529,32.57565],[128.77289,32.57446],[128.78225,32.58749],[128.78872,32.58803],[128.79319,32.5914],[128.79276,32.59868],[128.78884,32.60581],[128.77903,32.61335],[128.77568,32.61287],[128.76929,32.61826],[128.76294,32.61824],[128.76159,32.62399],[128.76629,32.62567],[128.76595,32.63856],[128.7701,32.64475],[128.7816,32.64463],[128.78637,32.64888],[128.79098,32.6484],[128.79603,32.65204],[128.8064,32.65546],[128.8115,32.65351],[128.81,32.64791],[128.81571,32.64616],[128.81825,32.63861],[128.82593,32.63564],[128.83885,32.63739],[128.84489,32.64058],[128.85536,32.64238],[128.86387,32.64222],[128.87072,32.6437],[128.87174,32.63916],[128.88251,32.63959],[128.89333,32.64436],[128.89739,32.65084],[128.89672,32.6541],[128.89177,32.65657],[128.88666,32.65584],[128.88364,32.66174],[128.88629,32.66399],[128.8728,32.67811],[128.85763,32.68615],[128.85396,32.69175],[128.84725,32.69661],[128.85089,32.70073],[128.8437,32.70551],[128.84083,32.7092],[128.84199,32.71418],[128.83954,32.72476],[128.8428,32.73117],[128.84414,32.73799],[128.8425,32.74173],[128.85469,32.74425],[128.85174,32.75031],[128.84496,32.75121],[128.83928,32.7475],[128.8329,32.75196],[128.8286,32.74896],[128.8313,32.74358],[128.82484,32.74205],[128.82687,32.74941],[128.83662,32.75755],[128.83514,32.76048],[128.82633,32.7566],[128.82879,32.75414],[128.81451,32.75068],[128.81018,32.75206],[128.80947,32.75665],[128.8163,32.75824],[128.82463,32.75664],[128.81941,32.7666],[128.81301,32.76959],[128.80951,32.774],[128.80776,32.79085],[128.80498,32.79248],[128.79239,32.78909],[128.79115,32.78238],[128.79252,32.77702],[128.78598,32.77492],[128.77936,32.77794],[128.77371,32.77181],[128.77033,32.76542],[128.76905,32.76473],[128.76527,32.76047],[128.76858,32.75704],[128.7757,32.75617],[128.78161,32.76217],[128.79463,32.7638],[128.78977,32.75938],[128.78091,32.75643],[128.77512,32.75043],[128.77798,32.73914],[128.7764,32.73524],[128.77004,32.73505],[128.76794,32.74152],[128.7694,32.74857],[128.76855,32.75316],[128.76236,32.75696],[128.75877,32.76864],[128.75328,32.76624],[128.75182,32.75984],[128.74616,32.75736],[128.74083,32.75081],[128.7249,32.74701],[128.72936,32.75164],[128.72606,32.75568],[128.71901,32.75296],[128.71311,32.74722],[128.70521,32.74501],[128.70682,32.73855],[128.69792,32.73751],[128.69205,32.74055],[128.69388,32.74528],[128.69841,32.74805],[128.69655,32.75385],[128.69817,32.76033],[128.69732,32.76643],[128.6897,32.76775],[128.68398,32.77051],[128.68087,32.77274],[128.6817,32.77888],[128.67385,32.78083],[128.66597,32.78095],[128.6636,32.7833],[128.65775,32.78073],[128.65774,32.78073],[128.64707,32.76907],[128.64619,32.76417],[128.64031,32.7612],[128.64788,32.75735],[128.64654,32.75143],[128.65209,32.74652],[128.65302,32.73946],[128.64794,32.73694],[128.64512,32.72443],[128.64674,32.71987],[128.65244,32.71494],[128.66002,32.71079],[128.66011,32.70369],[128.65126,32.70266],[128.64799,32.70022],[128.65313,32.69129],[128.65365,32.68479],[128.6492,32.68092],[128.65242,32.67779],[128.65886,32.67614],[128.6611,32.67178],[128.67031,32.6725],[128.67356,32.66891],[128.66522,32.66678],[128.66283,32.65775],[128.65862,32.65959],[128.65377,32.65406],[128.66315,32.65335],[128.66505,32.6474],[128.64542,32.65117],[128.6452,32.64249],[128.64127,32.6357],[128.63619,32.63357],[128.63724,32.62559],[128.64335,32.62283],[128.6499,32.62549],[128.65328,32.6295],[128.66488,32.63298],[128.66609,32.62718],[128.6574,32.62604],[128.6506,32.62011],[128.65582,32.61279],[128.64747,32.6067],[128.64451,32.61229],[128.6398,32.60988],[128.61919,32.63074],[128.61515,32.6312],[128.61921,32.63957],[128.61512,32.64554],[128.61053,32.64167],[128.61062,32.64167],[128.60783,32.6356],[128.60925,32.62869],[128.60512,32.62523],[128.60048,32.61936],[128.59841,32.61249],[128.61032,32.61119],[128.6149,32.60844],[128.62417,32.60875],[128.6302,32.60501],[128.63231,32.6002],[128.64074,32.59255],[128.64565,32.59483],[128.6569,32.5909],[128.6608,32.59461],[128.6552,32.59965],[128.65849,32.6048],[128.66564,32.6084],[128.67403,32.60612],[128.67842,32.60739],[128.6884,32.60252],[128.69353,32.60361]]],[[[128.8531,32.83158],[128.84879,32.83466],[128.84402,32.83348],[128.83782,32.83833],[128.83507,32.83557],[128.83758,32.83002],[128.83712,32.81723],[128.83934,32.81388],[128.838,32.80421],[128.83485,32.79621],[128.83811,32.78993],[128.83617,32.77928],[128.84173,32.78103],[128.84977,32.77892],[128.85477,32.77216],[128.85931,32.77061],[128.86006,32.76658],[128.86607,32.76344],[128.88302,32.76474],[128.88601,32.77595],[128.89025,32.7785],[128.89365,32.78509],[128.90248,32.78845],[128.90427,32.79627],[128.91064,32.79843],[128.90372,32.80238],[128.90309,32.80932],[128.90584,32.81339],[128.90032,32.81457],[128.90064,32.82165],[128.89576,32.82477],[128.88588,32.82501],[128.88333,32.83387],[128.87391,32.83797],[128.87059,32.84187],[128.865,32.84448],[128.86605,32.83229],[128.86835,32.83038],[128.86609,32.82649],[128.86996,32.81987],[128.87843,32.81785],[128.87853,32.8109],[128.87319,32.80839],[128.87694,32.80297],[128.87629,32.79767],[128.86929,32.80239],[128.86261,32.80184],[128.86612,32.80816],[128.862,32.81885],[128.86509,32.82299],[128.86262,32.8261],[128.86326,32.83095],[128.85752,32.83649],[128.8531,32.83158]]],[[[128.95686,32.84121],[128.95377,32.84639],[128.95617,32.85065],[128.963,32.84962],[128.96211,32.86018],[128.95837,32.86905],[128.94851,32.88131],[128.94665,32.87831],[128.94918,32.87267],[128.94646,32.86575],[128.94204,32.85963],[128.94357,32.85728],[128.94273,32.8491],[128.93584,32.85513],[128.93524,32.8616],[128.92571,32.87327],[128.92259,32.87012],[128.92431,32.86607],[128.93177,32.86061],[128.93146,32.85702],[128.93585,32.85055],[128.93275,32.84607],[128.9274,32.84274],[128.92674,32.85311],[128.91631,32.87013],[128.91091,32.87227],[128.89952,32.8708],[128.89417,32.87849],[128.88757,32.87517],[128.88781,32.87185],[128.8881,32.86559],[128.8795,32.86777],[128.87831,32.86217],[128.88154,32.85303],[128.88981,32.85613],[128.88852,32.8629],[128.90324,32.85566],[128.90279,32.8507],[128.9106,32.84751],[128.91369,32.84232],[128.91872,32.84316],[128.92295,32.83488],[128.92769,32.83217],[128.92865,32.82401],[128.92172,32.82211],[128.92369,32.81881],[128.9323,32.81766],[128.93845,32.82286],[128.93925,32.80962],[128.94028,32.79967],[128.94518,32.80247],[128.94509,32.80806],[128.94855,32.81374],[128.94115,32.82466],[128.94503,32.83262],[128.95553,32.82861],[128.95778,32.82883],[128.95423,32.83386],[128.95686,32.84121]]],[[[128.99837,32.78693],[128.99229,32.79144],[128.98703,32.78174],[128.98576,32.77433],[128.98818,32.76774],[128.98929,32.76011],[128.98666,32.75775],[128.97922,32.76046],[128.9693,32.75548],[128.96286,32.75087],[128.96611,32.746],[128.96757,32.7464],[128.97024,32.7477],[128.97307,32.74537],[128.97932,32.74609],[128.98289,32.74273],[128.98757,32.74438],[128.98494,32.74873],[128.99022,32.75532],[128.99303,32.75036],[129.00426,32.7505],[129.00278,32.75672],[129.00476,32.76224],[129.0024,32.7665],[129.00735,32.77008],[128.99837,32.78693]]],[[[128.63906,32.66566],[128.63405,32.66934],[128.64063,32.67272],[128.63455,32.67987],[128.6285,32.67661],[128.62667,32.66982],[128.61787,32.66127],[128.61523,32.65509],[128.61683,32.64647],[128.62245,32.63761],[128.63563,32.64679],[128.6338,32.65768],[128.63559,32.65831],[128.63056,32.66029],[128.63906,32.66566]]],[[[128.60058,32.73767],[128.59053,32.72699],[128.59079,32.7131],[128.59843,32.71089],[128.60345,32.7184],[128.60035,32.729],[128.60865,32.73304],[128.60934,32.73972],[128.60173,32.73998],[128.60058,32.73767]]],[[[128.41333,32.05017],[128.40678,32.04885],[128.40154,32.04993],[128.39289,32.05433],[128.39325,32.04894],[128.38781,32.04019],[128.3921,32.03911],[128.40043,32.04233],[128.40242,32.04079],[128.40527,32.03732],[128.40926,32.04459],[128.41405,32.0471],[128.41333,32.05017]]],[[[128.95789,32.77703],[128.95336,32.77256],[128.95545,32.76411],[128.96514,32.76155],[128.96727,32.76849],[128.96251,32.77105],[128.95789,32.77703]]],[[[128.90553,32.57125],[128.89797,32.57112],[128.89154,32.56727],[128.89631,32.56088],[128.90562,32.56225],[128.90755,32.5665],[128.90553,32.57125]]],[[[128.35426,31.9887],[128.35196,31.99768],[128.35829,32.00339],[128.35732,32.00743],[128.34376,32.0041],[128.35014,31.9972],[128.34771,31.9926],[128.35426,31.9887]]],[[[128.84082,32.60223],[128.83146,32.60563],[128.82635,32.60064],[128.82856,32.59736],[128.8382,32.59536],[128.84186,32.59856],[128.84082,32.60223]]],[[[128.89824,32.71185],[128.89492,32.71112],[128.89353,32.70576],[128.8984,32.69794],[128.9057,32.70516],[128.89824,32.71185]]],[[[128.87963,32.75079],[128.86989,32.7458],[128.86875,32.74088],[128.87603,32.73886],[128.88122,32.74892],[128.87963,32.75079]]],[[[128.91711,32.89691],[128.91214,32.8944],[128.90964,32.8859],[128.91639,32.88653],[128.919,32.89442],[128.91711,32.89691]]],[[[128.91902,32.59635],[128.92036,32.59151],[128.92752,32.59182],[128.92663,32.59636],[128.91902,32.59635]]],[[[128.68051,32.81036],[128.67481,32.80574],[128.6775,32.80258],[128.68265,32.80402],[128.68051,32.81036]]],[[[128.86288,32.73137],[128.85752,32.7272],[128.86293,32.7211],[128.86288,32.73137]]],[[[128.93427,32.80766],[128.92904,32.80023],[128.93665,32.80061],[128.93427,32.80766]]],[[[128.1079,32.24842],[128.10785,32.24838],[128.10788,32.24836],[128.10789,32.24835],[128.10791,32.24841],[128.1079,32.24842]]]]},"properties":{"pref":"長崎県","city":"五島市","code5":"42211","code6":"422118"}},
{"type":"Feature","geometry":{"type":"MultiPolygon","coordinates":[[[[129.80695,32.96193],[129.81176,32.96988],[129.81842,32.96862],[129.81807,32.97377],[129.82409,32.97248],[129.82141,32.97899],[129.82166,32.98392],[129.81633,32.98536],[129.81258,32.99071],[129.81526,32.99401],[129.81118,32.99952],[129.79672,33.00915],[129.79026,33.00947],[129.78672,33.00628],[129.78172,33.00759],[129.77783,33.01387],[129.77042,33.01306],[129.76901,33.01739],[129.76353,33.02091],[129.75831,33.01018],[129.7532,33.00845],[129.75333,33.00498],[129.75969,33.00442],[129.75737,32.99958],[129.75232,33.00064],[129.74936,32.99479],[129.74074,32.99215],[129.73549,32.99534],[129.7355,32.99913],[129.74046,33.00388],[129.73464,33.00544],[129.73378,33.00902],[129.74063,33.02785],[129.74344,33.0293],[129.74663,33.03833],[129.75153,33.03843],[129.76159,33.04606],[129.76,33.05191],[129.74986,33.05577],[129.74788,33.05997],[129.7362,33.05325],[129.73503,33.04781],[129.73125,33.04551],[129.72709,33.05089],[129.72979,33.05813],[129.73577,33.06121],[129.72957,33.0755],[129.7257,33.07594],[129.7232,33.07176],[129.71785,33.07639],[129.71804,33.08193],[129.71095,33.08666],[129.69653,33.08974],[129.69025,33.09436],[129.67734,33.09929],[129.6731,33.09321],[129.67611,33.08554],[129.6728,33.08042],[129.66754,33.08084],[129.66546,33.07769],[129.67381,33.07661],[129.67272,33.07162],[129.66125,33.07118],[129.6614,33.06891],[129.66976,33.06742],[129.67381,33.06516],[129.66732,33.06419],[129.66226,33.06107],[129.6636,33.05483],[129.65987,33.05057],[129.6613,33.04683],[129.65918,33.03968],[129.65005,33.04185],[129.64691,33.03705],[129.64902,33.0314],[129.64741,33.02102],[129.64836,33.01722],[129.65399,33.01128],[129.65425,33.00511],[129.65876,33.00378],[129.65346,32.99924],[129.65321,32.99136],[129.65183,32.98689],[129.64618,32.98696],[129.64575,32.9913],[129.63307,32.98754],[129.62718,32.97872],[129.62705,32.97116],[129.62928,32.96589],[129.62942,32.95569],[129.62539,32.9521],[129.63707,32.94589],[129.63877,32.93739],[129.63431,32.93632],[129.63375,32.92941],[129.63746,32.92302],[129.64117,32.92095],[129.64357,32.93208],[129.65238,32.93043],[129.65504,32.92096],[129.66091,32.91548],[129.65991,32.91087],[129.66613,32.90367],[129.66854,32.89548],[129.67337,32.89724],[129.67718,32.90187],[129.6829,32.90391],[129.69077,32.90258],[129.69862,32.90368],[129.70589,32.90631],[129.70906,32.91273],[129.71556,32.90985],[129.71893,32.91141],[129.72956,32.91129],[129.7333,32.91498],[129.73763,32.91313],[129.74244,32.919],[129.73731,32.93026],[129.74139,32.93682],[129.73969,32.93906],[129.74086,32.94699],[129.74831,32.94831],[129.76347,32.95484],[129.77331,32.95634],[129.78563,32.96257],[129.79183,32.96858],[129.80251,32.96495],[129.80695,32.96193]]],[[[129.60878,33.0653],[129.60553,33.063],[129.60464,33.05681],[129.60151,33.05095],[129.59179,33.04674],[129.58638,33.03475],[129.58721,33.02776],[129.5938,33.02737],[129.59835,33.02354],[129.60261,33.02573],[129.60828,33.02396],[129.61294,33.03418],[129.62487,33.03308],[129.62905,33.03985],[129.62944,33.04355],[129.63449,33.05087],[129.63015,33.05338],[129.63056,33.05841],[129.63669,33.05874],[129.63652,33.06213],[129.6295,33.06395],[129.62525,33.06002],[129.61086,33.06168],[129.60878,33.0653]]],[[[129.60282,32.95034],[129.59849,32.94785],[129.5916,32.93491],[129.59592,32.93182],[129.59911,32.92273],[129.6052,32.91819],[129.61651,32.91723],[129.62275,32.9248],[129.62469,32.93442],[129.62387,32.93729],[129.61282,32.94285],[129.60993,32.93938],[129.60536,32.93874],[129.59976,32.9429],[129.59857,32.94781],[129.60282,32.95034]]],[[[129.25699,33.02033],[129.2545,33.01404],[129.2494,33.01333],[129.24146,33.01907],[129.23297,33.01103],[129.2308,33.0066],[129.22665,33.00423],[129.22757,33.00039],[129.23264,33.00075],[129.24598,32.99352],[129.25457,32.99987],[129.2531,33.00771],[129.25587,33.00941],[129.25833,33.01597],[129.25699,33.02033]]],[[[129.58269,33.01246],[129.59033,33.02185],[129.5835,33.02758],[129.5743,33.02762],[129.56781,33.0302],[129.5625,33.03033],[129.56,33.02643],[129.56749,33.01466],[129.5571,33.00881],[129.55487,33.00334],[129.56249,33.00083],[129.57147,33.00945],[129.57726,33.0097],[129.58269,33.01246]]],[[[129.35502,33.01995],[129.34528,33.01766],[129.34246,33.01523],[129.34421,33.01055],[129.34103,33.00733],[129.34572,33.00305],[129.34523,32.99789],[129.34972,32.99762],[129.35132,33.00296],[129.35724,33.0042],[129.35545,33.01283],[129.3548,33.01587],[129.35463,33.01604],[129.35497,33.01854],[129.35502,33.01995]]],[[[129.63184,33.03958],[129.62684,33.0324],[129.62887,33.02769],[129.63834,33.03531],[129.6374,33.04376],[129.63184,33.03958]]],[[[129.65023,33.0096],[129.64829,33.00438],[129.6467,32.98758],[129.65184,32.98738],[129.6527,32.99076],[129.64883,33.00068],[129.65159,33.00454],[129.65023,33.0096]]],[[[129.3627,33.00353],[129.36292,33.00305],[129.36294,33.00321],[129.3627,33.00353]]]]},"properties":{"pref":"長崎県","city":"西海市","code5":"42212","code6":"422126"}},
{"type":"Feature","geometry":{"type":"Polygon","coordinates":[[[130.31942,32.86677],[130.31133,32.87052],[130.31105,32.87412],[130.30436,32.8795],[130.29719,32.88137],[130.28904,32.87697],[130.28208,32.87836],[130.27554,32.87471],[130.26883,32.87427],[130.26112,32.87152],[130.25056,32.87276],[130.2438,32.87556],[130.23534,32.87107],[130.22466,32.86034],[130.20991,32.85569],[130.2055,32.85193],[130.19736,32.85086],[130.19524,32.84812],[130.1841,32.85766],[130.17424,32.87003],[130.14823,32.84532],[130.15409,32.84081],[130.15841,32.84076],[130.15645,32.82555],[130.15285,32.82333],[130.14554,32.80949],[130.13748,32.80969],[130.13568,32.80794],[130.1441,32.79603],[130.15506,32.79365],[130.17906,32.79456],[130.1868,32.78906],[130.19313,32.78296],[130.19333,32.78048],[130.18584,32.77491],[130.18965,32.76698],[130.18743,32.76452],[130.19499,32.75557],[130.20207,32.75685],[130.20785,32.75277],[130.21006,32.74334],[130.20821,32.73334],[130.20083,32.72252],[130.20112,32.72037],[130.18829,32.71328],[130.18645,32.70774],[130.17245,32.70268],[130.16491,32.694],[130.16009,32.69407],[130.15812,32.68541],[130.15442,32.6829],[130.1408,32.68127],[130.13257,32.68148],[130.12852,32.66371],[130.1289,32.65553],[130.14661,32.65929],[130.15349,32.65965],[130.16294,32.66273],[130.17348,32.66203],[130.18186,32.67094],[130.19182,32.67404],[130.20239,32.68336],[130.22151,32.69126],[130.22671,32.6958],[130.23503,32.69932],[130.24259,32.70457],[130.24904,32.71145],[130.24781,32.72024],[130.25159,32.72438],[130.27095,32.72349],[130.27156,32.73028],[130.27523,32.73108],[130.28748,32.74328],[130.28571,32.75037],[130.28765,32.75312],[130.29522,32.75416],[130.30668,32.75392],[130.30862,32.75932],[130.30657,32.76236],[130.29772,32.76065],[130.29379,32.76531],[130.28699,32.76213],[130.27306,32.76662],[130.27293,32.77376],[130.27509,32.78212],[130.28472,32.7839],[130.28501,32.79108],[130.28952,32.7944],[130.29937,32.81791],[130.30282,32.83462],[130.30062,32.84023],[130.30778,32.85572],[130.31253,32.86326],[130.31942,32.86677]]]},"properties":{"pref":"長崎県","city":"雲仙市","code5":"42213","code6":"422134"}},
{"type":"Feature","geometry":{"type":"Polygon","coordinates":[[[130.28571,32.75037],[130.28748,32.74328],[130.27523,32.73108],[130.27156,32.73028],[130.27095,32.72349],[130.25159,32.72438],[130.24781,32.72024],[130.24904,32.71145],[130.24259,32.70457],[130.23503,32.69932],[130.22671,32.6958],[130.22151,32.69126],[130.20239,32.68336],[130.19182,32.67404],[130.18186,32.67094],[130.17348,32.66203],[130.16294,32.66273],[130.15349,32.65965],[130.14661,32.65929],[130.1289,32.65553],[130.12745,32.65029],[130.12958,32.64085],[130.13835,32.63561],[130.14308,32.63621],[130.14893,32.63318],[130.15686,32.62362],[130.16162,32.62709],[130.16971,32.61933],[130.1713,32.61301],[130.17415,32.61078],[130.174,32.60285],[130.16562,32.59809],[130.1681,32.59125],[130.17691,32.59387],[130.18112,32.59274],[130.18963,32.59861],[130.19608,32.59967],[130.1955,32.60415],[130.18963,32.60508],[130.19037,32.60933],[130.20182,32.60829],[130.20376,32.60425],[130.21128,32.60631],[130.21809,32.60538],[130.22619,32.61042],[130.22986,32.61063],[130.23131,32.61585],[130.23815,32.62655],[130.24486,32.62915],[130.24769,32.62566],[130.2553,32.62869],[130.25949,32.63432],[130.25942,32.6422],[130.26571,32.64742],[130.25939,32.65053],[130.27349,32.65408],[130.28576,32.65188],[130.29364,32.65207],[130.30361,32.65252],[130.30387,32.65267],[130.30415,32.65284],[130.31908,32.65933],[130.32227,32.66527],[130.32775,32.66365],[130.33613,32.67047],[130.34838,32.6743],[130.35295,32.68492],[130.35654,32.68962],[130.35755,32.69511],[130.34877,32.70149],[130.34573,32.7085],[130.34921,32.70922],[130.35138,32.71422],[130.36467,32.72737],[130.36965,32.73518],[130.37289,32.73751],[130.36567,32.74062],[130.35736,32.7465],[130.35604,32.74159],[130.35086,32.74264],[130.34877,32.74716],[130.32227,32.74719],[130.32055,32.74625],[130.29963,32.747],[130.28571,32.75037]]]},"properties":{"pref":"長崎県","city":"南島原市","code5":"42214","code6":"422142"}},
{"type":"Feature","geometry":{"type":"Polygon","coordinates":[[[129.92417,32.82087],[129.91589,32.83344],[129.91295,32.83361],[129.90579,32.84241],[129.89928,32.84441],[129.89316,32.85566],[129.89018,32.85678],[129.88912,32.86348],[129.88544,32.86859],[129.89034,32.87117],[129.88947,32.87431],[129.88333,32.87461],[129.88399,32.87941],[129.87896,32.87984],[129.87867,32.87436],[129.88121,32.86944],[129.8795,32.86345],[129.87303,32.85854],[129.86736,32.85074],[129.86718,32.84644],[129.85862,32.84646],[129.85567,32.8505],[129.85851,32.85497],[129.8525,32.8608],[129.85372,32.84864],[129.86143,32.84141],[129.86707,32.83773],[129.8678,32.82813],[129.8633,32.82428],[129.8578,32.82362],[129.85517,32.81789],[129.84644,32.8121],[129.85105,32.80527],[129.85811,32.79923],[129.86415,32.80126],[129.86677,32.80848],[129.87013,32.80571],[129.88067,32.8081],[129.8875,32.80641],[129.89395,32.81169],[129.90366,32.80934],[129.91197,32.81096],[129.91748,32.81369],[129.92417,32.82087]]]},"properties":{"pref":"長崎県","county":"西彼杵郡","city":"長与町","code5":"42307","code6":"423076"}},
{"type":"Feature","geometry":{"type":"Polygon","coordinates":[[[129.84644,32.8121],[129.85517,32.81789],[129.8578,32.82362],[129.8633,32.82428],[129.8678,32.82813],[129.86707,32.83773],[129.86143,32.84141],[129.85372,32.84864],[129.8525,32.8608],[129.85096,32.85099],[129.85463,32.8448],[129.84904,32.8417],[129.84721,32.83584],[129.84376,32.83561],[129.84076,32.841],[129.84383,32.84253],[129.82531,32.85548],[129.82108,32.85973],[129.81639,32.86048],[129.8117,32.86485],[129.80431,32.86296],[129.79982,32.86374],[129.79709,32.87097],[129.79368,32.86238],[129.79428,32.85728],[129.80015,32.8537],[129.80183,32.84319],[129.80809,32.83669],[129.81323,32.83567],[129.81432,32.83103],[129.82054,32.82593],[129.81696,32.81724],[129.82125,32.81488],[129.82795,32.81772],[129.83514,32.81587],[129.83955,32.81657],[129.83863,32.81006],[129.84644,32.8121]]]},"properties":{"pref":"長崎県","county":"西彼杵郡","city":"時津町","code5":"42308","code6":"423084"}},
{"type":"Feature","geometry":{"type":"Polygon","coordinates":[[[129.92236,33.09049],[129.92379,33.08662],[129.91929,33.07782],[129.91573,33.07736],[129.9099,33.0727],[129.89211,33.07751],[129.87898,33.07423],[129.88081,33.07116],[129.87684,33.06437],[129.89004,33.05733],[129.8929,33.05677],[129.89946,33.05046],[129.90429,33.03937],[129.91137,33.03798],[129.91761,33.03247],[129.92403,33.03318],[129.92887,33.02773],[129.94575,33.01512],[129.94398,33.00473],[129.94457,32.99859],[129.94826,32.99586],[129.94918,32.99072],[129.95801,32.99224],[129.96354,32.98348],[129.9743,32.98649],[129.9848,32.98706],[129.99319,32.99473],[130.00161,32.99516],[130.00979,32.99754],[130.01484,32.99512],[130.02291,32.99442],[130.0278,32.99966],[130.03797,33.00142],[130.04263,33.00392],[130.03792,33.00867],[130.02801,33.01245],[130.02738,33.02031],[130.01495,33.01748],[130.0082,33.01982],[130.00607,33.02465],[130.0011,33.02569],[129.9997,33.03176],[129.9945,33.03713],[129.99412,33.04798],[129.98759,33.05133],[129.98329,33.0568],[129.97804,33.05742],[129.96403,33.06435],[129.95475,33.06597],[129.93883,33.07416],[129.93967,33.07776],[129.93514,33.08114],[129.93307,33.08834],[129.92236,33.09049]]]},"properties":{"pref":"長崎県","county":"東彼杵郡","city":"東彼杵町","code5":"42321","code6":"423211"}},
{"type":"Feature","geometry":{"type":"Polygon","coordinates":[[[129.92524,33.10572],[129.91816,33.10887],[129.90959,33.10959],[129.88811,33.10339],[129.88136,33.10425],[129.87674,33.10037],[129.86372,33.10489],[129.85429,33.10689],[129.84577,33.10276],[129.84275,33.09979],[129.84697,33.09058],[129.83926,33.08396],[129.8389,33.0786],[129.83034,33.07433],[129.81991,33.07705],[129.81647,33.07167],[129.80621,33.07055],[129.80333,33.06782],[129.81141,33.06829],[129.81781,33.06278],[129.82398,33.06763],[129.82527,33.06571],[129.83754,33.05939],[129.83451,33.05621],[129.8211,33.0528],[129.82232,33.04942],[129.82002,33.04282],[129.82247,33.03655],[129.82761,33.03674],[129.83309,33.04114],[129.83944,33.0564],[129.84799,33.05385],[129.85458,33.06241],[129.86314,33.06271],[129.8691,33.06146],[129.87091,33.06486],[129.87684,33.06437],[129.88081,33.07116],[129.87898,33.07423],[129.89211,33.07751],[129.9099,33.0727],[129.91573,33.07736],[129.91929,33.07782],[129.92379,33.08662],[129.92236,33.09049],[129.92676,33.10186],[129.92524,33.10572]]]},"properties":{"pref":"長崎県","county":"東彼杵郡","city":"川棚町","code5":"42322","code6":"423220"}},
{"type":"Feature","geometry":{"type":"Polygon","coordinates":[[[129.93862,33.16537],[129.93365,33.16327],[129.92801,33.16402],[129.91775,33.16004],[129.91153,33.16217],[129.90594,33.1581],[129.89874,33.15793],[129.89517,33.15973],[129.88812,33.15617],[129.88607,33.16146],[129.87898,33.16204],[129.87268,33.16521],[129.86806,33.15839],[129.85955,33.15584],[129.85617,33.15198],[129.8561,33.14617],[129.85037,33.14363],[129.8506,33.13447],[129.84415,33.11887],[129.8435,33.11154],[129.84577,33.10276],[129.85429,33.10689],[129.86372,33.10489],[129.87674,33.10037],[129.88136,33.10425],[129.88811,33.10339],[129.90959,33.10959],[129.91816,33.10887],[129.92524,33.10572],[129.93284,33.11108],[129.94073,33.11286],[129.95129,33.10996],[129.95669,33.11823],[129.95628,33.12863],[129.94885,33.13407],[129.94741,33.14324],[129.94488,33.14626],[129.94145,33.15995],[129.94333,33.16427],[129.93862,33.16537]]]},"properties":{"pref":"長崎県","county":"東彼杵郡","city":"波佐見町","code5":"42323","code6":"423238"}},
{"type":"Feature","geometry":{"type":"MultiPolygon","coordinates":[[[[129.0783,33.21108],[129.07101,33.21182],[129.06619,33.20801],[129.0536,33.21396],[129.04794,33.21349],[129.04244,33.20971],[129.03654,33.20815],[129.02837,33.20098],[129.03239,33.19514],[129.04686,33.1958],[129.04494,33.18967],[129.04608,33.18455],[129.0547,33.18466],[129.05788,33.1865],[129.06006,33.19249],[129.06827,33.19386],[129.07336,33.18786],[129.08183,33.19013],[129.08898,33.18607],[129.09021,33.19314],[129.08288,33.1956],[129.08001,33.20827],[129.08411,33.2083],[129.0913,33.21079],[129.09765,33.20779],[129.09793,33.21537],[129.08795,33.21499],[129.08015,33.20994],[129.0783,33.21108]]],[[[129.13732,33.18846],[129.14159,33.18737],[129.14352,33.19246],[129.1349,33.19673],[129.13407,33.2002],[129.12572,33.21212],[129.1186,33.21202],[129.11492,33.20797],[129.117,33.20071],[129.12228,33.19412],[129.12447,33.18776],[129.12093,33.18437],[129.12017,33.177],[129.12343,33.17285],[129.12429,33.16278],[129.13189,33.15863],[129.13514,33.16633],[129.13457,33.17399],[129.13118,33.18088],[129.13136,33.1853],[129.13732,33.18846]]],[[[129.02137,33.19995],[129.02399,33.20056],[129.02691,33.20825],[129.02554,33.21266],[129.01477,33.21162],[129.012,33.20653],[129.01365,33.20052],[129.01487,33.20089],[129.02137,33.19995]]],[[[128.98605,33.18813],[128.99334,33.18832],[128.99037,33.19341],[128.98338,33.19288],[128.98605,33.18808],[128.98605,33.18813]]],[[[129.0243,33.1755],[129.01823,33.17135],[129.01703,33.16627],[129.02246,33.16616],[129.02655,33.16865],[129.0243,33.1755]]],[[[129.06689,33.22809],[129.0618,33.226],[129.06626,33.21976],[129.07221,33.22125],[129.07096,33.22578],[129.06689,33.22809]]],[[[129.13439,33.22791],[129.12992,33.22268],[129.13431,33.21979],[129.14084,33.22303],[129.13439,33.22791]]],[[[129.02219,33.1794],[129.02327,33.18486],[129.01796,33.18417],[129.01446,33.18029],[129.02219,33.1794]]]]},"properties":{"pref":"長崎県","county":"北松浦郡","city":"小値賀町","code5":"42383","code6":"423831"}},
{"type":"Feature","geometry":{"type":"Polygon","coordinates":[[[129.63712,33.2247],[129.64491,33.20742],[129.64971,33.20784],[129.66,33.21225],[129.67042,33.21485],[129.67517,33.22256],[129.67927,33.22223],[129.6896,33.22784],[129.69146,33.23268],[129.68485,33.24073],[129.68076,33.24185],[129.68358,33.25206],[129.68861,33.25517],[129.68271,33.26637],[129.67663,33.26485],[129.65996,33.27553],[129.64894,33.27894],[129.64323,33.27433],[129.64125,33.269],[129.63312,33.27233],[129.62844,33.26781],[129.6272,33.26301],[129.62206,33.25542],[129.62406,33.24581],[129.63036,33.24273],[129.63333,33.2335],[129.63917,33.23079],[129.63712,33.2247]]]},"properties":{"pref":"長崎県","county":"北松浦郡","city":"佐々町","code5":"42391","code6":"423912"}},
{"type":"Feature","geometry":{"type":"MultiPolygon","coordinates":[[[[129.1805,32.97096],[129.18247,32.97763],[129.1776,32.99149],[129.17829,32.99972],[129.18328,33.00188],[129.17603,33.00736],[129.16105,33.00676],[129.16052,33.00215],[129.15339,32.99984],[129.14759,33.00289],[129.14135,32.99922],[129.13672,32.99909],[129.13168,32.99068],[129.12171,32.98769],[129.11572,32.98837],[129.11093,32.98191],[129.10793,32.98446],[129.09769,32.98026],[129.0947,32.98622],[129.09116,32.98896],[129.09243,32.99462],[129.09607,32.99927],[129.09279,33.00297],[129.09357,33.00775],[129.08949,33.01776],[129.09764,33.02469],[129.09691,33.0305],[129.09327,33.03205],[129.09128,33.03855],[129.098,33.04147],[129.1001,33.04644],[129.09837,33.05245],[129.10435,33.06071],[129.10896,33.06374],[129.10864,33.06802],[129.11242,33.07741],[129.11336,33.0848],[129.11714,33.0853],[129.11794,33.09514],[129.12083,33.10673],[129.11636,33.11521],[129.11182,33.11515],[129.1032,33.12477],[129.10699,33.12689],[129.11273,33.1383],[129.11147,33.15014],[129.1177,33.15654],[129.11809,33.16135],[129.11036,33.16343],[129.10718,33.15828],[129.10679,33.14913],[129.10207,33.14264],[129.10074,33.13314],[129.09521,33.12927],[129.09848,33.12561],[129.09428,33.12141],[129.10439,33.11196],[129.09824,33.10642],[129.10144,33.10314],[129.10799,33.10274],[129.10992,33.09866],[129.10554,33.09301],[129.10706,33.09031],[129.10776,33.08835],[129.1016,33.08005],[129.08937,33.07863],[129.08559,33.07543],[129.08243,33.05893],[129.07719,33.05923],[129.07609,33.05291],[129.08053,33.05033],[129.08227,33.04277],[129.07927,33.03417],[129.0808,33.02965],[129.08602,33.02256],[129.076,33.0217],[129.07023,33.01929],[129.06596,33.03986],[129.0582,33.04069],[129.04997,33.03626],[129.0423,33.02772],[129.04237,33.01678],[129.04121,33.0034],[129.0447,32.99841],[129.04986,32.99559],[129.04286,32.99078],[129.047,32.9837],[129.05145,32.98417],[129.05236,32.97891],[129.05136,32.96552],[129.04781,32.97049],[129.04859,32.97455],[129.04019,32.97658],[129.03293,32.96724],[129.0309,32.9612],[129.02303,32.96802],[129.02377,32.97341],[129.01138,32.97595],[129.01027,32.97168],[129.0017,32.96937],[128.99766,32.96659],[129.00032,32.95827],[129.00514,32.95087],[129.00336,32.94577],[128.99618,32.94127],[129.00682,32.94037],[129.0151,32.94784],[129.01701,32.93938],[129.02094,32.93506],[129.02586,32.93424],[129.03833,32.93992],[129.04079,32.93159],[129.03486,32.9297],[129.02651,32.92234],[129.03062,32.91863],[129.03563,32.92119],[129.04089,32.92251],[129.04895,32.91889],[129.05238,32.91049],[129.06137,32.90862],[129.06514,32.89855],[129.06096,32.89639],[129.05873,32.90672],[129.05322,32.90703],[129.05322,32.90712],[129.04712,32.90252],[129.04178,32.90586],[129.04208,32.90241],[129.04109,32.90056],[129.04027,32.89614],[129.04325,32.89273],[129.04805,32.89515],[129.05101,32.89117],[129.05671,32.8908],[129.05639,32.88694],[129.0456,32.88378],[129.05239,32.87884],[129.04752,32.87635],[129.04249,32.87729],[129.04238,32.87684],[129.04253,32.87509],[129.04073,32.87335],[129.04492,32.87085],[129.04724,32.86839],[129.04638,32.85996],[129.04816,32.85379],[129.04516,32.8491],[129.04514,32.84903],[129.04625,32.84026],[129.04968,32.83522],[129.04384,32.82505],[129.04325,32.82238],[129.04924,32.81952],[129.05659,32.81958],[129.06344,32.81696],[129.06631,32.82423],[129.06442,32.82708],[129.06909,32.83166],[129.06792,32.83748],[129.06122,32.84486],[129.06454,32.85428],[129.06608,32.86252],[129.0697,32.86133],[129.07768,32.86158],[129.09047,32.85502],[129.10022,32.86017],[129.09838,32.86762],[129.09433,32.87689],[129.08726,32.88028],[129.09232,32.88884],[129.08805,32.8938],[129.08283,32.8942],[129.08463,32.90395],[129.09367,32.90385],[129.09291,32.91057],[129.09596,32.91786],[129.09163,32.92199],[129.10323,32.92787],[129.10934,32.92663],[129.11144,32.94121],[129.10695,32.9504],[129.10858,32.95417],[129.11826,32.93848],[129.12843,32.93954],[129.13088,32.94499],[129.1365,32.93767],[129.14037,32.93751],[129.14301,32.94682],[129.14792,32.95274],[129.14843,32.95604],[129.15595,32.96013],[129.1623,32.96187],[129.17038,32.96605],[129.17368,32.97053],[129.1805,32.97096]]],[[[129.02835,32.90248],[129.02343,32.90371],[129.0238,32.91222],[129.02132,32.91714],[129.01663,32.91948],[129.01561,32.92388],[129.01097,32.92592],[129.00573,32.92172],[129.00062,32.9202],[128.99817,32.92757],[128.9897,32.93307],[128.98555,32.92917],[128.98964,32.92376],[128.98684,32.92018],[128.9779,32.91874],[128.98746,32.90971],[128.98335,32.90927],[128.98142,32.90399],[128.98664,32.89919],[128.99714,32.89384],[128.99928,32.88942],[128.99416,32.88833],[128.99391,32.89371],[128.99058,32.89432],[128.98578,32.88923],[128.98786,32.8835],[128.98659,32.88005],[128.98325,32.88899],[128.98346,32.89453],[128.97975,32.89688],[128.97389,32.89577],[128.97057,32.89785],[128.97153,32.90342],[128.96165,32.90363],[128.96104,32.89924],[128.96961,32.88311],[128.97497,32.8783],[128.97392,32.87574],[128.96653,32.87196],[128.98055,32.87183],[128.98097,32.86606],[128.97654,32.85986],[128.98057,32.85849],[128.98581,32.8664],[128.99041,32.86632],[128.99781,32.86773],[129.00223,32.86603],[129.00365,32.86453],[129.00394,32.86388],[129.01504,32.86639],[129.01778,32.86251],[129.01227,32.86026],[129.02205,32.85603],[129.01915,32.8543],[129.01807,32.84834],[129.02525,32.84582],[129.02755,32.84812],[129.02962,32.85043],[129.02408,32.86399],[129.02912,32.86986],[129.02577,32.87444],[129.02904,32.87752],[129.02711,32.88536],[129.0312,32.88997],[129.03283,32.89502],[129.02835,32.90248]]],[[[128.93456,32.92146],[128.93018,32.91952],[128.93303,32.91416],[128.93861,32.90944],[128.94197,32.91005],[128.94736,32.90566],[128.95428,32.90976],[128.95659,32.90736],[128.96206,32.90445],[128.9642,32.91185],[128.9569,32.90788],[128.95502,32.90958],[128.95417,32.91604],[128.95597,32.91597],[128.95698,32.91461],[128.95724,32.91636],[128.95981,32.91618],[128.96495,32.91837],[128.9691,32.92971],[128.96019,32.93098],[128.95725,32.92624],[128.9583,32.92217],[128.95725,32.91938],[128.95709,32.91702],[128.95635,32.91605],[128.95414,32.91613],[128.9524,32.91874],[128.94829,32.91933],[128.94557,32.92451],[128.94419,32.92411],[128.93603,32.92489],[128.93456,32.92146]]],[[[128.99664,32.96028],[128.99503,32.96353],[128.98349,32.96],[128.97771,32.95864],[128.98044,32.95214],[128.9789,32.94679],[128.9833,32.94657],[128.98573,32.95221],[128.98805,32.95101],[128.98869,32.95205],[128.9886,32.95252],[128.99474,32.95519],[128.9947,32.95522],[128.99642,32.95832],[128.99694,32.96005],[128.99664,32.96028]]],[[[129.18064,33.00773],[129.1854,33.00895],[129.19057,33.00651],[129.19613,33.00798],[129.19653,33.0145],[129.19259,33.01828],[129.1818,33.01407],[129.17436,33.01366],[129.1762,33.00919],[129.18064,33.00773]]],[[[129.0319,33.0149],[129.02226,33.01247],[129.0158,33.01395],[129.01041,33.00997],[129.00483,33.00285],[129.01177,33.00338],[129.01657,33.0087],[129.02539,33.00794],[129.02931,33.00989],[129.0319,33.0149]]],[[[129.03497,32.88266],[129.03121,32.87982],[129.02968,32.87289],[129.03451,32.87388],[129.03497,32.88266]]],[[[129.18972,32.92466],[129.18438,32.91849],[129.19105,32.91748],[129.19654,32.92094],[129.18972,32.92466]]]]},"properties":{"pref":"長崎県","county":"南松浦郡","city":"新上五島町","code5":"42411","code6":"424111"}}
]}