{"type":"FeatureCollection", "features": [
{"type":"Feature","geometry":{"type":"Polygon","coordinates":[[[130.72377,32.55858],[130.72242,32.55648],[130.71467,32.55726],[130.71121,32.54882],[130.70446,32.54368],[130.69649,32.54437],[130.70059,32.53563],[130.68665,32.52762],[130.67604,32.53972],[130.664,32.5449],[130.67023,32.55279],[130.67049,32.56105],[130.67668,32.56283],[130.67403,32.5681],[130.66713,32.57501],[130.66114,32.57747],[130.6576,32.58154],[130.63278,32.60212],[130.61873,32.59154],[130.61594,32.58838],[130.60866,32.59309],[130.58985,32.57624],[130.57593,32.5584],[130.56243,32.53797],[130.55597,32.54289],[130.55152,32.54123],[130.54663,32.53615],[130.54384,32.53824],[130.53616,32.52586],[130.55506,32.51697],[130.56326,32.51235],[130.57333,32.50956],[130.56763,32.50674],[130.5329,32.52266],[130.53115,32.52003],[130.5527,32.50958],[130.56514,32.50544],[130.56274,32.49864],[130.55231,32.50089],[130.54683,32.5002],[130.54218,32.49361],[130.5425,32.48454],[130.54495,32.47911],[130.54923,32.47721],[130.56495,32.476],[130.56507,32.46811],[130.56922,32.46432],[130.56503,32.45602],[130.57239,32.44194],[130.57087,32.43558],[130.56347,32.42988],[130.55629,32.42346],[130.54999,32.42286],[130.54744,32.42235],[130.54108,32.41213],[130.53806,32.41028],[130.54342,32.40575],[130.53938,32.39955],[130.53474,32.39806],[130.53484,32.39311],[130.53049,32.38639],[130.53425,32.38335],[130.52797,32.37402],[130.53084,32.36715],[130.54114,32.36507],[130.54991,32.37313],[130.55312,32.38049],[130.56077,32.38237],[130.56725,32.37656],[130.57327,32.375],[130.57777,32.3717],[130.58836,32.37661],[130.60033,32.37315],[130.60656,32.37606],[130.61974,32.37397],[130.62522,32.36451],[130.631,32.36728],[130.64219,32.36489],[130.64508,32.37029],[130.65246,32.37353],[130.6573,32.37317],[130.65669,32.36771],[130.6592,32.36027],[130.66533,32.354],[130.66968,32.34578],[130.67077,32.34013],[130.67871,32.34276],[130.68395,32.3386],[130.69384,32.34219],[130.70093,32.34703],[130.69725,32.35411],[130.70245,32.35671],[130.7019,32.36285],[130.70978,32.3681],[130.72133,32.38641],[130.73139,32.3921],[130.73923,32.39292],[130.74179,32.40092],[130.73577,32.40463],[130.72431,32.40556],[130.72431,32.41323],[130.72046,32.41907],[130.72934,32.42822],[130.72631,32.43176],[130.72772,32.43557],[130.72295,32.44354],[130.72219,32.44933],[130.72858,32.45229],[130.73656,32.45193],[130.74106,32.45336],[130.73801,32.46165],[130.73786,32.47178],[130.74247,32.46939],[130.75176,32.46864],[130.7513,32.47461],[130.75812,32.47843],[130.76843,32.47976],[130.7861,32.48469],[130.787,32.48741],[130.79469,32.49422],[130.80184,32.49298],[130.80672,32.49436],[130.81638,32.49074],[130.83982,32.49897],[130.84419,32.49221],[130.8476,32.49306],[130.85219,32.48784],[130.85815,32.49337],[130.86255,32.49372],[130.8764,32.48512],[130.88032,32.4778],[130.88969,32.47737],[130.90113,32.46735],[130.90001,32.45617],[130.89808,32.45186],[130.90283,32.44267],[130.91236,32.44075],[130.92866,32.44161],[130.93574,32.43844],[130.94112,32.4385],[130.95338,32.4436],[130.9589,32.45035],[130.96554,32.45206],[130.96916,32.4503],[130.97782,32.45116],[130.98019,32.44782],[130.98706,32.44708],[130.99994,32.45235],[131.00817,32.46044],[131.01434,32.46275],[131.01635,32.47326],[131.01394,32.48002],[131.01058,32.48298],[131.00696,32.49006],[131.00971,32.50919],[131.00941,32.51541],[131.0152,32.51584],[131.01842,32.51959],[131.02467,32.52025],[131.02488,32.53157],[131.02353,32.53614],[131.01907,32.54154],[131.01947,32.54922],[131.0162,32.55454],[131.00971,32.56103],[131.00995,32.56503],[131.00466,32.56594],[131.00022,32.57],[130.9962,32.56882],[130.98802,32.57134],[130.97855,32.57723],[130.96935,32.5804],[130.96338,32.57779],[130.95436,32.57712],[130.95057,32.57946],[130.94692,32.57664],[130.93897,32.57794],[130.92332,32.57457],[130.92212,32.57939],[130.91356,32.58478],[130.90729,32.58376],[130.90587,32.58035],[130.90898,32.57593],[130.89223,32.57075],[130.88376,32.57411],[130.87054,32.57216],[130.86146,32.57423],[130.85225,32.57266],[130.84628,32.56946],[130.84221,32.57082],[130.83567,32.5657],[130.82788,32.56184],[130.82102,32.56077],[130.81508,32.56692],[130.80386,32.56826],[130.79958,32.57373],[130.79303,32.57859],[130.78876,32.59438],[130.78271,32.59536],[130.77551,32.58467],[130.76929,32.58072],[130.76539,32.57403],[130.75924,32.57416],[130.75364,32.56748],[130.75368,32.56375],[130.74217,32.55889],[130.73619,32.56158],[130.72462,32.56016],[130.72377,32.55858]]]},"properties":{"pref":"熊本県","city":"八代市","code5":"43202","code6":"432024"}},
{"type":"Feature","geometry":{"type":"Polygon","coordinates":[[[130.78729,32.23137],[130.78263,32.2378],[130.77765,32.2332],[130.76355,32.22927],[130.75854,32.23146],[130.75179,32.24801],[130.74127,32.24716],[130.741,32.25546],[130.74297,32.26158],[130.7403,32.26287],[130.74056,32.26965],[130.73797,32.27718],[130.73119,32.27954],[130.73062,32.28988],[130.71691,32.29548],[130.71089,32.28486],[130.71441,32.28308],[130.7203,32.27618],[130.71969,32.26626],[130.73103,32.26254],[130.73432,32.25582],[130.73175,32.25056],[130.72609,32.2452],[130.72381,32.24013],[130.71883,32.24059],[130.71736,32.23446],[130.71386,32.23025],[130.70083,32.22549],[130.68054,32.20516],[130.67845,32.20003],[130.67986,32.19648],[130.67211,32.18524],[130.6652,32.18384],[130.66359,32.17439],[130.66675,32.1694],[130.65748,32.1685],[130.65552,32.15697],[130.65164,32.15127],[130.6554,32.14076],[130.65501,32.13568],[130.66264,32.13278],[130.66716,32.12802],[130.67044,32.12893],[130.68389,32.11865],[130.69011,32.11503],[130.69907,32.107],[130.71406,32.10397],[130.7206,32.1008],[130.72768,32.10187],[130.7335,32.10837],[130.7399,32.10488],[130.73885,32.10129],[130.75358,32.10345],[130.75947,32.09682],[130.76695,32.10151],[130.77943,32.09947],[130.78881,32.09899],[130.80791,32.09934],[130.8208,32.09492],[130.82291,32.09973],[130.83096,32.10478],[130.83901,32.10721],[130.8445,32.10401],[130.84923,32.10424],[130.85707,32.0997],[130.86243,32.1018],[130.86941,32.11506],[130.87636,32.11672],[130.87838,32.12127],[130.87057,32.12866],[130.86874,32.13717],[130.85927,32.13369],[130.85626,32.12954],[130.85078,32.129],[130.84065,32.14156],[130.83433,32.14005],[130.83108,32.13531],[130.82772,32.13518],[130.82526,32.14211],[130.81955,32.14884],[130.82151,32.15243],[130.81494,32.16055],[130.81855,32.16472],[130.81364,32.17025],[130.81467,32.17921],[130.81177,32.183],[130.80476,32.18228],[130.79696,32.19034],[130.78904,32.19447],[130.78481,32.19331],[130.78156,32.20518],[130.78181,32.21524],[130.78695,32.2144],[130.78496,32.22207],[130.78994,32.22556],[130.78729,32.23137]]]},"properties":{"pref":"熊本県","city":"人吉市","code5":"43203","code6":"432032"}},
{"type":"Feature","geometry":{"type":"Polygon","coordinates":[[[130.41414,33.00231],[130.41836,32.99335],[130.42564,32.99378],[130.42706,32.98718],[130.42997,32.98708],[130.43064,32.97183],[130.43333,32.95458],[130.43778,32.9419],[130.44373,32.94547],[130.45424,32.94559],[130.4585,32.93976],[130.4658,32.93952],[130.47556,32.9512],[130.48724,32.94884],[130.49523,32.9508],[130.49246,32.93937],[130.49702,32.93668],[130.49882,32.9409],[130.50526,32.94262],[130.51151,32.94738],[130.51253,32.95469],[130.52232,32.96362],[130.52958,32.97442],[130.53047,32.97773],[130.5268,32.98621],[130.52775,32.98835],[130.52041,32.99663],[130.52114,33.00083],[130.51587,33.01202],[130.50706,33.00389],[130.4991,33.00656],[130.49093,33.00303],[130.48397,33.00161],[130.47923,33.00348],[130.47459,33.00144],[130.46842,33.00287],[130.45066,33.0039],[130.44487,33.00247],[130.43625,33.00506],[130.4248,33.00517],[130.41414,33.00231]]]},"properties":{"pref":"熊本県","city":"荒尾市","code5":"43204","code6":"432041"}},
{"type":"Feature","geometry":{"type":"Polygon","coordinates":[[[130.43223,32.23109],[130.42255,32.23816],[130.41508,32.23285],[130.4074,32.23114],[130.40237,32.2354],[130.39865,32.22819],[130.39417,32.22744],[130.38827,32.21843],[130.38672,32.21371],[130.37902,32.20562],[130.37321,32.20466],[130.37184,32.20134],[130.37944,32.1935],[130.37451,32.18423],[130.3777,32.18234],[130.37802,32.17645],[130.36966,32.17786],[130.36778,32.18131],[130.36044,32.18234],[130.36319,32.17396],[130.36079,32.16861],[130.3627,32.16547],[130.37201,32.15947],[130.38,32.15057],[130.38666,32.14739],[130.38751,32.14299],[130.39203,32.13416],[130.40333,32.12437],[130.40267,32.1202],[130.41142,32.11836],[130.42488,32.11698],[130.43042,32.11491],[130.44116,32.11398],[130.44946,32.11665],[130.45462,32.1139],[130.46331,32.11882],[130.46705,32.11566],[130.4735,32.11861],[130.47579,32.12238],[130.4769,32.13899],[130.48234,32.1396],[130.48699,32.13528],[130.49237,32.1337],[130.49908,32.13547],[130.50921,32.14052],[130.51724,32.13588],[130.52725,32.13714],[130.54024,32.13741],[130.5461,32.14935],[130.5575,32.15415],[130.58268,32.15491],[130.58899,32.16783],[130.59674,32.17592],[130.59517,32.1835],[130.59172,32.18596],[130.5794,32.19438],[130.57456,32.19318],[130.54715,32.19627],[130.52991,32.18962],[130.52499,32.18616],[130.5199,32.18608],[130.51457,32.18253],[130.5088,32.18503],[130.50953,32.19002],[130.50313,32.18894],[130.4989,32.19543],[130.4928,32.19827],[130.48256,32.19931],[130.47163,32.20616],[130.46981,32.20976],[130.46573,32.20873],[130.45698,32.21049],[130.44963,32.21022],[130.43822,32.21675],[130.43686,32.22594],[130.43223,32.23109]]]},"properties":{"pref":"熊本県","city":"水俣市","code5":"43205","code6":"432059"}},
{"type":"Feature","geometry":{"type":"Polygon","coordinates":[[[130.62624,32.86198],[130.61237,32.87532],[130.60754,32.87753],[130.61043,32.8816],[130.60749,32.88496],[130.60733,32.89117],[130.61745,32.89687],[130.61784,32.90395],[130.61527,32.915],[130.60618,32.91753],[130.60871,32.9242],[130.61258,32.92574],[130.62132,32.93373],[130.62267,32.93842],[130.62639,32.94125],[130.61565,32.94949],[130.61172,32.94643],[130.60755,32.95224],[130.61067,32.95532],[130.60661,32.95991],[130.59931,32.96059],[130.59271,32.95729],[130.5905,32.96071],[130.59509,32.96419],[130.59684,32.97351],[130.60321,32.97722],[130.59977,32.98459],[130.59199,32.98919],[130.58272,32.98785],[130.58021,32.99103],[130.57143,32.99158],[130.55847,32.99513],[130.52775,32.98835],[130.5268,32.98621],[130.53047,32.97773],[130.52958,32.97442],[130.52232,32.96362],[130.51253,32.95469],[130.51151,32.94738],[130.50526,32.94262],[130.49882,32.9409],[130.49702,32.93668],[130.49656,32.93006],[130.49042,32.92516],[130.48766,32.91974],[130.47648,32.90499],[130.47926,32.90387],[130.49477,32.89312],[130.4993,32.89308],[130.51294,32.88666],[130.51273,32.88495],[130.52322,32.8809],[130.52667,32.87714],[130.52288,32.86995],[130.52283,32.85335],[130.52873,32.85099],[130.56492,32.84202],[130.56838,32.8435],[130.57154,32.84878],[130.57318,32.85272],[130.59629,32.84652],[130.60044,32.84749],[130.61317,32.84309],[130.62204,32.84472],[130.6252,32.85254],[130.63082,32.8538],[130.62624,32.86198]]]},"properties":{"pref":"熊本県","city":"玉名市","code5":"43206","code6":"432067"}},
{"type":"Feature","geometry":{"type":"Polygon","coordinates":[[[130.65568,33.10862],[130.65122,33.10323],[130.65593,33.09662],[130.65535,33.08922],[130.65071,33.08358],[130.64781,33.08385],[130.63947,33.08005],[130.6325,33.07349],[130.63277,33.06677],[130.63646,33.0609],[130.63534,33.05371],[130.64952,33.05226],[130.65311,33.04822],[130.65174,33.03581],[130.64842,33.02641],[130.63604,33.02297],[130.63211,33.01959],[130.63831,33.01387],[130.63737,33.00943],[130.64672,33.00615],[130.64598,32.99808],[130.64159,32.99442],[130.64792,32.98733],[130.64307,32.97621],[130.65074,32.97528],[130.65465,32.97189],[130.6508,32.96268],[130.63605,32.96613],[130.63198,32.96073],[130.62964,32.95207],[130.62941,32.9447],[130.63516,32.94359],[130.64029,32.93846],[130.64432,32.93786],[130.65161,32.93221],[130.65493,32.93526],[130.66196,32.93426],[130.66705,32.93694],[130.67076,32.94972],[130.67364,32.9523],[130.69155,32.95955],[130.69642,32.95489],[130.70117,32.9596],[130.70398,32.96807],[130.70935,32.97327],[130.70926,32.97702],[130.71859,32.97457],[130.72471,32.97698],[130.73361,32.97197],[130.73707,32.97563],[130.74301,32.97487],[130.75456,32.98391],[130.76561,32.99594],[130.78086,32.99249],[130.78526,32.99835],[130.79496,33.0005],[130.79474,33.00476],[130.79789,33.00897],[130.80597,33.01159],[130.80833,33.01491],[130.80661,33.02647],[130.80776,33.03494],[130.81483,33.0486],[130.82308,33.05402],[130.81595,33.06444],[130.82823,33.07273],[130.83616,33.07147],[130.83782,33.08459],[130.84504,33.08804],[130.84574,33.09218],[130.83981,33.10023],[130.83982,33.10405],[130.82664,33.10661],[130.82038,33.10657],[130.82097,33.11135],[130.81182,33.11664],[130.80728,33.11586],[130.79935,33.12035],[130.78918,33.12403],[130.78188,33.12481],[130.77756,33.12322],[130.77089,33.12433],[130.76523,33.12859],[130.76392,33.13209],[130.75855,33.13155],[130.75387,33.13745],[130.73749,33.14637],[130.73453,33.15342],[130.72769,33.15433],[130.72301,33.15191],[130.71236,33.15533],[130.70936,33.15184],[130.70432,33.15166],[130.69104,33.15495],[130.69309,33.15995],[130.68522,33.16908],[130.68002,33.17131],[130.67873,33.16424],[130.66754,33.15695],[130.66631,33.14338],[130.6689,33.13895],[130.66305,33.13457],[130.65995,33.12468],[130.66026,33.11811],[130.65469,33.1154],[130.65568,33.10862]]]},"properties":{"pref":"熊本県","city":"山鹿市","code5":"43208","code6":"432083"}},
{"type":"Feature","geometry":{"type":"Polygon","coordinates":[[[130.72975,32.92753],[130.73547,32.92562],[130.75219,32.92701],[130.76041,32.92456],[130.76568,32.92144],[130.77392,32.92003],[130.79051,32.91123],[130.79537,32.91423],[130.80844,32.91298],[130.81609,32.90922],[130.82649,32.90753],[130.83166,32.90156],[130.83786,32.9084],[130.83937,32.91523],[130.83689,32.91946],[130.84041,32.92439],[130.8584,32.92135],[130.86539,32.91941],[130.86921,32.92069],[130.86136,32.92747],[130.86287,32.93103],[130.8881,32.92987],[130.90908,32.93561],[130.92453,32.93454],[130.92966,32.94052],[130.93684,32.94498],[130.93813,32.94966],[130.9515,32.94941],[130.9562,32.95367],[130.94272,32.96369],[130.95339,32.97567],[130.95699,32.98874],[130.95722,32.9967],[130.95568,33.00424],[130.97027,33.02377],[130.95921,33.03722],[130.95914,33.04382],[130.95698,33.04714],[130.94682,33.05284],[130.93699,33.05244],[130.93515,33.05511],[130.92864,33.05219],[130.92344,33.05194],[130.91654,33.05559],[130.90677,33.06493],[130.90002,33.06406],[130.89679,33.07292],[130.89064,33.07577],[130.88973,33.08359],[130.8862,33.08746],[130.87674,33.09193],[130.867,33.09066],[130.86394,33.09499],[130.84759,33.09376],[130.84574,33.09218],[130.84504,33.08804],[130.83782,33.08459],[130.83616,33.07147],[130.82823,33.07273],[130.81595,33.06444],[130.82308,33.05402],[130.81483,33.0486],[130.80776,33.03494],[130.80661,33.02647],[130.80833,33.01491],[130.80597,33.01159],[130.79789,33.00897],[130.79474,33.00476],[130.79496,33.0005],[130.78526,32.99835],[130.78086,32.99249],[130.76561,32.99594],[130.75456,32.98391],[130.74301,32.97487],[130.73707,32.97563],[130.73361,32.97197],[130.72829,32.96586],[130.72994,32.95895],[130.7284,32.94424],[130.73076,32.93906],[130.72975,32.92753]]]},"properties":{"pref":"熊本県","city":"菊池市","code5":"43210","code6":"432105"}},
{"type":"Feature","geometry":{"type":"Polygon","coordinates":[[[130.60756,32.71579],[130.60705,32.71299],[130.5969,32.71134],[130.58845,32.70436],[130.57471,32.70195],[130.56792,32.6993],[130.56446,32.69394],[130.55305,32.6867],[130.54154,32.66857],[130.53793,32.665],[130.52391,32.66352],[130.51467,32.65905],[130.51014,32.6553],[130.49947,32.654],[130.501,32.64765],[130.51057,32.64633],[130.53234,32.64824],[130.54284,32.65157],[130.54865,32.652],[130.55396,32.65547],[130.55788,32.65476],[130.56712,32.65688],[130.5761,32.65313],[130.59448,32.65621],[130.60704,32.66104],[130.60822,32.665],[130.61516,32.67115],[130.61845,32.66828],[130.62327,32.6702],[130.63385,32.66401],[130.63926,32.66412],[130.6449,32.66842],[130.65194,32.66299],[130.66077,32.66746],[130.66555,32.66098],[130.67096,32.66331],[130.67911,32.65802],[130.68542,32.66863],[130.69131,32.6711],[130.69551,32.67701],[130.70327,32.67484],[130.712,32.67484],[130.71677,32.68113],[130.716,32.68461],[130.71002,32.68841],[130.69889,32.68976],[130.69702,32.69295],[130.68994,32.69107],[130.68365,32.6957],[130.68159,32.69418],[130.67121,32.69564],[130.6688,32.70258],[130.66387,32.70707],[130.65938,32.70628],[130.65487,32.71071],[130.64398,32.71731],[130.63696,32.71121],[130.62733,32.70934],[130.616,32.7142],[130.60756,32.71579]]]},"properties":{"pref":"熊本県","city":"宇土市","code5":"43211","code6":"432113"}},
{"type":"Feature","geometry":{"type":"MultiPolygon","coordinates":[[[[130.35398,32.40512],[130.35103,32.40254],[130.34743,32.39816],[130.34607,32.3953],[130.34608,32.39529],[130.34697,32.39619],[130.35012,32.39189],[130.35525,32.38255],[130.3563,32.37694],[130.36157,32.38064],[130.36237,32.38587],[130.36688,32.38976],[130.3768,32.38937],[130.37999,32.38234],[130.38204,32.38716],[130.38877,32.39264],[130.4002,32.39793],[130.40314,32.40505],[130.41105,32.41528],[130.4038,32.4219],[130.41534,32.42246],[130.41945,32.42978],[130.40812,32.43347],[130.41428,32.44048],[130.41788,32.44932],[130.42893,32.45529],[130.43143,32.46423],[130.4368,32.4688],[130.43677,32.47377],[130.43761,32.48626],[130.44321,32.493],[130.45234,32.5075],[130.45126,32.51036],[130.456,32.51491],[130.45569,32.52255],[130.44696,32.52278],[130.44152,32.52858],[130.43793,32.52761],[130.42606,32.51826],[130.42148,32.52318],[130.40673,32.51566],[130.39777,32.50603],[130.39466,32.50002],[130.39078,32.5016],[130.38115,32.49626],[130.38245,32.49439],[130.38182,32.48459],[130.3791,32.4785],[130.37404,32.48027],[130.36623,32.47747],[130.35543,32.47834],[130.35083,32.48205],[130.34364,32.48211],[130.34088,32.47525],[130.34274,32.47105],[130.3374,32.46132],[130.33932,32.45537],[130.3476,32.44545],[130.36481,32.44004],[130.3686,32.4426],[130.38168,32.44547],[130.38256,32.43747],[130.37517,32.4181],[130.36652,32.41091],[130.36651,32.40464],[130.36191,32.40158],[130.35398,32.40512]]],[[[130.45575,32.58916],[130.45252,32.59075],[130.45408,32.59204],[130.44836,32.59055],[130.44261,32.60289],[130.44776,32.60352],[130.45693,32.61084],[130.45494,32.61485],[130.44886,32.61875],[130.44542,32.62455],[130.43927,32.62495],[130.43172,32.61738],[130.42663,32.61718],[130.42658,32.61733],[130.42646,32.61761],[130.42511,32.61776],[130.42456,32.61781],[130.41953,32.61673],[130.41985,32.60815],[130.41207,32.60582],[130.40481,32.59747],[130.39493,32.59007],[130.39356,32.58841],[130.39359,32.5884],[130.39359,32.58839],[130.39861,32.58253],[130.4054,32.58355],[130.41696,32.58104],[130.41936,32.57482],[130.41495,32.57359],[130.40797,32.56692],[130.40719,32.56001],[130.40409,32.55485],[130.40549,32.55076],[130.41147,32.55191],[130.43068,32.54724],[130.43897,32.54806],[130.44056,32.55363],[130.44571,32.55034],[130.44846,32.55495],[130.45044,32.56631],[130.44272,32.56928],[130.45213,32.5758],[130.4589,32.58696],[130.45496,32.58779],[130.45575,32.58916]]],[[[130.47421,32.58774],[130.47188,32.58702],[130.47179,32.58696],[130.47067,32.58617],[130.47015,32.58623],[130.46615,32.58312],[130.46262,32.58006],[130.46066,32.57454],[130.46429,32.56516],[130.46326,32.56489],[130.46203,32.56411],[130.46231,32.56281],[130.46249,32.5626],[130.46326,32.55978],[130.46405,32.55767],[130.46433,32.55757],[130.46436,32.55755],[130.46442,32.55756],[130.46437,32.55628],[130.46443,32.55495],[130.46496,32.55386],[130.46574,32.55164],[130.46529,32.5466],[130.46281,32.54158],[130.46577,32.54069],[130.47062,32.54658],[130.47047,32.55029],[130.48743,32.5702],[130.48405,32.57537],[130.47455,32.586],[130.47421,32.58774]]],[[[130.41489,32.39924],[130.41132,32.39677],[130.40937,32.38383],[130.42119,32.37851],[130.41617,32.36942],[130.42104,32.36798],[130.42803,32.37558],[130.42869,32.3793],[130.424,32.38173],[130.4249,32.38597],[130.42297,32.394],[130.41729,32.39603],[130.41489,32.39924]]],[[[130.41439,32.53972],[130.41798,32.53791],[130.42365,32.54182],[130.41197,32.54749],[130.40654,32.54608],[130.41439,32.53972]]],[[[130.33767,32.60665],[130.33054,32.60534],[130.33466,32.59967],[130.34149,32.59918],[130.34378,32.60357],[130.33767,32.60665]]],[[[130.40174,32.54348],[130.39768,32.54394],[130.39404,32.54017],[130.40365,32.53592],[130.40793,32.53877],[130.40642,32.54363],[130.40174,32.54348]]],[[[130.32541,32.38102],[130.3194,32.3781],[130.31917,32.37073],[130.32571,32.37288],[130.32355,32.37747],[130.32541,32.38102]]],[[[130.38673,32.58022],[130.39268,32.58374],[130.38935,32.58708],[130.38119,32.58369],[130.38073,32.58315],[130.38072,32.58314],[130.38015,32.58217],[130.38008,32.5821],[130.38005,32.58197],[130.38006,32.58193],[130.38014,32.58185],[130.38014,32.58182],[130.38039,32.58169],[130.38033,32.58162],[130.3803,32.58136],[130.3805,32.5814],[130.38051,32.58126],[130.38051,32.58125],[130.38057,32.5812],[130.38054,32.58111],[130.38058,32.58099],[130.38138,32.58084],[130.38241,32.58004],[130.38506,32.57957],[130.38673,32.58022]]],[[[130.42523,32.52215],[130.4291,32.52077],[130.43131,32.52617],[130.42367,32.52659],[130.42523,32.52215]]],[[[130.43998,32.53308],[130.43486,32.53355],[130.43885,32.53095],[130.43998,32.53308]]],[[[130.45674,32.56959],[130.45433,32.56733],[130.45622,32.56903],[130.45674,32.56959]]]]},"properties":{"pref":"熊本県","city":"上天草市","code5":"43212","code6":"432121"}},
{"type":"Feature","geometry":{"type":"MultiPolygon","coordinates":[[[[130.71677,32.68113],[130.712,32.67484],[130.70327,32.67484],[130.69551,32.67701],[130.69131,32.6711],[130.68542,32.66863],[130.67911,32.65802],[130.67096,32.66331],[130.66555,32.66098],[130.66077,32.66746],[130.65194,32.66299],[130.6449,32.66842],[130.63926,32.66412],[130.63385,32.66401],[130.62327,32.6702],[130.61845,32.66828],[130.61516,32.67115],[130.60822,32.665],[130.60704,32.66104],[130.59448,32.65621],[130.5761,32.65313],[130.56712,32.65688],[130.55788,32.65476],[130.55396,32.65547],[130.54865,32.652],[130.54284,32.65157],[130.53234,32.64824],[130.51057,32.64633],[130.501,32.64765],[130.49947,32.654],[130.48859,32.64658],[130.48247,32.64469],[130.47755,32.63928],[130.46161,32.63417],[130.45273,32.6267],[130.46137,32.6173],[130.45935,32.60788],[130.46697,32.60464],[130.47308,32.60881],[130.47911,32.60846],[130.48601,32.61266],[130.50125,32.61176],[130.50309,32.61426],[130.50967,32.61156],[130.519,32.61315],[130.52144,32.61725],[130.53258,32.62141],[130.53618,32.61905],[130.54104,32.62449],[130.54479,32.62254],[130.55764,32.62266],[130.56356,32.62408],[130.57889,32.62155],[130.58675,32.62319],[130.59168,32.62624],[130.59806,32.62491],[130.61557,32.63175],[130.627,32.6325],[130.63669,32.63521],[130.65175,32.6425],[130.65475,32.63534],[130.66144,32.63193],[130.6534,32.62711],[130.65669,32.61836],[130.65372,32.61288],[130.64105,32.62342],[130.63047,32.62269],[130.64136,32.61416],[130.645,32.61604],[130.65211,32.6099],[130.67904,32.59765],[130.67821,32.59246],[130.6869,32.58817],[130.6888,32.58567],[130.69835,32.58048],[130.70551,32.58464],[130.71396,32.57828],[130.70689,32.57207],[130.71566,32.56341],[130.72377,32.55858],[130.72462,32.56016],[130.73619,32.56158],[130.74217,32.55889],[130.75368,32.56375],[130.75364,32.56748],[130.75924,32.57416],[130.76539,32.57403],[130.76929,32.58072],[130.77551,32.58467],[130.78271,32.59536],[130.77857,32.60134],[130.77379,32.60375],[130.77767,32.60743],[130.77923,32.61364],[130.77977,32.6277],[130.77704,32.6291],[130.77833,32.64006],[130.77421,32.65152],[130.77634,32.66333],[130.77686,32.66614],[130.76362,32.66799],[130.75272,32.66617],[130.75155,32.67274],[130.74204,32.66403],[130.7343,32.66106],[130.73374,32.66712],[130.72839,32.67064],[130.72527,32.67582],[130.71677,32.68113]]],[[[130.49347,32.60973],[130.48659,32.60861],[130.47402,32.60323],[130.47918,32.60042],[130.48101,32.59679],[130.48011,32.59044],[130.4865,32.5921],[130.49258,32.58962],[130.48646,32.58261],[130.48883,32.57604],[130.49212,32.5762],[130.49933,32.58272],[130.50138,32.58637],[130.50933,32.59174],[130.51037,32.59895],[130.50914,32.60717],[130.50559,32.60674],[130.49347,32.60973]]]]},"properties":{"pref":"熊本県","city":"宇城市","code5":"43213","code6":"432130"}},
{"type":"Feature","geometry":{"type":"Polygon","coordinates":[[[130.9562,32.95367],[130.95891,32.9491],[130.96455,32.94684],[130.95818,32.94171],[130.9599,32.93513],[130.96635,32.9243],[130.95729,32.91378],[130.96675,32.90327],[130.97918,32.9],[130.98836,32.90275],[130.98456,32.90721],[130.98764,32.90987],[131.00033,32.90895],[131.0019,32.90717],[131.01995,32.90231],[131.01998,32.89726],[131.02604,32.89565],[131.03178,32.89818],[131.04159,32.89461],[131.05168,32.88898],[131.05247,32.8868],[131.06117,32.88537],[131.06647,32.88034],[131.09022,32.8847],[131.09762,32.88333],[131.10294,32.88293],[131.10658,32.88629],[131.11592,32.8871],[131.12085,32.886],[131.13896,32.88479],[131.14265,32.8829],[131.15191,32.8868],[131.1617,32.88856],[131.17073,32.8838],[131.17021,32.88113],[131.17761,32.87791],[131.17764,32.87457],[131.19661,32.88039],[131.20693,32.88468],[131.22883,32.8992],[131.23037,32.90215],[131.24932,32.90666],[131.2538,32.90865],[131.25298,32.92451],[131.2482,32.93148],[131.24599,32.94031],[131.25263,32.94646],[131.24841,32.94793],[131.24719,32.95325],[131.25177,32.9569],[131.24627,32.96076],[131.23731,32.96214],[131.22792,32.95982],[131.22437,32.96349],[131.21925,32.96233],[131.21664,32.97082],[131.21388,32.97271],[131.19823,32.97269],[131.19315,32.97094],[131.18681,32.97226],[131.18548,32.99065],[131.18115,32.99334],[131.18548,32.99912],[131.18105,33.00309],[131.17109,33.00646],[131.16717,33.01151],[131.15395,33.01261],[131.15123,33.0226],[131.16192,33.02662],[131.16476,33.03253],[131.16532,33.03916],[131.16077,33.04137],[131.15127,33.04201],[131.14276,33.04113],[131.12728,33.04567],[131.12165,33.04002],[131.11282,33.03806],[131.09432,33.03149],[131.08785,33.04283],[131.07449,33.03954],[131.06872,33.0396],[131.0625,33.03004],[131.00743,33.01933],[130.9982,33.0283],[130.99085,33.02382],[130.97705,33.02499],[130.97027,33.02377],[130.95568,33.00424],[130.95722,32.9967],[130.95699,32.98874],[130.95339,32.97567],[130.94272,32.96369],[130.9562,32.95367]]]},"properties":{"pref":"熊本県","city":"阿蘇市","code5":"43214","code6":"432148"}},
{"type":"Feature","geometry":{"type":"MultiPolygon","coordinates":[[[[130.01807,32.43922],[130.00664,32.42796],[130.00272,32.41411],[130.00432,32.41066],[129.99817,32.40352],[129.99863,32.39859],[129.99634,32.39123],[129.99061,32.38684],[129.99398,32.38267],[129.9939,32.37676],[129.98785,32.37545],[129.97963,32.36602],[129.97485,32.35573],[129.97774,32.34576],[129.98105,32.34184],[129.9795,32.33366],[129.98034,32.32929],[129.98085,32.3251],[129.98731,32.32193],[129.99249,32.32322],[129.99526,32.31472],[129.99379,32.30739],[130.00188,32.30886],[130.00342,32.30869],[130.00527,32.31115],[130.01782,32.31404],[130.01795,32.30972],[130.02841,32.30898],[130.0307,32.30318],[130.03686,32.30495],[130.03819,32.31294],[130.05419,32.30945],[130.05808,32.30328],[130.0657,32.30578],[130.07143,32.30046],[130.06668,32.29643],[130.0614,32.2963],[130.06715,32.28859],[130.06284,32.28469],[130.06279,32.27853],[130.05173,32.27876],[130.05147,32.28706],[130.04597,32.29424],[130.05149,32.30092],[130.04809,32.30272],[130.03681,32.30154],[130.03022,32.29329],[130.03693,32.28528],[130.03768,32.27908],[130.0328,32.27941],[130.03009,32.28524],[130.02619,32.28691],[130.02514,32.30134],[130.01401,32.30001],[130.01094,32.29841],[130.00455,32.28886],[129.99379,32.28292],[129.98765,32.27662],[129.98625,32.2711],[129.98176,32.26872],[129.97055,32.2477],[129.96954,32.24295],[129.9751,32.24008],[129.98332,32.24624],[129.98835,32.24302],[129.99378,32.24473],[129.98874,32.241],[129.99482,32.23898],[129.99407,32.23585],[130.00526,32.23607],[130.00915,32.23996],[130.01253,32.23527],[130.0147,32.22242],[130.00948,32.21918],[129.99989,32.21798],[129.99708,32.20438],[129.99231,32.20116],[129.99603,32.19661],[130.00194,32.19322],[130.01261,32.19917],[130.01301,32.18954],[130.02294,32.18873],[130.02128,32.19253],[130.02806,32.19372],[130.03259,32.20001],[130.02948,32.20928],[130.03216,32.21385],[130.03651,32.20794],[130.0403,32.20899],[130.0446,32.20175],[130.04893,32.20556],[130.05553,32.20787],[130.05817,32.21124],[130.07235,32.21148],[130.07838,32.21424],[130.08074,32.21839],[130.0724,32.22481],[130.08217,32.23013],[130.07863,32.23509],[130.08047,32.24308],[130.08948,32.24298],[130.0868,32.23779],[130.0896,32.22825],[130.10055,32.2317],[130.10287,32.24899],[130.09803,32.24578],[130.09397,32.24687],[130.09283,32.25423],[130.10333,32.25552],[130.1069,32.25368],[130.11186,32.26221],[130.11094,32.26721],[130.11488,32.26794],[130.12274,32.27836],[130.13229,32.28587],[130.13451,32.28909],[130.13782,32.28895],[130.14305,32.28377],[130.14931,32.28297],[130.16088,32.28967],[130.16647,32.29588],[130.16345,32.30155],[130.15276,32.30264],[130.14805,32.30193],[130.14381,32.29671],[130.1401,32.29779],[130.14211,32.30586],[130.14059,32.3079],[130.14781,32.31204],[130.15287,32.31144],[130.1569,32.31368],[130.15187,32.32216],[130.15872,32.32406],[130.15584,32.33043],[130.15779,32.33433],[130.16452,32.32926],[130.17485,32.33937],[130.17707,32.33543],[130.16825,32.32609],[130.16812,32.31681],[130.17269,32.31048],[130.17917,32.31058],[130.18562,32.31388],[130.19516,32.32401],[130.19975,32.32265],[130.20337,32.33281],[130.20819,32.33487],[130.2072,32.34655],[130.21182,32.35541],[130.21616,32.35921],[130.2185,32.3648],[130.22554,32.36884],[130.2213,32.3769],[130.21672,32.3802],[130.22315,32.38594],[130.21939,32.39255],[130.2091,32.39595],[130.20473,32.39496],[130.19942,32.38508],[130.19433,32.38725],[130.20142,32.39205],[130.20066,32.40161],[130.19783,32.40548],[130.20236,32.41101],[130.20985,32.41403],[130.2079,32.42198],[130.21615,32.4216],[130.20935,32.43052],[130.20808,32.43764],[130.20493,32.44134],[130.20204,32.44917],[130.20308,32.45377],[130.19696,32.4585],[130.20511,32.46421],[130.20856,32.47232],[130.20304,32.47545],[130.20583,32.47863],[130.19685,32.48805],[130.19246,32.49613],[130.19797,32.50476],[130.19693,32.51092],[130.19229,32.51725],[130.19515,32.51878],[130.19308,32.52522],[130.19504,32.53217],[130.18797,32.54855],[130.17065,32.55069],[130.16149,32.55079],[130.14733,32.54959],[130.13832,32.5464],[130.13014,32.54581],[130.12116,32.54668],[130.11795,32.54359],[130.11819,32.53961],[130.12649,32.53226],[130.12041,32.52108],[130.12174,32.51681],[130.11667,32.51287],[130.11519,32.50562],[130.11874,32.50373],[130.11802,32.49423],[130.11456,32.48925],[130.10615,32.48169],[130.10092,32.48017],[130.09746,32.48195],[130.08837,32.47108],[130.08256,32.45971],[130.09173,32.4537],[130.09388,32.45089],[130.09539,32.43952],[130.09485,32.42944],[130.09079,32.42917],[130.08401,32.43616],[130.0775,32.43933],[130.05571,32.43927],[130.05264,32.43708],[130.04133,32.4337],[130.0367,32.43529],[130.0205,32.43639],[130.01807,32.43922]]],[[[130.39078,32.5016],[130.39146,32.50758],[130.38945,32.51403],[130.36867,32.51805],[130.36957,32.52456],[130.35952,32.52732],[130.34329,32.52166],[130.33525,32.51765],[130.33484,32.52185],[130.32596,32.51879],[130.31573,32.51759],[130.31112,32.51056],[130.29393,32.49794],[130.29455,32.49244],[130.28178,32.48408],[130.27299,32.48307],[130.26799,32.47966],[130.25903,32.479],[130.25382,32.47531],[130.25096,32.47028],[130.24012,32.466],[130.2334,32.46051],[130.23016,32.46184],[130.21655,32.45717],[130.21044,32.45276],[130.2046,32.45144],[130.20551,32.44199],[130.20995,32.43685],[130.21042,32.43132],[130.21931,32.42301],[130.2251,32.41206],[130.23176,32.41513],[130.24081,32.41549],[130.24388,32.41241],[130.24394,32.40165],[130.24596,32.39688],[130.23416,32.3874],[130.23438,32.38502],[130.24334,32.38449],[130.25244,32.38751],[130.25237,32.39322],[130.26062,32.40378],[130.26194,32.41053],[130.27485,32.41209],[130.27845,32.40282],[130.28626,32.39923],[130.28999,32.40113],[130.30084,32.3991],[130.30861,32.396],[130.3294,32.39924],[130.3342,32.40343],[130.3418,32.40632],[130.34648,32.413],[130.34601,32.41703],[130.3509,32.41781],[130.35398,32.40512],[130.36191,32.40158],[130.36651,32.40464],[130.36652,32.41091],[130.37517,32.4181],[130.38256,32.43747],[130.38168,32.44547],[130.3686,32.4426],[130.36481,32.44004],[130.3476,32.44545],[130.33932,32.45537],[130.3374,32.46132],[130.34274,32.47105],[130.34088,32.47525],[130.34364,32.48211],[130.35083,32.48205],[130.35543,32.47834],[130.36623,32.47747],[130.37404,32.48027],[130.3791,32.4785],[130.38182,32.48459],[130.38245,32.49439],[130.38115,32.49626],[130.39078,32.5016]]],[[[130.32902,32.30446],[130.33749,32.31167],[130.34489,32.31233],[130.36013,32.32609],[130.36395,32.33513],[130.37408,32.34299],[130.37177,32.34989],[130.3642,32.34592],[130.35612,32.35167],[130.34462,32.34883],[130.33731,32.33756],[130.32977,32.33338],[130.33042,32.3271],[130.3338,32.31748],[130.32171,32.31736],[130.31649,32.31131],[130.31322,32.31165],[130.31321,32.31165],[130.31187,32.30594],[130.31772,32.30556],[130.32187,32.30756],[130.32902,32.30446]]],[[[130.31312,32.36455],[130.31104,32.35777],[130.30383,32.36328],[130.2996,32.35919],[130.30192,32.35067],[130.30845,32.35128],[130.31612,32.34845],[130.31391,32.34423],[130.32137,32.34041],[130.32965,32.34787],[130.33924,32.34731],[130.34067,32.35181],[130.33322,32.35473],[130.33061,32.35847],[130.32015,32.36295],[130.31312,32.36455]]],[[[130.03333,32.18528],[130.03182,32.19092],[130.02688,32.19103],[130.01962,32.1862],[130.02256,32.18229],[130.01903,32.17964],[130.01527,32.17167],[130.01786,32.1624],[130.02227,32.16134],[130.02402,32.17009],[130.02848,32.17485],[130.03223,32.17517],[130.03737,32.16955],[130.03762,32.16656],[130.0448,32.15894],[130.04861,32.16734],[130.04408,32.17184],[130.03631,32.17623],[130.03993,32.18068],[130.03474,32.18471],[130.03333,32.18528]]],[[[130.14119,32.27765],[130.13366,32.27213],[130.13205,32.26609],[130.13483,32.26271],[130.14022,32.26269],[130.14648,32.26514],[130.15067,32.26899],[130.14846,32.27447],[130.14119,32.27765]]],[[[130.35066,32.37186],[130.34197,32.37117],[130.34127,32.36653],[130.34915,32.36055],[130.35476,32.36372],[130.35066,32.37186]]],[[[130.23575,32.38063],[130.22997,32.37723],[130.22851,32.37247],[130.22951,32.36651],[130.23594,32.36807],[130.23575,32.38063]]],[[[130.07808,32.20167],[130.06995,32.19597],[130.07848,32.19516],[130.08189,32.19804],[130.07808,32.20167]]],[[[129.9712,32.20423],[129.97191,32.20547],[129.97174,32.20525],[129.9712,32.20423]]]]},"properties":{"pref":"熊本県","city":"天草市","code5":"43215","code6":"432156"}},
{"type":"Feature","geometry":{"type":"Polygon","coordinates":[[[130.74856,32.85783],[130.75628,32.86416],[130.76086,32.86325],[130.76605,32.86556],[130.76849,32.86058],[130.78066,32.86828],[130.78775,32.87061],[130.78842,32.87562],[130.79417,32.87459],[130.80336,32.87673],[130.80563,32.87904],[130.81271,32.87954],[130.82493,32.8836],[130.82592,32.88663],[130.83588,32.89198],[130.84712,32.89332],[130.8401,32.89463],[130.83166,32.90156],[130.82649,32.90753],[130.81609,32.90922],[130.80844,32.91298],[130.79537,32.91423],[130.79051,32.91123],[130.77392,32.92003],[130.76568,32.92144],[130.76041,32.92456],[130.75219,32.92701],[130.73547,32.92562],[130.72975,32.92753],[130.72504,32.9177],[130.72209,32.90695],[130.72295,32.90048],[130.71998,32.89695],[130.72424,32.88789],[130.73011,32.88816],[130.72994,32.8798],[130.73231,32.87875],[130.73098,32.87212],[130.73093,32.86203],[130.72561,32.85369],[130.73175,32.85164],[130.74096,32.85385],[130.74856,32.85783]]]},"properties":{"pref":"熊本県","city":"合志市","code5":"43216","code6":"432164"}},
{"type":"Feature","geometry":{"type":"Polygon","coordinates":[[[130.95057,32.57946],[130.94841,32.585],[130.95144,32.58673],[130.95778,32.59496],[130.96623,32.59926],[130.96412,32.61395],[130.96037,32.62116],[130.96015,32.62529],[130.95676,32.62948],[130.94923,32.63453],[130.95336,32.63856],[130.96721,32.63828],[130.97721,32.6427],[130.97273,32.64655],[130.96201,32.64662],[130.95898,32.64896],[130.9477,32.64794],[130.94285,32.65055],[130.93933,32.65741],[130.92081,32.65683],[130.90325,32.66488],[130.89188,32.66193],[130.88481,32.66193],[130.87612,32.66417],[130.87234,32.66209],[130.87378,32.65497],[130.86704,32.64659],[130.86168,32.64681],[130.84181,32.63804],[130.84258,32.6353],[130.83759,32.62816],[130.82528,32.62791],[130.82025,32.62628],[130.81562,32.6294],[130.80732,32.63898],[130.80808,32.64313],[130.80036,32.65259],[130.80026,32.65893],[130.79294,32.65772],[130.78492,32.66235],[130.77634,32.66333],[130.77421,32.65152],[130.77833,32.64006],[130.77704,32.6291],[130.77977,32.6277],[130.77923,32.61364],[130.77767,32.60743],[130.77379,32.60375],[130.77857,32.60134],[130.78271,32.59536],[130.78876,32.59438],[130.79303,32.57859],[130.79958,32.57373],[130.80386,32.56826],[130.81508,32.56692],[130.82102,32.56077],[130.82788,32.56184],[130.83567,32.5657],[130.84221,32.57082],[130.84628,32.56946],[130.85225,32.57266],[130.86146,32.57423],[130.87054,32.57216],[130.88376,32.57411],[130.89223,32.57075],[130.90898,32.57593],[130.90587,32.58035],[130.90729,32.58376],[130.91356,32.58478],[130.92212,32.57939],[130.92332,32.57457],[130.93897,32.57794],[130.94692,32.57664],[130.95057,32.57946]]]},"properties":{"pref":"熊本県","county":"下益城郡","city":"美里町","code5":"43348","code6":"433489"}},
{"type":"Feature","geometry":{"type":"Polygon","coordinates":[[[130.62624,32.86198],[130.63477,32.86094],[130.63846,32.86503],[130.6398,32.87338],[130.64485,32.88494],[130.65196,32.88794],[130.64937,32.89252],[130.64804,32.90028],[130.64966,32.90278],[130.64656,32.90802],[130.6372,32.91623],[130.64187,32.92394],[130.6389,32.92555],[130.64624,32.93155],[130.65161,32.93221],[130.64432,32.93786],[130.64029,32.93846],[130.63516,32.94359],[130.62941,32.9447],[130.62639,32.94125],[130.62267,32.93842],[130.62132,32.93373],[130.61258,32.92574],[130.60871,32.9242],[130.60618,32.91753],[130.61527,32.915],[130.61784,32.90395],[130.61745,32.89687],[130.60733,32.89117],[130.60749,32.88496],[130.61043,32.8816],[130.60754,32.87753],[130.61237,32.87532],[130.62624,32.86198]]]},"properties":{"pref":"熊本県","county":"玉名郡","city":"玉東町","code5":"43364","code6":"433641"}},
{"type":"Feature","geometry":{"type":"Polygon","coordinates":[[[130.51587,33.01202],[130.52114,33.00083],[130.52041,32.99663],[130.52775,32.98835],[130.55847,32.99513],[130.57143,32.99158],[130.58021,32.99103],[130.5889,32.99734],[130.5849,32.99999],[130.587,33.00598],[130.58531,33.01602],[130.59059,33.01808],[130.59448,33.01618],[130.59881,33.02786],[130.60173,33.03086],[130.59792,33.03429],[130.59646,33.04099],[130.59103,33.0524],[130.58523,33.05098],[130.58182,33.05371],[130.58199,33.05834],[130.57352,33.06764],[130.57629,33.07317],[130.57526,33.07891],[130.57217,33.08387],[130.56572,33.08725],[130.55596,33.08609],[130.54663,33.08057],[130.54245,33.08174],[130.53537,33.07805],[130.53225,33.0655],[130.51687,33.06557],[130.51309,33.06152],[130.50406,33.05803],[130.50374,33.05575],[130.49673,33.05176],[130.49504,33.04868],[130.50447,33.03679],[130.50558,33.02607],[130.51095,33.02314],[130.51587,33.01202]]]},"properties":{"pref":"熊本県","county":"玉名郡","city":"南関町","code5":"43367","code6":"433675"}},
{"type":"Feature","geometry":{"type":"Polygon","coordinates":[[[130.43778,32.9419],[130.44092,32.92965],[130.44317,32.92788],[130.43974,32.92086],[130.44428,32.91476],[130.4516,32.9091],[130.46038,32.91659],[130.46016,32.91913],[130.46341,32.91196],[130.45702,32.90543],[130.4626,32.90144],[130.46559,32.90403],[130.47081,32.90044],[130.47648,32.90499],[130.48766,32.91974],[130.49042,32.92516],[130.49656,32.93006],[130.49702,32.93668],[130.49246,32.93937],[130.49523,32.9508],[130.48724,32.94884],[130.47556,32.9512],[130.4658,32.93952],[130.4585,32.93976],[130.45424,32.94559],[130.44373,32.94547],[130.43778,32.9419]]]},"properties":{"pref":"熊本県","county":"玉名郡","city":"長洲町","code5":"43368","code6":"433683"}},
{"type":"Feature","geometry":{"type":"Polygon","coordinates":[[[130.5618,33.10419],[130.5612,33.09591],[130.56543,33.09163],[130.56572,33.08725],[130.57217,33.08387],[130.57526,33.07891],[130.57629,33.07317],[130.57352,33.06764],[130.58199,33.05834],[130.58182,33.05371],[130.58523,33.05098],[130.59103,33.0524],[130.59646,33.04099],[130.59792,33.03429],[130.60173,33.03086],[130.59881,33.02786],[130.59448,33.01618],[130.59059,33.01808],[130.58531,33.01602],[130.587,33.00598],[130.5849,32.99999],[130.5889,32.99734],[130.58021,32.99103],[130.58272,32.98785],[130.59199,32.98919],[130.59977,32.98459],[130.60321,32.97722],[130.59684,32.97351],[130.59509,32.96419],[130.5905,32.96071],[130.59271,32.95729],[130.59931,32.96059],[130.60661,32.95991],[130.61067,32.95532],[130.60755,32.95224],[130.61172,32.94643],[130.61565,32.94949],[130.62639,32.94125],[130.62941,32.9447],[130.62964,32.95207],[130.63198,32.96073],[130.63605,32.96613],[130.6508,32.96268],[130.65465,32.97189],[130.65074,32.97528],[130.64307,32.97621],[130.64792,32.98733],[130.64159,32.99442],[130.64598,32.99808],[130.64672,33.00615],[130.63737,33.00943],[130.63831,33.01387],[130.63211,33.01959],[130.63604,33.02297],[130.64842,33.02641],[130.65174,33.03581],[130.65311,33.04822],[130.64952,33.05226],[130.63534,33.05371],[130.63646,33.0609],[130.63277,33.06677],[130.6325,33.07349],[130.63947,33.08005],[130.64781,33.08385],[130.65071,33.08358],[130.65535,33.08922],[130.65593,33.09662],[130.65122,33.10323],[130.65568,33.10862],[130.64013,33.11339],[130.62134,33.11129],[130.61555,33.1086],[130.60701,33.11039],[130.60101,33.11479],[130.58976,33.11394],[130.5802,33.11602],[130.57316,33.11174],[130.5708,33.10674],[130.5618,33.10419]]]},"properties":{"pref":"熊本県","county":"玉名郡","city":"和水町","code5":"43369","code6":"433691"}},
{"type":"Feature","geometry":{"type":"Polygon","coordinates":[[[130.83166,32.90156],[130.8401,32.89463],[130.84712,32.89332],[130.85399,32.8847],[130.85225,32.87117],[130.84969,32.86562],[130.85319,32.8645],[130.85325,32.85796],[130.85708,32.85451],[130.86449,32.85391],[130.86374,32.84471],[130.87373,32.84264],[130.8744,32.84007],[130.87498,32.83681],[130.88175,32.83774],[130.88634,32.84482],[130.89331,32.84828],[130.8985,32.84368],[130.90089,32.84846],[130.89826,32.85418],[130.90242,32.85751],[130.91102,32.85843],[130.92171,32.86147],[130.92618,32.86116],[130.94262,32.865],[130.94562,32.86686],[130.96189,32.86746],[130.97413,32.86264],[130.97809,32.86253],[130.98479,32.86776],[130.98847,32.87475],[130.978,32.87206],[130.97249,32.87552],[130.95743,32.87303],[130.94881,32.87754],[130.96675,32.90327],[130.95729,32.91378],[130.96635,32.9243],[130.9599,32.93513],[130.95818,32.94171],[130.96455,32.94684],[130.95891,32.9491],[130.9562,32.95367],[130.9515,32.94941],[130.93813,32.94966],[130.93684,32.94498],[130.92966,32.94052],[130.92453,32.93454],[130.90908,32.93561],[130.8881,32.92987],[130.86287,32.93103],[130.86136,32.92747],[130.86921,32.92069],[130.86539,32.91941],[130.8584,32.92135],[130.84041,32.92439],[130.83689,32.91946],[130.83937,32.91523],[130.83786,32.9084],[130.83166,32.90156]]]},"properties":{"pref":"熊本県","county":"菊池郡","city":"大津町","code5":"43403","code6":"434035"}},
{"type":"Feature","geometry":{"type":"Polygon","coordinates":[[[130.82778,32.82537],[130.8337,32.82201],[130.83757,32.82663],[130.84642,32.8319],[130.86017,32.83545],[130.86439,32.83526],[130.8744,32.84007],[130.87373,32.84264],[130.86374,32.84471],[130.86449,32.85391],[130.85708,32.85451],[130.85325,32.85796],[130.85319,32.8645],[130.84969,32.86562],[130.85225,32.87117],[130.85399,32.8847],[130.84712,32.89332],[130.83588,32.89198],[130.82592,32.88663],[130.82493,32.8836],[130.81271,32.87954],[130.80563,32.87904],[130.80336,32.87673],[130.79417,32.87459],[130.78842,32.87562],[130.78775,32.87061],[130.78066,32.86828],[130.76849,32.86058],[130.76605,32.86556],[130.76086,32.86325],[130.75628,32.86416],[130.74856,32.85783],[130.75216,32.85542],[130.7601,32.85733],[130.75926,32.85233],[130.76802,32.85694],[130.77633,32.85794],[130.77965,32.85638],[130.78739,32.85831],[130.79051,32.85333],[130.80481,32.85222],[130.80766,32.83743],[130.82066,32.8385],[130.8281,32.83117],[130.82778,32.82537]]]},"properties":{"pref":"熊本県","county":"菊池郡","city":"菊陽町","code5":"43404","code6":"434043"}},
{"type":"Feature","geometry":{"type":"Polygon","coordinates":[[[131.16532,33.03916],[131.17079,33.05158],[131.18346,33.06234],[131.19432,33.06844],[131.19662,33.07106],[131.19864,33.07337],[131.19313,33.07765],[131.18604,33.07383],[131.17455,33.08308],[131.17225,33.08971],[131.1748,33.09679],[131.17317,33.10464],[131.16477,33.10303],[131.14711,33.10646],[131.14185,33.10424],[131.13912,33.09932],[131.13446,33.09772],[131.12709,33.09985],[131.12263,33.09686],[131.11591,33.0982],[131.10488,33.09689],[131.09805,33.0997],[131.09199,33.10025],[131.08819,33.09718],[131.08155,33.10465],[131.0802,33.11154],[131.07118,33.11616],[131.06438,33.10567],[131.05789,33.1036],[131.05411,33.10782],[131.05575,33.11316],[131.05172,33.11421],[131.04775,33.11111],[131.03611,33.10781],[131.03404,33.09822],[131.03125,33.09606],[131.01954,33.09645],[131.01829,33.09408],[131.02405,33.08754],[131.019,33.08076],[131.01445,33.07968],[131.01072,33.06985],[131.01774,33.06369],[131.01428,33.05899],[131.01267,33.05245],[131.01454,33.04769],[131.01179,33.04312],[131.00486,33.03981],[131.00329,33.03282],[130.9982,33.0283],[131.00743,33.01933],[131.0625,33.03004],[131.06872,33.0396],[131.07449,33.03954],[131.08785,33.04283],[131.09432,33.03149],[131.11282,33.03806],[131.12165,33.04002],[131.12728,33.04567],[131.14276,33.04113],[131.15127,33.04201],[131.16077,33.04137],[131.16532,33.03916]]]},"properties":{"pref":"熊本県","county":"阿蘇郡","city":"南小国町","code5":"43423","code6":"434230"}},
{"type":"Feature","geometry":{"type":"Polygon","coordinates":[[[131.17317,33.10464],[131.16626,33.11106],[131.16359,33.11649],[131.16593,33.11963],[131.16693,33.12874],[131.16122,33.14077],[131.15765,33.14178],[131.14795,33.14978],[131.14784,33.15503],[131.13789,33.15952],[131.13387,33.16006],[131.13283,33.16446],[131.12894,33.16696],[131.12117,33.16775],[131.11838,33.17031],[131.11554,33.18027],[131.11118,33.1833],[131.0995,33.18789],[131.0954,33.18517],[131.082,33.18879],[131.06746,33.19143],[131.06035,33.19512],[131.03885,33.19413],[131.03594,33.18833],[131.02825,33.18642],[131.01657,33.17793],[131.00575,33.17774],[131.00311,33.18059],[130.99424,33.18384],[130.99294,33.1774],[130.98895,33.17602],[130.98549,33.16839],[130.98513,33.16107],[130.98193,33.15612],[130.98426,33.15234],[130.98159,33.14792],[130.98452,33.14395],[130.97852,33.14224],[130.98455,33.13461],[130.9916,33.12977],[130.99405,33.11942],[131.00031,33.11633],[131.00461,33.11019],[131.00898,33.10859],[131.01829,33.09408],[131.01954,33.09645],[131.03125,33.09606],[131.03404,33.09822],[131.03611,33.10781],[131.04775,33.11111],[131.05172,33.11421],[131.05575,33.11316],[131.05411,33.10782],[131.05789,33.1036],[131.06438,33.10567],[131.07118,33.11616],[131.0802,33.11154],[131.08155,33.10465],[131.08819,33.09718],[131.09199,33.10025],[131.09805,33.0997],[131.10488,33.09689],[131.11591,33.0982],[131.12263,33.09686],[131.12709,33.09985],[131.13446,33.09772],[131.13912,33.09932],[131.14185,33.10424],[131.14711,33.10646],[131.16477,33.10303],[131.17317,33.10464]]]},"properties":{"pref":"熊本県","county":"阿蘇郡","city":"小国町","code5":"43424","code6":"434248"}},
{"type":"Feature","geometry":{"type":"Polygon","coordinates":[[[131.24627,32.96076],[131.24737,32.96331],[131.256,32.96344],[131.26091,32.96946],[131.26321,32.97715],[131.25671,32.98036],[131.24723,32.98244],[131.24616,32.98859],[131.24771,32.99524],[131.24051,33.00039],[131.23532,33.00852],[131.22843,33.01181],[131.22362,33.01716],[131.22557,33.02371],[131.22119,33.02995],[131.21965,33.03916],[131.21599,33.05106],[131.21672,33.05346],[131.20982,33.05785],[131.19662,33.07106],[131.19432,33.06844],[131.18346,33.06234],[131.17079,33.05158],[131.16532,33.03916],[131.16476,33.03253],[131.16192,33.02662],[131.15123,33.0226],[131.15395,33.01261],[131.16717,33.01151],[131.17109,33.00646],[131.18105,33.00309],[131.18548,32.99912],[131.18115,32.99334],[131.18548,32.99065],[131.18681,32.97226],[131.19315,32.97094],[131.19823,32.97269],[131.21388,32.97271],[131.21664,32.97082],[131.21925,32.96233],[131.22437,32.96349],[131.22792,32.95982],[131.23731,32.96214],[131.24627,32.96076]]]},"properties":{"pref":"熊本県","county":"阿蘇郡","city":"産山村","code5":"43425","code6":"434256"}},
{"type":"Feature","geometry":{"type":"Polygon","coordinates":[[[131.09762,32.88333],[131.09899,32.87862],[131.09453,32.87372],[131.09789,32.86585],[131.10483,32.85646],[131.10576,32.84952],[131.11237,32.8413],[131.10628,32.84139],[131.10431,32.83604],[131.10702,32.83238],[131.11305,32.83312],[131.1143,32.82848],[131.11145,32.80712],[131.11522,32.79555],[131.12716,32.79481],[131.13616,32.79886],[131.14193,32.80493],[131.14319,32.81559],[131.14869,32.81966],[131.15905,32.81916],[131.16157,32.81623],[131.16992,32.81444],[131.17822,32.80457],[131.19224,32.80275],[131.19961,32.79573],[131.19937,32.79299],[131.205,32.78735],[131.20388,32.78052],[131.20045,32.77473],[131.20165,32.76841],[131.20815,32.76586],[131.21252,32.75809],[131.2167,32.75608],[131.22203,32.75676],[131.23422,32.75344],[131.23715,32.75845],[131.24159,32.75997],[131.24646,32.7694],[131.23721,32.77705],[131.23463,32.78096],[131.23735,32.78449],[131.24537,32.78655],[131.24504,32.79413],[131.24661,32.79899],[131.25526,32.80467],[131.2549,32.80929],[131.25782,32.8181],[131.26256,32.81848],[131.26543,32.82648],[131.27264,32.82415],[131.27607,32.82875],[131.28608,32.8314],[131.29155,32.8278],[131.30154,32.82957],[131.30891,32.82817],[131.3229,32.82865],[131.3295,32.83301],[131.3231,32.84065],[131.32245,32.84416],[131.31016,32.85283],[131.29451,32.857],[131.27945,32.86997],[131.27344,32.871],[131.27162,32.87693],[131.27345,32.88161],[131.26384,32.8794],[131.25739,32.88743],[131.25322,32.89804],[131.2538,32.90865],[131.24932,32.90666],[131.23037,32.90215],[131.22883,32.8992],[131.20693,32.88468],[131.19661,32.88039],[131.17764,32.87457],[131.17761,32.87791],[131.17021,32.88113],[131.17073,32.8838],[131.1617,32.88856],[131.15191,32.8868],[131.14265,32.8829],[131.13896,32.88479],[131.12085,32.886],[131.11592,32.8871],[131.10658,32.88629],[131.10294,32.88293],[131.09762,32.88333]]]},"properties":{"pref":"熊本県","county":"阿蘇郡","city":"高森町","code5":"43428","code6":"434281"}},
{"type":"Feature","geometry":{"type":"Polygon","coordinates":[[[130.87498,32.83681],[130.88048,32.82017],[130.87628,32.81677],[130.87613,32.81136],[130.87183,32.80694],[130.87446,32.80056],[130.87992,32.79862],[130.88042,32.7944],[130.88416,32.79236],[130.88997,32.78568],[130.89663,32.78276],[130.91215,32.78607],[130.92616,32.7838],[130.9332,32.77952],[130.94214,32.78459],[130.9485,32.79083],[130.955,32.78949],[130.96026,32.78437],[130.98272,32.79679],[130.9909,32.80383],[130.99592,32.80467],[130.99246,32.80755],[130.98977,32.81356],[130.97655,32.81497],[130.97917,32.8231],[130.97575,32.82542],[130.97486,32.83126],[130.97184,32.83442],[130.97495,32.83983],[130.98004,32.84059],[130.97936,32.84992],[130.97627,32.85095],[130.97257,32.85664],[130.97809,32.86253],[130.97413,32.86264],[130.96189,32.86746],[130.94562,32.86686],[130.94262,32.865],[130.92618,32.86116],[130.92171,32.86147],[130.91102,32.85843],[130.90242,32.85751],[130.89826,32.85418],[130.90089,32.84846],[130.8985,32.84368],[130.89331,32.84828],[130.88634,32.84482],[130.88175,32.83774],[130.87498,32.83681]]]},"properties":{"pref":"熊本県","county":"阿蘇郡","city":"西原村","code5":"43432","code6":"434329"}},
{"type":"Feature","geometry":{"type":"Polygon","coordinates":[[[130.96675,32.90327],[130.94881,32.87754],[130.95743,32.87303],[130.97249,32.87552],[130.978,32.87206],[130.98847,32.87475],[130.98479,32.86776],[130.97809,32.86253],[130.97257,32.85664],[130.97627,32.85095],[130.97936,32.84992],[130.98004,32.84059],[130.97495,32.83983],[130.97184,32.83442],[130.97486,32.83126],[130.97575,32.82542],[130.97917,32.8231],[130.97655,32.81497],[130.98977,32.81356],[130.99246,32.80755],[130.99592,32.80467],[130.99499,32.79887],[130.99871,32.7917],[131.00286,32.78879],[131.01436,32.78576],[131.02406,32.78676],[131.03036,32.7893],[131.0337,32.78529],[131.03846,32.78365],[131.04562,32.78508],[131.05003,32.7893],[131.06688,32.79286],[131.07338,32.79184],[131.08149,32.79495],[131.08524,32.79113],[131.09377,32.79513],[131.09648,32.79247],[131.10826,32.7919],[131.11522,32.79555],[131.11145,32.80712],[131.1143,32.82848],[131.11305,32.83312],[131.10702,32.83238],[131.10431,32.83604],[131.10628,32.84139],[131.11237,32.8413],[131.10576,32.84952],[131.10483,32.85646],[131.09789,32.86585],[131.09453,32.87372],[131.09899,32.87862],[131.09762,32.88333],[131.09022,32.8847],[131.06647,32.88034],[131.06117,32.88537],[131.05247,32.8868],[131.05168,32.88898],[131.04159,32.89461],[131.03178,32.89818],[131.02604,32.89565],[131.01998,32.89726],[131.01995,32.90231],[131.0019,32.90717],[131.00033,32.90895],[130.98764,32.90987],[130.98456,32.90721],[130.98836,32.90275],[130.97918,32.9],[130.96675,32.90327]]]},"properties":{"pref":"熊本県","county":"阿蘇郡","city":"南阿蘇村","code5":"43433","code6":"434337"}},
{"type":"Feature","geometry":{"type":"Polygon","coordinates":[[[130.75972,32.72033],[130.76685,32.717],[130.78065,32.71383],[130.7902,32.70744],[130.78783,32.70235],[130.79006,32.69599],[130.79632,32.69347],[130.79938,32.70164],[130.80649,32.70133],[130.81634,32.69336],[130.82849,32.69245],[130.8412,32.69798],[130.84634,32.68956],[130.85664,32.68905],[130.85983,32.68444],[130.85954,32.67911],[130.86684,32.67993],[130.86839,32.67676],[130.8754,32.67385],[130.87612,32.66417],[130.88481,32.66193],[130.89188,32.66193],[130.90325,32.66488],[130.89857,32.66571],[130.89087,32.67121],[130.89047,32.68086],[130.89541,32.68361],[130.89727,32.68905],[130.89393,32.69257],[130.89256,32.70721],[130.89074,32.71028],[130.89186,32.71757],[130.88788,32.72041],[130.8903,32.73018],[130.89249,32.73224],[130.89133,32.74365],[130.89897,32.74508],[130.90762,32.75029],[130.90826,32.75249],[130.91784,32.75583],[130.92833,32.76335],[130.94447,32.76991],[130.95395,32.77649],[130.95861,32.77826],[130.96026,32.78437],[130.955,32.78949],[130.9485,32.79083],[130.94214,32.78459],[130.9332,32.77952],[130.92616,32.7838],[130.91215,32.78607],[130.89663,32.78276],[130.88997,32.78568],[130.88823,32.77695],[130.87973,32.77368],[130.87562,32.7706],[130.83983,32.76722],[130.84013,32.75935],[130.83005,32.75291],[130.83451,32.73504],[130.829,32.73611],[130.82592,32.73295],[130.81657,32.73143],[130.8144,32.73842],[130.8109,32.73988],[130.80789,32.74556],[130.7994,32.7469],[130.79727,32.74933],[130.7901,32.74189],[130.78493,32.74273],[130.77556,32.73804],[130.77134,32.73284],[130.76543,32.73278],[130.75705,32.72833],[130.75972,32.72033]]]},"properties":{"pref":"熊本県","county":"上益城郡","city":"御船町","code5":"43441","code6":"434418"}},
{"type":"Feature","geometry":{"type":"Polygon","coordinates":[[[130.77834,32.76339],[130.77082,32.76298],[130.76466,32.76029],[130.7612,32.76444],[130.75444,32.76221],[130.74653,32.75378],[130.72895,32.75028],[130.72581,32.74345],[130.71975,32.74537],[130.71551,32.74319],[130.71252,32.73827],[130.70677,32.74074],[130.70149,32.73961],[130.6995,32.73586],[130.71395,32.73541],[130.72479,32.73714],[130.73822,32.73507],[130.74722,32.73493],[130.75196,32.73317],[130.75705,32.72833],[130.76543,32.73278],[130.77134,32.73284],[130.77556,32.73804],[130.78493,32.74273],[130.7901,32.74189],[130.79727,32.74933],[130.78841,32.75649],[130.784,32.75727],[130.77834,32.76339]]]},"properties":{"pref":"熊本県","county":"上益城郡","city":"嘉島町","code5":"43442","code6":"434426"}},
{"type":"Feature","geometry":{"type":"Polygon","coordinates":[[[130.77834,32.76339],[130.784,32.75727],[130.78841,32.75649],[130.79727,32.74933],[130.7994,32.7469],[130.80789,32.74556],[130.8109,32.73988],[130.8144,32.73842],[130.81657,32.73143],[130.82592,32.73295],[130.829,32.73611],[130.83451,32.73504],[130.83005,32.75291],[130.84013,32.75935],[130.83983,32.76722],[130.87562,32.7706],[130.87973,32.77368],[130.88823,32.77695],[130.88997,32.78568],[130.88416,32.79236],[130.88042,32.7944],[130.87992,32.79862],[130.87446,32.80056],[130.87183,32.80694],[130.87613,32.81136],[130.87628,32.81677],[130.88048,32.82017],[130.87498,32.83681],[130.8744,32.84007],[130.86439,32.83526],[130.86017,32.83545],[130.84642,32.8319],[130.83757,32.82663],[130.8337,32.82201],[130.82778,32.82537],[130.82905,32.81539],[130.82076,32.81434],[130.8157,32.81542],[130.80874,32.81232],[130.80617,32.80584],[130.78726,32.79964],[130.78301,32.80517],[130.77812,32.80454],[130.78346,32.79641],[130.78236,32.79431],[130.78464,32.78454],[130.7876,32.7787],[130.79155,32.77789],[130.79551,32.7699],[130.77834,32.76339]]]},"properties":{"pref":"熊本県","county":"上益城郡","city":"益城町","code5":"43443","code6":"434434"}},
{"type":"Feature","geometry":{"type":"Polygon","coordinates":[[[130.77686,32.66614],[130.77634,32.66333],[130.78492,32.66235],[130.79294,32.65772],[130.80026,32.65893],[130.80036,32.65259],[130.80808,32.64313],[130.80732,32.63898],[130.81562,32.6294],[130.82025,32.62628],[130.82528,32.62791],[130.83759,32.62816],[130.84258,32.6353],[130.84181,32.63804],[130.86168,32.64681],[130.86704,32.64659],[130.87378,32.65497],[130.87234,32.66209],[130.87612,32.66417],[130.8754,32.67385],[130.86839,32.67676],[130.86684,32.67993],[130.85954,32.67911],[130.85983,32.68444],[130.85664,32.68905],[130.84634,32.68956],[130.8412,32.69798],[130.82849,32.69245],[130.81634,32.69336],[130.80649,32.70133],[130.79938,32.70164],[130.79632,32.69347],[130.79006,32.69599],[130.78783,32.70235],[130.7902,32.70744],[130.78065,32.71383],[130.76685,32.717],[130.75972,32.72033],[130.76184,32.71165],[130.75341,32.70868],[130.75377,32.69972],[130.76477,32.69265],[130.76431,32.6865],[130.77053,32.68311],[130.77686,32.66614]]]},"properties":{"pref":"熊本県","county":"上益城郡","city":"甲佐町","code5":"43444","code6":"434442"}},
{"type":"Feature","geometry":{"type":"Polygon","coordinates":[[[131.01947,32.54922],[131.02395,32.55333],[131.03896,32.55443],[131.04044,32.56087],[131.03772,32.56473],[131.03953,32.57144],[131.04238,32.57441],[131.04325,32.58234],[131.05219,32.58772],[131.06275,32.58627],[131.06839,32.58402],[131.07446,32.58481],[131.0786,32.58178],[131.0879,32.57924],[131.09942,32.57845],[131.10499,32.57961],[131.1082,32.58206],[131.10606,32.58916],[131.11348,32.59138],[131.11951,32.59885],[131.12051,32.60548],[131.11621,32.60949],[131.11594,32.62095],[131.11987,32.62915],[131.11558,32.63543],[131.11622,32.64266],[131.12365,32.64463],[131.12722,32.65421],[131.13054,32.65788],[131.14019,32.66465],[131.14327,32.67006],[131.14322,32.67589],[131.15139,32.68006],[131.15812,32.6776],[131.16314,32.67169],[131.17478,32.67184],[131.17524,32.67937],[131.17247,32.68475],[131.17559,32.68711],[131.17508,32.69341],[131.18041,32.70013],[131.18193,32.70602],[131.17935,32.70975],[131.18995,32.72199],[131.19503,32.72531],[131.20614,32.73016],[131.21193,32.72869],[131.2315,32.74403],[131.23501,32.74433],[131.23422,32.75344],[131.22203,32.75676],[131.2167,32.75608],[131.21252,32.75809],[131.20815,32.76586],[131.20165,32.76841],[131.20045,32.77473],[131.20388,32.78052],[131.205,32.78735],[131.19937,32.79299],[131.19961,32.79573],[131.19224,32.80275],[131.17822,32.80457],[131.16992,32.81444],[131.16157,32.81623],[131.15905,32.81916],[131.14869,32.81966],[131.14319,32.81559],[131.14193,32.80493],[131.13616,32.79886],[131.12716,32.79481],[131.11522,32.79555],[131.10826,32.7919],[131.09648,32.79247],[131.09377,32.79513],[131.08524,32.79113],[131.08149,32.79495],[131.07338,32.79184],[131.06688,32.79286],[131.05003,32.7893],[131.04562,32.78508],[131.03846,32.78365],[131.0337,32.78529],[131.03036,32.7893],[131.02406,32.78676],[131.01436,32.78576],[131.00286,32.78879],[130.99871,32.7917],[130.99499,32.79887],[130.99592,32.80467],[130.9909,32.80383],[130.98272,32.79679],[130.96026,32.78437],[130.95861,32.77826],[130.95395,32.77649],[130.94447,32.76991],[130.92833,32.76335],[130.91784,32.75583],[130.90826,32.75249],[130.90762,32.75029],[130.89897,32.74508],[130.89133,32.74365],[130.89249,32.73224],[130.8903,32.73018],[130.88788,32.72041],[130.89186,32.71757],[130.89074,32.71028],[130.89256,32.70721],[130.89393,32.69257],[130.89727,32.68905],[130.89541,32.68361],[130.89047,32.68086],[130.89087,32.67121],[130.89857,32.66571],[130.90325,32.66488],[130.92081,32.65683],[130.93933,32.65741],[130.94285,32.65055],[130.9477,32.64794],[130.95898,32.64896],[130.96201,32.64662],[130.97273,32.64655],[130.97721,32.6427],[130.96721,32.63828],[130.95336,32.63856],[130.94923,32.63453],[130.95676,32.62948],[130.96015,32.62529],[130.96037,32.62116],[130.96412,32.61395],[130.96623,32.59926],[130.95778,32.59496],[130.95144,32.58673],[130.94841,32.585],[130.95057,32.57946],[130.95436,32.57712],[130.96338,32.57779],[130.96935,32.5804],[130.97855,32.57723],[130.98802,32.57134],[130.9962,32.56882],[131.00022,32.57],[131.00466,32.56594],[131.00995,32.56503],[131.00971,32.56103],[131.0162,32.55454],[131.01947,32.54922]]]},"properties":{"pref":"熊本県","county":"上益城郡","city":"山都町","code5":"43447","code6":"434477"}},
{"type":"Feature","geometry":{"type":"Polygon","coordinates":[[[130.72377,32.55858],[130.71566,32.56341],[130.70689,32.57207],[130.71396,32.57828],[130.70551,32.58464],[130.69835,32.58048],[130.6888,32.58567],[130.6869,32.58817],[130.67821,32.59246],[130.67904,32.59765],[130.65211,32.6099],[130.645,32.61604],[130.64136,32.61416],[130.63047,32.62269],[130.62325,32.62197],[130.61805,32.61929],[130.61937,32.61504],[130.63396,32.60336],[130.63278,32.60212],[130.6576,32.58154],[130.66114,32.57747],[130.66713,32.57501],[130.67403,32.5681],[130.67668,32.56283],[130.67049,32.56105],[130.67023,32.55279],[130.664,32.5449],[130.67604,32.53972],[130.68665,32.52762],[130.70059,32.53563],[130.69649,32.54437],[130.70446,32.54368],[130.71121,32.54882],[130.71467,32.55726],[130.72242,32.55648],[130.72377,32.55858]]]},"properties":{"pref":"熊本県","county":"八代郡","city":"氷川町","code5":"43468","code6":"434680"}},
{"type":"Feature","geometry":{"type":"Polygon","coordinates":[[[130.53806,32.41028],[130.53691,32.40787],[130.52769,32.40143],[130.51957,32.39365],[130.51358,32.39218],[130.51164,32.38757],[130.49681,32.37298],[130.4892,32.36635],[130.48847,32.36057],[130.49578,32.36239],[130.50761,32.35815],[130.50747,32.35479],[130.49895,32.35105],[130.49383,32.35051],[130.4901,32.34639],[130.4828,32.34201],[130.47983,32.33538],[130.48464,32.3338],[130.48395,32.32935],[130.48027,32.32694],[130.4736,32.33152],[130.47153,32.3267],[130.46624,32.32141],[130.47151,32.31589],[130.47217,32.30138],[130.48372,32.30014],[130.49003,32.3],[130.48817,32.29747],[130.48818,32.29751],[130.48785,32.29773],[130.48781,32.29772],[130.48776,32.29771],[130.48776,32.29768],[130.48775,32.29764],[130.48774,32.29761],[130.48773,32.29759],[130.48771,32.29756],[130.48617,32.29694],[130.48606,32.29704],[130.48597,32.29705],[130.48596,32.29692],[130.48599,32.29689],[130.48609,32.29678],[130.48618,32.29673],[130.48619,32.29674],[130.48622,32.29672],[130.4776,32.28696],[130.4656,32.29643],[130.46786,32.28554],[130.46609,32.28019],[130.46608,32.28013],[130.46363,32.2768],[130.46856,32.26949],[130.46599,32.25948],[130.46863,32.25595],[130.47803,32.25371],[130.48341,32.25088],[130.48961,32.25],[130.48992,32.24504],[130.49515,32.24159],[130.49533,32.2372],[130.49224,32.22628],[130.49355,32.21988],[130.49232,32.21427],[130.48863,32.21229],[130.48133,32.21243],[130.46981,32.20976],[130.47163,32.20616],[130.48256,32.19931],[130.4928,32.19827],[130.4989,32.19543],[130.50313,32.18894],[130.50953,32.19002],[130.5088,32.18503],[130.51457,32.18253],[130.5199,32.18608],[130.52499,32.18616],[130.52991,32.18962],[130.54715,32.19627],[130.57456,32.19318],[130.5794,32.19438],[130.58696,32.20718],[130.58156,32.21095],[130.58248,32.21852],[130.58744,32.22919],[130.5846,32.2356],[130.58459,32.24248],[130.59158,32.24897],[130.59319,32.2579],[130.59051,32.26222],[130.59736,32.26921],[130.60561,32.27223],[130.60823,32.27094],[130.61388,32.27714],[130.60497,32.27939],[130.60379,32.29185],[130.59862,32.29478],[130.60937,32.30546],[130.61244,32.3106],[130.61149,32.31426],[130.60675,32.31827],[130.60092,32.32729],[130.60421,32.34284],[130.61021,32.34774],[130.61637,32.34748],[130.63587,32.3549],[130.64165,32.36014],[130.64219,32.36489],[130.631,32.36728],[130.62522,32.36451],[130.61974,32.37397],[130.60656,32.37606],[130.60033,32.37315],[130.58836,32.37661],[130.57777,32.3717],[130.57327,32.375],[130.56725,32.37656],[130.56077,32.38237],[130.55312,32.38049],[130.54991,32.37313],[130.54114,32.36507],[130.53084,32.36715],[130.52797,32.37402],[130.53425,32.38335],[130.53049,32.38639],[130.53484,32.39311],[130.53474,32.39806],[130.53938,32.39955],[130.54342,32.40575],[130.53806,32.41028]]]},"properties":{"pref":"熊本県","county":"葦北郡","city":"芦北町","code5":"43482","code6":"434825"}},
{"type":"Feature","geometry":{"type":"Polygon","coordinates":[[[130.46981,32.20976],[130.48133,32.21243],[130.48863,32.21229],[130.49232,32.21427],[130.49355,32.21988],[130.49224,32.22628],[130.49533,32.2372],[130.49515,32.24159],[130.48992,32.24504],[130.48961,32.25],[130.48341,32.25088],[130.47803,32.25371],[130.46863,32.25595],[130.46599,32.25948],[130.46856,32.26949],[130.46363,32.2768],[130.45845,32.29],[130.44876,32.28765],[130.4525,32.28115],[130.44825,32.27606],[130.4505,32.27253],[130.44271,32.26856],[130.43926,32.27084],[130.43283,32.26349],[130.43104,32.25295],[130.42413,32.24975],[130.43141,32.24087],[130.4355,32.24108],[130.43482,32.23313],[130.43223,32.23109],[130.43686,32.22594],[130.43822,32.21675],[130.44963,32.21022],[130.45698,32.21049],[130.46573,32.20873],[130.46981,32.20976]]]},"properties":{"pref":"熊本県","county":"葦北郡","city":"津奈木町","code5":"43484","code6":"434841"}},
{"type":"Feature","geometry":{"type":"Polygon","coordinates":[[[130.87838,32.12127],[130.89731,32.12597],[130.90074,32.13238],[130.90601,32.13359],[130.91343,32.13045],[130.90761,32.13727],[130.90229,32.13647],[130.89492,32.14225],[130.89614,32.1473],[130.90289,32.15217],[130.90789,32.16116],[130.88992,32.17905],[130.88279,32.18407],[130.87871,32.19058],[130.8793,32.1967],[130.87427,32.20585],[130.86409,32.20446],[130.85626,32.20684],[130.85507,32.20941],[130.86674,32.22122],[130.86068,32.23217],[130.86233,32.23534],[130.85883,32.24327],[130.84981,32.25151],[130.84233,32.24709],[130.82761,32.24069],[130.82062,32.23891],[130.81626,32.24186],[130.8113,32.2389],[130.8122,32.23367],[130.80783,32.23015],[130.80832,32.21682],[130.81626,32.21671],[130.8191,32.21035],[130.81201,32.20598],[130.80715,32.20718],[130.79963,32.20506],[130.78156,32.20518],[130.78481,32.19331],[130.78904,32.19447],[130.79696,32.19034],[130.80476,32.18228],[130.81177,32.183],[130.81467,32.17921],[130.81364,32.17025],[130.81855,32.16472],[130.81494,32.16055],[130.82151,32.15243],[130.81955,32.14884],[130.82526,32.14211],[130.82772,32.13518],[130.83108,32.13531],[130.83433,32.14005],[130.84065,32.14156],[130.85078,32.129],[130.85626,32.12954],[130.85927,32.13369],[130.86874,32.13717],[130.87057,32.12866],[130.87838,32.12127]]]},"properties":{"pref":"熊本県","county":"球磨郡","city":"錦町","code5":"43501","code6":"435015"}},
{"type":"Feature","geometry":{"type":"Polygon","coordinates":[[[130.94396,32.35602],[130.9353,32.35479],[130.93148,32.35872],[130.92566,32.35868],[130.91968,32.3544],[130.90599,32.35477],[130.89941,32.34987],[130.89231,32.33903],[130.89119,32.33196],[130.88534,32.32636],[130.891,32.32209],[130.89919,32.31251],[130.9044,32.30892],[130.90753,32.30058],[130.90436,32.29628],[130.90745,32.28794],[130.90717,32.2807],[130.91209,32.27313],[130.91811,32.27011],[130.91998,32.2664],[130.91502,32.26162],[130.916,32.25373],[130.92514,32.24982],[130.92697,32.25252],[130.93564,32.2525],[130.93706,32.24671],[130.94656,32.23986],[130.95194,32.23287],[130.95497,32.2325],[130.96632,32.2247],[130.97089,32.22491],[130.98345,32.21121],[130.97967,32.20758],[130.97674,32.19049],[130.9841,32.18804],[130.98584,32.18191],[130.98479,32.17437],[130.98219,32.173],[130.98474,32.16158],[130.99239,32.15792],[130.99802,32.16142],[131.00378,32.16952],[131.01318,32.17438],[131.01873,32.16985],[131.02636,32.17136],[131.03809,32.16989],[131.0453,32.16126],[131.04925,32.16301],[131.05212,32.15836],[131.05952,32.15605],[131.06774,32.15729],[131.07017,32.15967],[131.08336,32.15464],[131.09624,32.15237],[131.10213,32.15793],[131.10897,32.16015],[131.10759,32.16601],[131.10144,32.17309],[131.10354,32.18199],[131.10219,32.1863],[131.10432,32.19201],[131.10008,32.19603],[131.10053,32.20154],[131.09448,32.20491],[131.08427,32.20619],[131.07844,32.21556],[131.07816,32.21944],[131.07374,32.22417],[131.06914,32.22531],[131.07092,32.23476],[131.06662,32.2393],[131.05703,32.24594],[131.04712,32.2443],[131.04706,32.24044],[131.0409,32.24021],[131.03709,32.23773],[131.02738,32.24353],[131.01745,32.23879],[131.0169,32.23135],[131.01084,32.22949],[131.006,32.23377],[131.0032,32.23999],[130.98215,32.24351],[130.97247,32.25292],[130.96886,32.26023],[130.97205,32.26468],[130.96849,32.26798],[130.97119,32.27442],[130.96365,32.28122],[130.97285,32.28472],[130.97428,32.29136],[130.9787,32.29485],[130.98065,32.29949],[130.96689,32.3174],[130.95858,32.32176],[130.95512,32.32708],[130.9513,32.33765],[130.95206,32.3441],[130.94934,32.35023],[130.94396,32.35602]]]},"properties":{"pref":"熊本県","county":"球磨郡","city":"多良木町","code5":"43505","code6":"435058"}},
{"type":"Feature","geometry":{"type":"Polygon","coordinates":[[[131.04712,32.2443],[131.0427,32.24816],[131.04162,32.2579],[131.04451,32.26305],[131.05421,32.267],[131.05454,32.2717],[131.04977,32.28332],[131.05112,32.28636],[131.04719,32.28747],[131.04214,32.2937],[131.03944,32.30025],[131.03432,32.30409],[131.0287,32.30368],[131.02067,32.30655],[131.01748,32.31349],[131.01035,32.31421],[130.99998,32.3053],[130.99178,32.29261],[130.97285,32.28472],[130.96365,32.28122],[130.97119,32.27442],[130.96849,32.26798],[130.97205,32.26468],[130.96886,32.26023],[130.97247,32.25292],[130.98215,32.24351],[131.0032,32.23999],[131.006,32.23377],[131.01084,32.22949],[131.0169,32.23135],[131.01745,32.23879],[131.02738,32.24353],[131.03709,32.23773],[131.0409,32.24021],[131.04706,32.24044],[131.04712,32.2443]]]},"properties":{"pref":"熊本県","county":"球磨郡","city":"湯前町","code5":"43506","code6":"435066"}},
{"type":"Feature","geometry":{"type":"Polygon","coordinates":[[[130.94112,32.4385],[130.94173,32.43564],[130.93874,32.42546],[130.94532,32.42086],[130.94909,32.4139],[130.94852,32.41031],[130.95941,32.40513],[130.96094,32.39156],[130.95806,32.38492],[130.95128,32.38317],[130.94941,32.37591],[130.94402,32.36928],[130.94396,32.35602],[130.94934,32.35023],[130.95206,32.3441],[130.9513,32.33765],[130.95512,32.32708],[130.95858,32.32176],[130.96689,32.3174],[130.98065,32.29949],[130.9787,32.29485],[130.97428,32.29136],[130.97285,32.28472],[130.99178,32.29261],[130.99998,32.3053],[131.01035,32.31421],[131.01748,32.31349],[131.02067,32.30655],[131.0287,32.30368],[131.03432,32.30409],[131.03944,32.30025],[131.04214,32.2937],[131.04719,32.28747],[131.05112,32.28636],[131.05883,32.28685],[131.06751,32.28325],[131.07051,32.28042],[131.07859,32.28122],[131.07909,32.2847],[131.0905,32.29398],[131.09611,32.30535],[131.10118,32.31172],[131.10605,32.32439],[131.11188,32.32979],[131.10721,32.3334],[131.10161,32.34235],[131.09936,32.34156],[131.09553,32.35081],[131.09089,32.34955],[131.07803,32.35511],[131.07434,32.36091],[131.07399,32.36591],[131.07986,32.37429],[131.07417,32.38287],[131.06931,32.38432],[131.06928,32.38851],[131.07323,32.39124],[131.07288,32.39613],[131.06981,32.39972],[131.06797,32.4076],[131.05603,32.40698],[131.04379,32.40813],[131.04058,32.4148],[131.0329,32.4207],[131.03091,32.42653],[131.02222,32.43715],[131.01653,32.44769],[131.01664,32.46031],[131.01434,32.46275],[131.00817,32.46044],[130.99994,32.45235],[130.98706,32.44708],[130.98019,32.44782],[130.97782,32.45116],[130.96916,32.4503],[130.96554,32.45206],[130.9589,32.45035],[130.95338,32.4436],[130.94112,32.4385]]]},"properties":{"pref":"熊本県","county":"球磨郡","city":"水上村","code5":"43507","code6":"435074"}},
{"type":"Feature","geometry":{"type":"Polygon","coordinates":[[[130.78156,32.20518],[130.79963,32.20506],[130.80715,32.20718],[130.81201,32.20598],[130.8191,32.21035],[130.81626,32.21671],[130.80832,32.21682],[130.80783,32.23015],[130.8122,32.23367],[130.8113,32.2389],[130.81626,32.24186],[130.82062,32.23891],[130.82761,32.24069],[130.84233,32.24709],[130.84981,32.25151],[130.85096,32.25423],[130.84782,32.27221],[130.85148,32.27841],[130.85591,32.27846],[130.86524,32.28733],[130.87549,32.29419],[130.87035,32.29737],[130.87146,32.30788],[130.8696,32.31161],[130.87685,32.31978],[130.884,32.32237],[130.88534,32.32636],[130.89119,32.33196],[130.89231,32.33903],[130.89941,32.34987],[130.88655,32.35183],[130.8815,32.3492],[130.87877,32.35191],[130.86475,32.35286],[130.85853,32.35003],[130.85124,32.34268],[130.84096,32.34521],[130.836,32.35589],[130.82742,32.36045],[130.8231,32.36481],[130.81514,32.36589],[130.80877,32.3712],[130.80495,32.37918],[130.79327,32.37117],[130.78813,32.37342],[130.77985,32.37396],[130.77773,32.37177],[130.78117,32.36715],[130.78044,32.36385],[130.78552,32.35614],[130.79281,32.35007],[130.78976,32.34031],[130.79359,32.33454],[130.79497,32.32204],[130.79294,32.31072],[130.80302,32.31563],[130.81015,32.31199],[130.81536,32.306],[130.81213,32.30029],[130.81288,32.29603],[130.8047,32.29027],[130.80673,32.2794],[130.80445,32.27676],[130.80604,32.27185],[130.80128,32.2625],[130.80357,32.25854],[130.79787,32.25553],[130.79536,32.25079],[130.79595,32.24097],[130.78729,32.23137],[130.78994,32.22556],[130.78496,32.22207],[130.78695,32.2144],[130.78181,32.21524],[130.78156,32.20518]]]},"properties":{"pref":"熊本県","county":"球磨郡","city":"相良村","code5":"43510","code6":"435104"}},
{"type":"Feature","geometry":{"type":"Polygon","coordinates":[[[130.73923,32.39292],[130.74156,32.38801],[130.74579,32.38511],[130.756,32.38631],[130.76098,32.38484],[130.76568,32.38654],[130.77674,32.38307],[130.77985,32.37396],[130.78813,32.37342],[130.79327,32.37117],[130.80495,32.37918],[130.80877,32.3712],[130.81514,32.36589],[130.8231,32.36481],[130.82742,32.36045],[130.836,32.35589],[130.84096,32.34521],[130.85124,32.34268],[130.85853,32.35003],[130.86475,32.35286],[130.87877,32.35191],[130.8815,32.3492],[130.88655,32.35183],[130.89941,32.34987],[130.90599,32.35477],[130.91968,32.3544],[130.92566,32.35868],[130.93148,32.35872],[130.9353,32.35479],[130.94396,32.35602],[130.94402,32.36928],[130.94941,32.37591],[130.95128,32.38317],[130.95806,32.38492],[130.96094,32.39156],[130.95941,32.40513],[130.94852,32.41031],[130.94909,32.4139],[130.94532,32.42086],[130.93874,32.42546],[130.94173,32.43564],[130.94112,32.4385],[130.93574,32.43844],[130.92866,32.44161],[130.91236,32.44075],[130.90283,32.44267],[130.89808,32.45186],[130.90001,32.45617],[130.90113,32.46735],[130.88969,32.47737],[130.88032,32.4778],[130.8764,32.48512],[130.86255,32.49372],[130.85815,32.49337],[130.85219,32.48784],[130.8476,32.49306],[130.84419,32.49221],[130.83982,32.49897],[130.81638,32.49074],[130.80672,32.49436],[130.80184,32.49298],[130.79469,32.49422],[130.787,32.48741],[130.7861,32.48469],[130.76843,32.47976],[130.75812,32.47843],[130.7513,32.47461],[130.75176,32.46864],[130.74247,32.46939],[130.73786,32.47178],[130.73801,32.46165],[130.74106,32.45336],[130.73656,32.45193],[130.72858,32.45229],[130.72219,32.44933],[130.72295,32.44354],[130.72772,32.43557],[130.72631,32.43176],[130.72934,32.42822],[130.72046,32.41907],[130.72431,32.41323],[130.72431,32.40556],[130.73577,32.40463],[130.74179,32.40092],[130.73923,32.39292]]]},"properties":{"pref":"熊本県","county":"球磨郡","city":"五木村","code5":"43511","code6":"435112"}},
{"type":"Feature","geometry":{"type":"Polygon","coordinates":[[[130.69384,32.34219],[130.7027,32.32693],[130.7151,32.31281],[130.71245,32.30784],[130.71599,32.30147],[130.71691,32.29548],[130.73062,32.28988],[130.73119,32.27954],[130.73797,32.27718],[130.74056,32.26965],[130.7403,32.26287],[130.74297,32.26158],[130.741,32.25546],[130.74127,32.24716],[130.75179,32.24801],[130.75854,32.23146],[130.76355,32.22927],[130.77765,32.2332],[130.78263,32.2378],[130.78729,32.23137],[130.79595,32.24097],[130.79536,32.25079],[130.79787,32.25553],[130.80357,32.25854],[130.80128,32.2625],[130.80604,32.27185],[130.80445,32.27676],[130.80673,32.2794],[130.8047,32.29027],[130.81288,32.29603],[130.81213,32.30029],[130.81536,32.306],[130.81015,32.31199],[130.80302,32.31563],[130.79294,32.31072],[130.79497,32.32204],[130.79359,32.33454],[130.78976,32.34031],[130.79281,32.35007],[130.78552,32.35614],[130.78044,32.36385],[130.78117,32.36715],[130.77773,32.37177],[130.77985,32.37396],[130.77674,32.38307],[130.76568,32.38654],[130.76098,32.38484],[130.756,32.38631],[130.74579,32.38511],[130.74156,32.38801],[130.73923,32.39292],[130.73139,32.3921],[130.72133,32.38641],[130.70978,32.3681],[130.7019,32.36285],[130.70245,32.35671],[130.69725,32.35411],[130.70093,32.34703],[130.69384,32.34219]]]},"properties":{"pref":"熊本県","county":"球磨郡","city":"山江村","code5":"43512","code6":"435121"}},
{"type":"Feature","geometry":{"type":"Polygon","coordinates":[[[130.64219,32.36489],[130.64165,32.36014],[130.63587,32.3549],[130.61637,32.34748],[130.61021,32.34774],[130.60421,32.34284],[130.60092,32.32729],[130.60675,32.31827],[130.61149,32.31426],[130.61244,32.3106],[130.60937,32.30546],[130.59862,32.29478],[130.60379,32.29185],[130.60497,32.27939],[130.61388,32.27714],[130.60823,32.27094],[130.60561,32.27223],[130.59736,32.26921],[130.59051,32.26222],[130.59319,32.2579],[130.59158,32.24897],[130.58459,32.24248],[130.5846,32.2356],[130.58744,32.22919],[130.58248,32.21852],[130.58156,32.21095],[130.58696,32.20718],[130.5794,32.19438],[130.59172,32.18596],[130.61047,32.18666],[130.61532,32.17619],[130.61756,32.16302],[130.6227,32.15606],[130.63683,32.15493],[130.64125,32.15192],[130.65164,32.15127],[130.65552,32.15697],[130.65748,32.1685],[130.66675,32.1694],[130.66359,32.17439],[130.6652,32.18384],[130.67211,32.18524],[130.67986,32.19648],[130.67845,32.20003],[130.68054,32.20516],[130.70083,32.22549],[130.71386,32.23025],[130.71736,32.23446],[130.71883,32.24059],[130.72381,32.24013],[130.72609,32.2452],[130.73175,32.25056],[130.73432,32.25582],[130.73103,32.26254],[130.71969,32.26626],[130.7203,32.27618],[130.71441,32.28308],[130.71089,32.28486],[130.71691,32.29548],[130.71599,32.30147],[130.71245,32.30784],[130.7151,32.31281],[130.7027,32.32693],[130.69384,32.34219],[130.68395,32.3386],[130.67871,32.34276],[130.67077,32.34013],[130.66968,32.34578],[130.66533,32.354],[130.6592,32.36027],[130.65669,32.36771],[130.6573,32.37317],[130.65246,32.37353],[130.64508,32.37029],[130.64219,32.36489]]]},"properties":{"pref":"熊本県","county":"球磨郡","city":"球磨村","code5":"43513","code6":"435139"}},
{"type":"Feature","geometry":{"type":"Polygon","coordinates":[[[130.91343,32.13045],[130.91634,32.12521],[130.92746,32.12248],[130.93258,32.11636],[130.94415,32.11964],[130.9535,32.1154],[130.96145,32.12005],[130.97452,32.12092],[130.97255,32.12811],[130.97466,32.13677],[130.98354,32.14323],[130.99264,32.14804],[130.99582,32.15593],[130.99239,32.15792],[130.98474,32.16158],[130.98219,32.173],[130.98479,32.17437],[130.98584,32.18191],[130.9841,32.18804],[130.97674,32.19049],[130.97967,32.20758],[130.98345,32.21121],[130.97089,32.22491],[130.96632,32.2247],[130.95497,32.2325],[130.95194,32.23287],[130.94656,32.23986],[130.93706,32.24671],[130.93564,32.2525],[130.92697,32.25252],[130.92514,32.24982],[130.916,32.25373],[130.91502,32.26162],[130.91998,32.2664],[130.91811,32.27011],[130.91209,32.27313],[130.90717,32.2807],[130.90745,32.28794],[130.90436,32.29628],[130.90753,32.30058],[130.9044,32.30892],[130.89919,32.31251],[130.891,32.32209],[130.88534,32.32636],[130.884,32.32237],[130.87685,32.31978],[130.8696,32.31161],[130.87146,32.30788],[130.87035,32.29737],[130.87549,32.29419],[130.86524,32.28733],[130.85591,32.27846],[130.85148,32.27841],[130.84782,32.27221],[130.85096,32.25423],[130.84981,32.25151],[130.85883,32.24327],[130.86233,32.23534],[130.86068,32.23217],[130.86674,32.22122],[130.85507,32.20941],[130.85626,32.20684],[130.86409,32.20446],[130.87427,32.20585],[130.8793,32.1967],[130.87871,32.19058],[130.88279,32.18407],[130.88992,32.17905],[130.90789,32.16116],[130.90289,32.15217],[130.89614,32.1473],[130.89492,32.14225],[130.90229,32.13647],[130.90761,32.13727],[130.91343,32.13045]]]},"properties":{"pref":"熊本県","county":"球磨郡","city":"あさぎり町","code5":"43514","code6":"435147"}},
{"type":"Feature","geometry":{"type":"Polygon","coordinates":[[[130.11795,32.54359],[130.11304,32.54007],[130.10816,32.53969],[130.09708,32.53392],[130.09202,32.52914],[130.08223,32.5237],[130.07178,32.5208],[130.06602,32.51589],[130.04355,32.515],[130.03417,32.52179],[130.03276,32.52635],[130.03778,32.53594],[130.03072,32.5381],[130.02564,32.53777],[130.01249,32.52938],[130.02714,32.5202],[130.03264,32.52056],[130.0354,32.51742],[130.03563,32.51115],[130.04003,32.50955],[130.04523,32.49917],[130.04736,32.49104],[130.0405,32.48982],[130.03522,32.47665],[130.03844,32.47484],[130.03795,32.46649],[130.02813,32.45562],[130.0229,32.44576],[130.01807,32.43922],[130.0205,32.43639],[130.0367,32.43529],[130.04133,32.4337],[130.05264,32.43708],[130.05571,32.43927],[130.0775,32.43933],[130.08401,32.43616],[130.09079,32.42917],[130.09485,32.42944],[130.09539,32.43952],[130.09388,32.45089],[130.09173,32.4537],[130.08256,32.45971],[130.08837,32.47108],[130.09746,32.48195],[130.10092,32.48017],[130.10615,32.48169],[130.11456,32.48925],[130.11802,32.49423],[130.11874,32.50373],[130.11519,32.50562],[130.11667,32.51287],[130.12174,32.51681],[130.12041,32.52108],[130.12649,32.53226],[130.11819,32.53961],[130.11795,32.54359]]]},"properties":{"pref":"熊本県","county":"天草郡","city":"苓北町","code5":"43531","code6":"435317"}},
{"type":"Feature","geometry":{"type":"MultiPolygon","coordinates":[[[[130.82778,32.82537],[130.8281,32.83117],[130.82066,32.8385],[130.80766,32.83743],[130.80481,32.85222],[130.79051,32.85333],[130.78739,32.85831],[130.77965,32.85638],[130.77633,32.85794],[130.76802,32.85694],[130.75926,32.85233],[130.7601,32.85733],[130.75216,32.85542],[130.74856,32.85783],[130.74096,32.85385],[130.73175,32.85164],[130.72561,32.85369],[130.73093,32.86203],[130.73098,32.87212],[130.73231,32.87875],[130.72994,32.8798],[130.73011,32.88816],[130.72424,32.88789],[130.71998,32.89695],[130.72295,32.90048],[130.72209,32.90695],[130.72504,32.9177],[130.72975,32.92753],[130.73076,32.93906],[130.7284,32.94424],[130.72994,32.95895],[130.72829,32.96586],[130.73361,32.97197],[130.72471,32.97698],[130.71859,32.97457],[130.70926,32.97702],[130.70935,32.97327],[130.70398,32.96807],[130.70117,32.9596],[130.69642,32.95489],[130.69155,32.95955],[130.67364,32.9523],[130.67076,32.94972],[130.66705,32.93694],[130.66196,32.93426],[130.65493,32.93526],[130.65161,32.93221],[130.64624,32.93155],[130.6389,32.92555],[130.64187,32.92394],[130.6372,32.91623],[130.64656,32.90802],[130.64966,32.90278],[130.64804,32.90028],[130.64937,32.89252],[130.65196,32.88794],[130.64485,32.88494],[130.6398,32.87338],[130.63846,32.86503],[130.63477,32.86094],[130.62624,32.86198],[130.63082,32.8538],[130.6252,32.85254],[130.62204,32.84472],[130.61317,32.84309],[130.60044,32.84749],[130.59629,32.84652],[130.57318,32.85272],[130.57154,32.84878],[130.57889,32.84148],[130.57771,32.83953],[130.58179,32.83229],[130.58185,32.82657],[130.58777,32.82701],[130.59234,32.82395],[130.59526,32.81089],[130.60163,32.81044],[130.60492,32.80575],[130.60411,32.80117],[130.61241,32.79579],[130.61438,32.79266],[130.60747,32.79],[130.6034,32.78449],[130.60318,32.77869],[130.59845,32.77816],[130.59941,32.76687],[130.60348,32.75691],[130.60609,32.75429],[130.60421,32.75291],[130.60733,32.74256],[130.60368,32.73121],[130.60635,32.73077],[130.60507,32.72176],[130.60756,32.71579],[130.616,32.7142],[130.62733,32.70934],[130.63696,32.71121],[130.64398,32.71731],[130.65487,32.71071],[130.65938,32.70628],[130.66387,32.70707],[130.6688,32.70258],[130.67121,32.69564],[130.68159,32.69418],[130.68365,32.6957],[130.68994,32.69107],[130.69702,32.69295],[130.69889,32.68976],[130.71002,32.68841],[130.716,32.68461],[130.71677,32.68113],[130.72527,32.67582],[130.72839,32.67064],[130.73374,32.66712],[130.7343,32.66106],[130.74204,32.66403],[130.75155,32.67274],[130.75272,32.66617],[130.76362,32.66799],[130.77686,32.66614],[130.77053,32.68311],[130.76431,32.6865],[130.76477,32.69265],[130.75377,32.69972],[130.75341,32.70868],[130.76184,32.71165],[130.75972,32.72033],[130.75705,32.72833],[130.75196,32.73317],[130.74722,32.73493],[130.73822,32.73507],[130.72479,32.73714],[130.71395,32.73541],[130.6995,32.73586],[130.70149,32.73961],[130.70677,32.74074],[130.71252,32.73827],[130.71551,32.74319],[130.71975,32.74537],[130.72581,32.74345],[130.72895,32.75028],[130.74653,32.75378],[130.75444,32.76221],[130.7612,32.76444],[130.76466,32.76029],[130.77082,32.76298],[130.77834,32.76339],[130.79551,32.7699],[130.79155,32.77789],[130.7876,32.7787],[130.78464,32.78454],[130.78236,32.79431],[130.78346,32.79641],[130.77812,32.80454],[130.78301,32.80517],[130.78726,32.79964],[130.80617,32.80584],[130.80874,32.81232],[130.8157,32.81542],[130.82076,32.81434],[130.82905,32.81539],[130.82778,32.82537]]],[[[130.59298,32.76867],[130.57407,32.76847],[130.57322,32.76287],[130.59098,32.76295],[130.59298,32.76867]]]]},"properties":{"pref":"熊本県","city":"熊本市","code5":"43100","code6":"431001"}}
]}