{"type":"FeatureCollection", "features": [
{"type":"Feature","geometry":{"type":"MultiPolygon","coordinates":[[[[131.84911,33.18826],[131.85566,33.19489],[131.85695,33.19568],[131.85704,33.19572],[131.85705,33.19573],[131.8625,33.19505],[131.8667,33.19957],[131.86716,33.19958],[131.86915,33.20204],[131.86829,33.20303],[131.86752,33.20371],[131.86643,33.20288],[131.86071,33.20454],[131.86593,33.21301],[131.86849,33.21402],[131.86867,33.21428],[131.86988,33.2155],[131.86992,33.2155],[131.87417,33.22149],[131.87559,33.22199],[131.87555,33.22186],[131.87663,33.22384],[131.87686,33.22475],[131.87728,33.22624],[131.87636,33.22965],[131.875,33.22887],[131.87126,33.23229],[131.87306,33.2367],[131.87306,33.23671],[131.87571,33.23852],[131.87582,33.23855],[131.87902,33.24421],[131.88558,33.24349],[131.8919,33.24537],[131.89261,33.24954],[131.90315,33.26181],[131.90238,33.26791],[131.89673,33.26779],[131.88357,33.26528],[131.86721,33.2586],[131.87082,33.24877],[131.86049,33.25249],[131.85654,33.25567],[131.8498,33.25202],[131.84218,33.25183],[131.84165,33.24879],[131.83216,33.24795],[131.83058,33.2482],[131.83056,33.24819],[131.8298,33.24816],[131.81757,33.24575],[131.81755,33.24574],[131.81712,33.24542],[131.81514,33.24523],[131.81356,33.24441],[131.81073,33.24363],[131.81048,33.24356],[131.80865,33.24283],[131.79674,33.24221],[131.78346,33.24481],[131.77868,33.24814],[131.76955,33.24498],[131.7696,33.25018],[131.76618,33.25228],[131.75459,33.25235],[131.7545,33.24151],[131.74677,33.24384],[131.75127,33.24829],[131.7416,33.24898],[131.73446,33.253],[131.73444,33.25669],[131.71855,33.26646],[131.7128,33.25981],[131.70979,33.26201],[131.71536,33.2683],[131.70523,33.27458],[131.69191,33.27943],[131.68069,33.27917],[131.68485,33.26624],[131.6796,33.2681],[131.67602,33.27795],[131.667,33.2748],[131.66984,33.26669],[131.66984,33.26667],[131.66991,33.26649],[131.66992,33.26648],[131.67238,33.26019],[131.66684,33.25794],[131.66088,33.27341],[131.65848,33.27318],[131.62466,33.26431],[131.61428,33.26209],[131.60016,33.25654],[131.60172,33.25309],[131.59331,33.25022],[131.58927,33.24565],[131.58363,33.24827],[131.57064,33.25142],[131.56099,33.25536],[131.55146,33.25767],[131.53954,33.25749],[131.52409,33.26543],[131.51781,33.26535],[131.51632,33.25419],[131.52108,33.24851],[131.52864,33.24432],[131.53661,33.24499],[131.54061,33.24349],[131.54281,33.23716],[131.53759,33.23686],[131.53648,33.23063],[131.53787,33.22653],[131.53252,33.2158],[131.53768,33.20903],[131.53232,33.20413],[131.53608,33.19921],[131.52945,33.19505],[131.52017,33.19113],[131.51225,33.18193],[131.5082,33.17925],[131.50411,33.16855],[131.48985,33.1659],[131.4897,33.16043],[131.48539,33.15998],[131.47332,33.15345],[131.46663,33.14592],[131.46021,33.14746],[131.45797,33.13891],[131.45308,33.14296],[131.44392,33.14262],[131.43864,33.13534],[131.42988,33.13157],[131.42747,33.12767],[131.42886,33.12341],[131.43469,33.11964],[131.43085,33.1133],[131.43365,33.10883],[131.42847,33.10091],[131.41885,33.09574],[131.41873,33.09206],[131.42175,33.0898],[131.41984,33.0811],[131.42362,33.07922],[131.44072,33.08802],[131.44403,33.09359],[131.45652,33.09432],[131.45447,33.09044],[131.45683,33.07982],[131.45971,33.07545],[131.46551,33.07219],[131.47489,33.07036],[131.48286,33.07386],[131.49482,33.07616],[131.50197,33.08711],[131.4965,33.09193],[131.50774,33.10005],[131.51514,33.10243],[131.52195,33.10267],[131.52561,33.10655],[131.53237,33.10988],[131.53939,33.11121],[131.54222,33.11658],[131.55446,33.11756],[131.55941,33.11115],[131.56828,33.11003],[131.57472,33.10203],[131.58158,33.10117],[131.58784,33.09754],[131.5939,33.10219],[131.60495,33.10247],[131.61567,33.09574],[131.62506,33.09265],[131.6282,33.09011],[131.64121,33.08714],[131.64627,33.08221],[131.65416,33.0845],[131.66112,33.08869],[131.67847,33.08587],[131.68348,33.08182],[131.68659,33.08281],[131.6925,33.07669],[131.70658,33.07852],[131.70436,33.08475],[131.70521,33.09385],[131.71382,33.10205],[131.71021,33.10758],[131.71193,33.11313],[131.71983,33.12995],[131.71626,33.13591],[131.72074,33.13827],[131.72417,33.14784],[131.72286,33.15154],[131.71807,33.15498],[131.72746,33.16635],[131.72867,33.17098],[131.73684,33.17663],[131.74323,33.17238],[131.75162,33.17633],[131.75587,33.18231],[131.75954,33.18148],[131.78091,33.18704],[131.78433,33.19046],[131.79086,33.19245],[131.79488,33.18989],[131.8054,33.19678],[131.81391,33.19972],[131.81997,33.19981],[131.8266,33.20499],[131.83375,33.20668],[131.8402,33.20607],[131.84529,33.19892],[131.84911,33.18826]]],[[[131.95585,33.27751],[131.95437,33.27841],[131.95436,33.2784],[131.94362,33.27802],[131.94031,33.27815],[131.9388,33.27732],[131.94025,33.2766],[131.94393,33.27319],[131.94406,33.27259],[131.94479,33.27178],[131.94662,33.27139],[131.94664,33.2714],[131.95265,33.27455],[131.95267,33.27457],[131.95269,33.27458],[131.95585,33.27751]]],[[[131.89376,33.23902],[131.89202,33.2382],[131.89159,33.23807],[131.89317,33.23553],[131.89376,33.23902]]],[[[131.85943,33.19211],[131.85892,33.19203],[131.85925,33.1917],[131.85938,33.19204],[131.85942,33.19208],[131.85943,33.19211]]],[[[131.8615,33.19301],[131.86154,33.19299],[131.86156,33.193],[131.8615,33.19301]]]]},"properties":{"pref":"大分県","city":"大分市","code5":"44201","code6":"442011"}},
{"type":"Feature","geometry":{"type":"Polygon","coordinates":[[[131.51781,33.26535],[131.51262,33.26749],[131.50869,33.27526],[131.50316,33.30129],[131.50424,33.31008],[131.49595,33.3298],[131.4974,33.33939],[131.49642,33.34635],[131.4865,33.35229],[131.47136,33.35434],[131.46582,33.35184],[131.44962,33.34849],[131.44191,33.34929],[131.44038,33.34506],[131.43302,33.34316],[131.42895,33.34548],[131.42291,33.34289],[131.41671,33.34559],[131.41628,33.34933],[131.40708,33.35104],[131.40122,33.35004],[131.40272,33.34346],[131.39685,33.33366],[131.39901,33.32539],[131.39929,33.32282],[131.41269,33.31935],[131.4205,33.32546],[131.42775,33.32602],[131.43419,33.32342],[131.43371,33.31783],[131.42289,33.3087],[131.41836,33.29584],[131.42049,33.29074],[131.40629,33.28247],[131.39492,33.28177],[131.3905,33.2803],[131.39018,33.27245],[131.39371,33.26951],[131.3937,33.26412],[131.38832,33.2568],[131.384,33.25511],[131.37847,33.24722],[131.38026,33.24284],[131.37893,33.2355],[131.38167,33.23296],[131.40383,33.22671],[131.40879,33.22811],[131.41551,33.23281],[131.42401,33.23538],[131.4302,33.23561],[131.43897,33.23922],[131.44116,33.23418],[131.45135,33.23571],[131.45041,33.23929],[131.45569,33.24246],[131.46112,33.2424],[131.46357,33.23618],[131.47606,33.22862],[131.48379,33.22622],[131.48792,33.23048],[131.49936,33.22793],[131.50313,33.22389],[131.50629,33.22828],[131.50612,33.23802],[131.50389,33.24954],[131.50981,33.25182],[131.51555,33.24776],[131.52108,33.24851],[131.51632,33.25419],[131.51781,33.26535]]]},"properties":{"pref":"大分県","city":"別府市","code5":"44202","code6":"442020"}},
{"type":"Feature","geometry":{"type":"Polygon","coordinates":[[[130.98995,33.50914],[130.98152,33.50776],[130.97232,33.50515],[130.96969,33.50051],[130.96261,33.49769],[130.96159,33.49358],[130.9561,33.49198],[130.94988,33.48767],[130.94242,33.48564],[130.92982,33.4667],[130.92925,33.46063],[130.92629,33.45762],[130.92874,33.45221],[130.93624,33.45159],[130.94616,33.44117],[130.94626,33.43367],[130.96574,33.42893],[130.96571,33.42303],[130.9773,33.4119],[130.98403,33.41039],[130.99425,33.39833],[131.00913,33.39238],[131.01217,33.38632],[131.0098,33.38065],[131.01305,33.37593],[131.0213,33.37197],[131.02209,33.36521],[131.02512,33.35855],[131.03275,33.36045],[131.04075,33.35969],[131.05706,33.36079],[131.06035,33.37246],[131.06824,33.38359],[131.08021,33.38382],[131.09041,33.38832],[131.09894,33.38845],[131.10791,33.38007],[131.11628,33.37558],[131.11517,33.37235],[131.12475,33.36821],[131.12825,33.3683],[131.13442,33.3778],[131.14556,33.37873],[131.14794,33.37311],[131.15334,33.36581],[131.15783,33.3633],[131.16786,33.36997],[131.17487,33.36269],[131.17874,33.3539],[131.18984,33.35639],[131.19237,33.3522],[131.19818,33.3484],[131.20481,33.35379],[131.20545,33.3582],[131.21577,33.36146],[131.21778,33.36467],[131.22563,33.36912],[131.22977,33.37897],[131.22609,33.38073],[131.22147,33.38696],[131.22266,33.39255],[131.22916,33.39772],[131.22906,33.40542],[131.22509,33.40923],[131.22743,33.41197],[131.23594,33.41132],[131.24278,33.41365],[131.25529,33.41294],[131.25423,33.42924],[131.25162,33.43553],[131.2465,33.44154],[131.24424,33.45041],[131.24717,33.4555],[131.24515,33.46173],[131.24099,33.46367],[131.24383,33.46919],[131.24199,33.47783],[131.24784,33.4764],[131.25985,33.48084],[131.26308,33.48689],[131.27312,33.49898],[131.27018,33.50239],[131.25689,33.525],[131.25647,33.52995],[131.25247,33.53689],[131.25384,33.54164],[131.26018,33.55369],[131.27246,33.55319],[131.27255,33.55769],[131.27579,33.56579],[131.27709,33.57837],[131.27892,33.58083],[131.27337,33.58355],[131.26807,33.59264],[131.2558,33.59902],[131.25863,33.60337],[131.25767,33.61262],[131.25545,33.61261],[131.25513,33.61258],[131.25481,33.61257],[131.25449,33.61254],[131.25106,33.60692],[131.24535,33.61102],[131.23868,33.60139],[131.23048,33.60174],[131.22224,33.60477],[131.21386,33.60515],[131.21661,33.60886],[131.20499,33.61692],[131.19127,33.61754],[131.18557,33.61685],[131.17792,33.60482],[131.17838,33.59682],[131.1727,33.58842],[131.17316,33.57824],[131.17602,33.57472],[131.18616,33.56786],[131.19057,33.55803],[131.1869,33.54404],[131.17675,33.5344],[131.16671,33.52871],[131.16971,33.52116],[131.16806,33.51615],[131.17414,33.51262],[131.17595,33.50656],[131.16716,33.50559],[131.16316,33.50846],[131.15466,33.50607],[131.14158,33.50464],[131.13363,33.50577],[131.13019,33.50242],[131.11897,33.50208],[131.10551,33.50776],[131.10053,33.50476],[131.0937,33.50737],[131.07965,33.50535],[131.06974,33.50679],[131.06765,33.50906],[131.0631,33.5102],[131.05331,33.50789],[131.04235,33.51401],[131.03574,33.51907],[131.02984,33.51883],[131.02679,33.51392],[131.01938,33.5126],[131.01516,33.50907],[131.00144,33.51218],[130.98995,33.50914]]]},"properties":{"pref":"大分県","city":"中津市","code5":"44203","code6":"442038"}},
{"type":"Feature","geometry":{"type":"Polygon","coordinates":[[[130.83982,33.10405],[130.83981,33.10023],[130.84574,33.09218],[130.84759,33.09376],[130.86394,33.09499],[130.867,33.09066],[130.87674,33.09193],[130.8862,33.08746],[130.88973,33.08359],[130.89064,33.07577],[130.89679,33.07292],[130.90002,33.06406],[130.90677,33.06493],[130.91654,33.05559],[130.92344,33.05194],[130.92864,33.05219],[130.93515,33.05511],[130.93699,33.05244],[130.94682,33.05284],[130.95698,33.04714],[130.95914,33.04382],[130.95921,33.03722],[130.97027,33.02377],[130.97705,33.02499],[130.99085,33.02382],[130.9982,33.0283],[131.00329,33.03282],[131.00486,33.03981],[131.01179,33.04312],[131.01454,33.04769],[131.01267,33.05245],[131.01428,33.05899],[131.01774,33.06369],[131.01072,33.06985],[131.01445,33.07968],[131.019,33.08076],[131.02405,33.08754],[131.01829,33.09408],[131.00898,33.10859],[131.00461,33.11019],[131.00031,33.11633],[130.99405,33.11942],[130.9916,33.12977],[130.98455,33.13461],[130.97852,33.14224],[130.98452,33.14395],[130.98159,33.14792],[130.98426,33.15234],[130.98193,33.15612],[130.98513,33.16107],[130.98549,33.16839],[130.98895,33.17602],[130.99294,33.1774],[130.99424,33.18384],[131.00311,33.18059],[131.00575,33.17774],[131.01657,33.17793],[131.02825,33.18642],[131.03594,33.18833],[131.03885,33.19413],[131.06035,33.19512],[131.06746,33.19143],[131.082,33.18879],[131.08471,33.19938],[131.08508,33.20827],[131.08846,33.21804],[131.08738,33.23458],[131.09069,33.23743],[131.07926,33.2462],[131.07153,33.25048],[131.06773,33.26514],[131.05981,33.2653],[131.05709,33.2598],[131.05167,33.26213],[131.04917,33.25919],[131.04139,33.2588],[131.04113,33.26354],[131.03797,33.26712],[131.03991,33.27726],[131.04018,33.28699],[131.04254,33.29359],[131.04982,33.29673],[131.05703,33.30724],[131.05559,33.31386],[131.06214,33.31794],[131.06576,33.32521],[131.07385,33.32349],[131.07423,33.32709],[131.0692,33.33155],[131.0679,33.33723],[131.06218,33.33493],[131.0579,33.3362],[131.05933,33.34807],[131.0628,33.35333],[131.06329,33.35917],[131.05706,33.36079],[131.04075,33.35969],[131.03275,33.36045],[131.02512,33.35855],[131.02209,33.36521],[131.0213,33.37197],[131.01305,33.37593],[131.0098,33.38065],[131.01217,33.38632],[131.00913,33.39238],[130.99425,33.39833],[130.98403,33.41039],[130.9773,33.4119],[130.96571,33.42303],[130.96574,33.42893],[130.94626,33.43367],[130.94616,33.44117],[130.93624,33.45159],[130.92874,33.45221],[130.92629,33.45762],[130.91572,33.4548],[130.91053,33.44979],[130.90028,33.44921],[130.89492,33.44616],[130.89758,33.43855],[130.89169,33.42995],[130.89253,33.41998],[130.88954,33.41518],[130.892,33.40645],[130.88761,33.40446],[130.88458,33.38943],[130.88584,33.37923],[130.86243,33.37666],[130.85972,33.37296],[130.8618,33.3626],[130.8502,33.35377],[130.84226,33.35026],[130.84019,33.34579],[130.83535,33.34355],[130.84209,33.33666],[130.84503,33.3387],[130.8506,33.33666],[130.85478,33.32915],[130.85631,33.31854],[130.86304,33.30503],[130.86158,33.30319],[130.86635,33.29211],[130.85713,33.28497],[130.85207,33.27747],[130.85649,33.27535],[130.85738,33.27043],[130.8607,33.26675],[130.86758,33.26798],[130.86805,33.26408],[130.86391,33.26117],[130.85535,33.26257],[130.84874,33.26103],[130.84526,33.25751],[130.83812,33.25824],[130.8287,33.25746],[130.82485,33.25342],[130.82748,33.24491],[130.82519,33.24101],[130.82626,33.23676],[130.83293,33.23417],[130.85254,33.23226],[130.85959,33.22913],[130.84446,33.21931],[130.83882,33.21693],[130.83649,33.2106],[130.84355,33.20724],[130.84719,33.20312],[130.85888,33.19805],[130.86368,33.19306],[130.8696,33.19387],[130.87487,33.18927],[130.88746,33.18627],[130.88572,33.17629],[130.87785,33.1742],[130.87353,33.16786],[130.87662,33.16465],[130.87965,33.15299],[130.87133,33.14752],[130.87096,33.14244],[130.86706,33.13375],[130.86622,33.12685],[130.86165,33.11753],[130.85565,33.11308],[130.85332,33.10914],[130.84412,33.10751],[130.83982,33.10405]]]},"properties":{"pref":"大分県","city":"日田市","code5":"44204","code6":"442046"}},
{"type":"Feature","geometry":{"type":"MultiPolygon","coordinates":[[[[131.88571,32.74587],[131.88577,32.74807],[131.87384,32.74917],[131.87971,32.76229],[131.87507,32.76849],[131.87169,32.76937],[131.86852,32.77483],[131.87613,32.77893],[131.87301,32.78601],[131.8747,32.79042],[131.88027,32.79098],[131.88407,32.78065],[131.88892,32.77672],[131.89466,32.77887],[131.88539,32.79002],[131.88861,32.8033],[131.89958,32.80216],[131.90028,32.79479],[131.89476,32.78848],[131.90271,32.78493],[131.90646,32.79314],[131.91193,32.79183],[131.91281,32.78853],[131.91991,32.78553],[131.91992,32.79148],[131.92347,32.79421],[131.92708,32.79132],[131.92921,32.78603],[131.93642,32.78444],[131.94364,32.78991],[131.94868,32.79688],[131.9462,32.80416],[131.95417,32.80813],[131.96075,32.80681],[131.96622,32.80221],[131.9632,32.79431],[131.9715,32.79181],[131.97615,32.79474],[131.97645,32.79958],[131.97179,32.80259],[131.97645,32.80846],[131.98396,32.81227],[131.98609,32.81613],[132.00198,32.82232],[132.00787,32.82676],[132.01044,32.83474],[132.00796,32.83685],[131.9978,32.83822],[131.98644,32.84613],[131.98013,32.84476],[131.97602,32.84128],[131.98329,32.83659],[131.9875,32.83132],[131.98197,32.825],[131.9702,32.83082],[131.96466,32.82034],[131.96161,32.82098],[131.95942,32.82869],[131.9599,32.83343],[131.95326,32.8403],[131.95419,32.84524],[131.94949,32.85065],[131.94968,32.85501],[131.96173,32.84692],[131.97176,32.85672],[131.97537,32.85687],[131.97599,32.86354],[131.97885,32.86723],[131.98318,32.86263],[131.98657,32.8655],[131.98665,32.87028],[131.99536,32.8778],[132.0007,32.87863],[132.00069,32.88543],[132.00549,32.88914],[131.99867,32.8948],[131.99755,32.89799],[131.98891,32.89013],[131.98563,32.8909],[131.98796,32.89801],[131.98446,32.89955],[131.98537,32.90665],[131.9841,32.91349],[131.97925,32.92167],[131.99455,32.92103],[131.99345,32.91486],[131.99889,32.90978],[132.00402,32.90961],[132.0098,32.90583],[132.00847,32.92149],[132.01558,32.9237],[132.01793,32.93108],[132.02368,32.93171],[132.02607,32.93541],[132.03506,32.93691],[132.04099,32.93385],[132.03956,32.92727],[132.04492,32.92618],[132.04952,32.93215],[132.04685,32.9363],[132.05841,32.93619],[132.06331,32.9345],[132.06796,32.93686],[132.07609,32.93145],[132.08455,32.93163],[132.08222,32.93654],[132.08204,32.94324],[132.07896,32.94468],[132.07526,32.94412],[132.07113,32.948],[132.05901,32.94548],[132.05415,32.94735],[132.04404,32.94711],[132.03368,32.95237],[132.03418,32.93984],[132.02602,32.93836],[132.02268,32.94031],[132.01683,32.93559],[132.01005,32.93274],[132.0067,32.93546],[131.99713,32.93773],[131.99997,32.94486],[131.99717,32.95354],[131.99281,32.954],[131.99216,32.94554],[131.98573,32.94295],[131.9818,32.9394],[131.97718,32.94121],[131.97191,32.94639],[131.97361,32.95036],[131.96316,32.95383],[131.96477,32.94879],[131.95936,32.9464],[131.94608,32.95994],[131.94485,32.95534],[131.93665,32.95389],[131.93553,32.96176],[131.9238,32.96481],[131.92661,32.9729],[131.91817,32.97604],[131.9122,32.97432],[131.89715,32.98158],[131.89816,32.98838],[131.89308,32.9885],[131.89029,32.99407],[131.89775,32.99884],[131.90557,32.9952],[131.90826,33.00039],[131.9011,33.01016],[131.91297,33.0213],[131.91922,33.02558],[131.92156,33.03256],[131.92044,33.03835],[131.92154,33.04493],[131.93178,33.05316],[131.9368,33.04838],[131.94273,33.05377],[131.94978,33.04988],[131.95648,33.05143],[131.96409,33.04803],[131.98032,33.04661],[131.9858,33.04879],[131.98801,33.05368],[131.99589,33.05645],[132.0023,33.05429],[132.00531,33.05565],[132.01453,33.05719],[132.01705,33.06116],[132.00672,33.06076],[132.00257,33.06992],[131.99584,33.06592],[131.98789,33.0641],[131.98717,33.06032],[131.97265,33.0535],[131.96773,33.05453],[131.96418,33.05842],[131.95705,33.06165],[131.95073,33.05843],[131.93773,33.06447],[131.9285,33.06195],[131.91833,33.05668],[131.90754,33.05648],[131.89947,33.05161],[131.88961,33.04164],[131.88343,33.04123],[131.86217,33.04226],[131.85104,33.04173],[131.83991,33.03808],[131.83458,33.0395],[131.82201,33.02898],[131.81487,33.03307],[131.80392,33.03245],[131.79998,33.03461],[131.79001,33.03444],[131.79253,33.02665],[131.78523,33.02244],[131.78132,33.01071],[131.77444,33.00338],[131.7774,32.99872],[131.77476,32.99216],[131.77736,32.9905],[131.78271,32.97908],[131.77624,32.97859],[131.77432,32.97606],[131.76083,32.9699],[131.75808,32.96735],[131.75128,32.97179],[131.74642,32.96899],[131.74191,32.96977],[131.73404,32.96797],[131.72657,32.96827],[131.72121,32.97037],[131.71393,32.96927],[131.70174,32.96529],[131.69403,32.95751],[131.68953,32.95835],[131.68116,32.95143],[131.67057,32.9508],[131.66615,32.95206],[131.65917,32.96028],[131.64393,32.95165],[131.64443,32.94838],[131.63895,32.93997],[131.63079,32.94162],[131.61906,32.9306],[131.61949,32.92657],[131.626,32.92827],[131.62939,32.91929],[131.62352,32.91695],[131.62191,32.92228],[131.61486,32.92402],[131.60914,32.9223],[131.61226,32.91105],[131.607,32.90569],[131.60692,32.89871],[131.60012,32.89519],[131.59513,32.89065],[131.59059,32.89242],[131.59054,32.88127],[131.58185,32.87901],[131.56428,32.88437],[131.55169,32.8785],[131.54901,32.87533],[131.54118,32.87123],[131.53843,32.86466],[131.52696,32.8597],[131.52247,32.85603],[131.51424,32.85381],[131.50278,32.85319],[131.49962,32.8506],[131.49414,32.85059],[131.49015,32.84545],[131.48427,32.84271],[131.48189,32.83893],[131.47514,32.83723],[131.48378,32.82516],[131.49345,32.81585],[131.50325,32.81369],[131.50199,32.8105],[131.50776,32.80582],[131.51747,32.8008],[131.51352,32.79226],[131.51077,32.79011],[131.50824,32.78147],[131.50848,32.77424],[131.51208,32.7697],[131.5241,32.76384],[131.53261,32.76286],[131.53632,32.75886],[131.54717,32.75821],[131.5555,32.75538],[131.56537,32.75551],[131.56892,32.75416],[131.57921,32.76098],[131.58798,32.77045],[131.59007,32.77413],[131.59664,32.77513],[131.60076,32.77223],[131.60545,32.7739],[131.61792,32.77311],[131.62533,32.77452],[131.62975,32.7718],[131.64068,32.77034],[131.64829,32.77175],[131.66088,32.76915],[131.6763,32.76838],[131.67927,32.76999],[131.69101,32.77184],[131.69626,32.77465],[131.70688,32.77161],[131.71247,32.77354],[131.7154,32.78017],[131.71513,32.78534],[131.7183,32.79087],[131.72794,32.79737],[131.73109,32.81593],[131.73466,32.81804],[131.73654,32.82551],[131.73573,32.8311],[131.74133,32.83429],[131.74736,32.8331],[131.75407,32.83642],[131.76881,32.83693],[131.78727,32.83365],[131.7878,32.82793],[131.7939,32.82195],[131.79815,32.82489],[131.80666,32.82215],[131.81415,32.82637],[131.8245,32.82987],[131.82597,32.8263],[131.83162,32.82353],[131.8345,32.8197],[131.84093,32.81991],[131.84815,32.81785],[131.85509,32.82317],[131.8588,32.82144],[131.86008,32.80607],[131.85365,32.79824],[131.85445,32.79607],[131.84931,32.79043],[131.84852,32.78311],[131.84434,32.77692],[131.8469,32.76628],[131.84899,32.7645],[131.84981,32.75596],[131.84412,32.74766],[131.84657,32.74219],[131.84701,32.73593],[131.85797,32.73766],[131.8615,32.74019],[131.87354,32.74045],[131.88399,32.74671],[131.88571,32.74587]]],[[[131.93535,33.01605],[131.92977,33.01631],[131.92351,33.0117],[131.9248,33],[131.91917,32.99485],[131.91054,32.98943],[131.91194,32.98401],[131.91682,32.98139],[131.92487,32.98227],[131.93107,32.99031],[131.9347,32.9911],[131.94319,32.99673],[131.94064,32.99885],[131.93345,32.99844],[131.93121,33.00176],[131.94183,33.011],[131.94379,33.01544],[131.93535,33.01605]]],[[[132.07862,32.96534],[132.08042,32.97017],[132.07709,32.9745],[132.07355,32.96796],[132.0673,32.96442],[132.06718,32.95886],[132.07115,32.95516],[132.07905,32.96134],[132.07862,32.96534]]],[[[131.90879,32.78057],[131.91126,32.76907],[131.9234,32.7698],[131.92329,32.77524],[131.91579,32.77665],[131.90879,32.78057]]],[[[131.92709,32.72697],[131.92139,32.7198],[131.92588,32.71447],[131.92966,32.71708],[131.9293,32.72674],[131.92709,32.72697]]]]},"properties":{"pref":"大分県","city":"佐伯市","code5":"44205","code6":"442054"}},
{"type":"Feature","geometry":{"type":"Polygon","coordinates":[[[131.67847,33.08587],[131.67223,33.08457],[131.6691,33.08148],[131.66094,33.07879],[131.65719,33.06947],[131.65349,33.06639],[131.65225,33.05843],[131.65373,33.05339],[131.65961,33.04985],[131.66094,33.04454],[131.65872,33.03709],[131.65013,33.03411],[131.64652,33.03099],[131.63731,33.03512],[131.63234,33.02461],[131.63167,33.01857],[131.63523,33.00938],[131.64377,33.00156],[131.64527,32.99625],[131.64979,32.99006],[131.65088,32.98495],[131.65705,32.97933],[131.662,32.96336],[131.65917,32.96028],[131.66615,32.95206],[131.67057,32.9508],[131.68116,32.95143],[131.68953,32.95835],[131.69403,32.95751],[131.70174,32.96529],[131.71393,32.96927],[131.72121,32.97037],[131.72657,32.96827],[131.73404,32.96797],[131.74191,32.96977],[131.74642,32.96899],[131.75128,32.97179],[131.75808,32.96735],[131.76083,32.9699],[131.77432,32.97606],[131.77624,32.97859],[131.78271,32.97908],[131.77736,32.9905],[131.77476,32.99216],[131.7774,32.99872],[131.77444,33.00338],[131.78132,33.01071],[131.78523,33.02244],[131.79253,33.02665],[131.79001,33.03444],[131.79113,33.04105],[131.79767,33.04638],[131.79664,33.0498],[131.80006,33.05405],[131.78793,33.05728],[131.78365,33.06459],[131.78238,33.07272],[131.78905,33.07858],[131.79917,33.08139],[131.80523,33.08641],[131.80783,33.0909],[131.8126,33.08986],[131.81952,33.09445],[131.82681,33.09461],[131.82692,33.1001],[131.83974,33.10372],[131.84999,33.10263],[131.8643,33.10762],[131.86823,33.11149],[131.87724,33.11606],[131.8802,33.11477],[131.89137,33.11648],[131.89883,33.12214],[131.90815,33.12276],[131.91092,33.12656],[131.89941,33.12909],[131.89283,33.12461],[131.88301,33.12187],[131.87445,33.12372],[131.87797,33.13062],[131.86881,33.13092],[131.86168,33.12803],[131.85971,33.12341],[131.8458,33.11496],[131.83537,33.11909],[131.83892,33.12297],[131.83289,33.12514],[131.82777,33.12154],[131.8213,33.12286],[131.81353,33.12138],[131.81069,33.12738],[131.80077,33.1258],[131.80983,33.13449],[131.8094,33.13814],[131.81909,33.14441],[131.8215,33.14863],[131.82687,33.15208],[131.82695,33.15928],[131.82179,33.16215],[131.82941,33.17446],[131.83353,33.17777],[131.83293,33.18128],[131.83802,33.18294],[131.83925,33.18651],[131.84861,33.18793],[131.84911,33.18826],[131.84529,33.19892],[131.8402,33.20607],[131.83375,33.20668],[131.8266,33.20499],[131.81997,33.19981],[131.81391,33.19972],[131.8054,33.19678],[131.79488,33.18989],[131.79086,33.19245],[131.78433,33.19046],[131.78091,33.18704],[131.75954,33.18148],[131.75587,33.18231],[131.75162,33.17633],[131.74323,33.17238],[131.73684,33.17663],[131.72867,33.17098],[131.72746,33.16635],[131.71807,33.15498],[131.72286,33.15154],[131.72417,33.14784],[131.72074,33.13827],[131.71626,33.13591],[131.71983,33.12995],[131.71193,33.11313],[131.71021,33.10758],[131.71382,33.10205],[131.70521,33.09385],[131.70436,33.08475],[131.70658,33.07852],[131.6925,33.07669],[131.68659,33.08281],[131.68348,33.08182],[131.67847,33.08587]]]},"properties":{"pref":"大分県","city":"臼杵市","code5":"44206","code6":"442062"}},
{"type":"Feature","geometry":{"type":"MultiPolygon","coordinates":[[[[132.00257,33.06992],[132.0007,33.07572],[131.99631,33.07845],[131.99612,33.0855],[131.99882,33.09088],[131.98888,33.09139],[131.98908,33.08513],[131.98486,33.07942],[131.98894,33.07382],[131.98896,33.06835],[131.97466,33.06257],[131.96849,33.06244],[131.96593,33.06537],[131.96761,33.0715],[131.95539,33.07205],[131.95396,33.06636],[131.94779,33.06646],[131.94401,33.06886],[131.94358,33.07357],[131.93943,33.07642],[131.93725,33.08126],[131.93756,33.09302],[131.93167,33.09365],[131.9346,33.08185],[131.92936,33.07411],[131.92842,33.06783],[131.92156,33.06667],[131.91927,33.06985],[131.91205,33.06659],[131.91327,33.07685],[131.9072,33.08143],[131.90222,33.07534],[131.89984,33.07641],[131.89425,33.07714],[131.88783,33.08247],[131.88761,33.08277],[131.88753,33.08276],[131.88209,33.08304],[131.88177,33.08289],[131.88176,33.08286],[131.88177,33.08279],[131.88124,33.07799],[131.88598,33.073],[131.87465,33.07861],[131.8681,33.0764],[131.86144,33.07739],[131.86057,33.08158],[131.86633,33.0829],[131.86656,33.08298],[131.86734,33.08314],[131.86731,33.08347],[131.86726,33.08343],[131.86719,33.08339],[131.86716,33.08337],[131.86709,33.08335],[131.86679,33.08331],[131.86674,33.08335],[131.86654,33.08346],[131.86642,33.0835],[131.86635,33.08352],[131.8661,33.08355],[131.86607,33.08354],[131.85795,33.08504],[131.85768,33.08937],[131.86815,33.09052],[131.86856,33.09039],[131.8686,33.09037],[131.86883,33.09035],[131.8689,33.09037],[131.86898,33.09039],[131.86929,33.09055],[131.86932,33.09058],[131.86934,33.0906],[131.86936,33.09063],[131.86939,33.09066],[131.86941,33.09068],[131.86944,33.09071],[131.86947,33.09073],[131.86949,33.09076],[131.86955,33.09085],[131.86956,33.09088],[131.86958,33.09091],[131.86959,33.09098],[131.86952,33.09107],[131.86947,33.09116],[131.86945,33.09119],[131.86944,33.09122],[131.86944,33.09126],[131.86943,33.09129],[131.86943,33.09132],[131.86942,33.09136],[131.86941,33.09139],[131.8694,33.09142],[131.8694,33.09145],[131.8694,33.09149],[131.86939,33.09152],[131.86939,33.09155],[131.86939,33.09159],[131.86938,33.09162],[131.86938,33.09165],[131.86938,33.09168],[131.86939,33.09171],[131.86936,33.09185],[131.86934,33.09187],[131.86934,33.09191],[131.86934,33.09194],[131.86934,33.09197],[131.86934,33.092],[131.86935,33.09204],[131.86936,33.09207],[131.86936,33.09217],[131.86935,33.09221],[131.86934,33.09224],[131.86934,33.09228],[131.86934,33.09231],[131.86933,33.09234],[131.86932,33.09238],[131.86931,33.09241],[131.8693,33.09244],[131.86929,33.09247],[131.86929,33.09251],[131.86929,33.09253],[131.86929,33.09257],[131.8693,33.0926],[131.86931,33.09263],[131.86932,33.09266],[131.86934,33.09269],[131.86935,33.09272],[131.86937,33.09276],[131.86937,33.09279],[131.86937,33.09283],[131.86938,33.09286],[131.86939,33.09297],[131.86935,33.09297],[131.86927,33.09302],[131.8693,33.09307],[131.8694,33.09315],[131.86936,33.09314],[131.86933,33.09314],[131.86928,33.09313],[131.86925,33.09312],[131.86924,33.09313],[131.86921,33.09313],[131.86917,33.09313],[131.86902,33.09323],[131.869,33.09326],[131.86898,33.09329],[131.86896,33.09332],[131.86894,33.09335],[131.86892,33.09338],[131.8689,33.0934],[131.86887,33.09343],[131.86885,33.09346],[131.86883,33.09349],[131.86881,33.09351],[131.86843,33.09624],[131.87647,33.1],[131.87618,33.10611],[131.88297,33.1093],[131.89347,33.10698],[131.89713,33.11001],[131.89721,33.11476],[131.90061,33.11794],[131.9146,33.12309],[131.91092,33.12656],[131.90815,33.12276],[131.89883,33.12214],[131.89137,33.11648],[131.8802,33.11477],[131.87724,33.11606],[131.86823,33.11149],[131.8643,33.10762],[131.84999,33.10263],[131.83974,33.10372],[131.82692,33.1001],[131.82681,33.09461],[131.81952,33.09445],[131.8126,33.08986],[131.80783,33.0909],[131.80523,33.08641],[131.79917,33.08139],[131.78905,33.07858],[131.78238,33.07272],[131.78365,33.06459],[131.78793,33.05728],[131.80006,33.05405],[131.79664,33.0498],[131.79767,33.04638],[131.79113,33.04105],[131.79001,33.03444],[131.79998,33.03461],[131.80392,33.03245],[131.81487,33.03307],[131.82201,33.02898],[131.83458,33.0395],[131.83991,33.03808],[131.85104,33.04173],[131.86217,33.04226],[131.88343,33.04123],[131.88961,33.04164],[131.89947,33.05161],[131.90754,33.05648],[131.91833,33.05668],[131.9285,33.06195],[131.93773,33.06447],[131.95073,33.05843],[131.95705,33.06165],[131.96418,33.05842],[131.96773,33.05453],[131.97265,33.0535],[131.98717,33.06032],[131.98789,33.0641],[131.99584,33.06592],[132.00257,33.06992]]],[[[132.01098,33.11148],[132.00392,33.10752],[132.00644,33.10359],[132.01165,33.10132],[132.01668,33.10678],[132.01098,33.11148]]],[[[131.99221,33.17132],[131.9828,33.16955],[131.98818,33.16632],[131.99221,33.17132]]],[[[131.88637,33.08443],[131.88641,33.08456],[131.88627,33.0845],[131.88622,33.08445],[131.88637,33.08443]]]]},"properties":{"pref":"大分県","city":"津久見市","code5":"44207","code6":"442071"}},
{"type":"Feature","geometry":{"type":"Polygon","coordinates":[[[131.2538,32.90865],[131.25322,32.89804],[131.25739,32.88743],[131.26384,32.8794],[131.27345,32.88161],[131.27162,32.87693],[131.27344,32.871],[131.27945,32.86997],[131.29451,32.857],[131.31016,32.85283],[131.32245,32.84416],[131.3231,32.84065],[131.3295,32.83301],[131.34027,32.83344],[131.34706,32.82797],[131.34967,32.83214],[131.36216,32.83403],[131.38702,32.84713],[131.38733,32.84997],[131.39703,32.86132],[131.38806,32.86705],[131.389,32.8705],[131.39396,32.87378],[131.40078,32.88115],[131.39949,32.8983],[131.39317,32.90851],[131.39743,32.91085],[131.40123,32.92191],[131.39867,32.9288],[131.40821,32.93533],[131.40918,32.94828],[131.41117,32.95317],[131.41699,32.96031],[131.42034,32.96152],[131.42337,32.96813],[131.42004,32.97145],[131.42209,32.97866],[131.41706,32.98493],[131.42105,32.98869],[131.4181,33.00287],[131.41263,33.00397],[131.40706,33.00831],[131.39611,33.01013],[131.3949,33.01435],[131.39055,33.017],[131.38261,33.01608],[131.37856,33.02637],[131.37881,33.02959],[131.3903,33.03143],[131.39158,33.03789],[131.39732,33.03999],[131.39929,33.04503],[131.40628,33.04916],[131.40237,33.05119],[131.40664,33.05732],[131.39926,33.05695],[131.3959,33.06054],[131.40441,33.0654],[131.39936,33.07218],[131.40487,33.07831],[131.40555,33.08212],[131.41159,33.08519],[131.41263,33.08828],[131.41873,33.09206],[131.41885,33.09574],[131.42847,33.10091],[131.43365,33.10883],[131.43085,33.1133],[131.43469,33.11964],[131.42886,33.12341],[131.42747,33.12767],[131.42988,33.13157],[131.43864,33.13534],[131.44392,33.14262],[131.45308,33.14296],[131.45797,33.13891],[131.45358,33.14584],[131.44787,33.15003],[131.44101,33.15127],[131.4351,33.1491],[131.42877,33.1495],[131.42372,33.15333],[131.40666,33.15309],[131.40038,33.15134],[131.39092,33.15194],[131.38792,33.14559],[131.3809,33.14398],[131.37664,33.13951],[131.37465,33.13246],[131.36998,33.12465],[131.35895,33.11904],[131.35176,33.11674],[131.35806,33.11136],[131.3524,33.1062],[131.34245,33.10691],[131.33711,33.10486],[131.33231,33.10905],[131.31088,33.10522],[131.29179,33.12066],[131.28051,33.11815],[131.27112,33.12514],[131.25699,33.12322],[131.25326,33.12201],[131.25362,33.11126],[131.24679,33.10582],[131.24164,33.09617],[131.23675,33.08947],[131.22578,33.08647],[131.22247,33.08842],[131.20504,33.09046],[131.20011,33.08773],[131.19856,33.08344],[131.19313,33.07765],[131.19864,33.07337],[131.19662,33.07106],[131.20982,33.05785],[131.21672,33.05346],[131.21599,33.05106],[131.21965,33.03916],[131.22119,33.02995],[131.22557,33.02371],[131.22362,33.01716],[131.22843,33.01181],[131.23532,33.00852],[131.24051,33.00039],[131.24771,32.99524],[131.24616,32.98859],[131.24723,32.98244],[131.25671,32.98036],[131.26321,32.97715],[131.26091,32.96946],[131.256,32.96344],[131.24737,32.96331],[131.24627,32.96076],[131.25177,32.9569],[131.24719,32.95325],[131.24841,32.94793],[131.25263,32.94646],[131.24599,32.94031],[131.2482,32.93148],[131.25298,32.92451],[131.2538,32.90865]]]},"properties":{"pref":"大分県","city":"竹田市","code5":"44208","code6":"442089"}},
{"type":"Feature","geometry":{"type":"Polygon","coordinates":[[[131.5445,33.67733],[131.53733,33.67989],[131.53566,33.6769],[131.52698,33.68152],[131.52979,33.67411],[131.5151,33.66933],[131.50757,33.67475],[131.50555,33.67133],[131.49993,33.67131],[131.49688,33.66379],[131.50498,33.65654],[131.49522,33.65458],[131.49779,33.64558],[131.49458,33.64368],[131.4869,33.64836],[131.4859,33.64413],[131.48017,33.63922],[131.48431,33.63699],[131.47509,33.63056],[131.47376,33.62076],[131.46891,33.61418],[131.46225,33.61919],[131.42397,33.5919],[131.42439,33.58265],[131.43453,33.57035],[131.42852,33.56794],[131.41599,33.56388],[131.41518,33.55804],[131.41234,33.5539],[131.42576,33.54692],[131.42331,33.54378],[131.42505,33.53819],[131.43367,33.53741],[131.43599,33.5401],[131.442,33.53242],[131.44848,33.52731],[131.45023,33.51919],[131.45752,33.50888],[131.46508,33.50578],[131.47354,33.5045],[131.48349,33.49347],[131.49015,33.4931],[131.50612,33.48385],[131.50595,33.48078],[131.51475,33.48008],[131.523,33.4753],[131.5282,33.47767],[131.53549,33.47711],[131.5333,33.49132],[131.53054,33.49708],[131.53173,33.50186],[131.53721,33.50536],[131.54662,33.5197],[131.5541,33.53304],[131.55413,33.53681],[131.55894,33.54038],[131.56454,33.5477],[131.57028,33.54973],[131.57686,33.5563],[131.58634,33.55948],[131.58895,33.55868],[131.59166,33.5612],[131.59629,33.57747],[131.58893,33.58411],[131.57976,33.58344],[131.57786,33.59114],[131.5739,33.59396],[131.57225,33.60396],[131.57845,33.61379],[131.57599,33.61719],[131.56879,33.61852],[131.55622,33.62693],[131.55772,33.63693],[131.55461,33.64231],[131.55682,33.64508],[131.55194,33.65018],[131.54905,33.66235],[131.5494,33.66722],[131.5445,33.67733]]]},"properties":{"pref":"大分県","city":"豊後高田市","code5":"44209","code6":"442097"}},
{"type":"Feature","geometry":{"type":"Polygon","coordinates":[[[131.44848,33.52731],[131.4443,33.52431],[131.43532,33.52231],[131.42847,33.51845],[131.4331,33.51507],[131.43383,33.51053],[131.43889,33.50972],[131.43855,33.50049],[131.42642,33.50458],[131.42221,33.5047],[131.41777,33.49881],[131.41167,33.49704],[131.40681,33.48502],[131.41195,33.48216],[131.41426,33.47684],[131.42094,33.47515],[131.42531,33.46891],[131.42382,33.463],[131.42895,33.45197],[131.42711,33.44804],[131.43173,33.44433],[131.43313,33.43512],[131.42806,33.43126],[131.42945,33.42444],[131.42458,33.41995],[131.42473,33.41572],[131.4174,33.41283],[131.41985,33.40135],[131.41355,33.39819],[131.41148,33.3906],[131.40607,33.38132],[131.40759,33.37587],[131.42525,33.37275],[131.43087,33.36491],[131.43295,33.3573],[131.43487,33.35671],[131.45276,33.37392],[131.44947,33.3786],[131.45336,33.38613],[131.45304,33.3927],[131.45838,33.3917],[131.47268,33.38594],[131.47703,33.38716],[131.48143,33.38431],[131.48431,33.38916],[131.49038,33.39046],[131.49462,33.38908],[131.4998,33.39142],[131.51028,33.39124],[131.51259,33.3968],[131.52508,33.39694],[131.52238,33.40441],[131.53108,33.4099],[131.53252,33.41381],[131.5374,33.41482],[131.5434,33.41882],[131.54443,33.42618],[131.55408,33.42773],[131.56185,33.41559],[131.5569,33.41246],[131.5607,33.4077],[131.55786,33.39948],[131.56091,33.39713],[131.56787,33.39799],[131.57078,33.38919],[131.58049,33.39012],[131.5879,33.39606],[131.59689,33.39355],[131.60391,33.38904],[131.61092,33.39027],[131.61549,33.38594],[131.61505,33.37702],[131.61703,33.3721],[131.62287,33.37465],[131.63411,33.37354],[131.63664,33.3758],[131.64405,33.37533],[131.64635,33.38269],[131.64664,33.39232],[131.63814,33.39888],[131.63743,33.40646],[131.62712,33.41101],[131.63462,33.41581],[131.63558,33.42339],[131.6409,33.42131],[131.65347,33.41982],[131.66039,33.42262],[131.67159,33.41722],[131.67153,33.41269],[131.68112,33.40941],[131.68647,33.40618],[131.70136,33.40595],[131.70374,33.40938],[131.70582,33.42433],[131.70983,33.43542],[131.71347,33.44204],[131.71875,33.44798],[131.70722,33.45165],[131.69483,33.45031],[131.6847,33.44281],[131.68304,33.43774],[131.67583,33.43762],[131.66292,33.43413],[131.65034,33.4378],[131.6526,33.44667],[131.65921,33.45409],[131.65209,33.45579],[131.63572,33.45569],[131.63156,33.45744],[131.6286,33.46582],[131.61831,33.46665],[131.61815,33.47065],[131.60867,33.47054],[131.60389,33.48151],[131.60666,33.48461],[131.60364,33.49116],[131.60173,33.50441],[131.59665,33.5075],[131.59822,33.51252],[131.59015,33.52148],[131.58853,33.53049],[131.58539,33.53486],[131.58527,33.54385],[131.58907,33.55261],[131.58895,33.55868],[131.58634,33.55948],[131.57686,33.5563],[131.57028,33.54973],[131.56454,33.5477],[131.55894,33.54038],[131.55413,33.53681],[131.5541,33.53304],[131.54662,33.5197],[131.53721,33.50536],[131.53173,33.50186],[131.53054,33.49708],[131.5333,33.49132],[131.53549,33.47711],[131.5282,33.47767],[131.523,33.4753],[131.51475,33.48008],[131.50595,33.48078],[131.50612,33.48385],[131.49015,33.4931],[131.48349,33.49347],[131.47354,33.5045],[131.46508,33.50578],[131.45752,33.50888],[131.45023,33.51919],[131.44848,33.52731]]]},"properties":{"pref":"大分県","city":"杵築市","code5":"44210","code6":"442101"}},
{"type":"Feature","geometry":{"type":"Polygon","coordinates":[[[131.41628,33.34933],[131.41902,33.35201],[131.43295,33.3573],[131.43087,33.36491],[131.42525,33.37275],[131.40759,33.37587],[131.40607,33.38132],[131.41148,33.3906],[131.41355,33.39819],[131.41985,33.40135],[131.4174,33.41283],[131.42473,33.41572],[131.42458,33.41995],[131.42945,33.42444],[131.42806,33.43126],[131.43313,33.43512],[131.43173,33.44433],[131.42711,33.44804],[131.42895,33.45197],[131.42382,33.463],[131.42531,33.46891],[131.42094,33.47515],[131.41426,33.47684],[131.41195,33.48216],[131.40681,33.48502],[131.41167,33.49704],[131.41777,33.49881],[131.42221,33.5047],[131.42642,33.50458],[131.43855,33.50049],[131.43889,33.50972],[131.43383,33.51053],[131.4331,33.51507],[131.42847,33.51845],[131.43532,33.52231],[131.4443,33.52431],[131.44848,33.52731],[131.442,33.53242],[131.43599,33.5401],[131.43367,33.53741],[131.42505,33.53819],[131.42331,33.54378],[131.42576,33.54692],[131.41234,33.5539],[131.41518,33.55804],[131.41599,33.56388],[131.42852,33.56794],[131.42115,33.56911],[131.42012,33.57323],[131.41274,33.57361],[131.4056,33.57222],[131.39374,33.57634],[131.35811,33.57725],[131.34915,33.57296],[131.33922,33.57333],[131.3352,33.57615],[131.33482,33.58088],[131.32058,33.58305],[131.31733,33.58094],[131.31098,33.58211],[131.30353,33.5808],[131.2954,33.58114],[131.29086,33.57905],[131.27892,33.58083],[131.27709,33.57837],[131.27579,33.56579],[131.27255,33.55769],[131.27246,33.55319],[131.26018,33.55369],[131.25384,33.54164],[131.25247,33.53689],[131.25647,33.52995],[131.25689,33.525],[131.27018,33.50239],[131.27312,33.49898],[131.26308,33.48689],[131.25985,33.48084],[131.24784,33.4764],[131.24199,33.47783],[131.24383,33.46919],[131.24099,33.46367],[131.24515,33.46173],[131.24717,33.4555],[131.24424,33.45041],[131.2465,33.44154],[131.25162,33.43553],[131.25423,33.42924],[131.25529,33.41294],[131.24278,33.41365],[131.23594,33.41132],[131.22743,33.41197],[131.22509,33.40923],[131.22906,33.40542],[131.22916,33.39772],[131.22266,33.39255],[131.22147,33.38696],[131.22609,33.38073],[131.22977,33.37897],[131.22563,33.36912],[131.21778,33.36467],[131.21577,33.36146],[131.22607,33.36158],[131.22939,33.35696],[131.24055,33.35721],[131.24171,33.36224],[131.24865,33.36086],[131.25265,33.3579],[131.25919,33.35631],[131.26096,33.3527],[131.26786,33.34983],[131.27184,33.34098],[131.2789,33.33469],[131.28986,33.33626],[131.29858,33.33542],[131.30314,33.3371],[131.30814,33.33181],[131.30829,33.32758],[131.31267,33.32283],[131.32701,33.32049],[131.33268,33.31751],[131.33622,33.31596],[131.35043,33.31347],[131.35518,33.31033],[131.35891,33.31547],[131.36801,33.3164],[131.37498,33.32143],[131.37468,33.3255],[131.38204,33.32709],[131.38781,33.32575],[131.39901,33.32539],[131.39685,33.33366],[131.40272,33.34346],[131.40122,33.35004],[131.40708,33.35104],[131.41628,33.34933]]]},"properties":{"pref":"大分県","city":"宇佐市","code5":"44211","code6":"442119"}},
{"type":"Feature","geometry":{"type":"Polygon","coordinates":[[[131.41873,33.09206],[131.41263,33.08828],[131.41159,33.08519],[131.40555,33.08212],[131.40487,33.07831],[131.39936,33.07218],[131.40441,33.0654],[131.3959,33.06054],[131.39926,33.05695],[131.40664,33.05732],[131.40237,33.05119],[131.40628,33.04916],[131.39929,33.04503],[131.39732,33.03999],[131.39158,33.03789],[131.3903,33.03143],[131.37881,33.02959],[131.37856,33.02637],[131.38261,33.01608],[131.39055,33.017],[131.3949,33.01435],[131.39611,33.01013],[131.40706,33.00831],[131.41263,33.00397],[131.4181,33.00287],[131.42105,32.98869],[131.41706,32.98493],[131.42209,32.97866],[131.42004,32.97145],[131.42337,32.96813],[131.42034,32.96152],[131.41699,32.96031],[131.41117,32.95317],[131.40918,32.94828],[131.40821,32.93533],[131.39867,32.9288],[131.40123,32.92191],[131.39743,32.91085],[131.39317,32.90851],[131.39949,32.8983],[131.40078,32.88115],[131.39396,32.87378],[131.389,32.8705],[131.38806,32.86705],[131.39703,32.86132],[131.38733,32.84997],[131.38702,32.84713],[131.36216,32.83403],[131.34967,32.83214],[131.34706,32.82797],[131.34978,32.82435],[131.35063,32.81691],[131.34864,32.81068],[131.35644,32.80503],[131.36391,32.80336],[131.37828,32.80947],[131.38393,32.80901],[131.3887,32.81178],[131.39482,32.81108],[131.40022,32.81349],[131.40566,32.81217],[131.41604,32.81326],[131.42121,32.81192],[131.42554,32.81636],[131.43127,32.81837],[131.43697,32.82863],[131.44357,32.83003],[131.45423,32.82902],[131.46317,32.83114],[131.47514,32.83723],[131.48189,32.83893],[131.48427,32.84271],[131.49015,32.84545],[131.49414,32.85059],[131.49962,32.8506],[131.50278,32.85319],[131.51424,32.85381],[131.52247,32.85603],[131.52696,32.8597],[131.53843,32.86466],[131.54118,32.87123],[131.54901,32.87533],[131.55169,32.8785],[131.56428,32.88437],[131.58185,32.87901],[131.59054,32.88127],[131.59059,32.89242],[131.59513,32.89065],[131.60012,32.89519],[131.60692,32.89871],[131.607,32.90569],[131.61226,32.91105],[131.60914,32.9223],[131.61486,32.92402],[131.62191,32.92228],[131.62352,32.91695],[131.62939,32.91929],[131.626,32.92827],[131.61949,32.92657],[131.61906,32.9306],[131.63079,32.94162],[131.63895,32.93997],[131.64443,32.94838],[131.64393,32.95165],[131.65917,32.96028],[131.662,32.96336],[131.65705,32.97933],[131.65088,32.98495],[131.64979,32.99006],[131.64527,32.99625],[131.64377,33.00156],[131.63523,33.00938],[131.63167,33.01857],[131.63234,33.02461],[131.63731,33.03512],[131.64652,33.03099],[131.65013,33.03411],[131.65872,33.03709],[131.66094,33.04454],[131.65961,33.04985],[131.65373,33.05339],[131.65225,33.05843],[131.65349,33.06639],[131.65719,33.06947],[131.66094,33.07879],[131.6691,33.08148],[131.67223,33.08457],[131.67847,33.08587],[131.66112,33.08869],[131.65416,33.0845],[131.64627,33.08221],[131.64121,33.08714],[131.6282,33.09011],[131.62506,33.09265],[131.61567,33.09574],[131.60495,33.10247],[131.5939,33.10219],[131.58784,33.09754],[131.58158,33.10117],[131.57472,33.10203],[131.56828,33.11003],[131.55941,33.11115],[131.55446,33.11756],[131.54222,33.11658],[131.53939,33.11121],[131.53237,33.10988],[131.52561,33.10655],[131.52195,33.10267],[131.51514,33.10243],[131.50774,33.10005],[131.4965,33.09193],[131.50197,33.08711],[131.49482,33.07616],[131.48286,33.07386],[131.47489,33.07036],[131.46551,33.07219],[131.45971,33.07545],[131.45683,33.07982],[131.45447,33.09044],[131.45652,33.09432],[131.44403,33.09359],[131.44072,33.08802],[131.42362,33.07922],[131.41984,33.0811],[131.42175,33.0898],[131.41873,33.09206]]]},"properties":{"pref":"大分県","city":"豊後大野市","code5":"44212","code6":"442127"}},
{"type":"Feature","geometry":{"type":"Polygon","coordinates":[[[131.52108,33.24851],[131.51555,33.24776],[131.50981,33.25182],[131.50389,33.24954],[131.50612,33.23802],[131.50629,33.22828],[131.50313,33.22389],[131.49936,33.22793],[131.48792,33.23048],[131.48379,33.22622],[131.47606,33.22862],[131.46357,33.23618],[131.46112,33.2424],[131.45569,33.24246],[131.45041,33.23929],[131.45135,33.23571],[131.44116,33.23418],[131.43897,33.23922],[131.4302,33.23561],[131.42401,33.23538],[131.41551,33.23281],[131.40879,33.22811],[131.40383,33.22671],[131.38167,33.23296],[131.37893,33.2355],[131.38026,33.24284],[131.37847,33.24722],[131.384,33.25511],[131.38832,33.2568],[131.3937,33.26412],[131.39371,33.26951],[131.39018,33.27245],[131.3905,33.2803],[131.39492,33.28177],[131.40629,33.28247],[131.42049,33.29074],[131.41836,33.29584],[131.42289,33.3087],[131.43371,33.31783],[131.43419,33.32342],[131.42775,33.32602],[131.4205,33.32546],[131.41269,33.31935],[131.39929,33.32282],[131.39901,33.32539],[131.38781,33.32575],[131.38204,33.32709],[131.37468,33.3255],[131.37498,33.32143],[131.36801,33.3164],[131.35891,33.31547],[131.35518,33.31033],[131.35043,33.31347],[131.33622,33.31596],[131.33268,33.31751],[131.3306,33.31331],[131.32578,33.31131],[131.32494,33.30792],[131.31649,33.30598],[131.33249,33.29491],[131.3291,33.29008],[131.31137,33.27286],[131.29941,33.26509],[131.29593,33.25993],[131.29507,33.24985],[131.28718,33.24532],[131.28511,33.24099],[131.2799,33.23618],[131.26948,33.23139],[131.27369,33.22345],[131.28169,33.21533],[131.28947,33.19947],[131.30873,33.18766],[131.30651,33.17897],[131.30198,33.18143],[131.29561,33.17956],[131.30839,33.17189],[131.31812,33.17779],[131.32372,33.1736],[131.31718,33.16848],[131.31492,33.16407],[131.30532,33.15875],[131.30037,33.16063],[131.28801,33.1567],[131.27488,33.14862],[131.26901,33.14319],[131.2593,33.13657],[131.25699,33.12322],[131.27112,33.12514],[131.28051,33.11815],[131.29179,33.12066],[131.31088,33.10522],[131.33231,33.10905],[131.33711,33.10486],[131.34245,33.10691],[131.3524,33.1062],[131.35806,33.11136],[131.35176,33.11674],[131.35895,33.11904],[131.36998,33.12465],[131.37465,33.13246],[131.37664,33.13951],[131.3809,33.14398],[131.38792,33.14559],[131.39092,33.15194],[131.40038,33.15134],[131.40666,33.15309],[131.42372,33.15333],[131.42877,33.1495],[131.4351,33.1491],[131.44101,33.15127],[131.44787,33.15003],[131.45358,33.14584],[131.45797,33.13891],[131.46021,33.14746],[131.46663,33.14592],[131.47332,33.15345],[131.48539,33.15998],[131.4897,33.16043],[131.48985,33.1659],[131.50411,33.16855],[131.5082,33.17925],[131.51225,33.18193],[131.52017,33.19113],[131.52945,33.19505],[131.53608,33.19921],[131.53232,33.20413],[131.53768,33.20903],[131.53252,33.2158],[131.53787,33.22653],[131.53648,33.23063],[131.53759,33.23686],[131.54281,33.23716],[131.54061,33.24349],[131.53661,33.24499],[131.52864,33.24432],[131.52108,33.24851]]]},"properties":{"pref":"大分県","city":"由布市","code5":"44213","code6":"442135"}},
{"type":"Feature","geometry":{"type":"Polygon","coordinates":[[[131.58895,33.55868],[131.58907,33.55261],[131.58527,33.54385],[131.58539,33.53486],[131.58853,33.53049],[131.59015,33.52148],[131.59822,33.51252],[131.59665,33.5075],[131.60173,33.50441],[131.60364,33.49116],[131.60666,33.48461],[131.60389,33.48151],[131.60867,33.47054],[131.61815,33.47065],[131.61831,33.46665],[131.6286,33.46582],[131.63156,33.45744],[131.63572,33.45569],[131.65209,33.45579],[131.65921,33.45409],[131.6526,33.44667],[131.65034,33.4378],[131.66292,33.43413],[131.67583,33.43762],[131.68304,33.43774],[131.6847,33.44281],[131.69483,33.45031],[131.70722,33.45165],[131.71875,33.44798],[131.72228,33.45089],[131.72273,33.45648],[131.72717,33.4661],[131.73864,33.46495],[131.73893,33.49394],[131.73052,33.4915],[131.72906,33.50092],[131.73234,33.51665],[131.73912,33.53496],[131.74261,33.53725],[131.74442,33.54322],[131.74085,33.5464],[131.74032,33.56196],[131.73613,33.56699],[131.73263,33.57472],[131.73357,33.58086],[131.72999,33.58759],[131.72539,33.58878],[131.7145,33.60453],[131.70633,33.60571],[131.70103,33.61388],[131.69739,33.62869],[131.69311,33.63998],[131.68941,33.64159],[131.68403,33.63962],[131.67402,33.64981],[131.67124,33.6576],[131.66645,33.6602],[131.66728,33.66364],[131.6608,33.6698],[131.65423,33.66629],[131.65164,33.66059],[131.64704,33.66288],[131.64817,33.6712],[131.64294,33.67274],[131.63571,33.68227],[131.63051,33.67938],[131.6302,33.67432],[131.62455,33.67435],[131.61788,33.67674],[131.60724,33.67863],[131.60752,33.6869],[131.60175,33.68558],[131.59387,33.68692],[131.5864,33.69223],[131.58182,33.69206],[131.57355,33.68675],[131.57335,33.68048],[131.57551,33.67507],[131.56634,33.67474],[131.56159,33.68645],[131.55534,33.68566],[131.54798,33.67862],[131.5445,33.67733],[131.5494,33.66722],[131.54905,33.66235],[131.55194,33.65018],[131.55682,33.64508],[131.55461,33.64231],[131.55772,33.63693],[131.55622,33.62693],[131.56879,33.61852],[131.57599,33.61719],[131.57845,33.61379],[131.57225,33.60396],[131.5739,33.59396],[131.57786,33.59114],[131.57976,33.58344],[131.58893,33.58411],[131.59629,33.57747],[131.59166,33.5612],[131.58895,33.55868]]]},"properties":{"pref":"大分県","city":"国東市","code5":"44214","code6":"442143"}},
{"type":"Feature","geometry":{"type":"Polygon","coordinates":[[[131.67154,33.73879],[131.66747,33.74021],[131.66141,33.7367],[131.65493,33.73016],[131.64519,33.73046],[131.63809,33.72348],[131.6312,33.72074],[131.63319,33.7168],[131.64614,33.72167],[131.65814,33.72126],[131.66572,33.71683],[131.67074,33.71816],[131.67613,33.72543],[131.685,33.72823],[131.69038,33.73237],[131.68322,33.73684],[131.67154,33.73879]]]},"properties":{"pref":"大分県","county":"東国東郡","city":"姫島村","code5":"44322","code6":"443221"}},
{"type":"Feature","geometry":{"type":"Polygon","coordinates":[[[131.49642,33.34635],[131.49852,33.35009],[131.49891,33.36031],[131.50598,33.36156],[131.52285,33.36744],[131.53895,33.36546],[131.54333,33.3549],[131.5527,33.34976],[131.56202,33.35209],[131.5749,33.34834],[131.58496,33.34672],[131.59686,33.34978],[131.5989,33.3596],[131.59585,33.36314],[131.59807,33.3701],[131.60226,33.37128],[131.61446,33.37108],[131.61703,33.3721],[131.61505,33.37702],[131.61549,33.38594],[131.61092,33.39027],[131.60391,33.38904],[131.59689,33.39355],[131.5879,33.39606],[131.58049,33.39012],[131.57078,33.38919],[131.56787,33.39799],[131.56091,33.39713],[131.55786,33.39948],[131.5607,33.4077],[131.5569,33.41246],[131.56185,33.41559],[131.55408,33.42773],[131.54443,33.42618],[131.5434,33.41882],[131.5374,33.41482],[131.53252,33.41381],[131.53108,33.4099],[131.52238,33.40441],[131.52508,33.39694],[131.51259,33.3968],[131.51028,33.39124],[131.4998,33.39142],[131.49462,33.38908],[131.49038,33.39046],[131.48431,33.38916],[131.48143,33.38431],[131.47703,33.38716],[131.47268,33.38594],[131.45838,33.3917],[131.45304,33.3927],[131.45336,33.38613],[131.44947,33.3786],[131.45276,33.37392],[131.43487,33.35671],[131.43295,33.3573],[131.41902,33.35201],[131.41628,33.34933],[131.41671,33.34559],[131.42291,33.34289],[131.42895,33.34548],[131.43302,33.34316],[131.44038,33.34506],[131.44191,33.34929],[131.44962,33.34849],[131.46582,33.35184],[131.47136,33.35434],[131.4865,33.35229],[131.49642,33.34635]]]},"properties":{"pref":"大分県","county":"速見郡","city":"日出町","code5":"44341","code6":"443417"}},
{"type":"Feature","geometry":{"type":"Polygon","coordinates":[[[131.19313,33.07765],[131.19856,33.08344],[131.20011,33.08773],[131.20504,33.09046],[131.22247,33.08842],[131.22578,33.08647],[131.23675,33.08947],[131.24164,33.09617],[131.24679,33.10582],[131.25362,33.11126],[131.25326,33.12201],[131.25699,33.12322],[131.2593,33.13657],[131.26901,33.14319],[131.27488,33.14862],[131.28801,33.1567],[131.30037,33.16063],[131.30532,33.15875],[131.31492,33.16407],[131.31718,33.16848],[131.32372,33.1736],[131.31812,33.17779],[131.30839,33.17189],[131.29561,33.17956],[131.30198,33.18143],[131.30651,33.17897],[131.30873,33.18766],[131.28947,33.19947],[131.28169,33.21533],[131.27369,33.22345],[131.26948,33.23139],[131.2799,33.23618],[131.28511,33.24099],[131.28718,33.24532],[131.29507,33.24985],[131.28686,33.26245],[131.27118,33.26314],[131.27407,33.26683],[131.27302,33.27273],[131.27014,33.27478],[131.26355,33.2716],[131.25707,33.27478],[131.26009,33.28056],[131.25358,33.29397],[131.24779,33.29918],[131.24772,33.30408],[131.23714,33.30145],[131.23221,33.29788],[131.22103,33.29904],[131.21461,33.29767],[131.20559,33.2918],[131.20475,33.2849],[131.18719,33.28013],[131.18575,33.27481],[131.1725,33.26829],[131.16771,33.25505],[131.16281,33.25533],[131.15168,33.25294],[131.14527,33.24777],[131.1438,33.23671],[131.13125,33.22778],[131.13085,33.225],[131.12438,33.21597],[131.12246,33.20726],[131.11651,33.19898],[131.11118,33.1833],[131.11554,33.18027],[131.11838,33.17031],[131.12117,33.16775],[131.12894,33.16696],[131.13283,33.16446],[131.13387,33.16006],[131.13789,33.15952],[131.14784,33.15503],[131.14795,33.14978],[131.15765,33.14178],[131.16122,33.14077],[131.16693,33.12874],[131.16593,33.11963],[131.16359,33.11649],[131.16626,33.11106],[131.17317,33.10464],[131.1748,33.09679],[131.17225,33.08971],[131.17455,33.08308],[131.18604,33.07383],[131.19313,33.07765]]]},"properties":{"pref":"大分県","county":"玖珠郡","city":"九重町","code5":"44461","code6":"444618"}},
{"type":"Feature","geometry":{"type":"Polygon","coordinates":[[[131.11118,33.1833],[131.11651,33.19898],[131.12246,33.20726],[131.12438,33.21597],[131.13085,33.225],[131.13125,33.22778],[131.1438,33.23671],[131.14527,33.24777],[131.15168,33.25294],[131.16281,33.25533],[131.16771,33.25505],[131.1725,33.26829],[131.18575,33.27481],[131.18719,33.28013],[131.20475,33.2849],[131.20559,33.2918],[131.21461,33.29767],[131.22103,33.29904],[131.23221,33.29788],[131.23714,33.30145],[131.24772,33.30408],[131.24779,33.29918],[131.25358,33.29397],[131.26009,33.28056],[131.25707,33.27478],[131.26355,33.2716],[131.27014,33.27478],[131.27302,33.27273],[131.27407,33.26683],[131.27118,33.26314],[131.28686,33.26245],[131.29507,33.24985],[131.29593,33.25993],[131.29941,33.26509],[131.31137,33.27286],[131.3291,33.29008],[131.33249,33.29491],[131.31649,33.30598],[131.32494,33.30792],[131.32578,33.31131],[131.3306,33.31331],[131.33268,33.31751],[131.32701,33.32049],[131.31267,33.32283],[131.30829,33.32758],[131.30814,33.33181],[131.30314,33.3371],[131.29858,33.33542],[131.28986,33.33626],[131.2789,33.33469],[131.27184,33.34098],[131.26786,33.34983],[131.26096,33.3527],[131.25919,33.35631],[131.25265,33.3579],[131.24865,33.36086],[131.24171,33.36224],[131.24055,33.35721],[131.22939,33.35696],[131.22607,33.36158],[131.21577,33.36146],[131.20545,33.3582],[131.20481,33.35379],[131.19818,33.3484],[131.19237,33.3522],[131.18984,33.35639],[131.17874,33.3539],[131.17487,33.36269],[131.16786,33.36997],[131.15783,33.3633],[131.15334,33.36581],[131.14794,33.37311],[131.14556,33.37873],[131.13442,33.3778],[131.12825,33.3683],[131.12475,33.36821],[131.11517,33.37235],[131.11628,33.37558],[131.10791,33.38007],[131.09894,33.38845],[131.09041,33.38832],[131.08021,33.38382],[131.06824,33.38359],[131.06035,33.37246],[131.05706,33.36079],[131.06329,33.35917],[131.0628,33.35333],[131.05933,33.34807],[131.0579,33.3362],[131.06218,33.33493],[131.0679,33.33723],[131.0692,33.33155],[131.07423,33.32709],[131.07385,33.32349],[131.06576,33.32521],[131.06214,33.31794],[131.05559,33.31386],[131.05703,33.30724],[131.04982,33.29673],[131.04254,33.29359],[131.04018,33.28699],[131.03991,33.27726],[131.03797,33.26712],[131.04113,33.26354],[131.04139,33.2588],[131.04917,33.25919],[131.05167,33.26213],[131.05709,33.2598],[131.05981,33.2653],[131.06773,33.26514],[131.07153,33.25048],[131.07926,33.2462],[131.09069,33.23743],[131.08738,33.23458],[131.08846,33.21804],[131.08508,33.20827],[131.08471,33.19938],[131.082,33.18879],[131.0954,33.18517],[131.0995,33.18789],[131.11118,33.1833]]]},"properties":{"pref":"大分県","county":"玖珠郡","city":"玖珠町","code5":"44462","code6":"444626"}}
]}