{"type":"FeatureCollection", "features": [
{"type":"Feature","geometry":{"type":"Polygon","coordinates":[[[131.43312,32.05573],[131.42535,32.0524],[131.42116,32.05849],[131.40744,32.06574],[131.4027,32.06564],[131.40237,32.06127],[131.39088,32.04151],[131.39054,32.03533],[131.38605,32.03329],[131.38682,32.01834],[131.38901,32.0152],[131.38587,32.00812],[131.38013,32.00486],[131.37649,31.99706],[131.37988,31.99217],[131.37457,31.98335],[131.37464,31.97688],[131.3714,31.9681],[131.36546,31.97126],[131.36029,31.97688],[131.35122,31.97718],[131.34812,31.98134],[131.3394,31.97876],[131.33188,31.97834],[131.3266,31.96545],[131.3223,31.96694],[131.31209,31.96635],[131.30382,31.97137],[131.29431,31.9792],[131.28735,31.98217],[131.28321,31.98039],[131.27656,31.98331],[131.26961,31.98146],[131.26556,31.98214],[131.25699,31.97834],[131.25329,31.98087],[131.23704,31.97366],[131.23329,31.97475],[131.2248,31.97251],[131.22399,31.97797],[131.2179,31.98656],[131.21715,31.99222],[131.21381,31.99584],[131.19733,31.98847],[131.20074,31.98104],[131.20879,31.97842],[131.20641,31.9727],[131.20504,31.96397],[131.20029,31.9637],[131.1929,31.95148],[131.19485,31.94354],[131.19897,31.9397],[131.20758,31.93675],[131.20824,31.93119],[131.21442,31.93097],[131.2204,31.91943],[131.20894,31.91263],[131.19989,31.91823],[131.19577,31.91226],[131.19089,31.90986],[131.1893,31.90047],[131.19171,31.89696],[131.1901,31.88091],[131.19322,31.87756],[131.19573,31.86986],[131.20678,31.86342],[131.21116,31.87233],[131.21697,31.88057],[131.22905,31.88002],[131.23922,31.8768],[131.24302,31.87859],[131.24336,31.88468],[131.24842,31.88412],[131.24688,31.87925],[131.25015,31.87206],[131.2498,31.86568],[131.2543,31.86087],[131.24938,31.85672],[131.23856,31.85799],[131.23709,31.85149],[131.24248,31.851],[131.24141,31.8414],[131.23676,31.84053],[131.22832,31.83562],[131.22619,31.83014],[131.22241,31.82904],[131.22963,31.82133],[131.23037,31.81626],[131.23434,31.81435],[131.23827,31.80835],[131.24003,31.79774],[131.24111,31.79547],[131.23786,31.78834],[131.23783,31.7826],[131.24128,31.778],[131.25176,31.77923],[131.25403,31.7765],[131.26365,31.78063],[131.26636,31.76949],[131.2696,31.76855],[131.28758,31.76363],[131.30091,31.76748],[131.30787,31.76597],[131.31016,31.77118],[131.30886,31.7808],[131.31394,31.77944],[131.31884,31.78199],[131.32609,31.78116],[131.33687,31.78191],[131.33861,31.77855],[131.34486,31.7774],[131.348,31.77356],[131.37322,31.77253],[131.3745,31.77762],[131.37993,31.7791],[131.38349,31.77167],[131.38999,31.76824],[131.39609,31.76779],[131.39849,31.76227],[131.3969,31.75106],[131.41018,31.74933],[131.41468,31.74492],[131.41601,31.73838],[131.43166,31.73003],[131.43525,31.73074],[131.44796,31.72827],[131.46364,31.72643],[131.46367,31.72145],[131.46788,31.72101],[131.46741,31.72827],[131.46325,31.73399],[131.46843,31.73836],[131.47137,31.74376],[131.46791,31.7488],[131.47136,31.75844],[131.47653,31.75771],[131.47659,31.76289],[131.48067,31.76943],[131.48861,31.7855],[131.48319,31.78568],[131.47577,31.79408],[131.46989,31.79786],[131.47167,31.80299],[131.46496,31.80509],[131.45772,31.81232],[131.45514,31.81681],[131.45178,31.83461],[131.45297,31.86144],[131.4541,31.86866],[131.45713,31.87415],[131.46238,31.87558],[131.45739,31.8834],[131.45786,31.89006],[131.46119,31.89657],[131.46459,31.89613],[131.46905,31.91259],[131.46409,31.91351],[131.46118,31.90097],[131.45787,31.90615],[131.45986,31.91597],[131.46553,31.91891],[131.46778,31.92273],[131.47291,31.92525],[131.46915,31.92844],[131.47245,31.94625],[131.48212,31.97753],[131.49669,32.02084],[131.5064,32.04644],[131.50037,32.04395],[131.49162,32.04346],[131.48677,32.04137],[131.47339,32.04692],[131.46753,32.05036],[131.45991,32.05036],[131.45299,32.05216],[131.44917,32.05541],[131.44123,32.05705],[131.43312,32.05573]]]},"properties":{"pref":"宮崎県","city":"宮崎市","code5":"45201","code6":"452017"}},
{"type":"Feature","geometry":{"type":"Polygon","coordinates":[[[131.19897,31.9397],[131.1811,31.94225],[131.17385,31.94447],[131.17017,31.93895],[131.1566,31.93952],[131.1496,31.94394],[131.1421,31.94218],[131.13239,31.94469],[131.11595,31.93847],[131.10915,31.93261],[131.10123,31.93087],[131.09856,31.9375],[131.0943,31.93912],[131.08886,31.93805],[131.08751,31.93065],[131.10369,31.92066],[131.09736,31.91395],[131.09618,31.91019],[131.0878,31.91225],[131.08331,31.90937],[131.07852,31.91061],[131.06607,31.91669],[131.05662,31.91636],[131.04956,31.92198],[131.04664,31.92203],[131.04039,31.92995],[131.03032,31.92894],[131.02005,31.9153],[131.01228,31.90667],[131.00804,31.8985],[131.00169,31.89281],[130.9999,31.88435],[130.991,31.88115],[130.98445,31.88104],[130.9573,31.88729],[130.94899,31.89053],[130.93709,31.88604],[130.91401,31.88577],[130.90245,31.88444],[130.89457,31.87797],[130.89349,31.87209],[130.88775,31.86086],[130.88922,31.85173],[130.88441,31.84551],[130.87622,31.84419],[130.88174,31.83351],[130.87826,31.82885],[130.8769,31.81573],[130.8802,31.8149],[130.88454,31.80543],[130.89051,31.80648],[130.90095,31.80105],[130.90939,31.80072],[130.91507,31.80489],[130.91793,31.80348],[130.92576,31.79427],[130.92528,31.79123],[130.92954,31.78636],[130.96669,31.78156],[130.9714,31.78459],[130.97675,31.78239],[130.98025,31.77854],[130.98698,31.78015],[130.99063,31.77677],[130.99169,31.77118],[130.98844,31.76546],[130.98244,31.76322],[130.9781,31.75886],[130.97852,31.75157],[130.99072,31.75116],[130.99788,31.74592],[131.00675,31.74923],[131.0152,31.7488],[131.01784,31.74523],[131.01597,31.7416],[131.01764,31.72443],[131.01609,31.71718],[131.01306,31.71313],[131.01848,31.70522],[131.02861,31.69748],[131.02367,31.69177],[131.02376,31.68524],[131.02657,31.68241],[131.02424,31.6741],[131.03087,31.6629],[131.03684,31.66181],[131.04607,31.65246],[131.04824,31.64569],[131.04753,31.64207],[131.05217,31.64022],[131.05426,31.63349],[131.06518,31.6474],[131.069,31.64987],[131.07255,31.65812],[131.07927,31.66021],[131.08325,31.65613],[131.08939,31.65364],[131.09561,31.64636],[131.10105,31.64471],[131.10805,31.63763],[131.11344,31.63508],[131.11499,31.63071],[131.1223,31.63049],[131.12781,31.62648],[131.13885,31.62769],[131.14225,31.63029],[131.14807,31.63066],[131.15889,31.63714],[131.16854,31.63731],[131.16992,31.6335],[131.17866,31.62991],[131.18019,31.62629],[131.18835,31.62463],[131.1894,31.62224],[131.19374,31.61992],[131.19737,31.62792],[131.19754,31.63258],[131.20251,31.63697],[131.19748,31.64449],[131.19103,31.64493],[131.18078,31.65083],[131.17998,31.65633],[131.17041,31.66455],[131.16787,31.6688],[131.16034,31.6706],[131.15806,31.66904],[131.14525,31.66814],[131.13441,31.67669],[131.13062,31.67486],[131.12656,31.67736],[131.12477,31.68582],[131.11546,31.69883],[131.10433,31.70406],[131.10183,31.70745],[131.09564,31.71055],[131.09724,31.71329],[131.10035,31.72729],[131.10288,31.7459],[131.10839,31.75139],[131.103,31.76132],[131.11143,31.77186],[131.12674,31.76988],[131.13645,31.76153],[131.13695,31.75644],[131.14176,31.75535],[131.14706,31.75067],[131.14907,31.74047],[131.15723,31.73737],[131.16323,31.73816],[131.17096,31.73594],[131.17567,31.7392],[131.17699,31.74622],[131.18247,31.75105],[131.18361,31.75496],[131.19069,31.75953],[131.20513,31.76068],[131.20515,31.76616],[131.20752,31.77048],[131.21438,31.77173],[131.21414,31.77538],[131.22001,31.78348],[131.22634,31.78246],[131.23396,31.7974],[131.24003,31.79774],[131.23827,31.80835],[131.23434,31.81435],[131.23037,31.81626],[131.22963,31.82133],[131.22241,31.82904],[131.22619,31.83014],[131.22832,31.83562],[131.23676,31.84053],[131.24141,31.8414],[131.24248,31.851],[131.23709,31.85149],[131.23856,31.85799],[131.24938,31.85672],[131.2543,31.86087],[131.2498,31.86568],[131.25015,31.87206],[131.24688,31.87925],[131.24842,31.88412],[131.24336,31.88468],[131.24302,31.87859],[131.23922,31.8768],[131.22905,31.88002],[131.21697,31.88057],[131.21116,31.87233],[131.20678,31.86342],[131.19573,31.86986],[131.19322,31.87756],[131.1901,31.88091],[131.19171,31.89696],[131.1893,31.90047],[131.19089,31.90986],[131.19577,31.91226],[131.19989,31.91823],[131.20894,31.91263],[131.2204,31.91943],[131.21442,31.93097],[131.20824,31.93119],[131.20758,31.93675],[131.19897,31.9397]]]},"properties":{"pref":"宮崎県","city":"都城市","code5":"45202","code6":"452025"}},
{"type":"Feature","geometry":{"type":"MultiPolygon","coordinates":[[[[131.50848,32.77424],[131.49163,32.77403],[131.48803,32.77134],[131.48849,32.76696],[131.48263,32.76349],[131.48199,32.76006],[131.48853,32.75663],[131.48771,32.75085],[131.49003,32.7479],[131.48793,32.74241],[131.4814,32.73791],[131.48449,32.73023],[131.48308,32.7177],[131.48012,32.7105],[131.47569,32.70464],[131.46611,32.70181],[131.46226,32.6968],[131.45347,32.69203],[131.45196,32.68411],[131.44686,32.67793],[131.44799,32.67192],[131.43982,32.66786],[131.44001,32.66426],[131.43434,32.66186],[131.44046,32.65498],[131.437,32.64791],[131.43497,32.63364],[131.44867,32.62662],[131.45214,32.61361],[131.44931,32.61072],[131.44864,32.60243],[131.45002,32.59777],[131.44604,32.59376],[131.44819,32.58749],[131.44331,32.57705],[131.44085,32.5767],[131.44024,32.56894],[131.43263,32.56533],[131.42878,32.55989],[131.43036,32.55618],[131.44228,32.55879],[131.45657,32.55736],[131.46414,32.55939],[131.46665,32.5637],[131.47278,32.56686],[131.48553,32.56494],[131.49593,32.5588],[131.50486,32.55712],[131.50971,32.55092],[131.51541,32.54632],[131.52672,32.54045],[131.5289,32.54343],[131.53575,32.53973],[131.54477,32.53802],[131.54838,32.5358],[131.56266,32.53908],[131.56593,32.54546],[131.57084,32.54427],[131.5746,32.54769],[131.58209,32.54637],[131.58402,32.54324],[131.58136,32.5396],[131.58889,32.53157],[131.5919,32.52572],[131.60383,32.53189],[131.61006,32.53131],[131.61338,32.52673],[131.61272,32.51999],[131.61503,32.51689],[131.62753,32.51958],[131.64253,32.51922],[131.64898,32.51592],[131.65177,32.51145],[131.65679,32.51165],[131.66402,32.50769],[131.6654,32.50167],[131.66868,32.499],[131.67829,32.49655],[131.68395,32.48987],[131.69645,32.49618],[131.70081,32.49478],[131.70765,32.49816],[131.71582,32.49531],[131.72055,32.49725],[131.72812,32.49672],[131.72821,32.49711],[131.72496,32.50007],[131.72454,32.50048],[131.72372,32.5008],[131.72366,32.50077],[131.72324,32.50088],[131.72184,32.50134],[131.72151,32.50141],[131.72092,32.50161],[131.7209,32.5016],[131.72025,32.50154],[131.72024,32.50155],[131.71969,32.50142],[131.71966,32.50142],[131.71918,32.50131],[131.71776,32.50126],[131.71773,32.50125],[131.71752,32.50121],[131.71751,32.50121],[131.7175,32.5012],[131.71743,32.50118],[131.71174,32.5016],[131.71028,32.50372],[131.7105,32.50441],[131.71092,32.50494],[131.71094,32.50496],[131.71131,32.50545],[131.71128,32.50568],[131.71114,32.50569],[131.71113,32.50569],[131.71112,32.50571],[131.71088,32.5062],[131.71089,32.50621],[131.71214,32.50747],[131.71213,32.50759],[131.71161,32.50926],[131.71154,32.50938],[131.71205,32.51262],[131.71165,32.51371],[131.71235,32.51572],[131.71484,32.51936],[131.71443,32.51977],[131.70884,32.51696],[131.70883,32.51697],[131.7073,32.51676],[131.70519,32.51692],[131.70504,32.51762],[131.70404,32.51842],[131.70261,32.51828],[131.70116,32.51807],[131.70025,32.51714],[131.69477,32.51141],[131.69476,32.51142],[131.69397,32.51269],[131.69407,32.51392],[131.69349,32.51427],[131.69331,32.51463],[131.69299,32.51484],[131.68978,32.51391],[131.68974,32.51392],[131.69232,32.50758],[131.68453,32.50918],[131.68296,32.51306],[131.68628,32.51711],[131.68803,32.52357],[131.68219,32.53351],[131.68239,32.54039],[131.68933,32.56005],[131.69476,32.5695],[131.70695,32.58541],[131.71311,32.59041],[131.71835,32.58978],[131.74236,32.59198],[131.74754,32.60139],[131.75596,32.60388],[131.75768,32.60963],[131.76446,32.61631],[131.76101,32.62029],[131.76475,32.6283],[131.76874,32.6327],[131.77315,32.6342],[131.7735,32.64069],[131.76627,32.64098],[131.76725,32.647],[131.76289,32.65415],[131.76285,32.65867],[131.77155,32.65969],[131.772,32.66627],[131.77751,32.67135],[131.78487,32.67453],[131.78591,32.66374],[131.78978,32.66204],[131.7919,32.67557],[131.79414,32.67788],[131.80177,32.68378],[131.81054,32.68722],[131.81532,32.68695],[131.81746,32.69205],[131.81637,32.69274],[131.81729,32.69515],[131.82056,32.69727],[131.81684,32.70284],[131.82664,32.70656],[131.83166,32.69988],[131.83786,32.69763],[131.83903,32.69337],[131.84296,32.69047],[131.84902,32.69575],[131.85549,32.69851],[131.85483,32.70202],[131.84832,32.70374],[131.84619,32.70937],[131.84994,32.71873],[131.85535,32.72219],[131.85805,32.71896],[131.86428,32.71851],[131.85764,32.7294],[131.86165,32.73461],[131.87596,32.73354],[131.87722,32.73932],[131.88571,32.74587],[131.88399,32.74671],[131.87354,32.74045],[131.8615,32.74019],[131.85797,32.73766],[131.84701,32.73593],[131.84657,32.74219],[131.84412,32.74766],[131.84981,32.75596],[131.84899,32.7645],[131.8469,32.76628],[131.84434,32.77692],[131.84852,32.78311],[131.84931,32.79043],[131.85445,32.79607],[131.85365,32.79824],[131.86008,32.80607],[131.8588,32.82144],[131.85509,32.82317],[131.84815,32.81785],[131.84093,32.81991],[131.8345,32.8197],[131.83162,32.82353],[131.82597,32.8263],[131.8245,32.82987],[131.81415,32.82637],[131.80666,32.82215],[131.79815,32.82489],[131.7939,32.82195],[131.7878,32.82793],[131.78727,32.83365],[131.76881,32.83693],[131.75407,32.83642],[131.74736,32.8331],[131.74133,32.83429],[131.73573,32.8311],[131.73654,32.82551],[131.73466,32.81804],[131.73109,32.81593],[131.72794,32.79737],[131.7183,32.79087],[131.71513,32.78534],[131.7154,32.78017],[131.71247,32.77354],[131.70688,32.77161],[131.69626,32.77465],[131.69101,32.77184],[131.67927,32.76999],[131.6763,32.76838],[131.66088,32.76915],[131.64829,32.77175],[131.64068,32.77034],[131.62975,32.7718],[131.62533,32.77452],[131.61792,32.77311],[131.60545,32.7739],[131.60076,32.77223],[131.59664,32.77513],[131.59007,32.77413],[131.58798,32.77045],[131.57921,32.76098],[131.56892,32.75416],[131.56537,32.75551],[131.5555,32.75538],[131.54717,32.75821],[131.53632,32.75886],[131.53261,32.76286],[131.5241,32.76384],[131.51208,32.7697],[131.50848,32.77424]]],[[[131.81879,32.67286],[131.80933,32.67051],[131.8119,32.65834],[131.82671,32.65559],[131.8292,32.66197],[131.83655,32.6665],[131.83557,32.67092],[131.82863,32.66807],[131.82232,32.66877],[131.81879,32.67286]]],[[[131.71236,32.51415],[131.71216,32.51434],[131.71219,32.51417],[131.71236,32.51415]]]]},"properties":{"pref":"宮崎県","city":"延岡市","code5":"45203","code6":"452033"}},
{"type":"Feature","geometry":{"type":"MultiPolygon","coordinates":[[[[131.2696,31.76855],[131.26747,31.76383],[131.26888,31.7553],[131.26348,31.74949],[131.26015,31.73637],[131.2483,31.73322],[131.23954,31.73339],[131.23819,31.72775],[131.23212,31.71619],[131.22938,31.71419],[131.21801,31.71354],[131.20331,31.70416],[131.19774,31.70419],[131.19109,31.69917],[131.1852,31.69927],[131.16912,31.68581],[131.1664,31.67906],[131.16162,31.67495],[131.16034,31.6706],[131.16787,31.6688],[131.17041,31.66455],[131.17998,31.65633],[131.18078,31.65083],[131.19103,31.64493],[131.19748,31.64449],[131.20251,31.63697],[131.21372,31.63354],[131.21616,31.62596],[131.2245,31.62172],[131.23354,31.6268],[131.24675,31.62277],[131.25044,31.61811],[131.25773,31.61267],[131.2579,31.60075],[131.2541,31.59512],[131.25634,31.59022],[131.25509,31.58648],[131.2616,31.57737],[131.26626,31.57816],[131.27052,31.57572],[131.27001,31.57121],[131.27449,31.568],[131.26598,31.55859],[131.27035,31.55324],[131.27315,31.55421],[131.27871,31.55053],[131.27788,31.54601],[131.28157,31.54129],[131.27792,31.53795],[131.28229,31.53532],[131.28403,31.53119],[131.29062,31.52785],[131.28769,31.52276],[131.28777,31.51116],[131.29689,31.50615],[131.29552,31.50157],[131.30119,31.4937],[131.31396,31.49605],[131.31695,31.49397],[131.32316,31.50107],[131.32704,31.50211],[131.33023,31.49471],[131.33992,31.4939],[131.34931,31.48976],[131.35749,31.4906],[131.36357,31.49378],[131.3709,31.49077],[131.3791,31.49107],[131.38306,31.49402],[131.38626,31.49865],[131.38497,31.50274],[131.37372,31.50576],[131.37647,31.51211],[131.3725,31.51771],[131.37822,31.51975],[131.38527,31.51919],[131.38081,31.5275],[131.3849,31.53243],[131.38533,31.54093],[131.38177,31.54499],[131.38088,31.55337],[131.38438,31.55837],[131.3892,31.56029],[131.395,31.55733],[131.39718,31.56639],[131.3998,31.57094],[131.39944,31.5786],[131.4067,31.58189],[131.40974,31.57421],[131.40629,31.57275],[131.40664,31.56755],[131.41235,31.57026],[131.41116,31.5776],[131.41233,31.58269],[131.40936,31.58506],[131.41075,31.59121],[131.4163,31.60151],[131.4205,31.60711],[131.42594,31.61056],[131.43186,31.61128],[131.43596,31.61454],[131.44593,31.61751],[131.45252,31.62526],[131.45717,31.62575],[131.46189,31.63344],[131.45274,31.63808],[131.45784,31.64655],[131.46843,31.64525],[131.46712,31.65205],[131.4629,31.65285],[131.46325,31.66163],[131.4609,31.66907],[131.4521,31.66953],[131.45358,31.67695],[131.45114,31.68141],[131.46821,31.68649],[131.46554,31.6909],[131.45844,31.69328],[131.45556,31.69685],[131.45933,31.70288],[131.45829,31.70965],[131.4631,31.71846],[131.46788,31.72101],[131.46367,31.72145],[131.46364,31.72643],[131.44796,31.72827],[131.43525,31.73074],[131.43166,31.73003],[131.41601,31.73838],[131.41468,31.74492],[131.41018,31.74933],[131.3969,31.75106],[131.39849,31.76227],[131.39609,31.76779],[131.38999,31.76824],[131.38349,31.77167],[131.37993,31.7791],[131.3745,31.77762],[131.37322,31.77253],[131.348,31.77356],[131.34486,31.7774],[131.33861,31.77855],[131.33687,31.78191],[131.32609,31.78116],[131.31884,31.78199],[131.31394,31.77944],[131.30886,31.7808],[131.31016,31.77118],[131.30787,31.76597],[131.30091,31.76748],[131.28758,31.76363],[131.2696,31.76855]]],[[[131.41063,31.54226],[131.40345,31.53065],[131.4105,31.51921],[131.41594,31.52206],[131.41318,31.52739],[131.41643,31.53173],[131.41063,31.54226]]]]},"properties":{"pref":"宮崎県","city":"日南市","code5":"45204","code6":"452041"}},
{"type":"Feature","geometry":{"type":"Polygon","coordinates":[[[130.99239,32.15792],[130.99582,32.15593],[130.99264,32.14804],[130.98354,32.14323],[130.97466,32.13677],[130.97255,32.12811],[130.97452,32.12092],[130.96145,32.12005],[130.9535,32.1154],[130.95619,32.10585],[130.96074,32.10092],[130.96018,32.09621],[130.96381,32.08698],[130.97325,32.08298],[130.96647,32.08117],[130.96448,32.07802],[130.95429,32.07167],[130.95151,32.06519],[130.94677,32.062],[130.94525,32.05048],[130.93336,32.04558],[130.93016,32.04076],[130.9205,32.03416],[130.9144,32.03773],[130.90655,32.03657],[130.90039,32.03805],[130.88863,32.0359],[130.87805,32.02495],[130.88375,32.01701],[130.88135,32.01152],[130.87875,31.99935],[130.87823,31.99189],[130.88901,31.99061],[130.89282,31.98096],[130.89283,31.97483],[130.89067,31.97141],[130.88043,31.96786],[130.87545,31.96373],[130.87063,31.94713],[130.86538,31.94153],[130.86137,31.93394],[130.86563,31.93395],[130.8782,31.92218],[130.88228,31.92122],[130.88288,31.91504],[130.89064,31.90357],[130.89774,31.88853],[130.90083,31.88575],[130.91117,31.88763],[130.91384,31.88598],[130.91203,31.89968],[130.91276,31.90881],[130.91584,31.91041],[130.91666,31.91575],[130.92231,31.92133],[130.92869,31.92397],[130.93864,31.9248],[130.94372,31.92749],[130.94897,31.93488],[130.95569,31.93329],[130.96081,31.93436],[130.96267,31.93126],[130.96775,31.93168],[130.97088,31.93662],[130.96944,31.94529],[130.96637,31.94969],[130.96622,31.95505],[130.97611,31.96666],[130.98114,31.97562],[130.98657,31.97259],[130.98859,31.9662],[130.99713,31.96242],[130.99817,31.9542],[131.00195,31.95333],[131.00484,31.94896],[131.00963,31.94712],[131.02596,31.95183],[131.03171,31.95566],[131.03693,31.95423],[131.04533,31.95468],[131.04643,31.95773],[131.057,31.95868],[131.0621,31.95359],[131.07053,31.95175],[131.08131,31.94251],[131.08242,31.93809],[131.08886,31.93805],[131.0943,31.93912],[131.09856,31.9375],[131.10123,31.93087],[131.10915,31.93261],[131.11595,31.93847],[131.13239,31.94469],[131.1421,31.94218],[131.1496,31.94394],[131.1566,31.93952],[131.17017,31.93895],[131.17385,31.94447],[131.1811,31.94225],[131.19897,31.9397],[131.19485,31.94354],[131.1929,31.95148],[131.20029,31.9637],[131.20504,31.96397],[131.20641,31.9727],[131.20879,31.97842],[131.20074,31.98104],[131.19733,31.98847],[131.19197,31.98818],[131.18498,31.99286],[131.17441,31.99004],[131.17031,31.99121],[131.16687,31.9962],[131.16433,32.00816],[131.15924,32.01431],[131.15316,32.01768],[131.15099,32.02544],[131.15753,32.02748],[131.15629,32.03488],[131.15699,32.0431],[131.16662,32.05152],[131.16644,32.0649],[131.15967,32.07114],[131.16025,32.07363],[131.18427,32.08499],[131.18432,32.08938],[131.17726,32.09675],[131.17976,32.10907],[131.1765,32.11063],[131.17263,32.1264],[131.17043,32.12942],[131.16809,32.13554],[131.15979,32.13845],[131.15001,32.13631],[131.14306,32.1384],[131.13431,32.13676],[131.12983,32.14678],[131.12142,32.1446],[131.11423,32.15117],[131.11171,32.1595],[131.10897,32.16015],[131.10213,32.15793],[131.09624,32.15237],[131.08336,32.15464],[131.07017,32.15967],[131.06774,32.15729],[131.05952,32.15605],[131.05212,32.15836],[131.04925,32.16301],[131.0453,32.16126],[131.03809,32.16989],[131.02636,32.17136],[131.01873,32.16985],[131.01318,32.17438],[131.00378,32.16952],[130.99802,32.16142],[130.99239,32.15792]]]},"properties":{"pref":"宮崎県","city":"小林市","code5":"45205","code6":"452050"}},
{"type":"Feature","geometry":{"type":"MultiPolygon","coordinates":[[[[131.65054,32.45763],[131.64279,32.45692],[131.62883,32.45983],[131.62094,32.46486],[131.60945,32.46149],[131.60266,32.4667],[131.60295,32.47127],[131.58954,32.47589],[131.58533,32.46713],[131.57807,32.46505],[131.57865,32.45921],[131.57337,32.45291],[131.5688,32.45],[131.56534,32.44415],[131.55813,32.4462],[131.54331,32.44207],[131.53772,32.43715],[131.53476,32.44407],[131.52494,32.44394],[131.52033,32.44881],[131.51275,32.44839],[131.50625,32.45623],[131.5019,32.45458],[131.4893,32.45422],[131.48426,32.45191],[131.4797,32.45254],[131.47591,32.44962],[131.47541,32.44342],[131.48275,32.43953],[131.48015,32.43567],[131.48311,32.42836],[131.48142,32.42375],[131.48351,32.41637],[131.47793,32.41253],[131.47663,32.40595],[131.47165,32.40184],[131.46195,32.39937],[131.4562,32.40069],[131.45213,32.3993],[131.4466,32.39289],[131.43554,32.39292],[131.42765,32.38924],[131.42055,32.39092],[131.41784,32.3893],[131.40604,32.38971],[131.39722,32.37094],[131.39693,32.36521],[131.38854,32.36359],[131.38222,32.35985],[131.37819,32.35482],[131.37089,32.3564],[131.36915,32.36026],[131.36243,32.36199],[131.35804,32.36584],[131.35068,32.36655],[131.34863,32.36199],[131.34422,32.35873],[131.34505,32.35511],[131.34181,32.35105],[131.33974,32.33759],[131.34151,32.32949],[131.34913,32.33219],[131.36231,32.32445],[131.36978,32.32181],[131.3692,32.3158],[131.36322,32.31482],[131.36282,32.30924],[131.37263,32.31341],[131.37835,32.31349],[131.38111,32.31604],[131.39303,32.31258],[131.4054,32.31248],[131.40985,32.30879],[131.42534,32.3061],[131.43312,32.30953],[131.44634,32.31356],[131.45921,32.3095],[131.46264,32.31069],[131.46558,32.31637],[131.47142,32.31894],[131.47543,32.31685],[131.48441,32.30873],[131.48313,32.30237],[131.48628,32.29845],[131.49342,32.2997],[131.49425,32.29584],[131.49932,32.2956],[131.52676,32.31422],[131.52916,32.31932],[131.5377,32.31914],[131.5489,32.32332],[131.55547,32.32265],[131.5566,32.31719],[131.55986,32.31257],[131.55751,32.30481],[131.56126,32.30509],[131.57197,32.29623],[131.57994,32.30899],[131.58847,32.30516],[131.59202,32.30605],[131.59823,32.31793],[131.60428,32.32599],[131.60979,32.32953],[131.62266,32.34147],[131.62884,32.34204],[131.62889,32.34214],[131.62808,32.34311],[131.62803,32.34515],[131.62715,32.34526],[131.62763,32.34623],[131.6278,32.34675],[131.62839,32.34755],[131.62866,32.34763],[131.62824,32.34772],[131.62815,32.34853],[131.62797,32.34825],[131.62834,32.34914],[131.62816,32.34923],[131.62706,32.34921],[131.62701,32.34971],[131.62628,32.35222],[131.6261,32.35246],[131.62587,32.35266],[131.62566,32.35282],[131.62561,32.35288],[131.62463,32.3539],[131.62316,32.35428],[131.62249,32.35677],[131.62623,32.36531],[131.63243,32.37112],[131.63349,32.37036],[131.63482,32.37063],[131.63602,32.37267],[131.63579,32.37373],[131.63504,32.3759],[131.63213,32.37884],[131.63459,32.38712],[131.64458,32.40817],[131.652,32.41282],[131.65759,32.41303],[131.66509,32.41096],[131.6707,32.41639],[131.67118,32.41603],[131.68284,32.4182],[131.68462,32.4184],[131.68622,32.42247],[131.68282,32.42478],[131.67481,32.42206],[131.67064,32.42843],[131.65497,32.42701],[131.65469,32.42897],[131.66913,32.43177],[131.67769,32.42961],[131.6819,32.4338],[131.68046,32.43934],[131.67591,32.44314],[131.66218,32.43652],[131.66662,32.44302],[131.66488,32.44841],[131.66488,32.44843],[131.66183,32.44796],[131.65248,32.43967],[131.65098,32.43474],[131.64234,32.43853],[131.64994,32.44129],[131.65666,32.44727],[131.65242,32.45156],[131.65054,32.45763]]],[[[131.62856,32.34587],[131.62753,32.34566],[131.62787,32.34545],[131.62856,32.34565],[131.62856,32.34587]]],[[[131.64633,32.40003],[131.64654,32.39978],[131.64655,32.39979],[131.64634,32.40006],[131.64633,32.40003]]]]},"properties":{"pref":"宮崎県","city":"日向市","code5":"45206","code6":"452068"}},
{"type":"Feature","geometry":{"type":"MultiPolygon","coordinates":[[[[131.1894,31.62224],[131.18919,31.61853],[131.18525,31.61014],[131.18721,31.60358],[131.19743,31.59526],[131.20545,31.57995],[131.20178,31.56721],[131.18934,31.55719],[131.19542,31.5523],[131.19587,31.54666],[131.19889,31.54136],[131.1973,31.53887],[131.20149,31.53112],[131.20004,31.52304],[131.20076,31.51774],[131.19685,31.51158],[131.18438,31.507],[131.17904,31.50623],[131.17208,31.50205],[131.16899,31.49668],[131.17104,31.49407],[131.1657,31.48895],[131.16319,31.48408],[131.16434,31.47362],[131.16033,31.4619],[131.16792,31.45789],[131.17359,31.45049],[131.18143,31.45666],[131.19634,31.45557],[131.20658,31.45281],[131.20521,31.44797],[131.2095,31.44449],[131.21953,31.4399],[131.22613,31.4319],[131.2288,31.42459],[131.23416,31.43049],[131.24259,31.42702],[131.24393,31.41975],[131.23673,31.41458],[131.23694,31.40802],[131.24045,31.39487],[131.24595,31.38628],[131.25403,31.38086],[131.26285,31.37939],[131.27702,31.382],[131.28228,31.38132],[131.28844,31.38479],[131.29075,31.38905],[131.29648,31.38566],[131.3103,31.39028],[131.31464,31.38585],[131.31622,31.37285],[131.32321,31.3654],[131.33654,31.3609],[131.34649,31.36348],[131.35032,31.37185],[131.34453,31.37656],[131.33561,31.3802],[131.33234,31.38936],[131.33374,31.39847],[131.34374,31.39931],[131.34115,31.40555],[131.34301,31.41174],[131.35345,31.41729],[131.36534,31.42064],[131.36751,31.42619],[131.37096,31.42816],[131.37255,31.43648],[131.37039,31.44512],[131.37112,31.44911],[131.36277,31.45803],[131.36187,31.46738],[131.36279,31.47188],[131.37548,31.47846],[131.38362,31.47973],[131.38886,31.48502],[131.38813,31.49009],[131.38306,31.49402],[131.3791,31.49107],[131.3709,31.49077],[131.36357,31.49378],[131.35749,31.4906],[131.34931,31.48976],[131.33992,31.4939],[131.33023,31.49471],[131.32704,31.50211],[131.32316,31.50107],[131.31695,31.49397],[131.31396,31.49605],[131.30119,31.4937],[131.29552,31.50157],[131.29689,31.50615],[131.28777,31.51116],[131.28769,31.52276],[131.29062,31.52785],[131.28403,31.53119],[131.28229,31.53532],[131.27792,31.53795],[131.28157,31.54129],[131.27788,31.54601],[131.27871,31.55053],[131.27315,31.55421],[131.27035,31.55324],[131.26598,31.55859],[131.27449,31.568],[131.27001,31.57121],[131.27052,31.57572],[131.26626,31.57816],[131.2616,31.57737],[131.25509,31.58648],[131.25634,31.59022],[131.2541,31.59512],[131.2579,31.60075],[131.25773,31.61267],[131.25044,31.61811],[131.24675,31.62277],[131.23354,31.6268],[131.2245,31.62172],[131.21616,31.62596],[131.21372,31.63354],[131.20251,31.63697],[131.19754,31.63258],[131.19737,31.62792],[131.19374,31.61992],[131.1894,31.62224]]],[[[131.37868,31.45661],[131.37368,31.45454],[131.3734,31.4502],[131.37815,31.44877],[131.37868,31.45661]]]]},"properties":{"pref":"宮崎県","city":"串間市","code5":"45207","code6":"452076"}},
{"type":"Feature","geometry":{"type":"Polygon","coordinates":[[[131.43312,32.05573],[131.42167,32.06187],[131.4235,32.06501],[131.42047,32.06875],[131.41339,32.0711],[131.42204,32.08295],[131.41685,32.08901],[131.41278,32.08679],[131.40906,32.07969],[131.40653,32.08059],[131.4197,32.10203],[131.4254,32.10769],[131.43023,32.10959],[131.44234,32.12234],[131.44306,32.12791],[131.44457,32.13481],[131.4501,32.14101],[131.43333,32.14582],[131.42592,32.15176],[131.42098,32.16063],[131.41459,32.1635],[131.41321,32.17734],[131.4103,32.18163],[131.39903,32.19008],[131.3996,32.19558],[131.39528,32.20053],[131.39505,32.20657],[131.38718,32.2149],[131.38234,32.22158],[131.37183,32.23192],[131.36718,32.23369],[131.35753,32.24323],[131.3579,32.24651],[131.35431,32.25517],[131.35023,32.25826],[131.35011,32.26305],[131.35813,32.26561],[131.35588,32.27064],[131.34743,32.27663],[131.3367,32.27961],[131.3278,32.27554],[131.31837,32.28429],[131.31149,32.28616],[131.30951,32.29269],[131.30546,32.29755],[131.30162,32.29752],[131.29395,32.30264],[131.28739,32.30903],[131.27972,32.30961],[131.27334,32.31171],[131.27031,32.31476],[131.26305,32.31606],[131.25626,32.32213],[131.25616,32.32552],[131.24923,32.32894],[131.24211,32.32734],[131.23502,32.32852],[131.22847,32.32392],[131.22374,32.32386],[131.2114,32.32991],[131.20433,32.33688],[131.19878,32.33986],[131.19012,32.34074],[131.18502,32.33407],[131.18335,32.32919],[131.17647,32.3247],[131.1769,32.31853],[131.17506,32.30996],[131.19115,32.30857],[131.1958,32.30282],[131.2033,32.29751],[131.2022,32.29379],[131.21325,32.28391],[131.21842,32.282],[131.22014,32.2777],[131.22505,32.27401],[131.22125,32.25962],[131.22654,32.25304],[131.23037,32.25107],[131.23075,32.24676],[131.23726,32.24014],[131.24016,32.22971],[131.24346,32.22663],[131.24799,32.21788],[131.2531,32.21323],[131.26679,32.21087],[131.27681,32.21318],[131.28027,32.20979],[131.27725,32.20396],[131.27302,32.20397],[131.26773,32.20085],[131.26916,32.19652],[131.27826,32.18947],[131.28205,32.18217],[131.27709,32.17936],[131.26832,32.17962],[131.26641,32.17352],[131.25559,32.16592],[131.24568,32.16925],[131.23889,32.16614],[131.22572,32.17136],[131.22177,32.17149],[131.21588,32.16724],[131.21423,32.15897],[131.21093,32.15576],[131.21088,32.15],[131.1973,32.15111],[131.19081,32.14638],[131.18915,32.14039],[131.19343,32.1321],[131.19762,32.13053],[131.19946,32.12468],[131.20464,32.12167],[131.21005,32.12483],[131.21782,32.12418],[131.22612,32.11613],[131.23351,32.10641],[131.23446,32.10307],[131.24596,32.09816],[131.26661,32.09875],[131.27266,32.09071],[131.27555,32.08238],[131.28468,32.0745],[131.29276,32.06932],[131.29634,32.06917],[131.31244,32.06071],[131.31503,32.06512],[131.31932,32.06136],[131.32189,32.05272],[131.33012,32.04555],[131.33332,32.03773],[131.33891,32.03263],[131.34952,32.02743],[131.35935,32.02761],[131.37385,32.01929],[131.38214,32.01987],[131.38682,32.01834],[131.38605,32.03329],[131.39054,32.03533],[131.39088,32.04151],[131.40237,32.06127],[131.4027,32.06564],[131.40744,32.06574],[131.42116,32.05849],[131.42535,32.0524],[131.43312,32.05573]]]},"properties":{"pref":"宮崎県","city":"西都市","code5":"45208","code6":"452084"}},
{"type":"Feature","geometry":{"type":"Polygon","coordinates":[[[130.7206,32.1008],[130.71793,32.09475],[130.71599,32.08569],[130.71231,32.08168],[130.70573,32.07991],[130.70356,32.07718],[130.70338,32.05855],[130.70391,32.05771],[130.73555,32.0482],[130.74305,32.04177],[130.74747,32.03627],[130.75254,32.03332],[130.75847,32.0333],[130.76145,32.02524],[130.76874,32.02017],[130.77687,32.01648],[130.77826,32.01364],[130.77869,31.99796],[130.78117,31.99221],[130.78196,31.98309],[130.78419,31.97907],[130.79451,31.9733],[130.7959,31.96644],[130.80105,31.96084],[130.79954,31.9502],[130.80529,31.94983],[130.81645,31.94124],[130.83717,31.94172],[130.84051,31.94273],[130.84683,31.94024],[130.85749,31.93807],[130.86137,31.93394],[130.86538,31.94153],[130.87063,31.94713],[130.87545,31.96373],[130.88043,31.96786],[130.89067,31.97141],[130.89283,31.97483],[130.89282,31.98096],[130.88901,31.99061],[130.87823,31.99189],[130.87875,31.99935],[130.88135,32.01152],[130.88375,32.01701],[130.87805,32.02495],[130.88863,32.0359],[130.90039,32.03805],[130.90655,32.03657],[130.9144,32.03773],[130.9205,32.03416],[130.93016,32.04076],[130.93336,32.04558],[130.94525,32.05048],[130.94677,32.062],[130.95151,32.06519],[130.95429,32.07167],[130.96448,32.07802],[130.96647,32.08117],[130.97325,32.08298],[130.96381,32.08698],[130.96018,32.09621],[130.96074,32.10092],[130.95619,32.10585],[130.9535,32.1154],[130.94415,32.11964],[130.93258,32.11636],[130.92746,32.12248],[130.91634,32.12521],[130.91343,32.13045],[130.90601,32.13359],[130.90074,32.13238],[130.89731,32.12597],[130.87838,32.12127],[130.87636,32.11672],[130.86941,32.11506],[130.86243,32.1018],[130.85707,32.0997],[130.84923,32.10424],[130.8445,32.10401],[130.83901,32.10721],[130.83096,32.10478],[130.82291,32.09973],[130.8208,32.09492],[130.80791,32.09934],[130.78881,32.09899],[130.77943,32.09947],[130.76695,32.10151],[130.75947,32.09682],[130.75358,32.10345],[130.73885,32.10129],[130.7399,32.10488],[130.7335,32.10837],[130.72768,32.10187],[130.7206,32.1008]]]},"properties":{"pref":"宮崎県","city":"えびの市","code5":"45209","code6":"452092"}},
{"type":"Feature","geometry":{"type":"Polygon","coordinates":[[[131.24003,31.79774],[131.23396,31.7974],[131.22634,31.78246],[131.22001,31.78348],[131.21414,31.77538],[131.21438,31.77173],[131.20752,31.77048],[131.20515,31.76616],[131.20513,31.76068],[131.19069,31.75953],[131.18361,31.75496],[131.18247,31.75105],[131.17699,31.74622],[131.17567,31.7392],[131.17096,31.73594],[131.16323,31.73816],[131.15723,31.73737],[131.14907,31.74047],[131.14706,31.75067],[131.14176,31.75535],[131.13695,31.75644],[131.13645,31.76153],[131.12674,31.76988],[131.11143,31.77186],[131.103,31.76132],[131.10839,31.75139],[131.10288,31.7459],[131.10035,31.72729],[131.09724,31.71329],[131.09564,31.71055],[131.10183,31.70745],[131.10433,31.70406],[131.11546,31.69883],[131.12477,31.68582],[131.12656,31.67736],[131.13062,31.67486],[131.13441,31.67669],[131.14525,31.66814],[131.15806,31.66904],[131.16034,31.6706],[131.16162,31.67495],[131.1664,31.67906],[131.16912,31.68581],[131.1852,31.69927],[131.19109,31.69917],[131.19774,31.70419],[131.20331,31.70416],[131.21801,31.71354],[131.22938,31.71419],[131.23212,31.71619],[131.23819,31.72775],[131.23954,31.73339],[131.2483,31.73322],[131.26015,31.73637],[131.26348,31.74949],[131.26888,31.7553],[131.26747,31.76383],[131.2696,31.76855],[131.26636,31.76949],[131.26365,31.78063],[131.25403,31.7765],[131.25176,31.77923],[131.24128,31.778],[131.23783,31.7826],[131.23786,31.78834],[131.24111,31.79547],[131.24003,31.79774]]]},"properties":{"pref":"宮崎県","county":"北諸県郡","city":"三股町","code5":"45341","code6":"453412"}},
{"type":"Feature","geometry":{"type":"Polygon","coordinates":[[[131.08886,31.93805],[131.08242,31.93809],[131.08131,31.94251],[131.07053,31.95175],[131.0621,31.95359],[131.057,31.95868],[131.04643,31.95773],[131.04533,31.95468],[131.03693,31.95423],[131.03171,31.95566],[131.02596,31.95183],[131.00963,31.94712],[131.00484,31.94896],[131.00195,31.95333],[130.99817,31.9542],[130.99713,31.96242],[130.98859,31.9662],[130.98657,31.97259],[130.98114,31.97562],[130.97611,31.96666],[130.96622,31.95505],[130.96637,31.94969],[130.96944,31.94529],[130.97088,31.93662],[130.96775,31.93168],[130.96267,31.93126],[130.96081,31.93436],[130.95569,31.93329],[130.94897,31.93488],[130.94372,31.92749],[130.93864,31.9248],[130.92869,31.92397],[130.92231,31.92133],[130.91666,31.91575],[130.91584,31.91041],[130.91276,31.90881],[130.91203,31.89968],[130.91384,31.88598],[130.91401,31.88577],[130.93709,31.88604],[130.94899,31.89053],[130.9573,31.88729],[130.98445,31.88104],[130.991,31.88115],[130.9999,31.88435],[131.00169,31.89281],[131.00804,31.8985],[131.01228,31.90667],[131.02005,31.9153],[131.03032,31.92894],[131.04039,31.92995],[131.04664,31.92203],[131.04956,31.92198],[131.05662,31.91636],[131.06607,31.91669],[131.07852,31.91061],[131.08331,31.90937],[131.0878,31.91225],[131.09618,31.91019],[131.09736,31.91395],[131.10369,31.92066],[131.08751,31.93065],[131.08886,31.93805]]]},"properties":{"pref":"宮崎県","county":"西諸県郡","city":"高原町","code5":"45361","code6":"453617"}},
{"type":"Feature","geometry":{"type":"Polygon","coordinates":[[[131.38682,32.01834],[131.38214,32.01987],[131.37385,32.01929],[131.35935,32.02761],[131.34952,32.02743],[131.33891,32.03263],[131.33332,32.03773],[131.33012,32.04555],[131.32189,32.05272],[131.31932,32.06136],[131.31503,32.06512],[131.31244,32.06071],[131.29634,32.06917],[131.29276,32.06932],[131.28468,32.0745],[131.27555,32.08238],[131.27266,32.09071],[131.26661,32.09875],[131.24596,32.09816],[131.23446,32.10307],[131.23351,32.10641],[131.22612,32.11613],[131.21782,32.12418],[131.21005,32.12483],[131.20464,32.12167],[131.19946,32.12468],[131.19762,32.13053],[131.19343,32.1321],[131.18884,32.13147],[131.19198,32.12725],[131.18965,32.11815],[131.19141,32.11487],[131.19128,32.10431],[131.20035,32.0915],[131.20513,32.09004],[131.20614,32.07995],[131.21038,32.07615],[131.21628,32.06651],[131.21878,32.05583],[131.23066,32.04599],[131.23824,32.04214],[131.24425,32.03433],[131.25439,32.03438],[131.25647,32.03011],[131.26077,32.03057],[131.26897,32.02116],[131.26716,32.01973],[131.27711,32.01055],[131.27789,32.00346],[131.27531,31.99582],[131.27628,31.98963],[131.27047,31.9845],[131.26961,31.98146],[131.27656,31.98331],[131.28321,31.98039],[131.28735,31.98217],[131.29431,31.9792],[131.30382,31.97137],[131.31209,31.96635],[131.3223,31.96694],[131.3266,31.96545],[131.33188,31.97834],[131.3394,31.97876],[131.34812,31.98134],[131.35122,31.97718],[131.36029,31.97688],[131.36546,31.97126],[131.3714,31.9681],[131.37464,31.97688],[131.37457,31.98335],[131.37988,31.99217],[131.37649,31.99706],[131.38013,32.00486],[131.38587,32.00812],[131.38901,32.0152],[131.38682,32.01834]]]},"properties":{"pref":"宮崎県","county":"東諸県郡","city":"国富町","code5":"45382","code6":"453820"}},
{"type":"Feature","geometry":{"type":"Polygon","coordinates":[[[131.26961,31.98146],[131.27047,31.9845],[131.27628,31.98963],[131.27531,31.99582],[131.27789,32.00346],[131.27711,32.01055],[131.26716,32.01973],[131.26897,32.02116],[131.26077,32.03057],[131.25647,32.03011],[131.25439,32.03438],[131.24425,32.03433],[131.23824,32.04214],[131.23066,32.04599],[131.21878,32.05583],[131.21628,32.06651],[131.21038,32.07615],[131.20614,32.07995],[131.20513,32.09004],[131.20035,32.0915],[131.19128,32.10431],[131.19141,32.11487],[131.18965,32.11815],[131.19198,32.12725],[131.18884,32.13147],[131.17876,32.12795],[131.17043,32.12942],[131.17263,32.1264],[131.1765,32.11063],[131.17976,32.10907],[131.17726,32.09675],[131.18432,32.08938],[131.18427,32.08499],[131.16025,32.07363],[131.15967,32.07114],[131.16644,32.0649],[131.16662,32.05152],[131.15699,32.0431],[131.15629,32.03488],[131.15753,32.02748],[131.15099,32.02544],[131.15316,32.01768],[131.15924,32.01431],[131.16433,32.00816],[131.16687,31.9962],[131.17031,31.99121],[131.17441,31.99004],[131.18498,31.99286],[131.19197,31.98818],[131.19733,31.98847],[131.21381,31.99584],[131.21715,31.99222],[131.2179,31.98656],[131.22399,31.97797],[131.2248,31.97251],[131.23329,31.97475],[131.23704,31.97366],[131.25329,31.98087],[131.25699,31.97834],[131.26556,31.98214],[131.26961,31.98146]]]},"properties":{"pref":"宮崎県","county":"東諸県郡","city":"綾町","code5":"45383","code6":"453838"}},
{"type":"Feature","geometry":{"type":"Polygon","coordinates":[[[131.44306,32.12791],[131.45052,32.12727],[131.45975,32.12372],[131.47239,32.1079],[131.48115,32.10522],[131.48914,32.11016],[131.49758,32.10964],[131.50408,32.10595],[131.50545,32.09693],[131.50796,32.09437],[131.51881,32.08919],[131.51998,32.08735],[131.52581,32.10166],[131.53492,32.11787],[131.53693,32.1262],[131.54014,32.13211],[131.5392,32.13672],[131.54345,32.15744],[131.53744,32.1565],[131.5308,32.16365],[131.52445,32.16537],[131.52565,32.16846],[131.51887,32.17164],[131.51293,32.15547],[131.49265,32.16219],[131.48503,32.15589],[131.47795,32.15557],[131.47518,32.1477],[131.47019,32.14562],[131.46457,32.1393],[131.46064,32.13906],[131.45752,32.13231],[131.44457,32.13481],[131.44306,32.12791]]]},"properties":{"pref":"宮崎県","county":"児湯郡","city":"高鍋町","code5":"45401","code6":"454010"}},
{"type":"Feature","geometry":{"type":"Polygon","coordinates":[[[131.5064,32.04644],[131.50922,32.05058],[131.51367,32.06906],[131.51998,32.08735],[131.51881,32.08919],[131.50796,32.09437],[131.50545,32.09693],[131.50408,32.10595],[131.49758,32.10964],[131.48914,32.11016],[131.48115,32.10522],[131.47239,32.1079],[131.45975,32.12372],[131.45052,32.12727],[131.44306,32.12791],[131.44234,32.12234],[131.43023,32.10959],[131.4254,32.10769],[131.4197,32.10203],[131.40653,32.08059],[131.40906,32.07969],[131.41278,32.08679],[131.41685,32.08901],[131.42204,32.08295],[131.41339,32.0711],[131.42047,32.06875],[131.4235,32.06501],[131.42167,32.06187],[131.43312,32.05573],[131.44123,32.05705],[131.44917,32.05541],[131.45299,32.05216],[131.45991,32.05036],[131.46753,32.05036],[131.47339,32.04692],[131.48677,32.04137],[131.49162,32.04346],[131.50037,32.04395],[131.5064,32.04644]]]},"properties":{"pref":"宮崎県","county":"児湯郡","city":"新富町","code5":"45402","code6":"454028"}},
{"type":"Feature","geometry":{"type":"Polygon","coordinates":[[[131.10897,32.16015],[131.11171,32.1595],[131.11423,32.15117],[131.12142,32.1446],[131.12983,32.14678],[131.13431,32.13676],[131.14306,32.1384],[131.15001,32.13631],[131.15979,32.13845],[131.16809,32.13554],[131.17043,32.12942],[131.17876,32.12795],[131.18884,32.13147],[131.19343,32.1321],[131.18915,32.14039],[131.19081,32.14638],[131.1973,32.15111],[131.21088,32.15],[131.21093,32.15576],[131.21423,32.15897],[131.21588,32.16724],[131.22177,32.17149],[131.22572,32.17136],[131.23889,32.16614],[131.24568,32.16925],[131.25559,32.16592],[131.26641,32.17352],[131.26832,32.17962],[131.27709,32.17936],[131.28205,32.18217],[131.27826,32.18947],[131.26916,32.19652],[131.26773,32.20085],[131.27302,32.20397],[131.27725,32.20396],[131.28027,32.20979],[131.27681,32.21318],[131.26679,32.21087],[131.2531,32.21323],[131.24799,32.21788],[131.24346,32.22663],[131.24016,32.22971],[131.23726,32.24014],[131.23075,32.24676],[131.23037,32.25107],[131.22654,32.25304],[131.22125,32.25962],[131.22505,32.27401],[131.22014,32.2777],[131.21842,32.282],[131.21325,32.28391],[131.2022,32.29379],[131.2033,32.29751],[131.1958,32.30282],[131.19115,32.30857],[131.17506,32.30996],[131.16905,32.30168],[131.16662,32.30202],[131.15916,32.31142],[131.14676,32.3123],[131.1439,32.31067],[131.13301,32.31014],[131.12846,32.30705],[131.11843,32.31703],[131.10932,32.31577],[131.10118,32.31172],[131.09611,32.30535],[131.0905,32.29398],[131.07909,32.2847],[131.07859,32.28122],[131.07051,32.28042],[131.06751,32.28325],[131.05883,32.28685],[131.05112,32.28636],[131.04977,32.28332],[131.05454,32.2717],[131.05421,32.267],[131.04451,32.26305],[131.04162,32.2579],[131.0427,32.24816],[131.04712,32.2443],[131.05703,32.24594],[131.06662,32.2393],[131.07092,32.23476],[131.06914,32.22531],[131.07374,32.22417],[131.07816,32.21944],[131.07844,32.21556],[131.08427,32.20619],[131.09448,32.20491],[131.10053,32.20154],[131.10008,32.19603],[131.10432,32.19201],[131.10219,32.1863],[131.10354,32.18199],[131.10144,32.17309],[131.10759,32.16601],[131.10897,32.16015]]]},"properties":{"pref":"宮崎県","county":"児湯郡","city":"西米良村","code5":"45403","code6":"454036"}},
{"type":"Feature","geometry":{"type":"Polygon","coordinates":[[[131.34151,32.32949],[131.3345,32.3258],[131.32647,32.32529],[131.32272,32.32201],[131.30973,32.32179],[131.30533,32.3153],[131.30221,32.31518],[131.28739,32.30903],[131.29395,32.30264],[131.30162,32.29752],[131.30546,32.29755],[131.30951,32.29269],[131.31149,32.28616],[131.31837,32.28429],[131.3278,32.27554],[131.3367,32.27961],[131.34743,32.27663],[131.35588,32.27064],[131.35813,32.26561],[131.35011,32.26305],[131.35023,32.25826],[131.35431,32.25517],[131.3579,32.24651],[131.35753,32.24323],[131.36718,32.23369],[131.37183,32.23192],[131.38234,32.22158],[131.38718,32.2149],[131.39505,32.20657],[131.39528,32.20053],[131.3996,32.19558],[131.39903,32.19008],[131.4103,32.18163],[131.41321,32.17734],[131.41459,32.1635],[131.42098,32.16063],[131.42592,32.15176],[131.43333,32.14582],[131.4501,32.14101],[131.44457,32.13481],[131.45752,32.13231],[131.46064,32.13906],[131.46457,32.1393],[131.47019,32.14562],[131.47518,32.1477],[131.47795,32.15557],[131.48503,32.15589],[131.49265,32.16219],[131.48632,32.16697],[131.4806,32.16733],[131.47555,32.17626],[131.476,32.18125],[131.47166,32.18172],[131.46645,32.18673],[131.46359,32.19316],[131.45792,32.19665],[131.44812,32.19609],[131.44871,32.1996],[131.44353,32.20682],[131.44527,32.21544],[131.44197,32.22022],[131.44166,32.22583],[131.44439,32.23072],[131.44297,32.23732],[131.43827,32.24256],[131.43009,32.24931],[131.43043,32.25344],[131.43483,32.25577],[131.43271,32.25987],[131.43301,32.27024],[131.42857,32.27717],[131.42932,32.28357],[131.42527,32.28737],[131.42384,32.29705],[131.42534,32.3061],[131.40985,32.30879],[131.4054,32.31248],[131.39303,32.31258],[131.38111,32.31604],[131.37835,32.31349],[131.37263,32.31341],[131.36282,32.30924],[131.36322,32.31482],[131.3692,32.3158],[131.36978,32.32181],[131.36231,32.32445],[131.34913,32.33219],[131.34151,32.32949]]]},"properties":{"pref":"宮崎県","county":"児湯郡","city":"木城町","code5":"45404","code6":"454044"}},
{"type":"Feature","geometry":{"type":"Polygon","coordinates":[[[131.54345,32.15744],[131.55264,32.17916],[131.55304,32.18876],[131.56299,32.21743],[131.56858,32.22954],[131.57288,32.23429],[131.57303,32.23796],[131.56886,32.2331],[131.56606,32.23737],[131.54992,32.2363],[131.53926,32.22865],[131.53314,32.23261],[131.53555,32.23633],[131.54169,32.23608],[131.54208,32.24089],[131.53691,32.24393],[131.5172,32.24547],[131.50444,32.2478],[131.50269,32.24689],[131.48232,32.25053],[131.47958,32.25571],[131.47224,32.25865],[131.46787,32.26392],[131.4602,32.26216],[131.46466,32.25595],[131.46651,32.25033],[131.46093,32.2463],[131.45692,32.24776],[131.4431,32.24498],[131.43827,32.24256],[131.44297,32.23732],[131.44439,32.23072],[131.44166,32.22583],[131.44197,32.22022],[131.44527,32.21544],[131.44353,32.20682],[131.44871,32.1996],[131.44812,32.19609],[131.45792,32.19665],[131.46359,32.19316],[131.46645,32.18673],[131.47166,32.18172],[131.476,32.18125],[131.47555,32.17626],[131.4806,32.16733],[131.48632,32.16697],[131.49265,32.16219],[131.51293,32.15547],[131.51887,32.17164],[131.52565,32.16846],[131.52445,32.16537],[131.5308,32.16365],[131.53744,32.1565],[131.54345,32.15744]]]},"properties":{"pref":"宮崎県","county":"児湯郡","city":"川南町","code5":"45405","code6":"454052"}},
{"type":"Feature","geometry":{"type":"Polygon","coordinates":[[[131.42534,32.3061],[131.42384,32.29705],[131.42527,32.28737],[131.42932,32.28357],[131.42857,32.27717],[131.43301,32.27024],[131.43271,32.25987],[131.43483,32.25577],[131.43043,32.25344],[131.43009,32.24931],[131.43827,32.24256],[131.4431,32.24498],[131.45692,32.24776],[131.46093,32.2463],[131.46651,32.25033],[131.46466,32.25595],[131.4602,32.26216],[131.46787,32.26392],[131.47224,32.25865],[131.47958,32.25571],[131.48232,32.25053],[131.50269,32.24689],[131.50444,32.2478],[131.5172,32.24547],[131.53691,32.24393],[131.54208,32.24089],[131.54169,32.23608],[131.53555,32.23633],[131.53314,32.23261],[131.53926,32.22865],[131.54992,32.2363],[131.56606,32.23737],[131.56886,32.2331],[131.57303,32.23796],[131.57537,32.24114],[131.57554,32.24875],[131.57178,32.253],[131.57686,32.26072],[131.5772,32.2709],[131.58505,32.29144],[131.59202,32.30605],[131.58847,32.30516],[131.57994,32.30899],[131.57197,32.29623],[131.56126,32.30509],[131.55751,32.30481],[131.55986,32.31257],[131.5566,32.31719],[131.55547,32.32265],[131.5489,32.32332],[131.5377,32.31914],[131.52916,32.31932],[131.52676,32.31422],[131.49932,32.2956],[131.49425,32.29584],[131.49342,32.2997],[131.48628,32.29845],[131.48313,32.30237],[131.48441,32.30873],[131.47543,32.31685],[131.47142,32.31894],[131.46558,32.31637],[131.46264,32.31069],[131.45921,32.3095],[131.44634,32.31356],[131.43312,32.30953],[131.42534,32.3061]]]},"properties":{"pref":"宮崎県","county":"児湯郡","city":"都農町","code5":"45406","code6":"454061"}},
{"type":"Feature","geometry":{"type":"Polygon","coordinates":[[[131.52672,32.54045],[131.52273,32.53499],[131.52788,32.53084],[131.53267,32.52043],[131.53148,32.51493],[131.5235,32.5055],[131.52528,32.49865],[131.52967,32.49408],[131.5259,32.4909],[131.51219,32.4868],[131.50945,32.47932],[131.51274,32.47163],[131.50911,32.46771],[131.51202,32.45946],[131.50625,32.45623],[131.51275,32.44839],[131.52033,32.44881],[131.52494,32.44394],[131.53476,32.44407],[131.53772,32.43715],[131.54331,32.44207],[131.55813,32.4462],[131.56534,32.44415],[131.5688,32.45],[131.57337,32.45291],[131.57865,32.45921],[131.57807,32.46505],[131.58533,32.46713],[131.58954,32.47589],[131.60295,32.47127],[131.60266,32.4667],[131.60945,32.46149],[131.62094,32.46486],[131.62883,32.45983],[131.64279,32.45692],[131.65054,32.45763],[131.65198,32.46689],[131.65783,32.46929],[131.65605,32.47328],[131.6568,32.48019],[131.65988,32.48358],[131.67211,32.48024],[131.67783,32.4835],[131.68031,32.47935],[131.67719,32.47527],[131.68788,32.46888],[131.69619,32.46946],[131.69621,32.46948],[131.69838,32.47191],[131.69887,32.47547],[131.70246,32.47461],[131.70289,32.47481],[131.70291,32.47482],[131.70281,32.47551],[131.70415,32.47632],[131.70499,32.47644],[131.70586,32.47674],[131.706,32.47761],[131.70604,32.47761],[131.70685,32.47741],[131.7072,32.47744],[131.70817,32.47795],[131.70881,32.47851],[131.70882,32.47851],[131.70971,32.4791],[131.70969,32.479],[131.7097,32.479],[131.71056,32.47912],[131.7104,32.48054],[131.70909,32.48223],[131.7096,32.48256],[131.71359,32.48173],[131.714,32.48147],[131.71678,32.48238],[131.71366,32.4871],[131.72266,32.48812],[131.72407,32.48919],[131.72497,32.49044],[131.72488,32.49066],[131.7244,32.49097],[131.72498,32.49247],[131.72504,32.49238],[131.72629,32.49483],[131.7263,32.49495],[131.72636,32.49545],[131.72652,32.49554],[131.72653,32.49555],[131.72812,32.49672],[131.72055,32.49725],[131.71582,32.49531],[131.70765,32.49816],[131.70081,32.49478],[131.69645,32.49618],[131.68395,32.48987],[131.67829,32.49655],[131.66868,32.499],[131.6654,32.50167],[131.66402,32.50769],[131.65679,32.51165],[131.65177,32.51145],[131.64898,32.51592],[131.64253,32.51922],[131.62753,32.51958],[131.61503,32.51689],[131.61272,32.51999],[131.61338,32.52673],[131.61006,32.53131],[131.60383,32.53189],[131.5919,32.52572],[131.58889,32.53157],[131.58136,32.5396],[131.58402,32.54324],[131.58209,32.54637],[131.5746,32.54769],[131.57084,32.54427],[131.56593,32.54546],[131.56266,32.53908],[131.54838,32.5358],[131.54477,32.53802],[131.53575,32.53973],[131.5289,32.54343],[131.52672,32.54045]]]},"properties":{"pref":"宮崎県","county":"東臼杵郡","city":"門川町","code5":"45421","code6":"454214"}},
{"type":"Feature","geometry":{"type":"Polygon","coordinates":[[[131.26752,32.64054],[131.25589,32.64211],[131.25445,32.63655],[131.25791,32.63091],[131.25563,32.61897],[131.25274,32.61446],[131.25348,32.61072],[131.24361,32.59861],[131.23044,32.59112],[131.22446,32.59448],[131.20835,32.58858],[131.20607,32.58608],[131.20761,32.57764],[131.2112,32.57704],[131.21906,32.562],[131.21357,32.54799],[131.21589,32.54113],[131.21468,32.53721],[131.21927,32.52667],[131.23061,32.52797],[131.2444,32.52132],[131.25632,32.52089],[131.2617,32.52558],[131.27373,32.52435],[131.27981,32.51648],[131.27964,32.50671],[131.28548,32.50798],[131.29311,32.50378],[131.29841,32.50781],[131.30257,32.501],[131.30645,32.49822],[131.31172,32.49994],[131.31665,32.49779],[131.31778,32.49399],[131.32408,32.49102],[131.32685,32.49441],[131.32071,32.50145],[131.32225,32.50639],[131.32801,32.51075],[131.34345,32.50211],[131.34947,32.50528],[131.35678,32.50421],[131.36106,32.49916],[131.36758,32.49833],[131.3716,32.49488],[131.36929,32.49043],[131.3731,32.48843],[131.37864,32.49177],[131.38425,32.48734],[131.37815,32.47809],[131.37504,32.47635],[131.37681,32.46787],[131.3811,32.46582],[131.38585,32.47179],[131.40571,32.4788],[131.40812,32.48409],[131.41317,32.48784],[131.41283,32.49627],[131.40785,32.50195],[131.40012,32.50659],[131.39865,32.51054],[131.39722,32.52549],[131.39332,32.5312],[131.38596,32.53421],[131.38174,32.53925],[131.37745,32.54102],[131.36888,32.54107],[131.36888,32.56095],[131.37395,32.56411],[131.36745,32.57636],[131.36197,32.57771],[131.36426,32.58406],[131.3622,32.58862],[131.35627,32.59519],[131.35721,32.6085],[131.34722,32.6124],[131.34085,32.61294],[131.32908,32.61165],[131.32119,32.61928],[131.31621,32.6286],[131.31008,32.62945],[131.28959,32.63558],[131.28737,32.63461],[131.27829,32.63865],[131.26752,32.64054]]]},"properties":{"pref":"宮崎県","county":"東臼杵郡","city":"諸塚村","code5":"45429","code6":"454290"}},
{"type":"Feature","geometry":{"type":"Polygon","coordinates":[[[131.01434,32.46275],[131.01664,32.46031],[131.01653,32.44769],[131.02222,32.43715],[131.03091,32.42653],[131.0329,32.4207],[131.04058,32.4148],[131.04379,32.40813],[131.05603,32.40698],[131.06797,32.4076],[131.06981,32.39972],[131.07288,32.39613],[131.07323,32.39124],[131.06928,32.38851],[131.06931,32.38432],[131.07417,32.38287],[131.07986,32.37429],[131.07399,32.36591],[131.07434,32.36091],[131.07803,32.35511],[131.09089,32.34955],[131.09553,32.35081],[131.09936,32.34156],[131.10161,32.34235],[131.10721,32.3334],[131.11188,32.32979],[131.10605,32.32439],[131.10118,32.31172],[131.10932,32.31577],[131.11843,32.31703],[131.12846,32.30705],[131.13301,32.31014],[131.1439,32.31067],[131.14676,32.3123],[131.15916,32.31142],[131.16662,32.30202],[131.16905,32.30168],[131.17506,32.30996],[131.1769,32.31853],[131.17647,32.3247],[131.18335,32.32919],[131.18502,32.33407],[131.19012,32.34074],[131.19878,32.33986],[131.2038,32.34814],[131.19702,32.35284],[131.19404,32.36106],[131.19596,32.36599],[131.19577,32.37377],[131.20786,32.37092],[131.21624,32.37082],[131.22246,32.38019],[131.23822,32.38271],[131.24927,32.38925],[131.2521,32.39519],[131.25785,32.39903],[131.2589,32.40768],[131.25244,32.41177],[131.25331,32.41644],[131.24834,32.43161],[131.24855,32.43726],[131.25108,32.44516],[131.25482,32.44384],[131.26055,32.4458],[131.26377,32.45014],[131.26959,32.45275],[131.27723,32.45386],[131.29832,32.45969],[131.29617,32.47409],[131.29419,32.4779],[131.2864,32.48623],[131.27689,32.49986],[131.27356,32.50954],[131.27964,32.50671],[131.27981,32.51648],[131.27373,32.52435],[131.2617,32.52558],[131.25632,32.52089],[131.2444,32.52132],[131.23061,32.52797],[131.21927,32.52667],[131.21468,32.53721],[131.21589,32.54113],[131.21357,32.54799],[131.21906,32.562],[131.2112,32.57704],[131.20761,32.57764],[131.20607,32.58608],[131.20835,32.58858],[131.20254,32.59331],[131.19693,32.60084],[131.18614,32.60086],[131.17681,32.5994],[131.17724,32.59484],[131.17289,32.58978],[131.17596,32.58443],[131.17108,32.57732],[131.17036,32.57104],[131.16596,32.56977],[131.15951,32.56373],[131.1484,32.56419],[131.13533,32.56315],[131.13094,32.55793],[131.12033,32.55831],[131.11138,32.56245],[131.10772,32.57535],[131.10499,32.57961],[131.09942,32.57845],[131.0879,32.57924],[131.0786,32.58178],[131.07446,32.58481],[131.06839,32.58402],[131.06275,32.58627],[131.05219,32.58772],[131.04325,32.58234],[131.04238,32.57441],[131.03953,32.57144],[131.03772,32.56473],[131.04044,32.56087],[131.03896,32.55443],[131.02395,32.55333],[131.01947,32.54922],[131.01907,32.54154],[131.02353,32.53614],[131.02488,32.53157],[131.02467,32.52025],[131.01842,32.51959],[131.0152,32.51584],[131.00941,32.51541],[131.00971,32.50919],[131.00696,32.49006],[131.01058,32.48298],[131.01394,32.48002],[131.01635,32.47326],[131.01434,32.46275]]]},"properties":{"pref":"宮崎県","county":"東臼杵郡","city":"椎葉村","code5":"45430","code6":"454303"}},
{"type":"Feature","geometry":{"type":"Polygon","coordinates":[[[131.42878,32.55989],[131.42125,32.56378],[131.41391,32.5608],[131.40885,32.56092],[131.40504,32.56568],[131.39612,32.56879],[131.39234,32.56593],[131.38433,32.56478],[131.38068,32.56241],[131.37395,32.56411],[131.36888,32.56095],[131.36888,32.54107],[131.37745,32.54102],[131.38174,32.53925],[131.38596,32.53421],[131.39332,32.5312],[131.39722,32.52549],[131.39865,32.51054],[131.40012,32.50659],[131.40785,32.50195],[131.41283,32.49627],[131.41317,32.48784],[131.40812,32.48409],[131.40571,32.4788],[131.38585,32.47179],[131.3811,32.46582],[131.37681,32.46787],[131.37504,32.47635],[131.37815,32.47809],[131.38425,32.48734],[131.37864,32.49177],[131.3731,32.48843],[131.36929,32.49043],[131.3716,32.49488],[131.36758,32.49833],[131.36106,32.49916],[131.35678,32.50421],[131.34947,32.50528],[131.34345,32.50211],[131.32801,32.51075],[131.32225,32.50639],[131.32071,32.50145],[131.32685,32.49441],[131.32408,32.49102],[131.31778,32.49399],[131.31665,32.49779],[131.31172,32.49994],[131.30645,32.49822],[131.30257,32.501],[131.29841,32.50781],[131.29311,32.50378],[131.28548,32.50798],[131.27964,32.50671],[131.27356,32.50954],[131.27689,32.49986],[131.2864,32.48623],[131.29419,32.4779],[131.29617,32.47409],[131.29832,32.45969],[131.27723,32.45386],[131.26959,32.45275],[131.26377,32.45014],[131.26055,32.4458],[131.25482,32.44384],[131.25108,32.44516],[131.24855,32.43726],[131.24834,32.43161],[131.25331,32.41644],[131.25244,32.41177],[131.2589,32.40768],[131.25785,32.39903],[131.2521,32.39519],[131.24927,32.38925],[131.23822,32.38271],[131.22246,32.38019],[131.21624,32.37082],[131.20786,32.37092],[131.19577,32.37377],[131.19596,32.36599],[131.19404,32.36106],[131.19702,32.35284],[131.2038,32.34814],[131.19878,32.33986],[131.20433,32.33688],[131.2114,32.32991],[131.22374,32.32386],[131.22847,32.32392],[131.23502,32.32852],[131.24211,32.32734],[131.24923,32.32894],[131.25616,32.32552],[131.25626,32.32213],[131.26305,32.31606],[131.27031,32.31476],[131.27334,32.31171],[131.27972,32.30961],[131.28739,32.30903],[131.30221,32.31518],[131.30533,32.3153],[131.30973,32.32179],[131.32272,32.32201],[131.32647,32.32529],[131.3345,32.3258],[131.34151,32.32949],[131.33974,32.33759],[131.34181,32.35105],[131.34505,32.35511],[131.34422,32.35873],[131.34863,32.36199],[131.35068,32.36655],[131.35804,32.36584],[131.36243,32.36199],[131.36915,32.36026],[131.37089,32.3564],[131.37819,32.35482],[131.38222,32.35985],[131.38854,32.36359],[131.39693,32.36521],[131.39722,32.37094],[131.40604,32.38971],[131.41784,32.3893],[131.42055,32.39092],[131.42765,32.38924],[131.43554,32.39292],[131.4466,32.39289],[131.45213,32.3993],[131.4562,32.40069],[131.46195,32.39937],[131.47165,32.40184],[131.47663,32.40595],[131.47793,32.41253],[131.48351,32.41637],[131.48142,32.42375],[131.48311,32.42836],[131.48015,32.43567],[131.48275,32.43953],[131.47541,32.44342],[131.47591,32.44962],[131.4797,32.45254],[131.48426,32.45191],[131.4893,32.45422],[131.5019,32.45458],[131.50625,32.45623],[131.51202,32.45946],[131.50911,32.46771],[131.51274,32.47163],[131.50945,32.47932],[131.51219,32.4868],[131.5259,32.4909],[131.52967,32.49408],[131.52528,32.49865],[131.5235,32.5055],[131.53148,32.51493],[131.53267,32.52043],[131.52788,32.53084],[131.52273,32.53499],[131.52672,32.54045],[131.51541,32.54632],[131.50971,32.55092],[131.50486,32.55712],[131.49593,32.5588],[131.48553,32.56494],[131.47278,32.56686],[131.46665,32.5637],[131.46414,32.55939],[131.45657,32.55736],[131.44228,32.55879],[131.43036,32.55618],[131.42878,32.55989]]]},"properties":{"pref":"宮崎県","county":"東臼杵郡","city":"美郷町","code5":"45431","code6":"454311"}},
{"type":"Feature","geometry":{"type":"Polygon","coordinates":[[[131.23422,32.75344],[131.23501,32.74433],[131.24722,32.74359],[131.25547,32.73478],[131.25363,32.73004],[131.25414,32.72182],[131.25071,32.71689],[131.24609,32.71651],[131.23337,32.70693],[131.24187,32.69892],[131.2417,32.69389],[131.22875,32.68467],[131.23568,32.68014],[131.23935,32.67256],[131.25195,32.67663],[131.25751,32.67064],[131.26478,32.67058],[131.26774,32.66811],[131.26696,32.66268],[131.26907,32.65081],[131.26752,32.64054],[131.27829,32.63865],[131.28737,32.63461],[131.28959,32.63558],[131.31008,32.62945],[131.31111,32.63829],[131.31507,32.64417],[131.31813,32.66071],[131.32323,32.66607],[131.3224,32.67089],[131.3263,32.67191],[131.32814,32.6809],[131.32303,32.6835],[131.32315,32.68853],[131.31788,32.6945],[131.32296,32.70648],[131.33454,32.69781],[131.35059,32.70003],[131.35775,32.69793],[131.36011,32.70353],[131.36539,32.70627],[131.37061,32.71543],[131.38012,32.71585],[131.3886,32.72897],[131.39267,32.73015],[131.39512,32.7354],[131.40046,32.73897],[131.39994,32.74593],[131.40248,32.7487],[131.40102,32.75339],[131.40282,32.76012],[131.40738,32.76968],[131.40626,32.77197],[131.41055,32.78001],[131.40948,32.7828],[131.4155,32.78732],[131.41634,32.7951],[131.42003,32.79794],[131.42155,32.80527],[131.42121,32.81192],[131.41604,32.81326],[131.40566,32.81217],[131.40022,32.81349],[131.39482,32.81108],[131.3887,32.81178],[131.38393,32.80901],[131.37828,32.80947],[131.36391,32.80336],[131.35644,32.80503],[131.34864,32.81068],[131.35063,32.81691],[131.34978,32.82435],[131.34706,32.82797],[131.34027,32.83344],[131.3295,32.83301],[131.3229,32.82865],[131.30891,32.82817],[131.30154,32.82957],[131.29155,32.8278],[131.28608,32.8314],[131.27607,32.82875],[131.27264,32.82415],[131.26543,32.82648],[131.26256,32.81848],[131.25782,32.8181],[131.2549,32.80929],[131.25526,32.80467],[131.24661,32.79899],[131.24504,32.79413],[131.24537,32.78655],[131.23735,32.78449],[131.23463,32.78096],[131.23721,32.77705],[131.24646,32.7694],[131.24159,32.75997],[131.23715,32.75845],[131.23422,32.75344]]]},"properties":{"pref":"宮崎県","county":"西臼杵郡","city":"高千穂町","code5":"45441","code6":"454419"}},
{"type":"Feature","geometry":{"type":"Polygon","coordinates":[[[131.47514,32.83723],[131.46317,32.83114],[131.45423,32.82902],[131.44357,32.83003],[131.43697,32.82863],[131.43127,32.81837],[131.42554,32.81636],[131.42121,32.81192],[131.42155,32.80527],[131.42003,32.79794],[131.41634,32.7951],[131.4155,32.78732],[131.40948,32.7828],[131.41055,32.78001],[131.40626,32.77197],[131.40738,32.76968],[131.40282,32.76012],[131.40102,32.75339],[131.40248,32.7487],[131.39994,32.74593],[131.40046,32.73897],[131.39512,32.7354],[131.39267,32.73015],[131.3886,32.72897],[131.38012,32.71585],[131.37061,32.71543],[131.36539,32.70627],[131.36011,32.70353],[131.35775,32.69793],[131.35059,32.70003],[131.33454,32.69781],[131.32296,32.70648],[131.31788,32.6945],[131.32315,32.68853],[131.32303,32.6835],[131.32814,32.6809],[131.3263,32.67191],[131.3224,32.67089],[131.32323,32.66607],[131.31813,32.66071],[131.31507,32.64417],[131.31111,32.63829],[131.31008,32.62945],[131.31621,32.6286],[131.32119,32.61928],[131.32908,32.61165],[131.34085,32.61294],[131.34722,32.6124],[131.35721,32.6085],[131.35627,32.59519],[131.3622,32.58862],[131.36426,32.58406],[131.36197,32.57771],[131.36745,32.57636],[131.37395,32.56411],[131.38068,32.56241],[131.38433,32.56478],[131.39234,32.56593],[131.39612,32.56879],[131.40504,32.56568],[131.40885,32.56092],[131.41391,32.5608],[131.42125,32.56378],[131.42878,32.55989],[131.43263,32.56533],[131.44024,32.56894],[131.44085,32.5767],[131.44331,32.57705],[131.44819,32.58749],[131.44604,32.59376],[131.45002,32.59777],[131.44864,32.60243],[131.44931,32.61072],[131.45214,32.61361],[131.44867,32.62662],[131.43497,32.63364],[131.437,32.64791],[131.44046,32.65498],[131.43434,32.66186],[131.44001,32.66426],[131.43982,32.66786],[131.44799,32.67192],[131.44686,32.67793],[131.45196,32.68411],[131.45347,32.69203],[131.46226,32.6968],[131.46611,32.70181],[131.47569,32.70464],[131.48012,32.7105],[131.48308,32.7177],[131.48449,32.73023],[131.4814,32.73791],[131.48793,32.74241],[131.49003,32.7479],[131.48771,32.75085],[131.48853,32.75663],[131.48199,32.76006],[131.48263,32.76349],[131.48849,32.76696],[131.48803,32.77134],[131.49163,32.77403],[131.50848,32.77424],[131.50824,32.78147],[131.51077,32.79011],[131.51352,32.79226],[131.51747,32.8008],[131.50776,32.80582],[131.50199,32.8105],[131.50325,32.81369],[131.49345,32.81585],[131.48378,32.82516],[131.47514,32.83723]]]},"properties":{"pref":"宮崎県","county":"西臼杵郡","city":"日之影町","code5":"45442","code6":"454427"}},
{"type":"Feature","geometry":{"type":"Polygon","coordinates":[[[131.10499,32.57961],[131.10772,32.57535],[131.11138,32.56245],[131.12033,32.55831],[131.13094,32.55793],[131.13533,32.56315],[131.1484,32.56419],[131.15951,32.56373],[131.16596,32.56977],[131.17036,32.57104],[131.17108,32.57732],[131.17596,32.58443],[131.17289,32.58978],[131.17724,32.59484],[131.17681,32.5994],[131.18614,32.60086],[131.19693,32.60084],[131.20254,32.59331],[131.20835,32.58858],[131.22446,32.59448],[131.23044,32.59112],[131.24361,32.59861],[131.25348,32.61072],[131.25274,32.61446],[131.25563,32.61897],[131.25791,32.63091],[131.25445,32.63655],[131.25589,32.64211],[131.26752,32.64054],[131.26907,32.65081],[131.26696,32.66268],[131.26774,32.66811],[131.26478,32.67058],[131.25751,32.67064],[131.25195,32.67663],[131.23935,32.67256],[131.23568,32.68014],[131.22875,32.68467],[131.2417,32.69389],[131.24187,32.69892],[131.23337,32.70693],[131.24609,32.71651],[131.25071,32.71689],[131.25414,32.72182],[131.25363,32.73004],[131.25547,32.73478],[131.24722,32.74359],[131.23501,32.74433],[131.2315,32.74403],[131.21193,32.72869],[131.20614,32.73016],[131.19503,32.72531],[131.18995,32.72199],[131.17935,32.70975],[131.18193,32.70602],[131.18041,32.70013],[131.17508,32.69341],[131.17559,32.68711],[131.17247,32.68475],[131.17524,32.67937],[131.17478,32.67184],[131.16314,32.67169],[131.15812,32.6776],[131.15139,32.68006],[131.14322,32.67589],[131.14327,32.67006],[131.14019,32.66465],[131.13054,32.65788],[131.12722,32.65421],[131.12365,32.64463],[131.11622,32.64266],[131.11558,32.63543],[131.11987,32.62915],[131.11594,32.62095],[131.11621,32.60949],[131.12051,32.60548],[131.11951,32.59885],[131.11348,32.59138],[131.10606,32.58916],[131.1082,32.58206],[131.10499,32.57961]]]},"properties":{"pref":"宮崎県","county":"西臼杵郡","city":"五ヶ瀬町","code5":"45443","code6":"454435"}}
]}