{"type":"FeatureCollection", "features": [
{"type":"Feature","geometry":{"type":"Polygon","coordinates":[[[127.68508,26.24258],[127.68282,26.24327],[127.681,26.24391],[127.67989,26.24431],[127.67668,26.24549],[127.67497,26.2461],[127.66863,26.2461],[127.67226,26.23862],[127.66715,26.23769],[127.66708,26.23228],[127.67367,26.23228],[127.67509,26.2402],[127.6794,26.2402],[127.68105,26.22656],[127.6708,26.22098],[127.66511,26.22155],[127.65759,26.21352],[127.65562,26.21569],[127.64889,26.21668],[127.64237,26.20869],[127.64187,26.20388],[127.63495,26.20361],[127.63046,26.20618],[127.63179,26.18195],[127.63118,26.17875],[127.63602,26.17824],[127.63509,26.20039],[127.64366,26.18872],[127.64383,26.17742],[127.65324,26.17643],[127.6602,26.17905],[127.66448,26.18294],[127.67085,26.18216],[127.68056,26.18911],[127.68324,26.19843],[127.68974,26.19435],[127.69932,26.19553],[127.70774,26.19032],[127.71318,26.1959],[127.71823,26.19582],[127.72161,26.19843],[127.72252,26.2097],[127.72748,26.21509],[127.73593,26.21781],[127.73621,26.22467],[127.73319,26.2265],[127.73812,26.2316],[127.73836,26.23634],[127.73281,26.23728],[127.72586,26.23344],[127.70404,26.23349],[127.69605,26.23977],[127.68508,26.24258]]]},"properties":{"pref":"沖縄県","city":"那覇市","code5":"47201","code6":"472018"}},
{"type":"Feature","geometry":{"type":"Polygon","coordinates":[[[127.77935,26.29619],[127.76717,26.29787],[127.76192,26.29319],[127.757,26.29503],[127.75281,26.29576],[127.75049,26.28998],[127.7441,26.28742],[127.74073,26.28353],[127.73286,26.28217],[127.73163,26.27857],[127.72429,26.27281],[127.73057,26.26422],[127.73104,26.25629],[127.73882,26.2534],[127.74225,26.25797],[127.75296,26.25133],[127.75972,26.25162],[127.76457,26.25567],[127.76926,26.25409],[127.7673,26.25866],[127.77093,26.26185],[127.77393,26.26939],[127.78282,26.2805],[127.78708,26.28751],[127.78367,26.29337],[127.77935,26.29619]]]},"properties":{"pref":"沖縄県","city":"宜野湾市","code5":"47205","code6":"472051"}},
{"type":"Feature","geometry":{"type":"MultiPolygon","coordinates":[[[[124.31706,24.61184],[124.31172,24.6095],[124.31114,24.60036],[124.31112,24.60034],[124.31158,24.59466],[124.30836,24.58732],[124.30283,24.58175],[124.30282,24.58175],[124.29754,24.57004],[124.29245,24.56793],[124.28249,24.56024],[124.28406,24.55595],[124.29208,24.55094],[124.29378,24.54833],[124.29379,24.54832],[124.29365,24.53984],[124.28875,24.53939],[124.28567,24.53592],[124.28614,24.5313],[124.27993,24.52075],[124.27723,24.5092],[124.27499,24.50472],[124.2643,24.51654],[124.25882,24.51943],[124.25627,24.51854],[124.24644,24.50836],[124.24493,24.50403],[124.23895,24.49878],[124.22952,24.49952],[124.22951,24.49953],[124.2294,24.49954],[124.22938,24.49955],[124.22964,24.48953],[124.22437,24.48199],[124.22082,24.46857],[124.22477,24.46795],[124.22627,24.46049],[124.22631,24.46044],[124.22289,24.45536],[124.21687,24.4558],[124.21671,24.45591],[124.2167,24.45592],[124.2069,24.45677],[124.19268,24.45763],[124.18798,24.45589],[124.18425,24.45175],[124.18424,24.45173],[124.18423,24.45171],[124.18421,24.45168],[124.17873,24.44875],[124.16971,24.44949],[124.15259,24.45449],[124.14032,24.44234],[124.1344,24.44775],[124.1377,24.45018],[124.13932,24.45649],[124.14389,24.46193],[124.14355,24.46609],[124.1353,24.47445],[124.13402,24.47541],[124.13393,24.47577],[124.12588,24.47827],[124.11761,24.48237],[124.113,24.47875],[124.11752,24.47729],[124.12487,24.47223],[124.12446,24.46633],[124.12165,24.46525],[124.12164,24.46525],[124.11795,24.46075],[124.11663,24.45496],[124.11845,24.44608],[124.11062,24.44419],[124.10605,24.44488],[124.10254,24.45084],[124.09261,24.45358],[124.09178,24.45331],[124.08169,24.4522],[124.077,24.44056],[124.07233,24.43857],[124.07196,24.43361],[124.06912,24.43123],[124.07245,24.42694],[124.07705,24.42619],[124.08255,24.41889],[124.08439,24.41639],[124.08515,24.41605],[124.08523,24.41639],[124.08531,24.41646],[124.08568,24.4174],[124.08565,24.41742],[124.08556,24.41789],[124.08557,24.41792],[124.08777,24.42322],[124.10296,24.4334],[124.11458,24.43151],[124.12055,24.43452],[124.12425,24.42824],[124.13267,24.42159],[124.13333,24.4167],[124.14129,24.41456],[124.14426,24.4107],[124.1433,24.40595],[124.13974,24.40087],[124.14109,24.39233],[124.13723,24.38546],[124.12702,24.37785],[124.12328,24.37886],[124.11631,24.37434],[124.11133,24.36716],[124.11804,24.36049],[124.12561,24.35616],[124.13188,24.35556],[124.14416,24.34944],[124.14948,24.34327],[124.14733,24.33899],[124.15748,24.33779],[124.16279,24.33409],[124.17128,24.33108],[124.18343,24.33112],[124.19238,24.33511],[124.19733,24.34121],[124.20085,24.34319],[124.19838,24.34834],[124.19919,24.35281],[124.20282,24.35469],[124.21511,24.35531],[124.22097,24.34941],[124.22898,24.34558],[124.23606,24.34509],[124.24256,24.34941],[124.24975,24.35944],[124.24992,24.36773],[124.25405,24.38024],[124.252,24.38263],[124.25186,24.39116],[124.25308,24.39868],[124.25808,24.41238],[124.25515,24.42242],[124.24999,24.43029],[124.25128,24.4373],[124.25514,24.43915],[124.25774,24.44528],[124.25775,24.4453],[124.25156,24.45103],[124.25102,24.46268],[124.25244,24.46684],[124.26028,24.47707],[124.27218,24.48599],[124.28148,24.49028],[124.28164,24.50331],[124.28377,24.50831],[124.29555,24.51466],[124.30892,24.53149],[124.30321,24.53803],[124.30449,24.54652],[124.31217,24.55554],[124.32151,24.55923],[124.3241,24.56355],[124.32997,24.56635],[124.33449,24.57118],[124.33644,24.58042],[124.34041,24.5863],[124.33694,24.59397],[124.33864,24.60164],[124.33864,24.60168],[124.33864,24.60173],[124.3392,24.60498],[124.32201,24.60762],[124.31818,24.61019],[124.31814,24.61048],[124.31706,24.61184]]],[[[123.47647,25.7518],[123.46979,25.74999],[123.46017,25.74397],[123.45792,25.73932],[123.45953,25.73522],[123.46416,25.73463],[123.47864,25.74136],[123.48849,25.74052],[123.49356,25.74307],[123.48684,25.74949],[123.47647,25.7518]]],[[[123.68259,25.92878],[123.676,25.92347],[123.67922,25.91989],[123.68596,25.91966],[123.68745,25.92451],[123.68259,25.92878]]],[[[124.15655,24.33309],[124.15329,24.33452],[124.14067,24.33233],[124.1416,24.32743],[124.15444,24.32848],[124.15655,24.33309]]],[[[124.14844,24.46213],[124.14596,24.45847],[124.14899,24.45412],[124.15269,24.45543],[124.14844,24.46213]]]]},"properties":{"pref":"沖縄県","city":"石垣市","code5":"47207","code6":"472077"}},
{"type":"Feature","geometry":{"type":"MultiPolygon","coordinates":[[[[127.73836,26.23634],[127.74357,26.24341],[127.74733,26.24472],[127.75296,26.25133],[127.74225,26.25797],[127.73882,26.2534],[127.73104,26.25629],[127.73057,26.26422],[127.72429,26.27281],[127.71953,26.2746],[127.70661,26.27313],[127.70413,26.26729],[127.70021,26.26569],[127.69087,26.25513],[127.68366,26.25579],[127.68367,26.24541],[127.68508,26.24258],[127.69605,26.23977],[127.70404,26.23349],[127.72586,26.23344],[127.73281,26.23728],[127.73836,26.23634]]],[[[127.67497,26.2461],[127.67494,26.25038],[127.66893,26.25063],[127.66863,26.2461],[127.67497,26.2461]]]]},"properties":{"pref":"沖縄県","city":"浦添市","code5":"47208","code6":"472085"}},
{"type":"Feature","geometry":{"type":"MultiPolygon","coordinates":[[[[128.08039,26.64587],[128.07187,26.64441],[128.0594,26.63782],[128.04896,26.63437],[128.03969,26.63665],[128.02456,26.62739],[128.01403,26.63146],[128.00852,26.63023],[128.0027,26.63344],[128.00372,26.63784],[127.99905,26.64318],[127.98865,26.64667],[127.98558,26.63958],[127.97751,26.63707],[127.97512,26.64141],[127.96968,26.6358],[127.96457,26.64046],[127.95902,26.63925],[127.95121,26.6372],[127.94534,26.63063],[127.93788,26.63098],[127.93395,26.63453],[127.92048,26.63397],[127.91234,26.62813],[127.90592,26.61881],[127.90027,26.61459],[127.8985,26.61027],[127.90017,26.60562],[127.9023,26.60398],[127.91391,26.60149],[127.91392,26.60149],[127.92073,26.60932],[127.9291,26.60811],[127.93371,26.60404],[127.94021,26.60156],[127.94358,26.60281],[127.95231,26.59662],[127.96502,26.59086],[127.97017,26.5912],[127.983,26.58496],[127.98341,26.57478],[127.98027,26.56646],[127.97597,26.55897],[127.96772,26.55184],[127.9643,26.54156],[127.96023,26.54478],[127.95636,26.54623],[127.95634,26.54623],[127.95249,26.54465],[127.94837,26.53922],[127.9417,26.53579],[127.93661,26.5382],[127.93718,26.54167],[127.93717,26.54168],[127.93282,26.54121],[127.93435,26.53859],[127.92926,26.53145],[127.93378,26.52891],[127.93767,26.5226],[127.93629,26.5193],[127.94097,26.51019],[127.94988,26.51229],[127.95374,26.5109],[127.95925,26.51411],[127.96656,26.52316],[127.97354,26.52289],[127.99538,26.51578],[127.99765,26.50969],[128.00219,26.50615],[128.00512,26.51112],[128.01049,26.51476],[128.01735,26.51159],[128.02564,26.5106],[128.03238,26.51338],[128.03156,26.51948],[128.03158,26.51946],[128.03927,26.52078],[128.05307,26.52117],[128.04642,26.52891],[128.04445,26.53666],[128.04187,26.53864],[128.03583,26.54882],[128.03948,26.55248],[128.04455,26.54788],[128.05306,26.548],[128.06051,26.55168],[128.07292,26.54893],[128.0795,26.54427],[128.08114,26.54105],[128.09109,26.53649],[128.09423,26.54131],[128.10035,26.54265],[128.10231,26.54541],[128.11082,26.55107],[128.11622,26.55147],[128.12633,26.5553],[128.13959,26.55516],[128.1382,26.56658],[128.14821,26.56865],[128.1418,26.57611],[128.13753,26.58514],[128.13401,26.5895],[128.12859,26.59264],[128.12027,26.58949],[128.11293,26.59508],[128.10891,26.59974],[128.09567,26.60925],[128.09834,26.61519],[128.09626,26.62017],[128.0867,26.62735],[128.08323,26.64198],[128.08039,26.64587]]],[[[128.02012,26.68051],[128.01623,26.67839],[128.01019,26.67924],[128.00854,26.67513],[128.00024,26.67458],[127.99438,26.66601],[127.9935,26.66014],[127.99731,26.65608],[128.00951,26.65415],[128.01437,26.65745],[128.02822,26.6504],[128.03547,26.6506],[128.0315,26.65912],[128.02686,26.66272],[128.02288,26.66859],[128.02012,26.68051]]]]},"properties":{"pref":"沖縄県","city":"名護市","code5":"47209","code6":"472093"}},
{"type":"Feature","geometry":{"type":"Polygon","coordinates":[[[127.70411,26.1696],[127.70069,26.16392],[127.69072,26.16579],[127.68837,26.15892],[127.68361,26.15558],[127.67989,26.15925],[127.66927,26.15216],[127.65729,26.14747],[127.64796,26.1453],[127.65287,26.12606],[127.65578,26.12728],[127.65348,26.13527],[127.66018,26.13684],[127.6647,26.12398],[127.6615,26.11638],[127.66445,26.11459],[127.65895,26.10257],[127.65899,26.09355],[127.65746,26.08169],[127.66673,26.07918],[127.66676,26.07917],[127.67299,26.07851],[127.67311,26.07844],[127.67345,26.07841],[127.6774,26.07456],[127.68114,26.07522],[127.68663,26.08152],[127.70693,26.09005],[127.71199,26.0881],[127.71421,26.0875],[127.7259,26.09161],[127.72805,26.0973],[127.73158,26.09822],[127.72429,26.1063],[127.72047,26.10773],[127.71787,26.11326],[127.7118,26.11844],[127.7129,26.1213],[127.70826,26.12674],[127.70579,26.13314],[127.70982,26.13466],[127.7126,26.14444],[127.70682,26.14834],[127.70256,26.14572],[127.69653,26.15156],[127.70646,26.16461],[127.70411,26.1696]]]},"properties":{"pref":"沖縄県","city":"糸満市","code5":"47210","code6":"472107"}},
{"type":"Feature","geometry":{"type":"MultiPolygon","coordinates":[[[[127.84256,26.33462],[127.8362,26.34108],[127.82965,26.34447],[127.82477,26.35186],[127.82653,26.35744],[127.82217,26.35757],[127.82277,26.36311],[127.82683,26.36383],[127.83055,26.37252],[127.82996,26.37636],[127.83697,26.38204],[127.83273,26.38351],[127.83093,26.38921],[127.82524,26.3929],[127.82088,26.38891],[127.81137,26.39967],[127.80822,26.39331],[127.80178,26.393],[127.79382,26.4052],[127.79382,26.40995],[127.78834,26.42175],[127.78603,26.41587],[127.78511,26.40796],[127.78821,26.4074],[127.78835,26.40154],[127.78553,26.38579],[127.78132,26.38203],[127.78279,26.37294],[127.77808,26.36622],[127.7793,26.3509],[127.78452,26.34874],[127.77785,26.34297],[127.77216,26.33928],[127.77861,26.32947],[127.7775,26.3258],[127.78479,26.31777],[127.79218,26.31633],[127.79567,26.31851],[127.79923,26.32441],[127.80575,26.32607],[127.80852,26.32295],[127.80695,26.3139],[127.81088,26.30504],[127.82539,26.30661],[127.82873,26.30414],[127.83358,26.30447],[127.83733,26.3004],[127.84671,26.30397],[127.84161,26.30756],[127.83345,26.30539],[127.82927,26.31318],[127.83671,26.31452],[127.8475,26.31439],[127.84649,26.31974],[127.84209,26.32004],[127.8347,26.32595],[127.83808,26.33124],[127.84256,26.33462]]],[[[127.84316,26.33436],[127.83725,26.32943],[127.83964,26.32753],[127.85351,26.32454],[127.85562,26.32618],[127.84316,26.33436]]]]},"properties":{"pref":"沖縄県","city":"沖縄市","code5":"47211","code6":"472115"}},
{"type":"Feature","geometry":{"type":"MultiPolygon","coordinates":[[[[127.64383,26.17742],[127.64826,26.17383],[127.64855,26.16902],[127.65512,26.16212],[127.65922,26.16146],[127.66037,26.16199],[127.66189,26.16],[127.66417,26.15891],[127.66592,26.15727],[127.66927,26.15216],[127.67989,26.15925],[127.68361,26.15558],[127.68837,26.15892],[127.69072,26.16579],[127.70069,26.16392],[127.70411,26.1696],[127.70421,26.17228],[127.71056,26.17619],[127.71388,26.18017],[127.70947,26.18492],[127.70774,26.19032],[127.69932,26.19553],[127.68974,26.19435],[127.68324,26.19843],[127.68056,26.18911],[127.67085,26.18216],[127.66448,26.18294],[127.6602,26.17905],[127.65324,26.17643],[127.64383,26.17742]]],[[[127.65474,26.16082],[127.65028,26.15986],[127.64986,26.15299],[127.65964,26.15166],[127.66763,26.15376],[127.66474,26.15831],[127.66008,26.16085],[127.65474,26.16082]]]]},"properties":{"pref":"沖縄県","city":"豊見城市","code5":"47212","code6":"472123"}},
{"type":"Feature","geometry":{"type":"MultiPolygon","coordinates":[[[[127.84164,26.43531],[127.84093,26.44181],[127.83813,26.44871],[127.83538,26.44964],[127.8238,26.44851],[127.81105,26.44056],[127.80777,26.43373],[127.80144,26.43085],[127.79366,26.42429],[127.78834,26.42175],[127.79382,26.40995],[127.79382,26.4052],[127.80178,26.393],[127.80822,26.39331],[127.81137,26.39967],[127.82088,26.38891],[127.82524,26.3929],[127.83093,26.38921],[127.83273,26.38351],[127.83697,26.38204],[127.82996,26.37636],[127.83055,26.37252],[127.82683,26.36383],[127.82277,26.36311],[127.82217,26.35757],[127.82653,26.35744],[127.82477,26.35186],[127.82965,26.34447],[127.8362,26.34108],[127.84256,26.33462],[127.84922,26.33725],[127.85638,26.34283],[127.86263,26.34446],[127.86892,26.33605],[127.8714,26.33121],[127.87658,26.32736],[127.88074,26.32166],[127.88467,26.31915],[127.88978,26.31208],[127.89922,26.30452],[127.91128,26.30003],[127.91578,26.29432],[127.91899,26.29558],[127.919,26.29557],[127.92356,26.30208],[127.91552,26.32195],[127.90573,26.3308],[127.89686,26.33413],[127.89361,26.33797],[127.88802,26.34085],[127.88548,26.34497],[127.87507,26.35711],[127.87293,26.36201],[127.87531,26.36718],[127.87468,26.3738],[127.88124,26.37641],[127.87126,26.38811],[127.86694,26.38911],[127.86227,26.39274],[127.85998,26.39748],[127.85108,26.40165],[127.84768,26.40225],[127.83918,26.40983],[127.83653,26.41409],[127.83808,26.41834],[127.83022,26.41865],[127.82671,26.42281],[127.83078,26.43153],[127.84039,26.42701],[127.84382,26.43167],[127.84164,26.43531]]],[[[127.99351,26.36645],[127.99343,26.36648],[127.99343,26.36682],[127.9942,26.36779],[127.99364,26.37012],[127.99352,26.37045],[127.99332,26.37116],[127.99324,26.37191],[127.99311,26.37252],[127.99289,26.37332],[127.99291,26.37332],[127.99211,26.37466],[127.99015,26.37483],[127.99056,26.37968],[127.98863,26.38305],[127.98866,26.38304],[127.98863,26.38307],[127.98768,26.38501],[127.98761,26.38467],[127.984,26.38061],[127.97937,26.3794],[127.97934,26.37942],[127.97932,26.37943],[127.97701,26.37862],[127.97638,26.37828],[127.97624,26.37818],[127.97588,26.37803],[127.97515,26.37744],[127.9733,26.37609],[127.97327,26.37608],[127.97326,26.37607],[127.97283,26.37568],[127.97271,26.37511],[127.97296,26.37465],[127.96916,26.36787],[127.96941,26.36756],[127.97064,26.35535],[127.98093,26.3555],[127.98754,26.35988],[127.99078,26.35907],[127.99082,26.35909],[127.99351,26.36645]]],[[[127.96568,26.36509],[127.9675,26.3624],[127.95542,26.35642],[127.95146,26.35768],[127.94392,26.35667],[127.94622,26.3506],[127.94314,26.34503],[127.94874,26.33997],[127.95943,26.33826],[127.96274,26.34001],[127.97431,26.35013],[127.97454,26.35398],[127.97003,26.35499],[127.96933,26.36161],[127.96568,26.36509]]],[[[127.85562,26.32618],[127.85518,26.33097],[127.8584,26.33355],[127.86338,26.33029],[127.86995,26.32996],[127.86838,26.33601],[127.86172,26.34368],[127.85521,26.34151],[127.84929,26.33675],[127.84316,26.33436],[127.85562,26.32618]]],[[[127.96009,26.3092],[127.96032,26.3156],[127.96638,26.31878],[127.96743,26.32276],[127.95711,26.32893],[127.95137,26.32465],[127.95321,26.31421],[127.95612,26.31065],[127.95615,26.31065],[127.96009,26.3092]]],[[[127.94446,26.24679],[127.9466,26.2481],[127.94688,26.25642],[127.94412,26.26244],[127.93834,26.25982],[127.93847,26.25299],[127.93439,26.24908],[127.93387,26.24789],[127.93385,26.24789],[127.94041,26.24173],[127.94293,26.24264],[127.94446,26.24679]]],[[[128.00286,26.39928],[127.9988,26.39967],[127.99789,26.39954],[127.99647,26.39953],[127.99642,26.39958],[127.9964,26.39965],[127.99563,26.39949],[127.98969,26.39062],[127.98974,26.39059],[127.99094,26.38626],[127.99096,26.38626],[127.99283,26.38338],[127.99796,26.38205],[127.99873,26.38649],[127.99874,26.38652],[127.99875,26.38654],[128.00119,26.39096],[128.00306,26.39932],[128.00295,26.39923],[128.00293,26.39924],[128.00288,26.39928],[128.00286,26.39928]]],[[[127.92772,26.31852],[127.92352,26.32335],[127.91779,26.32242],[127.92282,26.3175],[127.93014,26.31358],[127.93013,26.3136],[127.92844,26.31673],[127.92843,26.31674],[127.9281,26.31766],[127.92787,26.31827],[127.92787,26.31829],[127.92772,26.31852]]],[[[127.99351,26.36645],[127.99356,26.3664],[127.99362,26.36642],[127.99359,26.36649],[127.99351,26.36647],[127.99351,26.36645]]],[[[127.9747,26.37764],[127.97474,26.37767],[127.97469,26.37765],[127.9747,26.37764]]],[[[127.97466,26.37768],[127.97467,26.3777],[127.97463,26.37769],[127.97466,26.37768]]],[[[127.97701,26.37862],[127.97699,26.37867],[127.97698,26.37866],[127.97701,26.37862]]]]},"properties":{"pref":"沖縄県","city":"うるま市","code5":"47213","code6":"472131"}},
{"type":"Feature","geometry":{"type":"MultiPolygon","coordinates":[[[[125.30485,24.8651],[125.29643,24.87709],[125.28506,24.88263],[125.28299,24.89197],[125.27209,24.9022],[125.26158,24.90301],[125.26453,24.8983],[125.27117,24.89323],[125.27231,24.88111],[125.27861,24.87601],[125.27824,24.87266],[125.28477,24.86412],[125.28556,24.85807],[125.28942,24.85748],[125.29532,24.84955],[125.29641,24.84547],[125.29409,24.84185],[125.29518,24.83606],[125.28581,24.84137],[125.28198,24.8414],[125.27715,24.83684],[125.27702,24.83258],[125.27996,24.82746],[125.27879,24.82366],[125.28072,24.81331],[125.2783,24.81347],[125.27509,24.80663],[125.27211,24.80328],[125.26768,24.80161],[125.25973,24.79583],[125.2561,24.79436],[125.25648,24.78967],[125.25874,24.78497],[125.26199,24.78253],[125.26893,24.78271],[125.2696,24.78137],[125.27022,24.78069],[125.27023,24.78068],[125.27627,24.77272],[125.27833,24.7706],[125.28236,24.76445],[125.2832,24.75692],[125.28523,24.75318],[125.28158,24.75043],[125.27199,24.75418],[125.26805,24.75118],[125.26036,24.75958],[125.25248,24.75647],[125.25921,24.74495],[125.26144,24.73519],[125.26904,24.73256],[125.27108,24.72947],[125.29008,24.72297],[125.30868,24.71164],[125.3178,24.71324],[125.3212,24.71761],[125.32829,24.71969],[125.33486,24.71893],[125.34159,24.71714],[125.34295,24.71966],[125.35643,24.7244],[125.36311,24.7249],[125.36966,24.72912],[125.37371,24.72781],[125.37421,24.72726],[125.37842,24.72552],[125.37843,24.72551],[125.39262,24.7292],[125.40633,24.7301],[125.4176,24.72863],[125.42478,24.72635],[125.43343,24.72949],[125.44227,24.72849],[125.44479,24.72554],[125.44964,24.72561],[125.44996,24.72939],[125.45467,24.73061],[125.45433,24.73463],[125.44291,24.74675],[125.43956,24.75587],[125.43335,24.761],[125.42606,24.7602],[125.41244,24.76366],[125.40784,24.76677],[125.40314,24.76613],[125.39076,24.77555],[125.3889,24.78336],[125.3847,24.7868],[125.36933,24.7925],[125.36513,24.78929],[125.35715,24.78853],[125.35206,24.79019],[125.34907,24.79443],[125.33616,24.79802],[125.33532,24.80247],[125.3314,24.80513],[125.33077,24.81074],[125.33217,24.81815],[125.33542,24.82223],[125.31773,24.83306],[125.30994,24.842],[125.30625,24.84891],[125.3051,24.85547],[125.30588,24.862],[125.30589,24.86202],[125.30494,24.86493],[125.30485,24.8651]]],[[[125.20609,24.8472],[125.1996,24.85073],[125.18898,24.8546],[125.17889,24.86157],[125.17473,24.8617],[125.16482,24.86528],[125.15893,24.8617],[125.15723,24.85618],[125.15985,24.83994],[125.15534,24.83719],[125.16182,24.82947],[125.16311,24.82635],[125.16462,24.8261],[125.16455,24.8248],[125.16573,24.82391],[125.16623,24.82248],[125.1695,24.82103],[125.17198,24.81696],[125.17612,24.81464],[125.1775,24.81182],[125.18415,24.81143],[125.19519,24.80546],[125.2054,24.80397],[125.2162,24.80673],[125.22133,24.81381],[125.22118,24.82268],[125.21848,24.82906],[125.2146,24.83555],[125.21531,24.8346],[125.21218,24.84378],[125.20721,24.847],[125.2072,24.84701],[125.20609,24.8472]]],[[[125.13601,24.82608],[125.13903,24.82387],[125.14008,24.81865],[125.14555,24.80772],[125.16182,24.8025],[125.17045,24.80356],[125.17472,24.8078],[125.17548,24.81396],[125.16878,24.81847],[125.16824,24.82099],[125.16589,24.82201],[125.16497,24.82425],[125.16231,24.82665],[125.16063,24.82939],[125.1587,24.82982],[125.15794,24.83232],[125.15432,24.83148],[125.14573,24.83399],[125.14373,24.84128],[125.13535,24.83494],[125.13601,24.82608]]],[[[125.25247,24.72711],[125.2446,24.73138],[125.24048,24.73071],[125.23898,24.72211],[125.24174,24.71566],[125.2495,24.71309],[125.25663,24.71544],[125.25794,24.72074],[125.25248,24.7271],[125.25247,24.72711]]],[[[125.2392,24.93879],[125.23206,24.93587],[125.23304,24.92977],[125.24126,24.9247],[125.24345,24.92177],[125.25099,24.92447],[125.25552,24.92424],[125.25194,24.93245],[125.24509,24.93802],[125.2392,24.93879]]],[[[125.26596,24.80409],[125.25751,24.80111],[125.25901,24.79578],[125.26596,24.80409]]]]},"properties":{"pref":"沖縄県","city":"宮古島市","code5":"47214","code6":"472140"}},
{"type":"Feature","geometry":{"type":"MultiPolygon","coordinates":[[[[127.77607,26.18862],[127.76549,26.18626],[127.76244,26.19473],[127.74987,26.1968],[127.74628,26.19858],[127.74078,26.19739],[127.73971,26.18932],[127.73427,26.1827],[127.73302,26.1776],[127.7344,26.1728],[127.72954,26.16858],[127.73093,26.15222],[127.73938,26.15179],[127.74201,26.14459],[127.74908,26.13886],[127.75305,26.1334],[127.75928,26.13285],[127.76223,26.12595],[127.76732,26.12614],[127.77024,26.13239],[127.77025,26.13239],[127.77535,26.135],[127.78365,26.13412],[127.78728,26.13283],[127.7929,26.13495],[127.8028,26.14682],[127.81033,26.14875],[127.80908,26.15289],[127.81824,26.15739],[127.82463,26.16504],[127.8297,26.1654],[127.83114,26.17629],[127.82802,26.1794],[127.8213,26.1822],[127.82247,26.18863],[127.8211,26.19165],[127.8139,26.19119],[127.79502,26.18559],[127.79115,26.18099],[127.79051,26.17123],[127.77781,26.1725],[127.7795,26.1758],[127.77605,26.18002],[127.77876,26.18308],[127.77607,26.18862]]],[[[127.88939,26.16251],[127.88498,26.15873],[127.88819,26.15411],[127.89533,26.15994],[127.9092,26.16933],[127.90094,26.16813],[127.89778,26.16606],[127.8894,26.1625],[127.88939,26.16251]]]]},"properties":{"pref":"沖縄県","city":"南城市","code5":"47215","code6":"472158"}},
{"type":"Feature","geometry":{"type":"MultiPolygon","coordinates":[[[[128.26471,26.66776],[128.27398,26.67084],[128.27932,26.67895],[128.2798,26.69165],[128.29111,26.6996],[128.29355,26.70278],[128.29093,26.70808],[128.29927,26.71176],[128.29836,26.72057],[128.29839,26.72058],[128.30348,26.72172],[128.30642,26.72996],[128.3189,26.73482],[128.31786,26.74326],[128.32663,26.75244],[128.32118,26.75661],[128.32373,26.76318],[128.3245,26.76843],[128.32449,26.76845],[128.32447,26.76847],[128.32446,26.76848],[128.32445,26.76849],[128.32442,26.76852],[128.32441,26.76853],[128.32439,26.76854],[128.32352,26.77318],[128.32589,26.77755],[128.32596,26.77763],[128.3264,26.78099],[128.32641,26.78102],[128.31735,26.79424],[128.32103,26.79519],[128.31784,26.80603],[128.31869,26.81036],[128.31929,26.81128],[128.31992,26.8117],[128.31994,26.81174],[128.32021,26.81235],[128.32042,26.81241],[128.32023,26.8124],[128.3137,26.82142],[128.3092,26.82421],[128.30462,26.83062],[128.30628,26.83428],[128.30655,26.84348],[128.3037,26.84593],[128.29796,26.84633],[128.29267,26.8415],[128.28978,26.84639],[128.28414,26.84808],[128.27841,26.85576],[128.26847,26.86036],[128.26195,26.86644],[128.26348,26.87421],[128.25665,26.875],[128.24661,26.86787],[128.2441,26.85867],[128.24637,26.85463],[128.2533,26.85076],[128.25334,26.84276],[128.24915,26.8374],[128.24406,26.82532],[128.23956,26.82058],[128.23087,26.80492],[128.23125,26.79739],[128.22624,26.79723],[128.22354,26.78904],[128.20435,26.77358],[128.20512,26.7694],[128.18952,26.76069],[128.18762,26.75385],[128.18366,26.74957],[128.17191,26.74702],[128.16514,26.74338],[128.15846,26.74282],[128.15242,26.74483],[128.15169,26.74059],[128.15561,26.74015],[128.1605,26.72982],[128.15991,26.72341],[128.15466,26.71782],[128.16161,26.71328],[128.16843,26.71177],[128.17287,26.70615],[128.18366,26.70311],[128.18856,26.70021],[128.2001,26.68963],[128.20611,26.68968],[128.20842,26.69866],[128.21878,26.70423],[128.22197,26.7083],[128.23381,26.70357],[128.24252,26.70306],[128.24394,26.68978],[128.25008,26.6863],[128.25103,26.67969],[128.25578,26.67571],[128.26058,26.6685],[128.26471,26.66776]]],[[[128.31855,26.80841],[128.31864,26.80844],[128.31856,26.80844],[128.31855,26.80841]]]]},"properties":{"pref":"沖縄県","county":"国頭郡","city":"国頭村","code5":"47301","code6":"473014"}},
{"type":"Feature","geometry":{"type":"Polygon","coordinates":[[[128.09834,26.61519],[128.10791,26.62346],[128.10739,26.62729],[128.11324,26.63206],[128.117,26.62963],[128.11932,26.63626],[128.12512,26.6411],[128.13009,26.6414],[128.13335,26.64773],[128.13616,26.64868],[128.14475,26.64627],[128.14741,26.64401],[128.15414,26.64431],[128.16282,26.64806],[128.16914,26.65248],[128.17606,26.66535],[128.18052,26.66894],[128.18788,26.6719],[128.19228,26.67768],[128.19296,26.68351],[128.2001,26.68963],[128.18856,26.70021],[128.18366,26.70311],[128.17287,26.70615],[128.16843,26.71177],[128.16161,26.71328],[128.15466,26.71782],[128.14668,26.71335],[128.14488,26.70978],[128.13319,26.70467],[128.1161,26.70181],[128.11294,26.69584],[128.09887,26.68099],[128.09971,26.67659],[128.10475,26.67308],[128.11429,26.67134],[128.12136,26.66785],[128.12317,26.66011],[128.11738,26.65901],[128.11309,26.66201],[128.10304,26.66419],[128.09705,26.66205],[128.08802,26.65055],[128.08039,26.64587],[128.08323,26.64198],[128.0867,26.62735],[128.09626,26.62017],[128.09834,26.61519]]]},"properties":{"pref":"沖縄県","county":"国頭郡","city":"大宜味村","code5":"47302","code6":"473022"}},
{"type":"Feature","geometry":{"type":"Polygon","coordinates":[[[128.12859,26.59264],[128.12413,26.60214],[128.14154,26.59958],[128.15097,26.60011],[128.15521,26.60819],[128.15323,26.61333],[128.14539,26.62233],[128.14804,26.62936],[128.15939,26.63088],[128.16235,26.62871],[128.1731,26.62774],[128.17972,26.62462],[128.18388,26.62405],[128.2002,26.62603],[128.21275,26.62622],[128.21685,26.62913],[128.22314,26.62873],[128.22842,26.63129],[128.23626,26.63106],[128.23627,26.63107],[128.24573,26.64081],[128.24574,26.64082],[128.24574,26.64085],[128.25203,26.64593],[128.25088,26.65075],[128.25526,26.65445],[128.25628,26.65912],[128.26383,26.65929],[128.26471,26.66776],[128.26058,26.6685],[128.25578,26.67571],[128.25103,26.67969],[128.25008,26.6863],[128.24394,26.68978],[128.24252,26.70306],[128.23381,26.70357],[128.22197,26.7083],[128.21878,26.70423],[128.20842,26.69866],[128.20611,26.68968],[128.2001,26.68963],[128.19296,26.68351],[128.19228,26.67768],[128.18788,26.6719],[128.18052,26.66894],[128.17606,26.66535],[128.16914,26.65248],[128.16282,26.64806],[128.15414,26.64431],[128.14741,26.64401],[128.14475,26.64627],[128.13616,26.64868],[128.13335,26.64773],[128.13009,26.6414],[128.12512,26.6411],[128.11932,26.63626],[128.117,26.62963],[128.11324,26.63206],[128.10739,26.62729],[128.10791,26.62346],[128.09834,26.61519],[128.09567,26.60925],[128.10891,26.59974],[128.11293,26.59508],[128.12027,26.58949],[128.12859,26.59264]]]},"properties":{"pref":"沖縄県","county":"国頭郡","city":"東村","code5":"47303","code6":"473031"}},
{"type":"Feature","geometry":{"type":"MultiPolygon","coordinates":[[[[127.98865,26.64667],[127.99084,26.65171],[127.9888,26.65536],[127.99331,26.66368],[127.9928,26.6703],[127.99639,26.67686],[128.00821,26.68314],[128.00575,26.68776],[127.99698,26.69154],[127.98364,26.6936],[127.97926,26.69694],[127.9743,26.69716],[127.97136,26.69397],[127.9662,26.69801],[127.96952,26.70051],[127.96028,26.70669],[127.95251,26.70821],[127.93364,26.70294],[127.91825,26.70207],[127.91895,26.69038],[127.91736,26.68304],[127.923,26.68228],[127.92514,26.67701],[127.92965,26.67228],[127.94508,26.67137],[127.95203,26.66705],[127.95868,26.66804],[127.95852,26.65997],[127.96285,26.6468],[127.95902,26.63925],[127.96457,26.64046],[127.96968,26.6358],[127.97512,26.64141],[127.97751,26.63707],[127.98558,26.63958],[127.98865,26.64667]]],[[[128.00982,26.70296],[128.01423,26.6967],[128.02179,26.69437],[128.02737,26.70296],[128.02709,26.71106],[128.01841,26.71435],[128.01259,26.71404],[128.00827,26.7078],[128.00982,26.70296]]]]},"properties":{"pref":"沖縄県","county":"国頭郡","city":"今帰仁村","code5":"47306","code6":"473065"}},
{"type":"Feature","geometry":{"type":"MultiPolygon","coordinates":[[[[127.95902,26.63925],[127.96285,26.6468],[127.95852,26.65997],[127.95868,26.66804],[127.95203,26.66705],[127.94508,26.67137],[127.92965,26.67228],[127.92514,26.67701],[127.923,26.68228],[127.91736,26.68304],[127.91895,26.69038],[127.91825,26.70207],[127.91373,26.70305],[127.90878,26.69943],[127.9038,26.699],[127.88961,26.70407],[127.88511,26.7081],[127.88065,26.7097],[127.88019,26.70357],[127.87575,26.69431],[127.87428,26.69184],[127.87503,26.68428],[127.8768,26.68346],[127.87758,26.68287],[127.87763,26.68285],[127.87967,26.68159],[127.88391,26.67885],[127.88904,26.67245],[127.89055,26.66388],[127.88968,26.65892],[127.88573,26.65953],[127.87897,26.65409],[127.8788,26.64666],[127.88028,26.63627],[127.88269,26.63679],[127.88682,26.62974],[127.88698,26.62536],[127.89449,26.61468],[127.89492,26.60655],[127.90017,26.60562],[127.8985,26.61027],[127.90027,26.61459],[127.90592,26.61881],[127.91234,26.62813],[127.92048,26.63397],[127.93395,26.63453],[127.93788,26.63098],[127.94534,26.63063],[127.95121,26.6372],[127.95902,26.63925]]],[[[127.87146,26.65207],[127.86809,26.65374],[127.86155,26.65299],[127.85481,26.64831],[127.85582,26.64479],[127.85573,26.64433],[127.8594,26.63681],[127.85916,26.63515],[127.85831,26.63237],[127.85843,26.63221],[127.85858,26.63156],[127.86216,26.62946],[127.86439,26.63538],[127.87077,26.64072],[127.87442,26.64896],[127.87147,26.65207],[127.87146,26.65207]]],[[[127.81523,26.6512],[127.81293,26.6484],[127.81745,26.64397],[127.82058,26.6473],[127.81523,26.6512]]],[[[127.87788,26.71156],[127.87841,26.7112],[127.87792,26.71156],[127.87788,26.71156]]]]},"properties":{"pref":"沖縄県","county":"国頭郡","city":"本部町","code5":"47308","code6":"473081"}},
{"type":"Feature","geometry":{"type":"Polygon","coordinates":[[[127.92926,26.53145],[127.92722,26.52815],[127.92116,26.52831],[127.92147,26.52331],[127.91664,26.51589],[127.90582,26.51798],[127.89861,26.51294],[127.89132,26.51147],[127.88979,26.50477],[127.88359,26.50259],[127.87448,26.50831],[127.87326,26.51116],[127.86646,26.50925],[127.85565,26.50011],[127.85053,26.50541],[127.84387,26.50386],[127.84133,26.49696],[127.84535,26.48674],[127.84474,26.4805],[127.8405,26.47823],[127.83536,26.47904],[127.83109,26.47144],[127.82486,26.4673],[127.81264,26.46329],[127.80954,26.45671],[127.80371,26.45481],[127.80089,26.45013],[127.80256,26.44548],[127.8002,26.44516],[127.80342,26.44307],[127.79911,26.43753],[127.79299,26.43744],[127.78607,26.43492],[127.77661,26.44019],[127.77193,26.44456],[127.76891,26.44339],[127.76249,26.43658],[127.76247,26.43657],[127.75651,26.43143],[127.75181,26.43017],[127.74189,26.4223],[127.74446,26.4179],[127.75212,26.41521],[127.75273,26.41813],[127.76448,26.42251],[127.77205,26.42078],[127.77595,26.4171],[127.78603,26.41587],[127.78834,26.42175],[127.79366,26.42429],[127.80144,26.43085],[127.80777,26.43373],[127.81105,26.44056],[127.8238,26.44851],[127.83538,26.44964],[127.8355,26.45721],[127.84006,26.46093],[127.86084,26.47336],[127.866,26.4734],[127.86809,26.47661],[127.87508,26.47706],[127.88485,26.47529],[127.89335,26.47804],[127.89151,26.48281],[127.89786,26.48972],[127.90489,26.49146],[127.90769,26.48521],[127.91267,26.48309],[127.91934,26.49036],[127.919,26.4944],[127.92288,26.50205],[127.92806,26.50011],[127.93508,26.50483],[127.93573,26.50793],[127.94097,26.51019],[127.93629,26.5193],[127.93767,26.5226],[127.93378,26.52891],[127.92926,26.53145]]]},"properties":{"pref":"沖縄県","county":"国頭郡","city":"恩納村","code5":"47311","code6":"473111"}},
{"type":"Feature","geometry":{"type":"Polygon","coordinates":[[[127.94097,26.51019],[127.93573,26.50793],[127.93508,26.50483],[127.92806,26.50011],[127.92789,26.49431],[127.93316,26.4906],[127.93732,26.48538],[127.94135,26.47393],[127.94128,26.4709],[127.94663,26.46484],[127.95088,26.46647],[127.95123,26.47252],[127.96192,26.47325],[127.96538,26.46821],[127.98031,26.47135],[127.9911,26.47506],[127.99439,26.4802],[128.00064,26.48276],[128.0024,26.48939],[127.99993,26.49432],[127.99428,26.49888],[127.99157,26.50426],[127.99765,26.50969],[127.99538,26.51578],[127.97354,26.52289],[127.96656,26.52316],[127.95925,26.51411],[127.95374,26.5109],[127.94988,26.51229],[127.94097,26.51019]]]},"properties":{"pref":"沖縄県","county":"国頭郡","city":"宜野座村","code5":"47313","code6":"473138"}},
{"type":"Feature","geometry":{"type":"Polygon","coordinates":[[[127.84164,26.43531],[127.84294,26.43724],[127.84842,26.44266],[127.84878,26.44581],[127.85389,26.45137],[127.86391,26.45601],[127.87134,26.4576],[127.87676,26.45436],[127.88307,26.45637],[127.89087,26.4555],[127.8967,26.45042],[127.90662,26.44934],[127.9164,26.44695],[127.91707,26.44265],[127.92407,26.43913],[127.94264,26.44157],[127.94317,26.45039],[127.94754,26.45897],[127.94663,26.46484],[127.94128,26.4709],[127.94135,26.47393],[127.93732,26.48538],[127.93316,26.4906],[127.92789,26.49431],[127.92806,26.50011],[127.92288,26.50205],[127.919,26.4944],[127.91934,26.49036],[127.91267,26.48309],[127.90769,26.48521],[127.90489,26.49146],[127.89786,26.48972],[127.89151,26.48281],[127.89335,26.47804],[127.88485,26.47529],[127.87508,26.47706],[127.86809,26.47661],[127.866,26.4734],[127.86084,26.47336],[127.84006,26.46093],[127.8355,26.45721],[127.83538,26.44964],[127.83813,26.44871],[127.84093,26.44181],[127.84164,26.43531]]]},"properties":{"pref":"沖縄県","county":"国頭郡","city":"金武町","code5":"47314","code6":"473146"}},
{"type":"Feature","geometry":{"type":"Polygon","coordinates":[[[127.83087,26.72034],[127.82848,26.7244],[127.82084,26.72893],[127.8187,26.73285],[127.80852,26.73919],[127.78803,26.73345],[127.77657,26.73387],[127.7691,26.737],[127.76032,26.73773],[127.75441,26.73517],[127.74904,26.72292],[127.74953,26.71798],[127.75387,26.71146],[127.76161,26.7084],[127.77616,26.70838],[127.78557,26.70992],[127.79202,26.70956],[127.80993,26.70593],[127.82783,26.70995],[127.83128,26.71714],[127.83087,26.72034]]]},"properties":{"pref":"沖縄県","county":"国頭郡","city":"伊江村","code5":"47315","code6":"473154"}},
{"type":"Feature","geometry":{"type":"Polygon","coordinates":[[[127.78603,26.41587],[127.77595,26.4171],[127.77205,26.42078],[127.76448,26.42251],[127.75273,26.41813],[127.75212,26.41521],[127.74446,26.4179],[127.74189,26.4223],[127.73627,26.42238],[127.73083,26.43074],[127.73075,26.43084],[127.7307,26.43119],[127.73069,26.4312],[127.72386,26.44024],[127.71427,26.44095],[127.71681,26.43362],[127.71528,26.43041],[127.71353,26.41711],[127.71496,26.4092],[127.716,26.40322],[127.73013,26.38026],[127.73135,26.37474],[127.73835,26.36187],[127.74926,26.36416],[127.75504,26.36806],[127.76118,26.3687],[127.76909,26.37153],[127.76888,26.37947],[127.77185,26.38309],[127.77306,26.39106],[127.78511,26.40796],[127.78603,26.41587]]]},"properties":{"pref":"沖縄県","county":"中頭郡","city":"読谷村","code5":"47324","code6":"473243"}},
{"type":"Feature","geometry":{"type":"Polygon","coordinates":[[[127.78511,26.40796],[127.77306,26.39106],[127.77185,26.38309],[127.76888,26.37947],[127.76909,26.37153],[127.76118,26.3687],[127.75504,26.36806],[127.74926,26.36416],[127.73835,26.36187],[127.74137,26.3503],[127.74516,26.35146],[127.74586,26.34264],[127.75031,26.34362],[127.75744,26.34017],[127.76438,26.34226],[127.76948,26.34118],[127.77338,26.34593],[127.77785,26.34297],[127.78452,26.34874],[127.7793,26.3509],[127.77808,26.36622],[127.78279,26.37294],[127.78132,26.38203],[127.78553,26.38579],[127.78835,26.40154],[127.78821,26.4074],[127.78511,26.40796]]]},"properties":{"pref":"沖縄県","county":"中頭郡","city":"嘉手納町","code5":"47325","code6":"473251"}},
{"type":"Feature","geometry":{"type":"Polygon","coordinates":[[[127.77935,26.29619],[127.77582,26.30391],[127.7792,26.3092],[127.78589,26.31494],[127.78479,26.31777],[127.7775,26.3258],[127.77861,26.32947],[127.77216,26.33928],[127.77785,26.34297],[127.77338,26.34593],[127.76948,26.34118],[127.76438,26.34226],[127.75744,26.34017],[127.75031,26.34362],[127.74586,26.34264],[127.74723,26.33972],[127.74275,26.33098],[127.74613,26.32276],[127.75251,26.32192],[127.75551,26.31084],[127.76008,26.30987],[127.75724,26.30171],[127.757,26.29503],[127.76192,26.29319],[127.76717,26.29787],[127.77935,26.29619]]]},"properties":{"pref":"沖縄県","county":"中頭郡","city":"北谷町","code5":"47326","code6":"473260"}},
{"type":"Feature","geometry":{"type":"Polygon","coordinates":[[[127.78708,26.28751],[127.78949,26.28867],[127.79889,26.28489],[127.80417,26.28502],[127.81442,26.29008],[127.81125,26.29851],[127.81623,26.30515],[127.82269,26.30305],[127.82873,26.30414],[127.82539,26.30661],[127.81088,26.30504],[127.80695,26.3139],[127.80852,26.32295],[127.80575,26.32607],[127.79923,26.32441],[127.79567,26.31851],[127.79218,26.31633],[127.78479,26.31777],[127.78589,26.31494],[127.7792,26.3092],[127.77582,26.30391],[127.77935,26.29619],[127.78367,26.29337],[127.78708,26.28751]]]},"properties":{"pref":"沖縄県","county":"中頭郡","city":"北中城村","code5":"47327","code6":"473278"}},
{"type":"Feature","geometry":{"type":"Polygon","coordinates":[[[127.76926,26.25409],[127.76597,26.25051],[127.76488,26.24361],[127.76712,26.23858],[127.77511,26.23783],[127.78751,26.23192],[127.78929,26.23597],[127.78952,26.24854],[127.79609,26.25885],[127.79799,26.26546],[127.80944,26.2752],[127.8162,26.27737],[127.81692,26.28343],[127.81442,26.29008],[127.80417,26.28502],[127.79889,26.28489],[127.78949,26.28867],[127.78708,26.28751],[127.78282,26.2805],[127.77393,26.26939],[127.77093,26.26185],[127.7673,26.25866],[127.76926,26.25409]]]},"properties":{"pref":"沖縄県","county":"中頭郡","city":"中城村","code5":"47328","code6":"473286"}},
{"type":"Feature","geometry":{"type":"Polygon","coordinates":[[[127.73593,26.21781],[127.74161,26.21488],[127.7446,26.21289],[127.75772,26.21285],[127.77003,26.20749],[127.76873,26.21006],[127.77763,26.21673],[127.78279,26.2249],[127.78735,26.22607],[127.78751,26.23192],[127.77511,26.23783],[127.76712,26.23858],[127.76488,26.24361],[127.76597,26.25051],[127.76926,26.25409],[127.76457,26.25567],[127.75972,26.25162],[127.75296,26.25133],[127.74733,26.24472],[127.74357,26.24341],[127.73836,26.23634],[127.73812,26.2316],[127.73319,26.2265],[127.73621,26.22467],[127.73593,26.21781]]]},"properties":{"pref":"沖縄県","county":"中頭郡","city":"西原町","code5":"47329","code6":"473294"}},
{"type":"Feature","geometry":{"type":"Polygon","coordinates":[[[127.77607,26.18862],[127.77055,26.1928],[127.7691,26.20032],[127.76568,26.20475],[127.77003,26.20749],[127.75772,26.21285],[127.7446,26.21289],[127.74161,26.21488],[127.73925,26.21044],[127.74468,26.20727],[127.7486,26.2014],[127.74628,26.19858],[127.74987,26.1968],[127.76244,26.19473],[127.76549,26.18626],[127.77607,26.18862]]]},"properties":{"pref":"沖縄県","county":"島尻郡","city":"与那原町","code5":"47348","code6":"473481"}},
{"type":"Feature","geometry":{"type":"Polygon","coordinates":[[[127.70774,26.19032],[127.70947,26.18492],[127.71388,26.18017],[127.71645,26.1801],[127.7239,26.17128],[127.72954,26.16858],[127.7344,26.1728],[127.73302,26.1776],[127.73427,26.1827],[127.73971,26.18932],[127.74078,26.19739],[127.74628,26.19858],[127.7486,26.2014],[127.74468,26.20727],[127.73925,26.21044],[127.74161,26.21488],[127.73593,26.21781],[127.72748,26.21509],[127.72252,26.2097],[127.72161,26.19843],[127.71823,26.19582],[127.71318,26.1959],[127.70774,26.19032]]]},"properties":{"pref":"沖縄県","county":"島尻郡","city":"南風原町","code5":"47350","code6":"473502"}},
{"type":"Feature","geometry":{"type":"MultiPolygon","coordinates":[[[[127.34766,26.16712],[127.34495,26.15978],[127.34477,26.15418],[127.34928,26.1504],[127.35183,26.15562],[127.36328,26.1567],[127.3597,26.17512],[127.36045,26.18317],[127.36432,26.18452],[127.36926,26.18968],[127.37123,26.19475],[127.36969,26.20129],[127.37388,26.20214],[127.37211,26.21533],[127.3666,26.22226],[127.35951,26.22522],[127.35282,26.22546],[127.35464,26.21647],[127.34825,26.21063],[127.35007,26.20758],[127.34544,26.20178],[127.34482,26.19031],[127.3478,26.18589],[127.33928,26.18233],[127.34124,26.17855],[127.34227,26.17033],[127.34766,26.16712]]],[[[127.45275,26.22458],[127.44721,26.21856],[127.44037,26.20391],[127.44689,26.20303],[127.44961,26.2122],[127.45516,26.21807],[127.45275,26.22458]]],[[[127.36889,26.23685],[127.36614,26.23184],[127.36825,26.22823],[127.37303,26.23022],[127.36889,26.23685]]]]},"properties":{"pref":"沖縄県","county":"島尻郡","city":"渡嘉敷村","code5":"47353","code6":"473537"}},
{"type":"Feature","geometry":{"type":"MultiPolygon","coordinates":[[[[127.31006,26.25196],[127.30626,26.24672],[127.30709,26.24042],[127.30222,26.23781],[127.29619,26.24208],[127.29349,26.23561],[127.2906,26.23357],[127.28233,26.2337],[127.28284,26.22754],[127.29146,26.22712],[127.29596,26.22357],[127.30037,26.2271],[127.30336,26.21976],[127.31423,26.2274],[127.31095,26.23736],[127.32009,26.23994],[127.3217,26.2317],[127.33252,26.24013],[127.32634,26.24451],[127.31106,26.2476],[127.31006,26.25196]]],[[[127.28092,26.21151],[127.27051,26.20645],[127.26772,26.1967],[127.27623,26.19505],[127.2744,26.19179],[127.27906,26.18914],[127.28714,26.19328],[127.29338,26.19437],[127.28092,26.21151]]],[[[127.23677,26.18281],[127.23745,26.18022],[127.23302,26.17599],[127.23602,26.1645],[127.24092,26.1626],[127.24199,26.17345],[127.24424,26.17541],[127.23677,26.18281]]],[[[127.24943,26.22305],[127.24096,26.22128],[127.23921,26.21127],[127.24312,26.20829],[127.24975,26.21583],[127.24943,26.22305]]],[[[127.28904,26.18762],[127.28229,26.18272],[127.28632,26.17605],[127.29455,26.179],[127.29293,26.18599],[127.28904,26.18762]]],[[[127.2931,26.17506],[127.28761,26.16659],[127.29274,26.16216],[127.29669,26.16711],[127.29622,26.17251],[127.2931,26.17506]]],[[[127.30936,26.21576],[127.30858,26.21074],[127.3104,26.20467],[127.30954,26.20046],[127.31343,26.19783],[127.31711,26.20464],[127.31109,26.20878],[127.30936,26.21576]]]]},"properties":{"pref":"沖縄県","county":"島尻郡","city":"座間味村","code5":"47354","code6":"473545"}},
{"type":"Feature","geometry":{"type":"Polygon","coordinates":[[[127.23129,26.60207],[127.22728,26.60105],[127.22331,26.59673],[127.21657,26.59266],[127.21139,26.58581],[127.20813,26.57598],[127.2121,26.57496],[127.21748,26.57741],[127.23467,26.57995],[127.23725,26.57662],[127.24152,26.57743],[127.24821,26.58632],[127.2459,26.59251],[127.24008,26.60002],[127.23129,26.60207]]]},"properties":{"pref":"沖縄県","county":"島尻郡","city":"粟国村","code5":"47355","code6":"473553"}},
{"type":"Feature","geometry":{"type":"Polygon","coordinates":[[[127.14685,26.38199],[127.14197,26.37626],[127.13707,26.36582],[127.14185,26.35963],[127.14096,26.35588],[127.14654,26.35187],[127.16005,26.35869],[127.16154,26.36388],[127.15351,26.36113],[127.14967,26.36311],[127.14634,26.3717],[127.15117,26.3799],[127.14685,26.38199]]]},"properties":{"pref":"沖縄県","county":"島尻郡","city":"渡名喜村","code5":"47356","code6":"473561"}},
{"type":"Feature","geometry":{"type":"Polygon","coordinates":[[[131.24073,25.87242],[131.22628,25.87033],[131.2206,25.86656],[131.22103,25.8587],[131.21727,25.84796],[131.21729,25.83111],[131.21347,25.82289],[131.22466,25.81528],[131.23353,25.81261],[131.24388,25.81378],[131.25711,25.8175],[131.2636,25.82348],[131.26744,25.83007],[131.26741,25.83866],[131.2733,25.85256],[131.27145,25.85848],[131.26521,25.86691],[131.25816,25.87048],[131.25173,25.87204],[131.24073,25.87242]]]},"properties":{"pref":"沖縄県","county":"島尻郡","city":"南大東村","code5":"47357","code6":"473570"}},
{"type":"Feature","geometry":{"type":"MultiPolygon","coordinates":[[[[131.2859,25.961],[131.28399,25.95781],[131.28507,25.94838],[131.28827,25.94104],[131.29424,25.93369],[131.30535,25.92841],[131.31891,25.92903],[131.32315,25.9319],[131.32545,25.93917],[131.33211,25.95109],[131.33087,25.95319],[131.31932,25.95638],[131.30629,25.95563],[131.2859,25.961]]],[[[131.18187,24.47232],[131.18084,24.47095],[131.18505,24.46278],[131.19215,24.46319],[131.19511,24.46831],[131.19139,24.47129],[131.18187,24.47232]]]]},"properties":{"pref":"沖縄県","county":"島尻郡","city":"北大東村","code5":"47358","code6":"473588"}},
{"type":"Feature","geometry":{"type":"MultiPolygon","coordinates":[[[[128.02075,27.0945],[128.00851,27.09016],[127.99568,27.08887],[127.99384,27.08379],[127.98732,27.07476],[127.98226,27.0705],[127.9699,27.06296],[127.96703,27.05717],[127.95997,27.05022],[127.95128,27.04501],[127.94572,27.03341],[127.93308,27.02194],[127.93243,27.01414],[127.93411,27.01077],[127.94044,27.00517],[127.94177,27.0154],[127.94515,27.01914],[127.95604,27.02238],[127.96329,27.02187],[127.96672,27.02532],[127.96351,27.02999],[127.96472,27.03486],[127.97263,27.04021],[127.97824,27.04145],[127.98348,27.04023],[127.99136,27.04423],[127.99575,27.05207],[127.9988,27.06145],[127.9967,27.06381],[128.00118,27.07475],[128.0056,27.07991],[128.01585,27.08902],[128.0219,27.0902],[128.02075,27.0945]]],[[[127.9242,27.00082],[127.91274,26.99524],[127.91587,26.99131],[127.9207,26.98925],[127.92476,26.99302],[127.9272,26.99889],[127.9242,27.00082]]]]},"properties":{"pref":"沖縄県","county":"島尻郡","city":"伊平屋村","code5":"47359","code6":"473596"}},
{"type":"Feature","geometry":{"type":"MultiPolygon","coordinates":[[[[127.93761,26.9557],[127.93518,26.95279],[127.91969,26.9479],[127.91195,26.93676],[127.9179,26.9351],[127.92212,26.93121],[127.91995,26.92644],[127.92146,26.91907],[127.92748,26.917],[127.93014,26.9138],[127.93466,26.91443],[127.93892,26.91189],[127.95192,26.91352],[127.95021,26.92398],[127.95088,26.92874],[127.95437,26.92988],[127.95716,26.93507],[127.95534,26.94577],[127.94746,26.95106],[127.93761,26.9557]]],[[[127.9222,26.90249],[127.92209,26.89408],[127.9308,26.89176],[127.9222,26.90249]]]]},"properties":{"pref":"沖縄県","county":"島尻郡","city":"伊是名村","code5":"47360","code6":"473600"}},
{"type":"Feature","geometry":{"type":"MultiPolygon","coordinates":[[[[126.77613,26.39134],[126.7589,26.38921],[126.74021,26.37833],[126.72734,26.37453],[126.71721,26.3746],[126.7128,26.37222],[126.70941,26.36742],[126.71732,26.35327],[126.72258,26.35025],[126.73294,26.34762],[126.74617,26.3458],[126.75521,26.33859],[126.76343,26.33442],[126.76476,26.33075],[126.77003,26.32637],[126.76822,26.32194],[126.77615,26.31437],[126.77683,26.30858],[126.78063,26.30485],[126.79355,26.29978],[126.79986,26.29355],[126.81005,26.29099],[126.81355,26.2936],[126.81035,26.29793],[126.81016,26.3025],[126.80397,26.30726],[126.80704,26.31999],[126.80541,26.32383],[126.80974,26.33146],[126.81554,26.33529],[126.81417,26.33928],[126.82391,26.34638],[126.82148,26.35117],[126.81749,26.3527],[126.81241,26.35849],[126.81063,26.36336],[126.80471,26.3705],[126.79797,26.36856],[126.79125,26.3797],[126.78635,26.38581],[126.77903,26.39106],[126.77613,26.39134]]],[[[128.22271,27.88528],[128.2175,27.87779],[128.2213,27.87344],[128.22289,27.86712],[128.23402,27.86036],[128.23641,27.86641],[128.23236,27.87421],[128.22757,27.87802],[128.22677,27.88338],[128.22271,27.88528]]],[[[126.82845,26.34278],[126.82416,26.34003],[126.82488,26.33572],[126.83485,26.33665],[126.82845,26.34278]]],[[[126.83894,26.34365],[126.83722,26.33645],[126.84237,26.33841],[126.83894,26.34365]]]]},"properties":{"pref":"沖縄県","county":"島尻郡","city":"久米島町","code5":"47361","code6":"473618"}},
{"type":"Feature","geometry":{"type":"MultiPolygon","coordinates":[[[[127.73158,26.09822],[127.73479,26.1018],[127.73481,26.10181],[127.73688,26.10339],[127.7378,26.10576],[127.73802,26.10636],[127.73802,26.10639],[127.73802,26.10643],[127.73802,26.10646],[127.73941,26.10953],[127.74747,26.11833],[127.75584,26.11979],[127.76223,26.12595],[127.75928,26.13285],[127.75305,26.1334],[127.74908,26.13886],[127.74201,26.14459],[127.73938,26.15179],[127.73093,26.15222],[127.72954,26.16858],[127.7239,26.17128],[127.71645,26.1801],[127.71388,26.18017],[127.71056,26.17619],[127.70421,26.17228],[127.70411,26.1696],[127.70646,26.16461],[127.69653,26.15156],[127.70256,26.14572],[127.70682,26.14834],[127.7126,26.14444],[127.70982,26.13466],[127.70579,26.13314],[127.70826,26.12674],[127.7129,26.1213],[127.7118,26.11844],[127.71787,26.11326],[127.72047,26.10773],[127.72429,26.1063],[127.73158,26.09822]]],[[[127.73769,26.10544],[127.73769,26.10538],[127.7377,26.1054],[127.7377,26.10542],[127.73769,26.10544]]]]},"properties":{"pref":"沖縄県","county":"島尻郡","city":"八重瀬町","code5":"47362","code6":"473626"}},
{"type":"Feature","geometry":{"type":"MultiPolygon","coordinates":[[[[124.71079,24.67735],[124.70649,24.67568],[124.6969,24.677],[124.68252,24.67327],[124.6729,24.66521],[124.67081,24.65605],[124.67539,24.6433],[124.68052,24.64054],[124.69291,24.6381],[124.70818,24.63814],[124.71553,24.64179],[124.72602,24.65047],[124.72825,24.66035],[124.72652,24.66678],[124.72003,24.67133],[124.7095,24.67427],[124.71079,24.67735]]],[[[124.695,24.76192],[124.68861,24.76149],[124.68376,24.75704],[124.70347,24.74523],[124.70642,24.74632],[124.70407,24.75433],[124.70108,24.75453],[124.695,24.76192]]]]},"properties":{"pref":"沖縄県","county":"宮古郡","city":"多良間村","code5":"47375","code6":"473758"}},
{"type":"Feature","geometry":{"type":"MultiPolygon","coordinates":[[[[123.78199,24.43732],[123.77026,24.4369],[123.76408,24.43036],[123.77244,24.42663],[123.77427,24.42232],[123.77273,24.41761],[123.76742,24.41716],[123.76115,24.41436],[123.75851,24.40828],[123.75318,24.40507],[123.75121,24.40132],[123.75384,24.3978],[123.75256,24.3914],[123.74602,24.3888],[123.74859,24.38155],[123.75299,24.37698],[123.75019,24.37113],[123.74304,24.36842],[123.74654,24.35931],[123.75203,24.35927],[123.7535,24.35323],[123.74465,24.34268],[123.75015,24.33839],[123.74754,24.33148],[123.74806,24.32228],[123.75158,24.31269],[123.74854,24.31145],[123.74533,24.3185],[123.73953,24.3215],[123.73771,24.32942],[123.72833,24.33388],[123.7294,24.34169],[123.72465,24.34086],[123.71397,24.33259],[123.70602,24.33993],[123.70067,24.34001],[123.7028,24.33347],[123.7086,24.32369],[123.70466,24.31867],[123.70074,24.32581],[123.69211,24.32832],[123.68657,24.33272],[123.68314,24.33085],[123.68,24.32221],[123.68704,24.31052],[123.68186,24.30776],[123.67683,24.31174],[123.67061,24.314],[123.66166,24.3084],[123.66777,24.30144],[123.66971,24.29664],[123.68024,24.28328],[123.69087,24.28182],[123.6964,24.28359],[123.7032,24.27925],[123.71596,24.27762],[123.71903,24.27833],[123.7216,24.28676],[123.72005,24.28966],[123.72305,24.29961],[123.73318,24.29622],[123.74091,24.29046],[123.7406,24.28875],[123.74935,24.28406],[123.75488,24.27968],[123.77349,24.27623],[123.78129,24.27642],[123.78974,24.27515],[123.80568,24.2696],[123.81148,24.2711],[123.81917,24.27042],[123.83328,24.27202],[123.84478,24.26761],[123.85191,24.26198],[123.86255,24.2563],[123.87406,24.25517],[123.88058,24.25624],[123.88255,24.26122],[123.88119,24.26453],[123.88424,24.26982],[123.88101,24.28042],[123.89094,24.28048],[123.90074,24.27382],[123.90307,24.27901],[123.90346,24.28852],[123.89907,24.30101],[123.90214,24.30833],[123.91035,24.31947],[123.91097,24.32401],[123.91859,24.32402],[123.92298,24.31813],[123.9258,24.32154],[123.92511,24.32637],[123.92972,24.32805],[123.92673,24.33387],[123.92841,24.3379],[123.92796,24.34457],[123.93616,24.34958],[123.93814,24.35863],[123.94062,24.36048],[123.93851,24.36562],[123.92256,24.36657],[123.91826,24.37168],[123.91695,24.37843],[123.90284,24.3856],[123.89973,24.38379],[123.8914,24.38752],[123.88687,24.38478],[123.88234,24.38862],[123.88081,24.39264],[123.88111,24.39944],[123.87002,24.40457],[123.86738,24.39808],[123.86167,24.3948],[123.85461,24.39902],[123.85483,24.40258],[123.84848,24.40449],[123.84435,24.40234],[123.83912,24.40359],[123.83249,24.40753],[123.82951,24.39915],[123.82246,24.396],[123.8214,24.39167],[123.81697,24.39106],[123.81063,24.39822],[123.81187,24.41126],[123.80114,24.41562],[123.79976,24.4224],[123.79233,24.42713],[123.78199,24.43732]]],[[[123.78712,24.07175],[123.77668,24.07143],[123.75927,24.06348],[123.75423,24.06286],[123.75308,24.05311],[123.76044,24.04851],[123.77489,24.04683],[123.78196,24.04782],[123.78471,24.04593],[123.79535,24.04587],[123.79893,24.04899],[123.80304,24.04886],[123.80988,24.05861],[123.8102,24.06329],[123.80705,24.06645],[123.79622,24.07023],[123.78712,24.07175]]],[[[124.00424,24.25386],[123.99834,24.25395],[123.99101,24.24726],[123.99117,24.24129],[123.99848,24.23039],[124.00133,24.22415],[124.00773,24.22036],[124.0138,24.22146],[124.02686,24.23027],[124.03025,24.23783],[124.02869,24.24541],[124.02568,24.2494],[124.01624,24.24705],[124.00371,24.25225],[124.00424,24.25386]]],[[[123.97439,24.3548],[123.96474,24.35133],[123.96351,24.3484],[123.96919,24.34316],[123.96869,24.33841],[123.95877,24.33559],[123.963,24.3327],[123.98333,24.33104],[123.98844,24.32892],[123.98893,24.32452],[123.99364,24.32351],[124.00265,24.32684],[124.00243,24.33273],[123.99494,24.33613],[123.98967,24.34092],[123.99231,24.34677],[123.98364,24.35213],[123.97439,24.3548]]],[[[124.08687,24.34049],[124.08059,24.33606],[124.0792,24.32802],[124.076,24.32529],[124.07662,24.32061],[124.08023,24.31344],[124.08472,24.31176],[124.09256,24.31366],[124.10202,24.32088],[124.09901,24.32892],[124.09292,24.33685],[124.08687,24.34049]]],[[[123.73125,24.36301],[123.72421,24.3645],[123.72411,24.35918],[123.7303,24.35279],[123.74194,24.34579],[123.7446,24.34808],[123.74386,24.35404],[123.73944,24.35834],[123.73577,24.35891],[123.73125,24.36301]]],[[[123.95062,24.24282],[123.94847,24.24243],[123.93896,24.23466],[123.93641,24.22835],[123.94169,24.2258],[123.95438,24.23739],[123.95062,24.24282]]],[[[123.93505,24.21908],[123.93437,24.22147],[123.92514,24.2208],[123.92079,24.21745],[123.92564,24.21121],[123.93226,24.20888],[123.93589,24.21191],[123.93505,24.21908]]],[[[123.7251,24.38012],[123.71447,24.37792],[123.71109,24.37397],[123.71151,24.37063],[123.71856,24.36516],[123.72044,24.37271],[123.7251,24.38012]]],[[[123.81736,24.47715],[123.81387,24.47333],[123.8169,24.46922],[123.82445,24.46799],[123.82638,24.47172],[123.82333,24.47591],[123.81736,24.47715]]],[[[123.99947,24.36685],[123.99642,24.36231],[124.00111,24.36023],[124.0044,24.36191],[123.99947,24.36685]]]]},"properties":{"pref":"沖縄県","county":"八重山郡","city":"竹富町","code5":"47381","code6":"473812"}},
{"type":"Feature","geometry":{"type":"Polygon","coordinates":[[[123.01581,24.47158],[123.01266,24.4737],[123.00478,24.47418],[122.99911,24.47],[122.99506,24.47314],[122.97968,24.46851],[122.96769,24.46973],[122.96257,24.47256],[122.95574,24.46729],[122.95546,24.4669],[122.95518,24.46657],[122.95498,24.46201],[122.94174,24.45692],[122.94172,24.45691],[122.94267,24.45185],[122.93935,24.44808],[122.94016,24.44414],[122.94807,24.4443],[122.96332,24.44004],[122.96661,24.43763],[122.97379,24.43709],[122.982,24.43814],[122.98453,24.44297],[122.99824,24.43988],[123.00352,24.44085],[123.00354,24.44084],[123.01197,24.43738],[123.02026,24.44563],[123.03387,24.45311],[123.03502,24.45735],[123.0429,24.46038],[123.01998,24.47113],[123.01579,24.4715],[123.01581,24.47158]]]},"properties":{"pref":"沖縄県","county":"八重山郡","city":"与那国町","code5":"47382","code6":"473821"}}
]}